<?xml version="1.0" encoding="UTF-8"?>
<kml xmlns="http://www.opengis.net/kml/2.2">
  <Document id="root_doc">
    <Document id="_0_03______disv4326">
      <name>10_03鳳徳disv4326</name>
      <Placemark id="_0_03______disv4326.1">
        <visibility>1</visibility>
        <Polygon>
          <extrude>0</extrude>
          <outerBoundaryIs>
            <LinearRing>
              <coordinates>
                135.749852604,35.0406971024,100
                135.7487630948,35.0406803051,100
                135.7475308116,35.0406722908,100
                135.7474653444,35.0410463291,100
                135.7474712668,35.0411621219,100
                135.7474100865,35.0416185665,100
                135.7473838232,35.0417368984,100
                135.7473157971,35.0419381772,100
                135.7472649422,35.0421317438,100
                135.7472574926,35.0423783592,100
                135.7472074639,35.0425533354,100
                135.7472137216,35.0426287041,100
                135.7472015547,35.0428634078,100
                135.7471650229,35.0431479944,100
                135.747147644,35.0431816923,100
                135.7470115094,35.0432522572,100
                135.7468369216,35.0433378839,100
                135.7468248197,35.0433961716,100
                135.7468440431,35.0435581211,100
                135.7468648006,35.0439548025,100
                135.7468507375,35.0441721074,100
                135.7468032313,35.0447140058,100
                135.7467682585,35.0448868279,100
                135.7467640403,35.045069364,100
                135.7467843739,35.0452665997,100
                135.7468237435,35.0453440101,100
                135.7468928848,35.0454801463,100
                135.7476158353,35.0452949379,100
                135.7476778454,35.0454533833,100
                135.7479124618,35.0453995652,100
                135.7479052895,35.0455264592,100
                135.7480847046,35.0455246436,100
                135.7480918172,35.0455791675,100
                135.7483314977,35.0455781798,100
                135.7490756912,35.0455967429,100
                135.7490774464,35.045463078,100
                135.7492628527,35.045483105,100
                135.7493520673,35.045482582,100
                135.7495552658,35.0454812353,100
                135.7495519553,35.0453795335,100
                135.7497128317,35.0453843683,100
                135.7497087693,35.0455523256,100
                135.7498435961,35.0455625311,100
                135.7498461796,35.0454940105,100
                135.7500475446,35.0454901244,100
                135.7500461458,35.0454074416,100
                135.750205003,35.0454072009,100
                135.7502612772,35.0454091831,100
                135.7502577894,35.0454885899,100
                135.7503625697,35.0454872439,100
                135.75035964,35.0454220221,100
                135.7504938171,35.0454272946,100
                135.7505040115,35.0455255605,100
                135.7506984884,35.045527152,100
                135.7507477716,35.0455274637,100
                135.7516207601,35.0455404259,100
                135.752238993,35.0455555474,100
                135.752337777,35.0455549711,100
                135.752443069,35.0455543385,100
                135.7532722416,35.045564314,100
                135.7537741389,35.04557201,100
                135.7539557837,35.0455687118,100
                135.7539932953,35.0455680825,100
                135.7543992635,35.0455803725,100
                135.7544016787,35.0456252395,100
                135.75464411,35.0456202998,100
                135.7546501243,35.0443620072,100
                135.755032183,35.0443639656,100
                135.7550317598,35.0441438124,100
                135.7550316113,35.0441071906,100
                135.7550305002,35.0438516124,100
                135.7546627777,35.0438603874,100
                135.7546767133,35.0433672223,100
                135.7549758815,35.0433732405,100
                135.754996231,35.0433737305,100
                135.7550020571,35.0431945387,100
                135.7550442888,35.0431966783,100
                135.7550542093,35.0429680946,100
                135.7546872957,35.0429582091,100
                135.7546995338,35.0427864638,100
                135.7547063716,35.0425145625,100
                135.7546874936,35.0422297925,100
                135.7544988136,35.042116524,100
                135.7542071275,35.0419414962,100
                135.7534551343,35.0415310287,100
                135.7532756378,35.0414330592,100
                135.752246724,35.0408195547,100
                135.7522104168,35.0407979307,100
                135.7521100398,35.0407240636,100
                135.7517794049,35.0407131852,100
                135.7509891012,35.040707787,100
                135.7500542153,35.0407001881,100
                135.7499703433,35.040698891,100
                135.749852604,35.0406971024,100
              </coordinates>
            </LinearRing>
          </outerBoundaryIs>
        </Polygon>
      </Placemark>
    </Document>
  </Document>
</kml>
