<?xml version="1.0" encoding="UTF-8"?>
<kml xmlns="http://www.opengis.net/kml/2.2">
  <Document id="root_doc">
    <Document id="_0_02______disv4326">
      <name>10_02紫竹disv4326</name>
      <Placemark id="_0_02______disv4326.1">
        <visibility>1</visibility>
        <Polygon>
          <extrude>0</extrude>
          <outerBoundaryIs>
            <LinearRing>
              <coordinates>
                135.7485746604,35.0462563889,100
                135.7487922961,35.0462744397,100
                135.7487940319,35.0464856521,100
                135.7491774691,35.0464949557,100
                135.7492305041,35.0464968387,100
                135.7492362793,35.046679522,100
                135.7493095415,35.0466799537,100
                135.7493005118,35.0468691706,100
                135.7492935647,35.0470562086,100
                135.7493565734,35.0470566181,100
                135.7493581503,35.0472354342,100
                135.7493526712,35.0473267658,100
                135.7493511048,35.0475827615,100
                135.7494415042,35.0475871719,100
                135.7494384374,35.0478294319,100
                135.7494014599,35.0478305538,100
                135.7494011285,35.0480812705,100
                135.749376951,35.0485785004,100
                135.7493216963,35.0485769798,100
                135.7493227402,35.0488332629,100
                135.7491803228,35.0488322677,100
                135.7491878354,35.0490803952,100
                135.749147096,35.0490790444,100
                135.7491453094,35.0492661632,100
                135.7491359146,35.0497878615,100
                135.7484673402,35.049736633,100
                135.747283409,35.0496472989,100
                135.7472849202,35.0499732344,100
                135.7472892908,35.0501755783,100
                135.7473048549,35.0505340796,100
                135.7473338651,35.0507166839,100
                135.7473635504,35.0508892181,100
                135.7474287217,35.0512335949,100
                135.7466825533,35.0512107128,100
                135.7454490794,35.0511634941,100
                135.7441039715,35.0511174363,100
                135.7440825546,35.0520549053,100
                135.7440866146,35.0525499403,100
                135.7440649261,35.053290779,100
                135.7446980317,35.0534953564,100
                135.7448079961,35.0535305891,100
                135.7451077949,35.0536265031,100
                135.7454579038,35.0537385076,100
                135.7454584009,35.0541257848,100
                135.7460722799,35.0541316419,100
                135.7464782424,35.0541355844,100
                135.7466326963,35.0541442864,100
                135.7466549593,35.0541455296,100
                135.7468440123,35.0541476123,100
                135.7478199445,35.0544116808,100
                135.747835455,35.0544158683,100
                135.7483404779,35.0545940961,100
                135.7486048709,35.0545927363,100
                135.7486036874,35.0547349245,100
                135.7487749372,35.0547487965,100
                135.7487983133,35.054799974,100
                135.7492558758,35.0548214729,100
                135.7494997111,35.0548211961,100
                135.7496742659,35.0546797388,100
                135.7498422739,35.0548923201,100
                135.7499035275,35.0549713221,100
                135.7500255038,35.0551286917,100
                135.7503228034,35.0553970575,100
                135.7506009095,35.0556480593,100
                135.7506504148,35.0557681664,100
                135.7506451588,35.0558844997,100
                135.7506341913,35.0561266741,100
                135.7506216391,35.0564044811,100
                135.7506084674,35.0566957382,100
                135.7505939866,35.0570160089,100
                135.750670445,35.0570600397,100
                135.7510073762,35.0572544653,100
                135.7510178281,35.0572606136,100
                135.7516960398,35.0564066562,100
                135.7517118159,35.0563868278,100
                135.751802034,35.0562770044,100
                135.7521661061,35.0558337706,100
                135.7523634172,35.0556620455,100
                135.7526693981,35.0553958162,100
                135.7527164204,35.0553578189,100
                135.753038531,35.0550975276,100
                135.7536505732,35.0546634492,100
                135.754413943,35.0541302289,100
                135.7548450399,35.0538348049,100
                135.7549202717,35.0537802335,100
                135.7546875088,35.0535646868,100
                135.7536674722,35.0535379272,100
                135.7537025211,35.0530581828,100
                135.7536570254,35.053056753,100
                135.7536740372,35.0528013515,100
                135.7536938039,35.0523110132,100
                135.7537768745,35.0523125177,100
                135.7537808569,35.0520749773,100
                135.7537085337,35.0520740585,100
                135.7537267088,35.0514350467,100
                135.7538677972,35.0514377936,100
                135.7538818675,35.0507965198,100
                135.7538904227,35.0505767373,100
                135.7538424896,35.0505745985,100
                135.7538600316,35.0499607986,100
                135.7538698903,35.0492526114,100
                135.7539397247,35.0492470467,100
                135.7539543839,35.0489760756,100
                135.7545542726,35.0489766399,100
                135.7545837965,35.048154401,100
                135.7545840896,35.0480046753,100
                135.7547638736,35.0480103164,100
                135.7547614534,35.0479670698,100
                135.7547676193,35.0479237974,100
                135.7548377669,35.0479266415,100
                135.7549272773,35.0479260369,100
                135.754922543,35.0478582999,100
                135.7549759673,35.0478558011,100
                135.7549793856,35.0475838913,100
                135.7550383292,35.0475758392,100
                135.7550484672,35.0473190855,100
                135.7549306916,35.0473191321,100
                135.7549363609,35.047017367,100
                135.7550643411,35.0470265655,100
                135.7550869028,35.0463917878,100
                135.7550492451,35.046391501,100
                135.7550624563,35.0460871446,100
                135.7546318,35.0460748075,100
                135.75464411,35.0456202998,100
                135.7544016787,35.0456252395,100
                135.7543992635,35.0455803725,100
                135.7539932953,35.0455680825,100
                135.7539557837,35.0455687118,100
                135.7537741389,35.04557201,100
                135.7532722416,35.045564314,100
                135.752443069,35.0455543385,100
                135.752337777,35.0455549711,100
                135.752238993,35.0455555474,100
                135.7516207601,35.0455404259,100
                135.7507477716,35.0455274637,100
                135.7506984884,35.045527152,100
                135.7505040115,35.0455255605,100
                135.7504938171,35.0454272946,100
                135.75035964,35.0454220221,100
                135.7503625697,35.0454872439,100
                135.7502577894,35.0454885899,100
                135.7502612772,35.0454091831,100
                135.750205003,35.0454072009,100
                135.7500461458,35.0454074416,100
                135.7500475446,35.0454901244,100
                135.7498461796,35.0454940105,100
                135.7498435961,35.0455625311,100
                135.7497087693,35.0455523256,100
                135.7497128317,35.0453843683,100
                135.7495519553,35.0453795335,100
                135.7495552658,35.0454812353,100
                135.7493520673,35.045482582,100
                135.7492628527,35.045483105,100
                135.7490774464,35.045463078,100
                135.7490756912,35.0455967429,100
                135.7483314977,35.0455781798,100
                135.7483145332,35.0461583869,100
                135.7485746604,35.0462563889,100
              </coordinates>
            </LinearRing>
          </outerBoundaryIs>
        </Polygon>
      </Placemark>
    </Document>
  </Document>
</kml>
