<?xml version="1.0" encoding="UTF-8"?>
<kml xmlns="http://www.opengis.net/kml/2.2">
  <Document id="root_doc">
    <Document id="_0_04______disv4326">
      <name>10_04紫野disv4326</name>
      <Placemark id="_0_04______disv4326.1">
        <visibility>1</visibility>
        <Polygon>
          <extrude>0</extrude>
          <outerBoundaryIs>
            <LinearRing>
              <coordinates>
                135.7452338793,35.0354410276,100
                135.7452307143,35.0355579303,100
                135.7451649844,35.0355622292,100
                135.7451620419,35.035621242,100
                135.7448169451,35.0356586176,100
                135.7448123324,35.0355026111,100
                135.744811531,35.0354501403,100
                135.744568825,35.0354551341,100
                135.7443146868,35.0354603629,100
                135.7443070231,35.0357300846,100
                135.7442293817,35.0357307666,100
                135.7441725256,35.0357312102,100
                135.7435881426,35.0357103615,100
                135.7435882384,35.035681592,100
                135.7435882597,35.0356807898,100
                135.7435885419,35.0355897413,100
                135.7435326435,35.035590525,100
                135.7435327617,35.0357083864,100
                135.7433794084,35.0357029132,100
                135.7433708765,35.0354587227,100
                135.74329342,35.0354617286,100
                135.7430838938,35.0354695951,100
                135.743083239,35.0356468044,100
                135.7431258458,35.0356500633,100
                135.7431341768,35.0357907105,100
                135.743082706,35.0357910522,100
                135.7430825582,35.0358308864,100
                135.7426320251,35.0358714128,100
                135.7426423585,35.0360315166,100
                135.7424349353,35.0360445281,100
                135.7424152108,35.035462825,100
                135.742227682,35.0354596802,100
                135.7413107437,35.0354011763,100
                135.7412905973,35.0353990151,100
                135.7412849199,35.0353984063,100
                135.7412808091,35.0354532287,100
                135.7412032513,35.0354484063,100
                135.7412017009,35.0354560174,100
                135.7411462686,35.0354530116,100
                135.7411177824,35.0355676074,100
                135.7411342952,35.03572216,100
                135.7411280071,35.0357751785,100
                135.7411412485,35.035921696,100
                135.741140649,35.0361132575,100
                135.74101735,35.0361129944,100
                135.7409921858,35.0361921721,100
                135.7408972182,35.0361676719,100
                135.7405354033,35.0360742155,100
                135.7404557957,35.0360667208,100
                135.7404522346,35.0360729941,100
                135.7403205094,35.0363050401,100
                135.7402557802,35.0364266707,100
                135.740333255,35.0364456401,100
                135.7402106641,35.0366836325,100
                135.7401519639,35.0367942874,100
                135.7404989787,35.0368231302,100
                135.7404256068,35.0369915036,100
                135.740643979,35.0369075293,100
                135.7407621746,35.0370889884,100
                135.7406004383,35.0371061795,100
                135.7405940822,35.037215045,100
                135.7406546194,35.0372291188,100
                135.7406149629,35.0372807969,100
                135.74060825,35.0373381503,100
                135.7405821675,35.0373370624,100
                135.7405817208,35.0373406383,100
                135.7405750255,35.0373953623,100
                135.7405749159,35.0374304377,100
                135.7406707291,35.0374306425,100
                135.7406577438,35.0375512551,100
                135.7410608726,35.0375656377,100
                135.7412391642,35.0377110263,100
                135.7412398867,35.0378296956,100
                135.7410481274,35.0378561185,100
                135.7410486242,35.0379027429,100
                135.7409138024,35.0378968211,100
                135.7409096825,35.038078301,100
                135.7406426083,35.0380723074,100
                135.7406382122,35.0381912481,100
                135.7405117101,35.0381942185,100
                135.7404731086,35.0381947615,100
                135.7404727701,35.0380730047,100
                135.7403032109,35.0380701034,100
                135.7403089757,35.0384514036,100
                135.7399726979,35.0385325199,100
                135.7398721373,35.038556742,100
                135.7397762126,35.0391100175,100
                135.7402216666,35.0391594244,100
                135.7401287992,35.0399880033,100
                135.7402432336,35.0399635283,100
                135.7402511444,35.0400417185,100
                135.7407354011,35.0399726085,100
                135.7408591813,35.0400061138,100
                135.7411084217,35.0401724277,100
                135.7412592121,35.0404824845,100
                135.7413290362,35.0407939166,100
                135.741346054,35.0408698721,100
                135.7414748932,35.0408759432,100
                135.7414399573,35.0410834868,100
                135.7413151362,35.0410705919,100
                135.7410784015,35.0410461436,100
                135.7410672831,35.0411380964,100
                135.7410288925,35.0414557071,100
                135.7412177725,35.0414763919,100
                135.7412021711,35.0416190425,100
                135.7412932006,35.0416249407,100
                135.7412790316,35.0417547067,100
                135.7413817141,35.0417577422,100
                135.7413773159,35.0420150698,100
                135.7413426437,35.0422047244,100
                135.7410163676,35.0421701557,100
                135.7409826602,35.0423740383,100
                135.7410084271,35.0423735051,100
                135.7410891898,35.0423718372,100
                135.7412614387,35.0423682782,100
                135.7412831476,35.0423912984,100
                135.7413403887,35.0425780497,100
                135.7424656589,35.0425713517,100
                135.7424518556,35.0430665593,100
                135.7428261235,35.0430772803,100
                135.7428513147,35.0421317933,100
                135.7430325524,35.0421325279,100
                135.7430485765,35.0419972731,100
                135.7429842336,35.0419943201,100
                135.7429843931,35.0419498816,100
                135.742894541,35.0419440576,100
                135.7428681198,35.0415511642,100
                135.7429448362,35.0415401996,100
                135.742937429,35.0415125769,100
                135.7430531937,35.0414942995,100
                135.7430343639,35.0414016487,100
                135.7432760799,35.0413870182,100
                135.7437787607,35.0413432162,100
                135.7439589148,35.0413200736,100
                135.7440601266,35.0413210619,100
                135.7442902527,35.0413231653,100
                135.7446790516,35.0413392653,100
                135.7447015254,35.0413685387,100
                135.7449315935,35.0413616972,100
                135.7449243606,35.0416539499,100
                135.7453221225,35.0416593612,100
                135.7453277931,35.0416038075,100
                135.745483226,35.0415996961,100
                135.74549397,35.0414681623,100
                135.7454624833,35.0414664062,100
                135.7454769713,35.0410557124,100
                135.7458651343,35.0410628632,100
                135.7458697936,35.0410999164,100
                135.7463653272,35.0411314455,100
                135.7463615015,35.0406729655,100
                135.7466353565,35.0406695927,100
                135.7475308116,35.0406722908,100
                135.7487630948,35.0406803051,100
                135.749852604,35.0406971024,100
                135.7499703433,35.040698891,100
                135.7500542153,35.0407001881,100
                135.7509891012,35.040707787,100
                135.7517794049,35.0407131852,100
                135.7521100398,35.0407240636,100
                135.7522104168,35.0407979307,100
                135.752246724,35.0408195547,100
                135.7532756378,35.0414330592,100
                135.7534551343,35.0415310287,100
                135.7542071275,35.0419414962,100
                135.7544988136,35.042116524,100
                135.7546874936,35.0422297925,100
                135.7546362023,35.0420037635,100
                135.7546178309,35.0417576583,100
                135.7545842517,35.0415580744,100
                135.754610985,35.0413493855,100
                135.754619378,35.0412839054,100
                135.7546907264,35.0408204329,100
                135.7549988982,35.0388262285,100
                135.7548805437,35.0388018364,100
                135.7548307161,35.0382099474,100
                135.7548214333,35.038099782,100
                135.7549040407,35.0380964107,100
                135.7548994545,35.0380415358,100
                135.7548169409,35.0380464605,100
                135.7547144344,35.0380490735,100
                135.7547135151,35.0379832943,100
                135.7548110671,35.0379765861,100
                135.7547950991,35.0377869673,100
                135.7547716475,35.0377903715,100
                135.7547377543,35.0375962807,100
                135.7547759384,35.0375911447,100
                135.7547692466,35.037522818,100
                135.7543805844,35.0375422562,100
                135.7537423187,35.0375676738,100
                135.7537328026,35.0375502601,100
                135.7532589569,35.0375929053,100
                135.7528385379,35.0376296707,100
                135.7521683057,35.0376493812,100
                135.7520015565,35.0377600371,100
                135.7519038505,35.0378258296,100
                135.751781741,35.0379058699,100
                135.7515469297,35.0380617416,100
                135.7513357937,35.0380892051,100
                135.7513149609,35.0381082978,100
                135.7512640203,35.0381044403,100
                135.7512347457,35.0381753129,100
                135.7512346468,35.0381755525,100
                135.7512286857,35.0381899808,100
                135.751153061,35.0382753241,100
                135.7510906988,35.0382976637,100
                135.7510354027,35.0382548037,100
                135.7508749424,35.0383302568,100
                135.7505946836,35.03841392,100
                135.7505401766,35.0383511298,100
                135.7503390246,35.038511082,100
                135.7500982844,35.0386363745,100
                135.7498512759,35.0388246146,100
                135.7497530298,35.0389052651,100
                135.7495725361,35.0390358189,100
                135.749357277,35.0393218742,100
                135.7488054264,35.039344694,100
                135.7487804341,35.0392485826,100
                135.7483866184,35.0392987664,100
                135.7482715945,35.0393058556,100
                135.7479724893,35.039313764,100
                135.7478834003,35.0393161193,100
                135.7478493231,35.039081812,100
                135.7476664505,35.0391130586,100
                135.7476531257,35.0389890817,100
                135.747694228,35.038989166,100
                135.7476943646,35.0389440937,100
                135.7476945697,35.0388764853,100
                135.7476046181,35.0388760198,100
                135.7475562177,35.0381482799,100
                135.74762398,35.0381456017,100
                135.7476378662,35.0380143183,100
                135.7476496346,35.0379030376,100
                135.7476665542,35.0377237674,100
                135.7476878547,35.0373429478,100
                135.7476873543,35.0372939618,100
                135.7476827887,35.0368459419,100
                135.747670708,35.036846085,100
                135.7471898111,35.0368517625,100
                135.7471582579,35.0362826497,100
                135.7471608624,35.0361379261,100
                135.747206926,35.0358941999,100
                135.7472224741,35.0358289453,100
                135.7472571276,35.0355920265,100
                135.7464928491,35.0356038867,100
                135.7465212851,35.0358033975,100
                135.7460403715,35.0359509949,100
                135.7459027632,35.0359607779,100
                135.7458439067,35.0357690209,100
                135.7458396485,35.0354341277,100
                135.7452338793,35.0354410276,100
              </coordinates>
            </LinearRing>
          </outerBoundaryIs>
        </Polygon>
      </Placemark>
    </Document>
  </Document>
</kml>
