<?xml version="1.0" encoding="UTF-8"?>
<kml xmlns="http://www.opengis.net/kml/2.2">
  <Document id="root_doc">
    <Document id="_0_01______disv4326">
      <name>10_01待鳳disv4326</name>
      <Placemark id="_0_01______disv4326.1">
        <visibility>1</visibility>
        <Polygon>
          <extrude>0</extrude>
          <outerBoundaryIs>
            <LinearRing>
              <coordinates>
                135.738138895,35.0447708307,100
                135.7379584687,35.0448839701,100
                135.7379027812,35.0449189233,100
                135.7378685557,35.0449979379,100
                135.73779825,35.04516019,100
                135.737649399,35.0455038328,100
                135.7375884746,35.0456444136,100
                135.7374216524,35.0460509782,100
                135.7371540724,35.0465675425,100
                135.7368648168,35.0471261036,100
                135.7367530291,35.0473381978,100
                135.7372415556,35.0474905993,100
                135.7384205339,35.0478879458,100
                135.7382627039,35.048192835,100
                135.7380418495,35.0484958284,100
                135.7379760731,35.0486128765,100
                135.7377451269,35.0490662774,100
                135.7377348802,35.0490838625,100
                135.7376769283,35.0491839545,100
                135.7376589955,35.0492148325,100
                135.737570951,35.049386413,100
                135.7374999014,35.0493833725,100
                135.7373273139,35.0495394183,100
                135.7372050412,35.0498369875,100
                135.7371919217,35.0498622422,100
                135.7371332232,35.0499747979,100
                135.7371792036,35.0499908844,100
                135.7371121277,35.0501186341,100
                135.7370771565,35.0501080646,100
                135.7370190081,35.0502489328,100
                135.7373536944,35.0503760704,100
                135.7378146082,35.0505459445,100
                135.7383789629,35.0507406886,100
                135.7383084649,35.0507865263,100
                135.738227293,35.0508424109,100
                135.7380901407,35.0509367693,100
                135.7378385742,35.0510236278,100
                135.7380487412,35.0511035909,100
                135.7404430246,35.052014042,100
                135.7405432347,35.0520522156,100
                135.741079295,35.0522559709,100
                135.7410691176,35.0524912441,100
                135.7420040572,35.0524976625,100
                135.7425802005,35.0525167678,100
                135.7425933664,35.0525170773,100
                135.7440866146,35.0525499403,100
                135.7440825546,35.0520549053,100
                135.7441039715,35.0511174363,100
                135.7454490794,35.0511634941,100
                135.7466825533,35.0512107128,100
                135.7474287217,35.0512335949,100
                135.7473635504,35.0508892181,100
                135.7473338651,35.0507166839,100
                135.7473048549,35.0505340796,100
                135.7472892908,35.0501755783,100
                135.7472849202,35.0499732344,100
                135.747283409,35.0496472989,100
                135.7484673402,35.049736633,100
                135.7491359146,35.0497878615,100
                135.7491453094,35.0492661632,100
                135.749147096,35.0490790444,100
                135.7491878354,35.0490803952,100
                135.7491803228,35.0488322677,100
                135.7493227402,35.0488332629,100
                135.7493216963,35.0485769798,100
                135.749376951,35.0485785004,100
                135.7494011285,35.0480812705,100
                135.7494014599,35.0478305538,100
                135.7494384374,35.0478294319,100
                135.7494415042,35.0475871719,100
                135.7493511048,35.0475827615,100
                135.7493526712,35.0473267658,100
                135.7493581503,35.0472354342,100
                135.7493565734,35.0470566181,100
                135.7492935647,35.0470562086,100
                135.7493005118,35.0468691706,100
                135.7493095415,35.0466799537,100
                135.7492362793,35.046679522,100
                135.7492305041,35.0464968387,100
                135.7491774691,35.0464949557,100
                135.7487940319,35.0464856521,100
                135.7487922961,35.0462744397,100
                135.7485746604,35.0462563889,100
                135.7483145332,35.0461583869,100
                135.7483314977,35.0455781798,100
                135.7480918172,35.0455791675,100
                135.7480847046,35.0455246436,100
                135.7479052895,35.0455264592,100
                135.7479124618,35.0453995652,100
                135.7476778454,35.0454533833,100
                135.7476158353,35.0452949379,100
                135.7468928848,35.0454801463,100
                135.7468237435,35.0453440101,100
                135.7467843739,35.0452665997,100
                135.7467640403,35.045069364,100
                135.7467682585,35.0448868279,100
                135.7468032313,35.0447140058,100
                135.7468507375,35.0441721074,100
                135.7468648006,35.0439548025,100
                135.7468440431,35.0435581211,100
                135.7468248197,35.0433961716,100
                135.7468369216,35.0433378839,100
                135.7470115094,35.0432522572,100
                135.747147644,35.0431816923,100
                135.7471650229,35.0431479944,100
                135.7472015547,35.0428634078,100
                135.7472137216,35.0426287041,100
                135.7472074639,35.0425533354,100
                135.7472574926,35.0423783592,100
                135.7472649422,35.0421317438,100
                135.7473157971,35.0419381772,100
                135.7473838232,35.0417368984,100
                135.7474100865,35.0416185665,100
                135.7474712668,35.0411621219,100
                135.7474653444,35.0410463291,100
                135.7475308116,35.0406722908,100
                135.7466353565,35.0406695927,100
                135.7463615015,35.0406729655,100
                135.7463653272,35.0411314455,100
                135.7458697936,35.0410999164,100
                135.7458651343,35.0410628632,100
                135.7454769713,35.0410557124,100
                135.7454624833,35.0414664062,100
                135.74549397,35.0414681623,100
                135.745483226,35.0415996961,100
                135.7453277931,35.0416038075,100
                135.7453221225,35.0416593612,100
                135.7449243606,35.0416539499,100
                135.7449315935,35.0413616972,100
                135.7447015254,35.0413685387,100
                135.7446790516,35.0413392653,100
                135.7442902527,35.0413231653,100
                135.7440601266,35.0413210619,100
                135.7439589148,35.0413200736,100
                135.7437787607,35.0413432162,100
                135.7432760799,35.0413870182,100
                135.7430343639,35.0414016487,100
                135.7430531937,35.0414942995,100
                135.742937429,35.0415125769,100
                135.7429448362,35.0415401996,100
                135.7428681198,35.0415511642,100
                135.742894541,35.0419440576,100
                135.7429843931,35.0419498816,100
                135.7429842336,35.0419943201,100
                135.7430485765,35.0419972731,100
                135.7430325524,35.0421325279,100
                135.7428513147,35.0421317933,100
                135.7428261235,35.0430772803,100
                135.7424518556,35.0430665593,100
                135.7424656589,35.0425713517,100
                135.7413403887,35.0425780497,100
                135.7412831476,35.0423912984,100
                135.7412614387,35.0423682782,100
                135.7410891898,35.0423718372,100
                135.7410084271,35.0423735051,100
                135.7409826602,35.0423740383,100
                135.7408747149,35.0423762664,100
                135.7407913162,35.0423779891,100
                135.7406981467,35.0423799132,100
                135.7406147679,35.0423816359,100
                135.7405433035,35.0423831116,100
                135.7404842271,35.0423843314,100
                135.7404305505,35.0423854394,100
                135.740397928,35.0424053478,100
                135.7403979661,35.0424312251,100
                135.7396522321,35.0424704992,100
                135.7395098515,35.0424828718,100
                135.7387213747,35.0424485031,100
                135.7386690766,35.0426458605,100
                135.7386637225,35.0426660669,100
                135.7384987673,35.043184263,100
                135.7383574266,35.04351116,100
                135.7383268158,35.0436253262,100
                135.7381511166,35.0447511376,100
                135.738138895,35.0447708307,100
              </coordinates>
            </LinearRing>
          </outerBoundaryIs>
        </Polygon>
      </Placemark>
    </Document>
  </Document>
</kml>
