<?xml version="1.0" encoding="UTF-8"?>
<kml xmlns="http://www.opengis.net/kml/2.2">
  <Document id="root_doc">
    <Document id="_0_08______disv4326">
      <name>10_08柊野disv4326</name>
      <Placemark id="_0_08______disv4326.1">
        <visibility>1</visibility>
        <Polygon>
          <extrude>0</extrude>
          <outerBoundaryIs>
            <LinearRing>
              <coordinates>
                135.7405297281,35.0645377789,100
                135.7404706039,35.0651167031,100
                135.7403477207,35.0658613471,100
                135.7403177256,35.0660431261,100
                135.7402267351,35.0665945858,100
                135.7401501742,35.0670584663,100
                135.740103548,35.0670540706,100
                135.7400823504,35.0672303744,100
                135.7400861291,35.067362715,100
                135.7401188994,35.0675511055,100
                135.7401687814,35.0677453789,100
                135.7401735139,35.0679223012,100
                135.7401621333,35.0680134798,100
                135.7400537404,35.0682357273,100
                135.7398819151,35.0683093108,100
                135.7397614953,35.0682158794,100
                135.7394244948,35.068033602,100
                135.7392555044,35.0679821818,100
                135.7391047053,35.0679617891,100
                135.7389507667,35.0679723763,100
                135.7388026097,35.068016852,100
                135.7386080089,35.0681003851,100
                135.7384691207,35.0681731203,100
                135.7381847945,35.0683505513,100
                135.7380681952,35.0683969947,100
                135.7379101119,35.0684110237,100
                135.7377976301,35.0684016265,100
                135.7375479516,35.0683230577,100
                135.737186622,35.0681089589,100
                135.7370143788,35.0680440077,100
                135.7368397492,35.0679484852,100
                135.736462133,35.067832946,100
                135.7360684722,35.0677396968,100
                135.7359360837,35.067727932,100
                135.7357629576,35.0677384038,100
                135.7354640193,35.0678171279,100
                135.7353412159,35.0678077779,100
                135.7351507125,35.0678349728,100
                135.7349797714,35.0678319961,100
                135.7348681818,35.0678051326,100
                135.7347453566,35.0677428208,100
                135.7346014429,35.067719196,100
                135.7344226127,35.0677452867,100
                135.7342080938,35.0678281338,100
                135.7336965662,35.0680539328,100
                135.7332381548,35.0682034317,100
                135.7329566785,35.0683701498,100
                135.7328873952,35.0683657023,100
                135.7328027457,35.068325021,100
                135.7327138032,35.0681288965,100
                135.7325782852,35.0678664697,100
                135.7324577228,35.0676746428,100
                135.7322891392,35.0674795407,100
                135.7320185436,35.0675991643,100
                135.7319244133,35.0676034644,100
                135.7313265005,35.067603766,100
                135.7312398478,35.067632943,100
                135.7305866315,35.0681289982,100
                135.7300239312,35.068845971,100
                135.7298207973,35.0691187792,100
                135.7295902543,35.06924046,100
                135.7293487824,35.069213513,100
                135.7290469546,35.0690919187,100
                135.7287725758,35.0689522842,100
                135.7285969508,35.068913932,100
                135.728423967,35.0693287875,100
                135.7283031476,35.0695946646,100
                135.7281631132,35.06994642,100
                135.7279023185,35.070363404,100
                135.727556421,35.0708638651,100
                135.7271666221,35.0712786581,100
                135.7267000194,35.071668769,100
                135.725967097,35.0723472461,100
                135.7258380786,35.072556901,100
                135.7261680632,35.0725663757,100
                135.7263951543,35.0725861121,100
                135.7266970237,35.0725815771,100
                135.727163511,35.0727279131,100
                135.7276025595,35.0729148943,100
                135.7277918966,35.0729734198,100
                135.7279153857,35.0729847518,100
                135.727962064,35.0728832992,100
                135.7280636514,35.0727233032,100
                135.7282173623,35.0725180673,100
                135.7284451938,35.0723061648,100
                135.7286921288,35.0725044047,100
                135.7289363469,35.072630661,100
                135.7291339323,35.0726553968,100
                135.7292438711,35.0719521392,100
                135.7294306253,35.0712555314,100
                135.7296309412,35.0712825973,100
                135.73001514,35.0712938019,100
                135.7303636685,35.0712891496,100
                135.7306929639,35.071325162,100
                135.7310250347,35.0712709608,100
                135.7314786867,35.0710503248,100
                135.7316373816,35.0709891213,100
                135.7319765696,35.0708792252,100
                135.7322024419,35.0708247181,100
                135.7323757672,35.0708012936,100
                135.7325450215,35.0708314558,100
                135.7326880285,35.070872477,100
                135.7327994609,35.0708565229,100
                135.7329269343,35.0708203906,100
                135.7330097066,35.0708464193,100
                135.7332080851,35.0710225691,100
                135.7333290885,35.0710669217,100
                135.7337649499,35.0710816783,100
                135.7338876191,35.0711011727,100
                135.7339939506,35.0711663388,100
                135.7344348675,35.0713872439,100
                135.7331516029,35.0723388755,100
                135.732899569,35.072283954,100
                135.7325050894,35.0722519613,100
                135.7321005456,35.0722593835,100
                135.7317699637,35.0722821094,100
                135.7315445514,35.0723523938,100
                135.7313935445,35.0724591817,100
                135.7313103924,35.0725564702,100
                135.7312113397,35.072722461,100
                135.7310274309,35.0729434799,100
                135.7308983735,35.0732410328,100
                135.7308324618,35.0734957653,100
                135.731029972,35.0738405203,100
                135.7311781337,35.0740299452,100
                135.7313053394,35.0741107943,100
                135.7315344767,35.0743063827,100
                135.7319125556,35.0745577945,100
                135.7321377651,35.0747308361,100
                135.7324046262,35.0749245333,100
                135.7327223914,35.0750538298,100
                135.7330526558,35.0751720246,100
                135.7334115722,35.0752516169,100
                135.7336571547,35.0753313137,100
                135.7338129862,35.0754491962,100
                135.7340482651,35.0756426098,100
                135.7342790777,35.0758072778,100
                135.7345086441,35.0759060231,100
                135.7349426926,35.0760183787,100
                135.7350908094,35.0761513135,100
                135.7353524746,35.0764920409,100
                135.7355635239,35.0767021574,100
                135.7358965387,35.0769933157,100
                135.7363071129,35.0775166264,100
                135.7365784577,35.078054427,100
                135.7367284303,35.0784211086,100
                135.7369562447,35.0788529608,100
                135.7371528517,35.0791917109,100
                135.737270744,35.079357184,100
                135.7375009727,35.0794669781,100
                135.7375869395,35.0795285034,100
                135.7378633511,35.0796636081,100
                135.738014108,35.0797788659,100
                135.7380831223,35.0798780335,100
                135.7382579928,35.0800484155,100
                135.7383485355,35.0801398813,100
                135.7384373232,35.0802040177,100
                135.7385771468,35.0803298161,100
                135.7387146878,35.0804389877,100
                135.7389768157,35.0805956805,100
                135.7390426705,35.0806721634,100
                135.7391087734,35.0807101229,100
                135.7393562045,35.0808143158,100
                135.7396824526,35.0809317739,100
                135.7398944922,35.0810463849,100
                135.7398795868,35.0810802287,100
                135.7395998617,35.0811043563,100
                135.7393662593,35.081070549,100
                135.7391638627,35.0810503299,100
                135.7391903202,35.0810959521,100
                135.7389255747,35.0811242652,100
                135.7388705876,35.0810723143,100
                135.7387579362,35.0810503137,100
                135.7386611571,35.0810074993,100
                135.7384582418,35.0809818551,100
                135.7383811304,35.0810049324,100
                135.738348172,35.0811740267,100
                135.7381999575,35.0812778024,100
                135.7379309834,35.0813904756,100
                135.7373271631,35.081530392,100
                135.7367013957,35.0815935648,100
                135.7361772052,35.0815305354,100
                135.7356557635,35.0814518049,100
                135.7350410098,35.0813256154,100
                135.7347830113,35.0813662587,100
                135.7344015044,35.0815038186,100
                135.7338415716,35.0817112731,100
                135.733416155,35.0817676709,100
                135.7331966001,35.0817338791,100
                135.7331690748,35.0820877835,100
                135.7332075026,35.0821801963,100
                135.7333227467,35.0823491905,100
                135.7334928694,35.0825633072,100
                135.7338057262,35.0827639319,100
                135.7341350423,35.0829555067,100
                135.7344835524,35.0833341765,100
                135.7346784074,35.0834445367,100
                135.7349336547,35.083496358,100
                135.7351916102,35.0836857274,100
                135.7354358299,35.084039584,100
                135.735652629,35.0843078127,100
                135.73639359,35.0849050732,100
                135.7373431796,35.0854617856,100
                135.7381061642,35.0858066024,100
                135.7375214048,35.0870780282,100
                135.737233216,35.0869945922,100
                135.7369697244,35.0870397352,100
                135.7367336579,35.0871298679,100
                135.7365003597,35.0871231708,100
                135.7363795662,35.0874522936,100
                135.7362258275,35.0876799315,100
                135.7358442432,35.0881533596,100
                135.7355010813,35.0887687779,100
                135.7354324015,35.089183508,100
                135.7355037141,35.0896073426,100
                135.7355805401,35.0898191376,100
                135.7355091472,35.0899950481,100
                135.7351742528,35.0902632137,100
                135.7348256477,35.090477403,100
                135.7344056337,35.0907884766,100
                135.734021295,35.091167159,100
                135.7334640008,35.0915526446,100
                135.7324318666,35.0918433439,100
                135.7321628248,35.0920010671,100
                135.7321380785,35.0922625725,100
                135.7321368968,35.0924238446,100
                135.7321352764,35.0926411744,100
                135.7323163202,35.0933241389,100
                135.7320966455,35.0937366294,100
                135.7320526959,35.0939079486,100
                135.7320719118,35.0940139112,100
                135.7322338467,35.094151387,100
                135.7323271512,35.0943407568,100
                135.7322968834,35.0946269694,100
                135.7322474178,35.0949403232,100
                135.7321595076,35.095352745,100
                135.7322198178,35.0956525333,100
                135.7318244844,35.095839621,100
                135.7315856242,35.0960176883,100
                135.7313961777,35.0961911468,100
                135.7313165188,35.0963713967,100
                135.7312917267,35.0967726897,100
                135.7313383192,35.0971400554,100
                135.7314288403,35.0974443478,100
                135.7315001014,35.0979199395,100
                135.7314478466,35.0983211716,100
                135.7314697488,35.0985939027,100
                135.7316289207,35.0988689097,100
                135.7318895774,35.0994188641,100
                135.7323202898,35.1007780853,100
                135.7324409558,35.1013799139,100
                135.732306348,35.1018149086,100
                135.7322102289,35.1020290685,100
                135.7322595768,35.1023153104,100
                135.7322869626,35.1026421386,100
                135.732179827,35.1028968376,100
                135.7321138695,35.1032168405,100
                135.7317405298,35.1030612262,100
                135.7314303568,35.1029101863,100
                135.7310625144,35.1027185236,100
                135.7307194105,35.1024840265,100
                135.7304037718,35.1021909257,100
                135.7300467796,35.1025852846,100
                135.7297034654,35.1032162993,100
                135.7296298322,35.1033134626,100
                135.7300212096,35.1035005337,100
                135.7304890855,35.1038335522,100
                135.7309702832,35.104240967,100
                135.7313059729,35.1046411562,100
                135.7314832246,35.1048739475,100
                135.7316505346,35.1049241065,100
                135.7317375582,35.1050822609,100
                135.7315851849,35.1053184105,100
                135.7312587246,35.1057410822,100
                135.7309253628,35.1059157738,100
                135.7306702901,35.1063432504,100
                135.7304104427,35.1071336139,100
                135.7302080905,35.1079579785,100
                135.7302010947,35.1082285341,100
                135.73016698,35.1084380421,100
                135.7300729092,35.1085594571,100
                135.7296154568,35.1088126061,100
                135.7292452723,35.1091810216,100
                135.7291483828,35.1093114442,100
                135.7293272382,35.1097538957,100
                135.7294590649,35.1102615977,100
                135.7293869421,35.1108790607,100
                135.72943253,35.1110821253,100
                135.7295962086,35.1112945368,100
                135.7296803739,35.1114752208,100
                135.7296543684,35.1117073523,100
                135.7296028274,35.1120813319,100
                135.7296750219,35.1124422757,100
                135.7297887204,35.1127515485,100
                135.7300532544,35.1131086217,100
                135.7302931002,35.1134611321,100
                135.730526873,35.1139217997,100
                135.7306188402,35.1141881364,100
                135.7308509892,35.1144459779,100
                135.7311134168,35.1146902944,100
                135.7311953467,35.1147904068,100
                135.7312856178,35.1149737085,100
                135.7312306873,35.1152459186,100
                135.7312967471,35.1155007181,100
                135.731483642,35.1160219863,100
                135.7318343201,35.1169067922,100
                135.7318796783,35.1173078873,100
                135.7320362432,35.117572252,100
                135.7322794964,35.1176818017,100
                135.7326158363,35.1178166968,100
                135.7327677403,35.1179999915,100
                135.7329535784,35.1183568855,100
                135.7331139278,35.1187902041,100
                135.7334916223,35.1194544955,100
                135.7336421708,35.1197729307,100
                135.7337300154,35.1200459501,100
                135.7338953051,35.1202653371,100
                135.7342042634,35.1203955951,100
                135.7348847257,35.1207171626,100
                135.7352512693,35.1211292468,100
                135.7354561446,35.1215065421,100
                135.7356128657,35.1217597115,100
                135.7358811732,35.1221104515,100
                135.7362219183,35.1223602147,100
                135.7366031065,35.1224097709,100
                135.7370892837,35.1226694226,100
                135.7374354271,35.1229282797,100
                135.7377757714,35.1232186036,100
                135.7381750376,35.123385383,100
                135.7386106516,35.1234849115,100
                135.73891665,35.1236421231,100
                135.7392126571,35.1239749572,100
                135.739314538,35.1242211035,100
                135.7393982851,35.1243612196,100
                135.7395534209,35.1244995861,100
                135.7397839257,35.1245166972,100
                135.740165713,35.1245099735,100
                135.7404898697,35.1244984073,100
                135.7406657965,35.1244814548,100
                135.7408796365,35.1245165583,100
                135.7411639001,35.1243741235,100
                135.7414703776,35.1242070145,100
                135.7416778813,35.1240506131,100
                135.7417754685,35.1239025,100
                135.7417855261,35.123717863,100
                135.7416660952,35.1235775317,100
                135.7413847926,35.1234227031,100
                135.7411443912,35.1232973994,100
                135.7410497637,35.1231481758,100
                135.7410327502,35.1229250985,100
                135.7410401946,35.1227269342,100
                135.7409647886,35.1225778216,100
                135.7407307849,35.122362455,100
                135.7406420876,35.122168241,100
                135.7405591475,35.1219492496,100
                135.7404812579,35.1217730888,100
                135.7405017745,35.1216425607,100
                135.7406663832,35.1213822604,100
                135.7407942884,35.121220902,100
                135.7409439662,35.121079873,100
                135.7410841296,35.1207901524,100
                135.7412059478,35.1206895589,100
                135.741371344,35.1206251856,100
                135.7415484688,35.1204843541,100
                135.7417658902,35.1201567651,100
                135.7419392549,35.1198424655,100
                135.7420825268,35.119514517,100
                135.742107383,35.1192218136,100
                135.741990565,35.1188179633,100
                135.7418994858,35.1183107132,100
                135.7416756327,35.1179017082,100
                135.7414676959,35.1175491462,100
                135.7413663838,35.1172444858,100
                135.741350429,35.1169155692,100
                135.7412298404,35.1166153049,100
                135.7411909478,35.1163853566,100
                135.7412014432,35.1161556532,100
                135.7412046177,35.1158358617,100
                135.7412347048,35.1155702825,100
                135.7412969312,35.1153859014,100
                135.7414205375,35.1151028425,100
                135.7415791755,35.1148127447,100
                135.7416908284,35.1144736026,100
                135.7418978523,35.113759719,100
                135.7419519324,35.1133991871,100
                135.7418438874,35.1130359208,100
                135.7416653115,35.1125010207,100
                135.7417101225,35.1118046139,100
                135.7415680266,35.1111233105,100
                135.7416440085,35.1102421821,100
                135.7417409407,35.1090274264,100
                135.7419945495,35.1083249136,100
                135.7422940298,35.1077848951,100
                135.7425512736,35.1069111168,100
                135.7427307734,35.1061903479,100
                135.7426630812,35.1054619484,100
                135.7425098744,35.1048054853,100
                135.742251584,35.1042861286,100
                135.7421262267,35.1040895928,100
                135.7421050481,35.1039362347,100
                135.7422283543,35.1034609884,100
                135.7424685501,35.1026885839,100
                135.7425967943,35.1023170113,100
                135.7424979451,35.1017756637,100
                135.7424527864,35.1014734483,100
                135.7425614588,35.1011740196,100
                135.7428183189,35.1008930694,100
                135.7433288671,35.1004191215,100
                135.743057819,35.100249115,100
                135.7428219471,35.1001829875,100
                135.7426657603,35.100112518,100
                135.7425518568,35.0998304412,100
                135.7425041695,35.0994875862,100
                135.7424315136,35.0991965807,100
                135.7423180248,35.0988309819,100
                135.7424754767,35.0986533478,100
                135.742877883,35.0983751668,100
                135.7433050357,35.0980880912,100
                135.7435890196,35.0978703656,100
                135.7436976444,35.0975686814,100
                135.7436803344,35.097196593,100
                135.7434979177,35.0968827534,100
                135.7430381459,35.0965722806,100
                135.7423121323,35.096233996,100
                135.7420849953,35.0960776725,100
                135.742006201,35.0959151083,100
                135.7420726319,35.0958116534,100
                135.7422329607,35.0956092363,100
                135.7425446612,35.0953353014,100
                135.7426611381,35.0951125808,100
                135.7426458046,35.0948915561,100
                135.7426522663,35.0946999426,100
                135.7429963143,35.0945455831,100
                135.743027785,35.0948365048,100
                135.7432998552,35.0947946051,100
                135.7434279024,35.0949910744,100
                135.7436824303,35.0951632285,100
                135.7440641455,35.0951600768,100
                135.7442972456,35.0952239415,100
                135.7445436552,35.0953690341,100
                135.745086725,35.0955015688,100
                135.7454733014,35.0956246239,100
                135.7456977088,35.0957786833,100
                135.7458653409,35.0957544499,100
                135.7461207871,35.0957418067,100
                135.7463427705,35.0958349416,100
                135.7464712729,35.0959480261,100
                135.7477150945,35.0959837476,100
                135.7482665383,35.0955178888,100
                135.748009781,35.0952566516,100
                135.7478570921,35.0950374582,100
                135.7476283617,35.0946466949,100
                135.7472762948,35.0942037044,100
                135.7467022849,35.0936720164,100
                135.7463363482,35.0932649827,100
                135.7457977375,35.0927966033,100
                135.7454037838,35.0925045126,100
                135.7453186272,35.0924518701,100
                135.74480978,35.092137286,100
                135.7444294795,35.0918655023,100
                135.7440047508,35.0916927837,100
                135.743700378,35.091612782,100
                135.7434431147,35.0914473808,100
                135.7431617788,35.0911556569,100
                135.7429544685,35.0908866232,100
                135.7405040819,35.0916539128,100
                135.7402472475,35.0914073048,100
                135.7396175601,35.0910490595,100
                135.7393792302,35.0909422136,100
                135.7386824859,35.0908158022,100
                135.7386034289,35.0907051373,100
                135.7386012828,35.0905901983,100
                135.738634843,35.090475335,100
                135.7387039346,35.0903898441,100
                135.7388269585,35.0904894749,100
                135.7390851514,35.0904700923,100
                135.7394449186,35.0904577547,100
                135.7397940703,35.090366587,100
                135.7399137627,35.0900513337,100
                135.7401435914,35.0896756066,100
                135.7405424518,35.0895304558,100
                135.741001417,35.0894464185,100
                135.741204801,35.0894041678,100
                135.7413263815,35.0892513889,100
                135.7413352838,35.0891228109,100
                135.7412263755,35.0889466599,100
                135.7409575163,35.0889051767,100
                135.7406563576,35.0887395358,100
                135.7404271547,35.0884615065,100
                135.7402771585,35.0882670969,100
                135.7401792138,35.088093221,100
                135.740138986,35.0879081992,100
                135.7402007501,35.0877667739,100
                135.7402147984,35.0876713771,100
                135.7402611782,35.087552386,100
                135.7403281469,35.0874313252,100
                135.7404417249,35.0873169821,100
                135.7405833223,35.0872219951,100
                135.7406856227,35.0871868572,100
                135.7408776985,35.0871701486,100
                135.7412463082,35.087071343,100
                135.7413644599,35.08701497,100
                135.7414242795,35.0869679102,100
                135.7414773804,35.086883864,100
                135.7415397351,35.0867098325,100
                135.7416137696,35.0863339829,100
                135.7415890089,35.0859753189,100
                135.7415801601,35.0857695835,100
                135.7416177077,35.0854313326,100
                135.7416488037,35.0853707606,100
                135.7416962258,35.085342831,100
                135.7418162177,35.0853414631,100
                135.7418804998,35.0853883614,100
                135.741965514,35.085587565,100
                135.7420503647,35.0858256443,100
                135.7420685021,35.0861241505,100
                135.7420617721,35.0862775961,100
                135.742081457,35.0863327814,100
                135.7421484624,35.0863858828,100
                135.7422634943,35.0864373945,100
                135.7423758578,35.0864653076,100
                135.7425692204,35.0864682485,100
                135.7429496636,35.0865099615,100
                135.743284995,35.0865048869,100
                135.7435121726,35.0864538796,100
                135.7437448997,35.0863810505,100
                135.7439413521,35.0862844822,100
                135.7441427264,35.0861615138,100
                135.7443824813,35.0860386248,100
                135.7444782145,35.086111433,100
                135.7445426538,35.0861217793,100
                135.7446535211,35.086183914,100
                135.744864512,35.0862419614,100
                135.7449411799,35.0862810663,100
                135.744960783,35.0863632244,100
                135.7449042136,35.0864619152,100
                135.7449449883,35.0865621467,100
                135.7450264328,35.0866079511,100
                135.7451696852,35.0866286707,100
                135.7452972664,35.0866184416,100
                135.7453523644,35.0865528495,100
                135.7453224388,35.0864836281,100
                135.7455253658,35.0864966545,100
                135.7457277403,35.0864731983,100
                135.7459317111,35.0863900239,100
                135.7461383178,35.0863339677,100
                135.7462302268,35.0863269034,100
                135.7463687083,35.0863386692,100
                135.7465303965,35.0863751307,100
                135.7466715074,35.086423382,100
                135.7469816241,35.0865745919,100
                135.7471176527,35.0866959322,100
                135.7471895274,35.0869322151,100
                135.7474078976,35.0872366182,100
                135.7474603958,35.0873289827,100
                135.7478746564,35.0877099853,100
                135.7479409001,35.08778287,100
                135.7479918721,35.0879200219,100
                135.7480170423,35.0879758501,100
                135.7484524776,35.0875882048,100
                135.7487740013,35.087619074,100
                135.7490612191,35.0876543081,100
                135.7492182624,35.08765653,100
                135.7493644334,35.0876266146,100
                135.7495205823,35.0874843221,100
                135.749584647,35.0874064209,100
                135.7497239276,35.0871819778,100
                135.7498717259,35.0872808731,100
                135.7505048451,35.0868308032,100
                135.7502999064,35.086401144,100
                135.7503885514,35.0863473775,100
                135.7504658412,35.0864089461,100
                135.7504961796,35.0865558463,100
                135.7508396157,35.0865929513,100
                135.7510364128,35.0866015185,100
                135.7513080324,35.0865803763,100
                135.7515811753,35.0865222634,100
                135.7518229849,35.0863982367,100
                135.7520062053,35.0863699416,100
                135.7521199874,35.0863765795,100
                135.7524398957,35.0864306766,100
                135.7527112662,35.0864569978,100
                135.752849727,35.0864620647,100
                135.7529539963,35.0864478369,100
                135.7531365804,35.0863957352,100
                135.7533345472,35.0862774626,100
                135.7534921262,35.0861487568,100
                135.7534707396,35.086022299,100
                135.7537109434,35.0858176271,100
                135.7537177465,35.0856760125,100
                135.7540709448,35.0856488299,100
                135.754391083,35.085653976,100
                135.7551972377,35.0856762152,100
                135.7556805345,35.0856859081,100
                135.7562327152,35.0859218037,100
                135.7565337486,35.0859050036,100
                135.7567777677,35.085916049,100
                135.7569132647,35.0858216634,100
                135.7570073783,35.0857787481,100
                135.7573578716,35.0856949976,100
                135.7575826087,35.0856269862,100
                135.7580555223,35.0855103037,100
                135.758508474,35.0854147787,100
                135.7593771915,35.0852535113,100
                135.7597532955,35.08517072,100
                135.7597958335,35.0847504283,100
                135.7595238525,35.0848320847,100
                135.759376348,35.0848512344,100
                135.7589582622,35.0848242184,100
                135.7585114698,35.0847770034,100
                135.7580244459,35.0846813242,100
                135.7578970815,35.0846465645,100
                135.7578238915,35.0846103623,100
                135.7575444009,35.0844109283,100
                135.7574996623,35.0844455605,100
                135.756927589,35.0840635668,100
                135.7567365579,35.0840038207,100
                135.7565614677,35.0839131874,100
                135.7563830224,35.083798462,100
                135.7563915747,35.083730518,100
                135.7559072077,35.0834983483,100
                135.7553670047,35.0834766418,100
                135.7552495443,35.0833749943,100
                135.7551530962,35.083324025,100
                135.7550318913,35.0832865278,100
                135.7548606416,35.0832526639,100
                135.7546290211,35.0832231869,100
                135.7546008718,35.0830803058,100
                135.7545749696,35.0830464495,100
                135.7544142747,35.0829492222,100
                135.7541152904,35.0828048854,100
                135.7540240171,35.08282245,100
                135.7539505015,35.0827019448,100
                135.7537502639,35.0825556911,100
                135.7535592752,35.0824835437,100
                135.7535433484,35.0823649839,100
                135.7541121969,35.0824249987,100
                135.7542321638,35.0825833452,100
                135.7544003375,35.0826935462,100
                135.7545333236,35.082701418,100
                135.7546666553,35.0826361162,100
                135.754697486,35.0826401919,100
                135.7547496595,35.0827786135,100
                135.7548191549,35.0828755185,100
                135.7550056459,35.0830279405,100
                135.7551911784,35.0830921159,100
                135.755352784,35.0831349038,100
                135.7556523769,35.0831461331,100
                135.7559045456,35.0831802977,100
                135.7563899292,35.083343451,100
                135.7565967691,35.0833947778,100
                135.7566600757,35.083491599,100
                135.7566949977,35.0835030066,100
                135.7568569684,35.083466071,100
                135.7569255447,35.0834685304,100
                135.7570280828,35.0835318349,100
                135.7570232861,35.0833851266,100
                135.7570444393,35.0832565697,100
                135.757117608,35.0830073346,100
                135.7571820754,35.0827086419,100
                135.75724937,35.0826875767,100
                135.7574174652,35.0828112241,100
                135.7574426442,35.0828512055,100
                135.7574363325,35.0831782539,100
                135.7573981943,35.0832702256,100
                135.7573196124,35.0833570479,100
                135.7574169659,35.0836546499,100
                135.7575975477,35.0838964272,100
                135.7577474669,35.083944753,100
                135.7577486119,35.0838464405,100
                135.7579309473,35.0838544046,100
                135.7579667987,35.0839584954,100
                135.758080776,35.0840730213,100
                135.7581662601,35.0841165718,100
                135.7582443886,35.0841270069,100
                135.7585099516,35.0840785815,100
                135.7585757072,35.0840934296,100
                135.7586300342,35.08406107,100
                135.7587081948,35.0840602372,100
                135.7587224083,35.0839530051,100
                135.7588178963,35.083915092,100
                135.7589053481,35.0839817457,100
                135.7588789924,35.0840717342,100
                135.7590444142,35.0840987418,100
                135.7590629497,35.0841357382,100
                135.7596256971,35.0840782429,100
                135.7598603544,35.084034023,100
                135.7599097151,35.0839991313,100
                135.759950576,35.0839127281,100
                135.7600184091,35.0839202553,100
                135.7601110299,35.0836228144,100
                135.7600450321,35.0835140881,100
                135.7600468447,35.0834208466,100
                135.7602226947,35.0833094232,100
                135.7602222292,35.083285266,100
                135.759995034,35.083221298,100
                135.7597715424,35.0831583228,100
                135.75965442,35.0831080208,100
                135.7596285789,35.0830746587,100
                135.7598350897,35.0830259046,100
                135.7599511817,35.0829805655,100
                135.759962653,35.0829760807,100
                135.7600121728,35.0829465284,100
                135.7600492834,35.0829123032,100
                135.7601619567,35.0827679373,100
                135.7603953494,35.0829253029,100
                135.760425753,35.0829436021,100
                135.7605412656,35.0829653072,100
                135.7607231225,35.0829830567,100
                135.7607549162,35.0829872737,100
                135.7607741997,35.082962733,100
                135.7607821555,35.0829522544,100
                135.7608982355,35.0827996556,100
                135.7610513385,35.0825983222,100
                135.7609549387,35.0825889799,100
                135.7608298497,35.0825909197,100
                135.7606922325,35.0825550156,100
                135.7605810767,35.0825082479,100
                135.7603476974,35.0823248248,100
                135.7602275141,35.0823483241,100
                135.7601967149,35.0823629127,100
                135.7601162615,35.0824981152,100
                135.7599355722,35.0826319956,100
                135.759801545,35.0825253195,100
                135.7596427582,35.0826101546,100
                135.7594505477,35.0825070976,100
                135.7594702505,35.0824049469,100
                135.7595629366,35.0823800567,100
                135.7597164004,35.0822619697,100
                135.7597986014,35.0821375456,100
                135.7598444858,35.0820023462,100
                135.759833052,35.081956829,100
                135.7597405002,35.0818108655,100
                135.7597644132,35.0816817503,100
                135.7595795918,35.081616385,100
                135.7592896713,35.0813000976,100
                135.7592456085,35.0813314216,100
                135.7591464497,35.0812776326,100
                135.7590716702,35.0811402258,100
                135.7590913478,35.0810392019,100
                135.7590597959,35.0810401965,100
                135.7589341754,35.0809233949,100
                135.7589135821,35.080927228,100
                135.7588002831,35.0808155921,100
                135.7588306554,35.0807712829,100
                135.7587388803,35.0806018679,100
                135.7587086119,35.0804780699,100
                135.7587178484,35.0804101259,100
                135.7586701991,35.0803346058,100
                135.7586698051,35.0804183421,100
                135.758637494,35.0804373648,100
                135.7585225943,35.0803684033,100
                135.7584447346,35.0803040216,100
                135.7583499055,35.0801980544,100
                135.7582825555,35.0800848878,100
                135.7582146608,35.0800845431,100
                135.7580243103,35.08002149,100
                135.7576481042,35.079816161,100
                135.7574844611,35.0799071113,100
                135.7572038218,35.0800897371,100
                135.7570647428,35.0800645317,100
                135.7569682523,35.0800215219,100
                135.7568766949,35.0799469707,100
                135.756818087,35.0798697379,100
                135.7566913643,35.079837795,100
                135.756590779,35.0797892136,100
                135.7564109403,35.0796772312,100
                135.7565482707,35.079487845,100
                135.7566895538,35.0794843913,100
                135.7568635396,35.0792333127,100
                135.756908613,35.07912734,100
                135.7565317037,35.0790686338,100
                135.7563301499,35.0790509798,100
                135.75613621,35.0790227072,100
                135.7558800387,35.0789549413,100
                135.7558017024,35.078987746,100
                135.7557154135,35.0791104684,100
                135.7556458259,35.0791837851,100
                135.7555509356,35.079237403,100
                135.7554856299,35.0791225479,100
                135.755625073,35.0789213352,100
                135.7558413116,35.0787232317,100
                135.7559448864,35.0785708229,100
                135.7559706739,35.0784832641,100
                135.755943851,35.0783477097,100
                135.7558605612,35.0782665545,100
                135.7554687831,35.078153235,100
                135.755332295,35.0781583858,100
                135.7551721579,35.0782297618,100
                135.7549734581,35.0781896451,100
                135.7547404902,35.0782938346,100
                135.7545942296,35.0781853678,100
                135.7546015569,35.0780837579,100
                135.7544560538,35.0778011279,100
                135.754559496,35.0776806941,100
                135.7545459378,35.0776453136,100
                135.7544121555,35.0775043349,100
                135.75427131,35.0774054568,100
                135.7540171162,35.0773522693,100
                135.7535981121,35.0773434021,100
                135.7533060629,35.0773159843,100
                135.7531666256,35.0773620457,100
                135.7531344783,35.0773405716,100
                135.7531177378,35.0772522933,100
                135.7528856632,35.0771581608,100
                135.7527354828,35.0771520131,100
                135.7526886651,35.0771945973,100
                135.7526191413,35.0770959311,100
                135.7527074034,35.0769883564,100
                135.7526807824,35.0769596394,100
                135.7525759425,35.0769390753,100
                135.7525920797,35.0768576246,100
                135.7527235902,35.0768974692,100
                135.7529806214,35.0769321418,100
                135.7531288479,35.0769186364,100
                135.753331102,35.0767789637,100
                135.7535366949,35.0768190263,100
                135.7536663155,35.0768178064,100
                135.7540370006,35.0767472768,100
                135.754258081,35.0766929973,100
                135.7543707934,35.0766450514,100
                135.754414563,35.0765182306,100
                135.7542750804,35.0764228061,100
                135.7541723522,35.0763904161,100
                135.7541612277,35.0762717954,100
                135.7540538398,35.0762079858,100
                135.7541620128,35.07610214,100
                135.7542879478,35.0760076687,100
                135.7544185572,35.0759401794,100
                135.7545757405,35.0760683163,100
                135.7546426143,35.0761438058,100
                135.7548215464,35.0764630529,100
                135.7549543742,35.0766646669,100
                135.7550274453,35.0767306605,100
                135.7551252971,35.0767821966,100
                135.7552367297,35.0768617883,100
                135.7553410294,35.0768481223,100
                135.7554131105,35.07668544,100
                135.755489313,35.0763683209,100
                135.755506963,35.0762593355,100
                135.7556792618,35.0762307331,100
                135.7557064409,35.0764325579,100
                135.7557380563,35.0765686843,100
                135.7558157229,35.0766813094,100
                135.7558582155,35.076688225,100
                135.7560724639,35.0766334358,100
                135.7561043996,35.076697587,100
                135.7560884904,35.0768772835,100
                135.7560615027,35.07692836,100
                135.755963152,35.0769875338,100
                135.7559257318,35.0772199374,100
                135.7560203519,35.0773720341,100
                135.7560337269,35.0774479802,100
                135.7560815054,35.0774998383,100
                135.7562649072,35.0775853472,100
                135.7564068144,35.077601615,100
                135.7565919588,35.0776045168,100
                135.7567926278,35.0778115451,100
                135.7570988587,35.0781806206,100
                135.7569901747,35.0782499162,100
                135.757020856,35.0782899086,100
                135.7574036823,35.0782581975,100
                135.7574274775,35.0781560558,100
                135.757639963,35.0780315382,100
                135.757768256,35.0778779798,100
                135.7580321765,35.0774648853,100
                135.7581870587,35.0774896277,100
                135.7583254585,35.0776649091,100
                135.758235829,35.0777662173,100
                135.7580851789,35.0780067094,100
                135.7579654598,35.0782383873,100
                135.7579060209,35.078335389,100
                135.757871116,35.0784650459,100
                135.7578623637,35.0787262398,100
                135.7580057672,35.0787077181,100
                135.7582369219,35.0785556992,100
                135.7584163507,35.0784631597,100
                135.7585557834,35.0785647061,100
                135.7584913376,35.0787044471,100
                135.7584413557,35.0789812652,100
                135.7583767927,35.0791456546,100
                135.758733348,35.0794498222,100
                135.7587904046,35.0794208474,100
                135.7590887968,35.079546228,100
                135.759217901,35.0795106331,100
                135.759291564,35.0794491546,100
                135.7593981408,35.0793899226,100
                135.7596530047,35.0794442973,100
                135.7595688498,35.0796889346,100
                135.7595385683,35.0798574762,100
                135.7593530279,35.079937118,100
                135.7593532475,35.0800388142,100
                135.7593203982,35.0801691092,100
                135.7592649548,35.0802913314,100
                135.7593472789,35.0804264998,100
                135.7599321516,35.0802972137,100
                135.7599171017,35.0804348673,100
                135.7599349548,35.080571459,100
                135.7598597608,35.0806656135,100
                135.7597660735,35.0807556466,100
                135.7597365383,35.0809106672,100
                135.7597609531,35.0809702962,100
                135.7598449193,35.081048704,100
                135.7600379506,35.0811185914,100
                135.7600949321,35.0812485695,100
                135.7601481378,35.0813066337,100
                135.7601437347,35.0813702201,100
                135.7602715776,35.0814520937,100
                135.7603418033,35.0815349817,100
                135.7605619305,35.0816711928,100
                135.7606811048,35.0816997363,100
                135.7607901028,35.0817069917,100
                135.7608118141,35.0817390075,100
                135.7609819161,35.0818587815,100
                135.7609818217,35.0818914592,100
                135.7611630462,35.0819862526,100
                135.7613262125,35.0820157261,100
                135.7613282893,35.0820674941,100
                135.7613292363,35.0820810178,100
                135.7613562202,35.0820893095,100
                135.7616788099,35.0821907859,100
                135.7616927673,35.0821933483,100
                135.7620536045,35.0822301057,100
                135.762316906,35.0816095258,100
                135.7623888478,35.0814160624,100
                135.7623996617,35.0813869972,100
                135.7622512066,35.080889641,100
                135.7620270983,35.0807220151,100
                135.7620533251,35.0806883316,100
                135.7622258655,35.0807417676,100
                135.7623108842,35.0807455233,100
                135.762429741,35.0806976524,100
                135.7626042658,35.0807684864,100
                135.7627496504,35.0807690483,100
                135.7629382128,35.0806275741,100
                135.7630642478,35.0805185155,100
                135.7631968075,35.0803374231,100
                135.7632997851,35.0800304213,100
                135.7632265476,35.0800037294,100
                135.7632558248,35.0799066679,100
                135.7633353526,35.0799131595,100
                135.763475875,35.0794180511,100
                135.7634138765,35.0792811638,100
                135.7633683004,35.0792062833,100
                135.7634532308,35.0790902433,100
                135.7634798468,35.078837464,100
                135.7634627057,35.0786974938,100
                135.7633558786,35.0785240398,100
                135.763160533,35.0783659084,100
                135.7630766348,35.0783010248,100
                135.7628358133,35.0781534396,100
                135.7627161144,35.0780855992,100
                135.7620966078,35.0778517831,100
                135.7619964407,35.077858772,100
                135.7619915154,35.0777400947,100
                135.7620975007,35.0775275415,100
                135.7624738525,35.0777025754,100
                135.7625767868,35.0776865763,100
                135.7628025629,35.0777998348,100
                135.7630216197,35.0778810365,100
                135.7631614353,35.0779022936,100
                135.7633259772,35.0779119064,100
                135.7635565334,35.077889673,100
                135.763741899,35.0779870771,100
                135.7637759677,35.0780343282,100
                135.7643066809,35.0780515459,100
                135.7643063009,35.0779896405,100
                135.7643389232,35.0779133604,100
                135.7645216319,35.0777189825,100
                135.7645869551,35.0775461407,100
                135.7645257191,35.0774503839,100
                135.7645680092,35.0773561647,100
                135.7644660325,35.0773141355,100
                135.76451104,35.0772283022,100
                135.7649010847,35.0772668675,100
                135.7649679029,35.0769372599,100
                135.7648591471,35.0768772599,100
                135.7648878196,35.0767660407,100
                135.7647987739,35.0767416436,100
                135.7650696436,35.0763394642,100
                135.7651061109,35.0760407856,100
                135.7650307059,35.0757137461,100
                135.7649879584,35.075528349,100
                135.7647829618,35.0755119705,100
                135.7647548916,35.0756372046,100
                135.7644003624,35.0756218067,100
                135.76422082,35.0757290736,100
                135.7641659294,35.0757362222,100
                135.7641553962,35.0759221275,100
                135.7640379261,35.0759593682,100
                135.7638839105,35.0760369638,100
                135.7637249997,35.0761336358,100
                135.7636492346,35.0760563028,100
                135.7638163854,35.0759619713,100
                135.7639838955,35.0759283472,100
                135.7640028767,35.0758361962,100
                135.7639614347,35.0756196964,100
                135.7638243853,35.0755910507,100
                135.7637515341,35.0756183769,100
                135.7635580665,35.0757716755,100
                135.7633944703,35.075702483,100
                135.7634338176,35.0755138872,100
                135.763437173,35.075389661,100
                135.763314559,35.0753537897,100
                135.7629795207,35.0754200487,100
                135.7628322476,35.0755212488,100
                135.7626128909,35.0754939921,100
                135.7626271191,35.0751119566,100
                135.7625289797,35.0749812669,100
                135.7624567555,35.0750214117,100
                135.7622290591,35.0751610486,100
                135.7617778842,35.0752701809,100
                135.7613572972,35.0757243886,100
                135.7613734062,35.07581189,100
                135.7610938026,35.0757486665,100
                135.7609377409,35.0755413798,100
                135.7617650957,35.074633783,100
                135.760904671,35.0742868809,100
                135.7606172293,35.0741663144,100
                135.7605184957,35.0742861285,100
                135.7603305251,35.0745804968,100
                135.7602032068,35.0745283434,100
                135.7600717987,35.0747559866,100
                135.7598591535,35.0746091545,100
                135.7597474981,35.0747234494,100
                135.7598602972,35.0748046604,100
                135.7597612759,35.0750004633,100
                135.7596875152,35.0749349634,100
                135.7595586588,35.0750576056,100
                135.7591044823,35.0746440899,100
                135.758892085,35.0745960652,100
                135.7589140795,35.0744422266,100
                135.7591191647,35.0744424174,100
                135.7592516386,35.0744232384,100
                135.7594344148,35.0743547188,100
                135.7595657538,35.0742842673,100
                135.7596516904,35.0742137975,100
                135.7597769351,35.0740878384,100
                135.7598471934,35.0739733222,100
                135.7599759975,35.0738311014,100
                135.7595359045,35.0735190967,100
                135.7593895321,35.073428524,100
                135.7594249974,35.073369647,100
                135.7594588827,35.0733388664,100
                135.760553175,35.0738487074,100
                135.7607858902,35.0738462036,100
                135.7608771098,35.0737695455,100
                135.7608951334,35.0736620395,100
                135.7608990053,35.0734344289,100
                135.7607912115,35.0731785014,100
                135.7606839426,35.0730296927,100
                135.7609866138,35.073037113,100
                135.761081333,35.0732969599,100
                135.7611120348,35.0734925932,100
                135.761290724,35.073723587,100
                135.7613435623,35.0738107373,100
                135.761275623,35.0738948346,100
                135.7613446425,35.0739334925,100
                135.7613343499,35.0739968557,100
                135.761699737,35.0741656026,100
                135.761833015,35.0740678276,100
                135.7619041978,35.0741804365,100
                135.7621064799,35.0742081545,100
                135.7622188402,35.0742341475,100
                135.7622983575,35.0741602833,100
                135.76241388,35.0737947129,100
                135.7624155344,35.0736741461,100
                135.7623652676,35.0734376974,100
                135.7627237525,35.0735036054,100
                135.7626918703,35.0736279173,100
                135.7626985263,35.0738229407,100
                135.7626913207,35.0739530747,100
                135.7625624674,35.0740993125,100
                135.7626047554,35.0743549006,100
                135.7627384034,35.0745155196,100
                135.7630029106,35.0745692726,100
                135.7631172981,35.0747399954,100
                135.7634497001,35.0749345197,100
                135.7637593359,35.0750104019,100
                135.7637775304,35.0750812148,100
                135.7638321558,35.0751291393,100
                135.7639196038,35.0750597966,100
                135.7641579147,35.0751387797,100
                135.7642810354,35.0752071887,100
                135.7643996639,35.0752138256,100
                135.7644950822,35.0751961198,100
                135.7645659362,35.0751559717,100
                135.7646100814,35.0749661165,100
                135.7648705624,35.074863723,100
                135.7649827519,35.0746494186,100
                135.7650432564,35.0746181946,100
                135.7651303028,35.0744941994,100
                135.7652653086,35.074389804,100
                135.7651895722,35.0742951471,100
                135.7648085956,35.0742585014,100
                135.7647145304,35.0741774008,100
                135.7647354074,35.074141453,100
                135.7649180398,35.074135746,100
                135.7649742521,35.0741451498,100
                135.765048619,35.0741191644,100
                135.7652243715,35.0741150636,100
                135.7653579949,35.0740601751,100
                135.7653173444,35.0739100184,100
                135.7651132032,35.0739408975,100
                135.7648797855,35.0737765689,100
                135.7646105181,35.0736273127,100
                135.7645700137,35.0736298414,100
                135.7644846969,35.0735679134,100
                135.7643764805,35.0735384789,100
                135.7643929543,35.0734540693,100
                135.7645781966,35.0733813225,100
                135.7646613283,35.0734584573,100
                135.7647599988,35.0734788586,100
                135.7649348755,35.0736686403,100
                135.7650423049,35.0737115946,100
                135.7651926171,35.0737142061,100
                135.7652643795,35.0736701161,100
                135.76542285,35.0736807005,100
                135.7654698594,35.073725511,100
                135.7656390212,35.0736892831,100
                135.7657494305,35.0736183626,100
                135.765809197,35.0736126311,100
                135.7659773181,35.0734523795,100
                135.7660667931,35.0733397275,100
                135.7661530001,35.0732917195,100
                135.7662605775,35.0730629688,100
                135.7662338763,35.073053833,100
                135.7662655428,35.0729582537,100
                135.7661287321,35.0728998922,100
                135.765880184,35.0729057565,100
                135.765769163,35.0729664636,100
                135.7655455995,35.072937515,100
                135.7654579857,35.0729076278,100
                135.7653048896,35.0727398615,100
                135.7651991334,35.072658739,100
                135.7651498635,35.0725581469,100
                135.7649791475,35.072614513,100
                135.7649462503,35.0726081117,100
                135.7648526406,35.072638568,100
                135.7647875973,35.0726172457,100
                135.7645992003,35.0724003231,100
                135.7645996298,35.0723473633,100
                135.7643890579,35.0721567385,100
                135.7642710033,35.0721532019,100
                135.7642001923,35.072081794,100
                135.7639729848,35.0720775551,100
                135.7639600794,35.0719771721,100
                135.7640129967,35.0719701613,100
                135.764062404,35.0718870821,100
                135.7640304055,35.0717685635,100
                135.7639533072,35.0717094685,100
                135.7635862433,35.0715979822,100
                135.7635924888,35.0715033412,100
                135.7636865458,35.0715033104,100
                135.7635635196,35.0713520795,100
                135.7635639295,35.0712162982,100
                135.7635903812,35.0711702198,100
                135.7634102423,35.0710333866,100
                135.7634442144,35.0709935202,100
                135.7635795506,35.0709814563,100
                135.7637266815,35.0710392074,100
                135.7638146313,35.0711146624,100
                135.7638965058,35.0712633496,100
                135.7640805691,35.0713388477,100
                135.7643928822,35.0715148794,100
                135.7644989759,35.0715521976,100
                135.7645875133,35.0716400482,100
                135.764673614,35.0716890192,100
                135.7649540904,35.0718106897,100
                135.7650688741,35.0719624668,100
                135.7654376371,35.0722007896,100
                135.7654899058,35.0721053214,100
                135.7656891076,35.0721758457,100
                135.7657783476,35.0721753116,100
                135.7658864993,35.0721291778,100
                135.765748098,35.0720133443,100
                135.7657436722,35.0718825536,100
                135.7656953961,35.0716579423,100
                135.7655440616,35.0716096937,100
                135.7653876727,35.0715084741,100
                135.7652771899,35.0714181876,100
                135.7650980893,35.0711561403,100
                135.7649851306,35.071033171,100
                135.7649526381,35.0709749367,100
                135.7648970299,35.070806723,100
                135.7647203696,35.0706663765,100
                135.7648194334,35.070554377,100
                135.7650153346,35.0706089804,100
                135.7652386475,35.07058835,100
                135.765386866,35.0705120798,100
                135.7654326695,35.0705359714,100
                135.765368016,35.0706341631,100
                135.7656330992,35.0707908045,100
                135.7658904209,35.0708903852,100
                135.7660064724,35.0709733579,100
                135.7660684106,35.0710391127,100
                135.7660821416,35.0711209038,100
                135.7660902993,35.0713858639,100
                135.766148792,35.0715349969,100
                135.766216535,35.071645907,100
                135.7663836214,35.0717815134,100
                135.7666062873,35.0720061043,100
                135.7666746612,35.0721214512,100
                135.7669796051,35.0721875975,100
                135.7671150325,35.0723337777,100
                135.7674465832,35.072252922,100
                135.7677333076,35.0721960671,100
                135.7679957645,35.0721705757,100
                135.7681629559,35.072125396,100
                135.7682255178,35.0720586674,100
                135.7682938537,35.0719857763,100
                135.7684600117,35.0714000023,100
                135.768612952,35.0711664047,100
                135.7686899197,35.0710744314,100
                135.7687326517,35.070972112,100
                135.768324405,35.0708597874,100
                135.7683141271,35.0706911674,100
                135.7682256706,35.0703445733,100
                135.7679275266,35.0700327969,100
                135.7677274769,35.0698997349,100
                135.7669470567,35.0696245793,100
                135.7660617071,35.0693353439,100
                135.7651863084,35.0690878148,100
                135.7646158586,35.0689086142,100
                135.7634010984,35.0682556795,100
                135.760795591,35.0667860448,100
                135.7582807517,35.0653635126,100
                135.7560532691,35.0641305267,100
                135.7572812552,35.0627995,100
                135.756012338,35.0628706561,100
                135.7550712353,35.0628201912,100
                135.7545589545,35.0627288121,100
                135.7543584013,35.0622038747,100
                135.7536242588,35.0619416868,100
                135.7530900227,35.0619335726,100
                135.7526492598,35.0619164886,100
                135.7525705463,35.0616169473,100
                135.75241549,35.0614189475,100
                135.7521233365,35.0610106604,100
                135.7519683921,35.0608756222,100
                135.7518431914,35.0607470527,100
                135.751147251,35.0601295556,100
                135.751147485,35.0598746125,100
                135.7511470768,35.0595987519,100
                135.7511510202,35.0590797875,100
                135.7509225026,35.0590525621,100
                135.7505293155,35.059013312,100
                135.7500463686,35.0590722638,100
                135.7499574073,35.0592675162,100
                135.7498494865,35.0595428753,100
                135.7497147025,35.0599210021,100
                135.7494625299,35.0605109436,100
                135.7493130621,35.0608012892,100
                135.7490722426,35.0612689927,100
                135.7490363655,35.0613422328,100
                135.7489329184,35.0615535121,100
                135.7486839783,35.062061907,100
                135.7485892814,35.0622186938,100
                135.7482504765,35.0627795127,100
                135.7481233634,35.0629899689,100
                135.7479067294,35.0633232058,100
                135.7477339628,35.0635890647,100
                135.7476310125,35.0637474537,100
                135.7474788778,35.0639816621,100
                135.7472922537,35.0642333362,100
                135.7470564757,35.0645513188,100
                135.7468908571,35.0647340853,100
                135.7468616502,35.0647684635,100
                135.746629134,35.0650420119,100
                135.7463510222,35.0653377906,100
                135.7462546177,35.0654488646,100
                135.7460571223,35.0656419168,100
                135.7457201551,35.0660922295,100
                135.745590074,35.0662213322,100
                135.7451528596,35.0667073525,100
                135.7450662108,35.0667860498,100
                135.7447436622,35.0666298044,100
                135.7451149465,35.0661501978,100
                135.7457161636,35.06544345,100
                135.7464738679,35.0645818039,100
                135.7463995543,35.0645498174,100
                135.7458628667,35.0642516425,100
                135.7449407583,35.0637818066,100
                135.7443073639,35.0646807487,100
                135.743408886,35.0641465798,100
                135.7427172305,35.0639618053,100
                135.7417846165,35.0636595383,100
                135.7408453176,35.0634761302,100
                135.7406903703,35.0639120954,100
                135.7405425405,35.064487874,100
                135.7405297281,35.0645377789,100
              </coordinates>
            </LinearRing>
          </outerBoundaryIs>
        </Polygon>
      </Placemark>
    </Document>
  </Document>
</kml>
