<?xml version="1.0" encoding="UTF-8"?>
<kml xmlns="http://www.opengis.net/kml/2.2">
  <Document id="root_doc">
    <Document id="_0_06______disv4326">
      <name>10_06鷹峯disv4326</name>
      <Placemark id="_0_06______disv4326.1">
        <visibility>1</visibility>
        <Polygon>
          <extrude>0</extrude>
          <outerBoundaryIs>
            <LinearRing>
              <coordinates>
                135.7180497053,35.0698734436,100
                135.7182514496,35.0692992937,100
                135.7184585797,35.0685323256,100
                135.7187349129,35.0678621428,100
                135.7191652076,35.0672251358,100
                135.719688756,35.0665698186,100
                135.7198840443,35.0661386875,100
                135.7200112917,35.0658159987,100
                135.7202340778,35.065396057,100
                135.7203349871,35.0652493772,100
                135.7203816805,35.0647848706,100
                135.7204811492,35.0644059152,100
                135.7206268666,35.0639523421,100
                135.7208693537,35.0631312148,100
                135.7208777944,35.0626804946,100
                135.7208894243,35.0623063378,100
                135.7209156189,35.0620830699,100
                135.7208965268,35.0619348455,100
                135.7208699657,35.061677934,100
                135.7208461915,35.0612536976,100
                135.7209480297,35.0607771427,100
                135.7212125924,35.060426321,100
                135.7214497948,35.0600981831,100
                135.7215475526,35.0598856489,100
                135.7217112943,35.0596887589,100
                135.7219083628,35.059559272,100
                135.722154537,35.0593641907,100
                135.7223181119,35.0591380031,100
                135.7224137915,35.0590518082,100
                135.7224823787,35.0590380206,100
                135.7227272446,35.0591159091,100
                135.7228790621,35.0590438569,100
                135.722973131,35.0588690625,100
                135.723066124,35.0587986364,100
                135.7232802648,35.0587797581,100
                135.723499474,35.0586795478,100
                135.7235731134,35.0585821741,100
                135.7238280488,35.0584909183,100
                135.7241758788,35.05830677,100
                135.7243888349,35.0580643527,100
                135.7245498365,35.0579206951,100
                135.7247111535,35.0577336564,100
                135.7248507186,35.0576360805,100
                135.724762128,35.0575100973,100
                135.7248991176,35.0574463202,100
                135.7251291603,35.0573190171,100
                135.7253809689,35.0571554926,100
                135.7255666818,35.0569584362,100
                135.725678482,35.056806779,100
                135.7257682763,35.0566530298,100
                135.7258424893,35.0566593951,100
                135.7261617878,35.0567154705,100
                135.7261986713,35.0566595642,100
                135.7261938802,35.0565217993,100
                135.7260946205,35.0563518473,100
                135.7260377162,35.0561941752,100
                135.7260745501,35.0561469317,100
                135.726383609,35.0560153674,100
                135.7266600726,35.0560159901,100
                135.7267099827,35.0559510277,100
                135.7267890255,35.0560053636,100
                135.7274694763,35.0559811172,100
                135.7275785108,35.0559658674,100
                135.7276613052,35.0558887957,100
                135.7276545916,35.0556905291,100
                135.7276098525,35.0556349331,100
                135.7274194354,35.0554868212,100
                135.7274206662,35.0554385113,100
                135.72751414,35.0552581466,100
                135.727635261,35.0551416515,100
                135.727922284,35.0549970746,100
                135.7280392908,35.0548941616,100
                135.7281500385,35.0547541197,100
                135.7282814301,35.0546327165,100
                135.728481337,35.0544982266,100
                135.7283612185,35.0547146603,100
                135.7283021161,35.054919681,100
                135.7282560761,35.055143324,100
                135.7285698243,35.0552385377,100
                135.7286482598,35.0553154076,100
                135.7287288065,35.0554208754,100
                135.7288750856,35.0557229105,100
                135.7289866378,35.055873872,100
                135.7291193877,35.055998471,100
                135.7301587544,35.056015294,100
                135.7305142336,35.0558222692,100
                135.7306484374,35.0557312235,100
                135.7308087257,35.0556512212,100
                135.7310075018,35.0555875736,100
                135.731176893,35.055572807,100
                135.7313676204,35.0555809766,100
                135.7315214242,35.0556251917,100
                135.731640915,35.0556733461,100
                135.7317192896,35.0557300722,100
                135.7319130869,35.0554848517,100
                135.7323595065,35.0555597141,100
                135.7323747851,35.0558473008,100
                135.7324538702,35.0559162811,100
                135.732570679,35.0559734433,100
                135.732816303,35.0559889147,100
                135.7329687359,35.0559343883,100
                135.7329690999,35.0559343891,100
                135.7336369693,35.0549224841,100
                135.7340849389,35.0544816079,100
                135.7339592575,35.0544277385,100
                135.7340323939,35.0543423999,100
                135.7341567368,35.05440007,100
                135.7343384754,35.0541661576,100
                135.7344164841,35.0540566742,100
                135.7345583937,35.0538575356,100
                135.7345632761,35.0538504329,100
                135.7346639498,35.0537038125,100
                135.7347632681,35.0535590902,100
                135.7347987163,35.053488177,100
                135.7347224393,35.0534450507,100
                135.7347853023,35.0533646896,100
                135.7348766597,35.0534055949,100
                135.7350652496,35.0531705682,100
                135.7351631198,35.053103101,100
                135.7353481499,35.0530500491,100
                135.7352751261,35.0529473497,100
                135.7350992388,35.0528525963,100
                135.7351919836,35.0526806052,100
                135.7353788686,35.0527836932,100
                135.7354330182,35.0525483752,100
                135.7352529316,35.0524283292,100
                135.7356504006,35.0518774005,100
                135.7360638229,35.0512765731,100
                135.7362919566,35.0512611509,100
                135.7370412382,35.0507528823,100
                135.7376693973,35.0509675566,100
                135.7378385742,35.0510236278,100
                135.7380901407,35.0509367693,100
                135.738227293,35.0508424109,100
                135.7383084649,35.0507865263,100
                135.7383789629,35.0507406886,100
                135.7378146082,35.0505459445,100
                135.7373536944,35.0503760704,100
                135.7370190081,35.0502489328,100
                135.7370771565,35.0501080646,100
                135.7371121277,35.0501186341,100
                135.7371792036,35.0499908844,100
                135.7371332232,35.0499747979,100
                135.7371919217,35.0498622422,100
                135.7372050412,35.0498369875,100
                135.7373273139,35.0495394183,100
                135.7374999014,35.0493833725,100
                135.737570951,35.049386413,100
                135.7376589955,35.0492148325,100
                135.7376769283,35.0491839545,100
                135.7377348802,35.0490838625,100
                135.7377451269,35.0490662774,100
                135.7379760731,35.0486128765,100
                135.7380418495,35.0484958284,100
                135.7382627039,35.048192835,100
                135.7384205339,35.0478879458,100
                135.7372415556,35.0474905993,100
                135.7367530291,35.0473381978,100
                135.7368648168,35.0471261036,100
                135.7371540724,35.0465675425,100
                135.7374216524,35.0460509782,100
                135.7375884746,35.0456444136,100
                135.737649399,35.0455038328,100
                135.73779825,35.04516019,100
                135.7378685557,35.0449979379,100
                135.7379027812,35.0449189233,100
                135.7379584687,35.0448839701,100
                135.738138895,35.0447708307,100
                135.7381511166,35.0447511376,100
                135.7383268158,35.0436253262,100
                135.7383574266,35.04351116,100
                135.7384987673,35.043184263,100
                135.7381516028,35.0431191462,100
                135.7377421124,35.0430972066,100
                135.7376542202,35.0441563729,100
                135.7366761815,35.0440260859,100
                135.736672656,35.0439434677,100
                135.7368179554,35.0428842848,100
                135.7364098354,35.0428560049,100
                135.7363284306,35.0433036718,100
                135.7362536715,35.0437147308,100
                135.736226064,35.0438665102,100
                135.736123044,35.0444723085,100
                135.7360289682,35.0445818997,100
                135.7356793518,35.044989263,100
                135.7356133629,35.0452331476,100
                135.7356052957,35.0453258823,100
                135.73587345,35.0454571052,100
                135.7357875403,35.0456909455,100
                135.7356595571,35.0457585596,100
                135.7355849919,35.0458181194,100
                135.7357634937,35.0460146445,100
                135.7358276259,35.0462326121,100
                135.7358812581,35.0463392837,100
                135.7358810704,35.0466061996,100
                135.7358425598,35.046732673,100
                135.7358164887,35.0468720604,100
                135.7357830866,35.0469737542,100
                135.7356888536,35.0471385596,100
                135.7355657777,35.0472706943,100
                135.7354618925,35.0474140684,100
                135.7353861453,35.0475415865,100
                135.7351005533,35.0480078935,100
                135.7349706136,35.0481232512,100
                135.7347996683,35.0483343706,100
                135.7346605378,35.0484918934,100
                135.7346421769,35.0485424899,100
                135.7346200802,35.0487171697,100
                135.7345726432,35.0489020053,100
                135.7342378272,35.0492995345,100
                135.7339507783,35.0496222342,100
                135.7322758783,35.0514125264,100
                135.7320201106,35.0516639484,100
                135.7316686424,35.0515631672,100
                135.730937563,35.0522886329,100
                135.7308338641,35.0522443865,100
                135.7307382944,35.0521697338,100
                135.7305738849,35.0519980918,100
                135.7305166187,35.0518840855,100
                135.7304698987,35.0518582756,100
                135.7303379708,35.0517719215,100
                135.7302676163,35.051877053,100
                135.7297348689,35.0521758864,100
                135.7296548751,35.0522691645,100
                135.7295674832,35.052654062,100
                135.7294895788,35.0527564297,100
                135.7293450492,35.0528239995,100
                135.7291797476,35.0528275046,100
                135.7289793136,35.052770927,100
                135.7287583868,35.052748179,100
                135.7286356518,35.0527578351,100
                135.7284780262,35.0528096695,100
                135.7283137057,35.0529188149,100
                135.7278521731,35.0531996292,100
                135.7277784526,35.0533311619,100
                135.7278392602,35.0534939843,100
                135.7281102287,35.0537509442,100
                135.728172967,35.0538604567,100
                135.7281286875,35.0539784636,100
                135.7278902077,35.0543123853,100
                135.7276788781,35.0545412208,100
                135.7275762409,35.0546300803,100
                135.7275253091,35.0548239216,100
                135.7274564478,35.0549750429,100
                135.7273030874,35.0550892828,100
                135.7271563907,35.0551243075,100
                135.727023252,35.0551058382,100
                135.7267638033,35.0550499,100
                135.7265475369,35.0549827187,100
                135.7263759372,35.0549464151,100
                135.7262023671,35.0549370798,100
                135.7258437763,35.0550003584,100
                135.7256947127,35.0549224123,100
                135.7256218024,35.054852314,100
                135.7254737166,35.0546215435,100
                135.7253758166,35.0544362406,100
                135.7251987543,35.0544016128,100
                135.7249490277,35.0543911883,100
                135.7246985793,35.0543599848,100
                135.7245582747,35.0542236025,100
                135.7243068835,35.0540896443,100
                135.7242351029,35.0539189082,100
                135.7241119245,35.0537646056,100
                135.7238576569,35.053587962,100
                135.7237711358,35.0535492414,100
                135.7236247918,35.0534595377,100
                135.7233152052,35.0533587563,100
                135.7230827232,35.0533853408,100
                135.7229343695,35.0533012653,100
                135.7228263165,35.0531642508,100
                135.7226984488,35.053049867,100
                135.7226311302,35.0530060493,100
                135.7224306749,35.0529444604,100
                135.7223042814,35.0528631806,100
                135.7222957893,35.0527586478,100
                135.7224203556,35.052643996,100
                135.7224709092,35.0525664307,100
                135.7224726951,35.052455161,100
                135.7223386334,35.0523367482,100
                135.7222752134,35.0522032148,100
                135.7220071096,35.0522411246,100
                135.7219322487,35.0521928507,100
                135.7216698937,35.0523352147,100
                135.7216102605,35.0523555015,100
                135.7214469966,35.0523511119,100
                135.720999791,35.0523499425,100
                135.7209147543,35.0523545351,100
                135.7205123387,35.052442486,100
                135.7203572851,35.0524286063,100
                135.7200922317,35.052304184,100
                135.7199939693,35.0522307131,100
                135.7198956818,35.0521330154,100
                135.7197149724,35.0520068154,100
                135.7194553939,35.0518722631,100
                135.7192296705,35.0518437814,100
                135.7178549947,35.0517743868,100
                135.7176041096,35.0521245273,100
                135.7173688632,35.0524528704,100
                135.7173052113,35.0525152606,100
                135.7172003657,35.0525642446,100
                135.7170371923,35.0525958373,100
                135.7166017338,35.0526405966,100
                135.7164571128,35.0526817389,100
                135.7162357595,35.0527774232,100
                135.7160534943,35.0528691849,100
                135.715863194,35.0530440296,100
                135.7157289198,35.0531206203,100
                135.7155335062,35.0531628399,100
                135.7153246534,35.0533215147,100
                135.7151374635,35.0533564996,100
                135.7149071074,35.0534106796,100
                135.714713606,35.0533759958,100
                135.7141623472,35.0531613726,100
                135.7143000631,35.0534218554,100
                135.7141499185,35.0534618566,100
                135.7140270799,35.0534255078,100
                135.7138610261,35.0534037762,100
                135.7136237182,35.0534123704,100
                135.7134406994,35.0534731396,100
                135.7132294275,35.0534756675,100
                135.7130543867,35.0534151079,100
                135.712924496,35.0532950739,100
                135.71285925,35.0532165335,100
                135.7126563333,35.0531127364,100
                135.7123482451,35.0530213665,100
                135.7121520427,35.0527966631,100
                135.7119026447,35.0523779495,100
                135.7117376407,35.0523379774,100
                135.7110263175,35.0523476216,100
                135.7105924502,35.0523651785,100
                135.7104282618,35.0524787358,100
                135.7101989613,35.052745807,100
                135.7100325405,35.0529585893,100
                135.7099174988,35.0530200066,100
                135.7096020004,35.0530889028,100
                135.7091816696,35.0530703634,100
                135.7090091901,35.0531771392,100
                135.7088757918,35.0534032444,100
                135.7088689845,35.0536762771,100
                135.7089311239,35.0540031397,100
                135.7090009808,35.0542307181,100
                135.7090675101,35.0543456048,100
                135.7091149704,35.05449425,100
                135.7089979024,35.0546910267,100
                135.7088538428,35.0549826751,100
                135.7089072602,35.0552148626,100
                135.7089641878,35.055593689,100
                135.7090118146,35.0557740277,100
                135.7092269564,35.0559468094,100
                135.7092688355,35.0560752297,100
                135.7092150904,35.0563125829,100
                135.7092044105,35.0563598144,100
                135.7092190715,35.0565379614,100
                135.7093160548,35.0567001077,100
                135.7098022368,35.0572260988,100
                135.7100238326,35.057579401,100
                135.7105264658,35.058624198,100
                135.7108949032,35.0597463545,100
                135.7110048991,35.0602919366,100
                135.7108594931,35.060845223,100
                135.710663373,35.0611618928,100
                135.7105573281,35.0613653886,100
                135.7103364634,35.0612385155,100
                135.7101847218,35.0611060326,100
                135.7101424869,35.0609191571,100
                135.7100561391,35.0606963998,100
                135.7098551162,35.0605912656,100
                135.7095580102,35.0604930833,100
                135.7093211563,35.0603653918,100
                135.7090790701,35.0602829031,100
                135.7086353038,35.0604759334,100
                135.7081044919,35.0608202419,100
                135.7077032249,35.0612496554,100
                135.7073265737,35.0616633498,100
                135.7071325973,35.0618419754,100
                135.706987396,35.0619010644,100
                135.7066940503,35.0619854287,100
                135.705996364,35.0619448585,100
                135.7056995817,35.0619053311,100
                135.7054662089,35.0619128614,100
                135.7051414991,35.0622834312,100
                135.7048387211,35.0626518003,100
                135.7045329933,35.0629817084,100
                135.7042898432,35.0632078192,100
                135.7040490482,35.0633618171,100
                135.7035178554,35.0636406751,100
                135.7035824729,35.0639063434,100
                135.7035386486,35.0644292277,100
                135.7035314334,35.0646140106,100
                135.7036318093,35.0648931475,100
                135.7037030398,35.0653637743,100
                135.7036986193,35.0655575786,100
                135.7037131898,35.0657106516,100
                135.7036755039,35.0658527521,100
                135.7034725762,35.0659007091,100
                135.7032563642,35.0660343429,100
                135.7031667238,35.0662126557,100
                135.703170824,35.0664604275,100
                135.7030813345,35.0666681088,100
                135.7029111222,35.0666753679,100
                135.702674897,35.0666626043,100
                135.7022822258,35.0666638934,100
                135.702183847,35.0667521079,100
                135.7020864215,35.0670160404,100
                135.7019972532,35.0672821059,100
                135.7018413886,35.0674020829,100
                135.7015727029,35.0674818485,100
                135.7014634034,35.0675813041,100
                135.701231982,35.0679448425,100
                135.7009447894,35.0681552037,100
                135.7005562013,35.068404331,100
                135.700513456,35.0686230426,100
                135.7005667049,35.0688210751,100
                135.7006168917,35.0689605739,100
                135.7005572462,35.0691027604,100
                135.7004727908,35.0692246719,100
                135.7003580236,35.0693309452,100
                135.69988879,35.0693933093,100
                135.6995187161,35.0695138796,100
                135.6992368433,35.0696950244,100
                135.6990373592,35.0698759501,100
                135.6988618255,35.069919319,100
                135.6987078986,35.0698926682,100
                135.6984445291,35.0699386356,100
                135.6982438219,35.0698965145,100
                135.6979600097,35.0697171339,100
                135.697641,35.0696347839,100
                135.6972973504,35.0695614562,100
                135.696828131,35.0696306397,100
                135.6966803533,35.0697256988,100
                135.6964589946,35.0694177292,100
                135.6960612464,35.0684841326,100
                135.6958071871,35.0677121744,100
                135.6958121127,35.0671015815,100
                135.6957269197,35.0665791481,100
                135.6955548101,35.0662350302,100
                135.6952549399,35.0661346216,100
                135.6948981801,35.066176333,100
                135.6946357392,35.0663956863,100
                135.6945407978,35.0666122224,100
                135.6945395506,35.066891605,100
                135.6944610448,35.0670990967,100
                135.6942149085,35.0672868694,100
                135.6941198074,35.0674764309,100
                135.6940261024,35.067925027,100
                135.6938679745,35.0681373884,100
                135.6935804549,35.0682914611,100
                135.6934463788,35.0683819726,100
                135.6934056365,35.0684653962,100
                135.6937709289,35.0689846651,100
                135.6941803037,35.0695308074,100
                135.6945537507,35.0700365001,100
                135.6947871119,35.0705337337,100
                135.6949184902,35.0709612702,100
                135.6949610585,35.0712135038,100
                135.6946050926,35.0714060674,100
                135.6943071774,35.0716706119,100
                135.6940782687,35.071997939,100
                135.6938796735,35.0723454848,100
                135.6937353118,35.0725690048,100
                135.693690406,35.0728979933,100
                135.6936176838,35.0731618378,100
                135.6934866335,35.0733063734,100
                135.6930502262,35.0738596656,100
                135.6928788128,35.0741575581,100
                135.6927514819,35.0744823941,100
                135.692701052,35.0748091849,100
                135.6925789196,35.0750776224,100
                135.6923799658,35.0753620638,100
                135.6921363949,35.0755204683,100
                135.6920246935,35.075689842,100
                135.6916772802,35.0764545653,100
                135.6913012362,35.0775144432,100
                135.6912448818,35.0777623412,100
                135.6913156173,35.0781496549,100
                135.6913600714,35.0782441397,100
                135.6920268114,35.0786385987,100
                135.6924817069,35.0789639226,100
                135.6926923395,35.0793146155,100
                135.6927289249,35.0794812656,100
                135.6926889722,35.0797134308,100
                135.6927038814,35.0799319302,100
                135.6928728408,35.0801949066,100
                135.6932062126,35.0803944217,100
                135.693468444,35.0806369982,100
                135.6936183217,35.0809293643,100
                135.6937132804,35.0812219427,100
                135.6938825241,35.0815367524,100
                135.6940208435,35.0817233786,100
                135.6941314789,35.0817916193,100
                135.6935434024,35.0828287116,100
                135.6937063588,35.0829971599,100
                135.6942188115,35.0832951579,100
                135.6945158088,35.0833664026,100
                135.6947197701,35.0834987538,100
                135.6948523192,35.0836312074,100
                135.6950392497,35.0836599887,100
                135.6953002044,35.083665996,100
                135.6956167514,35.0837979242,100
                135.6965812108,35.0843830471,100
                135.6970712067,35.084588931,100
                135.6970718409,35.0852106558,100
                135.6970216864,35.0855870298,100
                135.696901966,35.0857923757,100
                135.6965542842,35.0860052508,100
                135.695890538,35.086178386,100
                135.696246545,35.0864926751,100
                135.6964178556,35.086681425,100
                135.6964021839,35.0868302686,100
                135.696262263,35.0868599195,100
                135.6957242184,35.0869132923,100
                135.6954192798,35.0869006951,100
                135.6952686094,35.086975533,100
                135.6950036095,35.0872374883,100
                135.6949003563,35.0874473821,100
                135.6947435334,35.0873959979,100
                135.6945669681,35.087250122,100
                135.694443135,35.0872098781,100
                135.6942871361,35.0873117451,100
                135.6940220403,35.0875580626,100
                135.6938150519,35.087374008,100
                135.6934978097,35.0871157968,100
                135.6930159193,35.0874010739,100
                135.6932841819,35.0877426885,100
                135.6933487696,35.088006107,100
                135.6932849,35.0883892083,100
                135.6933226156,35.0892767509,100
                135.6934255511,35.0895220258,100
                135.6937067968,35.0897216922,100
                135.6939521345,35.0898831659,100
                135.694142543,35.0900516142,100
                135.6941929295,35.0902294285,100
                135.6940368392,35.0908268871,100
                135.6938475521,35.0913815824,100
                135.6938488536,35.0916249099,100
                135.6937755095,35.0917737481,100
                135.6937298885,35.0919788562,100
                135.693985826,35.0920683102,100
                135.6945524188,35.0922108048,100
                135.6946483326,35.0922259764,100
                135.6953542017,35.0923369846,100
                135.695888462,35.0924188242,100
                135.6961459708,35.0923389723,100
                135.6962038327,35.0923210177,100
                135.6963377503,35.0921967684,100
                135.6963639745,35.0919690745,100
                135.6966061825,35.0915471205,100
                135.6971091491,35.0910973648,100
                135.6977376062,35.0904917171,100
                135.6979478396,35.0902568768,100
                135.6981521792,35.0899521572,100
                135.6982217065,35.0896027326,100
                135.6982450791,35.0888478878,100
                135.6983669059,35.0885186655,100
                135.6984897382,35.0883763581,100
                135.6987459665,35.0885242589,100
                135.6989719879,35.088667789,100
                135.6998365006,35.0885458478,100
                135.7005308753,35.0884514395,100
                135.700842695,35.0882094517,100
                135.7014871833,35.0885387408,100
                135.7018704862,35.0888169558,100
                135.7020832793,35.0885504945,100
                135.7018986835,35.088447428,100
                135.7018069439,35.0882449371,100
                135.7018062769,35.088120985,100
                135.7018936443,35.0880283084,100
                135.7021819071,35.08800275,100
                135.7023627016,35.0879120641,100
                135.7024413315,35.0877292909,100
                135.7024319818,35.0875243268,100
                135.7022665579,35.0874099697,100
                135.702084365,35.0872414825,100
                135.7019870749,35.0870277806,100
                135.702010784,35.0868452231,100
                135.7022806988,35.086477067,100
                135.70270562,35.0863316277,100
                135.7031891034,35.0863459872,100
                135.7034423928,35.0864601379,100
                135.7036016957,35.0864596837,100
                135.7037439166,35.0863487597,100
                135.703953467,35.0859967186,100
                135.7041339429,35.0858496883,100
                135.7042761929,35.0857479186,100
                135.7043853482,35.0861193341,100
                135.7045295315,35.0863689964,100
                135.7047197825,35.0865013709,100
                135.704895491,35.0864895471,100
                135.7051332859,35.0862770174,100
                135.705436347,35.0859494299,100
                135.7056735511,35.0856309761,100
                135.7058181234,35.0854480789,100
                135.7058967495,35.0852631193,100
                135.7064716842,35.0854303038,100
                135.7071290851,35.0856040934,100
                135.7073297031,35.0856282435,100
                135.7074577783,35.0854453747,100
                135.707586149,35.0853120163,100
                135.707739615,35.085253019,100
                135.7078936125,35.085286351,100
                135.7080061907,35.0852814823,100
                135.7079779658,35.0851464063,100
                135.7078310993,35.0849079393,100
                135.7077726728,35.0847729304,100
                135.7079096539,35.0847117093,100
                135.7081761676,35.0847267216,100
                135.7086738439,35.0848265213,100
                135.7089654717,35.0849180048,100
                135.7091858625,35.085039036,100
                135.7093648449,35.08512412,100
                135.7095766675,35.0851842813,100
                135.7096908115,35.0849653883,100
                135.709887369,35.084748453,100
                135.7100371908,35.0845249256,100
                135.7100852348,35.0842746039,100
                135.710127659,35.0840018737,100
                135.7102553203,35.0837446298,100
                135.7104352663,35.0835052579,100
                135.7106784446,35.083276884,100
                135.7108065884,35.0831075326,100
                135.7110112677,35.0828747695,100
                135.7112055805,35.0827524811,100
                135.7113011017,35.0826439708,100
                135.7114947167,35.082395546,100
                135.7117843318,35.082121996,100
                135.7119642425,35.0818780453,100
                135.7120151158,35.0816435063,100
                135.7121806174,35.0812375403,100
                135.7124073374,35.0809279924,100
                135.7125118638,35.0805941384,100
                135.7126637005,35.0802422271,100
                135.7129691366,35.0797638437,100
                135.7129948648,35.0795403011,100
                135.7130003235,35.0793681915,100
                135.7130452228,35.0792180085,100
                135.7130928064,35.0791583296,100
                135.7132416018,35.0789717723,100
                135.7134323384,35.0787029856,100
                135.7136329889,35.0782426627,100
                135.7137548627,35.0779313114,100
                135.7137005059,35.0775416482,100
                135.7135946868,35.0772805342,100
                135.7136462594,35.0766809678,100
                135.7135204654,35.0762825436,100
                135.7132685958,35.0759317814,100
                135.7131137897,35.0757475273,100
                135.7130247504,35.0755405411,100
                135.7130564786,35.0753217989,100
                135.7131485364,35.0750849592,100
                135.713290179,35.0748771828,100
                135.7135125941,35.074617059,100
                135.7136707152,35.0743383302,100
                135.7140298981,35.0740771212,100
                135.7143422305,35.073936301,100
                135.7146318662,35.0736762631,100
                135.714912888,35.0733485226,100
                135.7153065898,35.0730363301,100
                135.715629723,35.0728729946,100
                135.7157973232,35.0728116239,100
                135.7159703604,35.0727697036,100
                135.7160674328,35.0726593602,100
                135.7163897665,35.0722665678,100
                135.7167672172,35.0715058489,100
                135.716806967,35.0712488806,100
                135.7168214847,35.0708995231,100
                135.7168809898,35.0707393697,100
                135.7171191484,35.070603367,100
                135.7175415545,35.0704515258,100
                135.7179084005,35.0703145552,100
                135.7180497053,35.0698734436,100
              </coordinates>
            </LinearRing>
          </outerBoundaryIs>
        </Polygon>
      </Placemark>
    </Document>
  </Document>
</kml>
