<?xml version="1.0" encoding="UTF-8"?>
<kml xmlns="http://www.opengis.net/kml/2.2">
  <Document id="root_doc">
    <Document id="_0_07______disv4326">
      <name>10_07大宮disv4326</name>
      <Placemark id="_0_07______disv4326.1">
        <visibility>1</visibility>
        <Polygon>
          <extrude>0</extrude>
          <outerBoundaryIs>
            <LinearRing>
              <coordinates>
                135.7279023185,35.070363404,100
                135.7281631132,35.06994642,100
                135.7283031476,35.0695946646,100
                135.728423967,35.0693287875,100
                135.7285969508,35.068913932,100
                135.7287725758,35.0689522842,100
                135.7290469546,35.0690919187,100
                135.7293487824,35.069213513,100
                135.7295902543,35.06924046,100
                135.7298207973,35.0691187792,100
                135.7300239312,35.068845971,100
                135.7305866315,35.0681289982,100
                135.7312398478,35.067632943,100
                135.7313265005,35.067603766,100
                135.7319244133,35.0676034644,100
                135.7320185436,35.0675991643,100
                135.7322891392,35.0674795407,100
                135.7324577228,35.0676746428,100
                135.7325782852,35.0678664697,100
                135.7327138032,35.0681288965,100
                135.7328027457,35.068325021,100
                135.7328873952,35.0683657023,100
                135.7329566785,35.0683701498,100
                135.7332381548,35.0682034317,100
                135.7336965662,35.0680539328,100
                135.7342080938,35.0678281338,100
                135.7344226127,35.0677452867,100
                135.7346014429,35.067719196,100
                135.7347453566,35.0677428208,100
                135.7348681818,35.0678051326,100
                135.7349797714,35.0678319961,100
                135.7351507125,35.0678349728,100
                135.7353412159,35.0678077779,100
                135.7354640193,35.0678171279,100
                135.7357629576,35.0677384038,100
                135.7359360837,35.067727932,100
                135.7360684722,35.0677396968,100
                135.736462133,35.067832946,100
                135.7368397492,35.0679484852,100
                135.7370143788,35.0680440077,100
                135.737186622,35.0681089589,100
                135.7375479516,35.0683230577,100
                135.7377976301,35.0684016265,100
                135.7379101119,35.0684110237,100
                135.7380681952,35.0683969947,100
                135.7381847945,35.0683505513,100
                135.7384691207,35.0681731203,100
                135.7386080089,35.0681003851,100
                135.7388026097,35.068016852,100
                135.7389507667,35.0679723763,100
                135.7391047053,35.0679617891,100
                135.7392555044,35.0679821818,100
                135.7394244948,35.068033602,100
                135.7397614953,35.0682158794,100
                135.7398819151,35.0683093108,100
                135.7400537404,35.0682357273,100
                135.7401621333,35.0680134798,100
                135.7401735139,35.0679223012,100
                135.7401687814,35.0677453789,100
                135.7401188994,35.0675511055,100
                135.7400861291,35.067362715,100
                135.7400823504,35.0672303744,100
                135.740103548,35.0670540706,100
                135.7401501742,35.0670584663,100
                135.7402267351,35.0665945858,100
                135.7403177256,35.0660431261,100
                135.7403477207,35.0658613471,100
                135.7404706039,35.0651167031,100
                135.7405297281,35.0645377789,100
                135.7405425405,35.064487874,100
                135.7406903703,35.0639120954,100
                135.7408453176,35.0634761302,100
                135.7417846165,35.0636595383,100
                135.7427172305,35.0639618053,100
                135.743408886,35.0641465798,100
                135.7443073639,35.0646807487,100
                135.7449407583,35.0637818066,100
                135.7458628667,35.0642516425,100
                135.7463995543,35.0645498174,100
                135.7464738679,35.0645818039,100
                135.7457161636,35.06544345,100
                135.7451149465,35.0661501978,100
                135.7447436622,35.0666298044,100
                135.7450662108,35.0667860498,100
                135.7451528596,35.0667073525,100
                135.745590074,35.0662213322,100
                135.7457201551,35.0660922295,100
                135.7460571223,35.0656419168,100
                135.7462546177,35.0654488646,100
                135.7463510222,35.0653377906,100
                135.746629134,35.0650420119,100
                135.7468616502,35.0647684635,100
                135.7468908571,35.0647340853,100
                135.7470564757,35.0645513188,100
                135.7472922537,35.0642333362,100
                135.7474788778,35.0639816621,100
                135.7476310125,35.0637474537,100
                135.7477339628,35.0635890647,100
                135.7479067294,35.0633232058,100
                135.7481233634,35.0629899689,100
                135.7482504765,35.0627795127,100
                135.7485892814,35.0622186938,100
                135.7486839783,35.062061907,100
                135.7489329184,35.0615535121,100
                135.7490363655,35.0613422328,100
                135.7490722426,35.0612689927,100
                135.7493130621,35.0608012892,100
                135.7494625299,35.0605109436,100
                135.7497147025,35.0599210021,100
                135.7498494865,35.0595428753,100
                135.7499574073,35.0592675162,100
                135.7500463686,35.0590722638,100
                135.750325273,35.0584483594,100
                135.7506753641,35.0577416363,100
                135.750854052,35.0574711391,100
                135.7510073762,35.0572544653,100
                135.750670445,35.0570600397,100
                135.7505939866,35.0570160089,100
                135.7506084674,35.0566957382,100
                135.7506216391,35.0564044811,100
                135.7506341913,35.0561266741,100
                135.7506451588,35.0558844997,100
                135.7506504148,35.0557681664,100
                135.7506009095,35.0556480593,100
                135.7503228034,35.0553970575,100
                135.7500255038,35.0551286917,100
                135.7499035275,35.0549713221,100
                135.7498422739,35.0548923201,100
                135.7496742659,35.0546797388,100
                135.7494997111,35.0548211961,100
                135.7492558758,35.0548214729,100
                135.7487983133,35.054799974,100
                135.7487749372,35.0547487965,100
                135.7486036874,35.0547349245,100
                135.7486048709,35.0545927363,100
                135.7483404779,35.0545940961,100
                135.747835455,35.0544158683,100
                135.7478199445,35.0544116808,100
                135.7468440123,35.0541476123,100
                135.7466549593,35.0541455296,100
                135.7466326963,35.0541442864,100
                135.7464782424,35.0541355844,100
                135.7460722799,35.0541316419,100
                135.7454584009,35.0541257848,100
                135.7454579038,35.0537385076,100
                135.7451077949,35.0536265031,100
                135.7448079961,35.0535305891,100
                135.7446980317,35.0534953564,100
                135.7440649261,35.053290779,100
                135.7440866146,35.0525499403,100
                135.7425933664,35.0525170773,100
                135.7425802005,35.0525167678,100
                135.7420040572,35.0524976625,100
                135.7410691176,35.0524912441,100
                135.741079295,35.0522559709,100
                135.7405432347,35.0520522156,100
                135.7404430246,35.052014042,100
                135.7380487412,35.0511035909,100
                135.7378385742,35.0510236278,100
                135.7376693973,35.0509675566,100
                135.7370412382,35.0507528823,100
                135.7362919566,35.0512611509,100
                135.7360638229,35.0512765731,100
                135.7356504006,35.0518774005,100
                135.7352529316,35.0524283292,100
                135.7354330182,35.0525483752,100
                135.7353788686,35.0527836932,100
                135.7351919836,35.0526806052,100
                135.7350992388,35.0528525963,100
                135.7352751261,35.0529473497,100
                135.7353481499,35.0530500491,100
                135.7351631198,35.053103101,100
                135.7350652496,35.0531705682,100
                135.7348766597,35.0534055949,100
                135.7347853023,35.0533646896,100
                135.7347224393,35.0534450507,100
                135.7347987163,35.053488177,100
                135.7347632681,35.0535590902,100
                135.7346639498,35.0537038125,100
                135.7345632761,35.0538504329,100
                135.7345583937,35.0538575356,100
                135.7344164841,35.0540566742,100
                135.7343384754,35.0541661576,100
                135.7341567368,35.05440007,100
                135.7340323939,35.0543423999,100
                135.7339592575,35.0544277385,100
                135.7340849389,35.0544816079,100
                135.7336369693,35.0549224841,100
                135.7329690999,35.0559343891,100
                135.7329687359,35.0559343883,100
                135.732816303,35.0559889147,100
                135.732570679,35.0559734433,100
                135.7324538702,35.0559162811,100
                135.7323747851,35.0558473008,100
                135.7323595065,35.0555597141,100
                135.7319130869,35.0554848517,100
                135.7317192896,35.0557300722,100
                135.731640915,35.0556733461,100
                135.7315214242,35.0556251917,100
                135.7313676204,35.0555809766,100
                135.731176893,35.055572807,100
                135.7310075018,35.0555875736,100
                135.7308087257,35.0556512212,100
                135.7306484374,35.0557312235,100
                135.7305142336,35.0558222692,100
                135.7301587544,35.056015294,100
                135.7291193877,35.055998471,100
                135.7289866378,35.055873872,100
                135.7288750856,35.0557229105,100
                135.7287288065,35.0554208754,100
                135.7286482598,35.0553154076,100
                135.7285698243,35.0552385377,100
                135.7282560761,35.055143324,100
                135.7283021161,35.054919681,100
                135.7283612185,35.0547146603,100
                135.728481337,35.0544982266,100
                135.7282814301,35.0546327165,100
                135.7281500385,35.0547541197,100
                135.7280392908,35.0548941616,100
                135.727922284,35.0549970746,100
                135.727635261,35.0551416515,100
                135.72751414,35.0552581466,100
                135.7274206662,35.0554385113,100
                135.7274194354,35.0554868212,100
                135.7276098525,35.0556349331,100
                135.7276545916,35.0556905291,100
                135.7276613052,35.0558887957,100
                135.7275785108,35.0559658674,100
                135.7274694763,35.0559811172,100
                135.7267890255,35.0560053636,100
                135.7267099827,35.0559510277,100
                135.7266600726,35.0560159901,100
                135.726383609,35.0560153674,100
                135.7260745501,35.0561469317,100
                135.7260377162,35.0561941752,100
                135.7260946205,35.0563518473,100
                135.7261938802,35.0565217993,100
                135.7261986713,35.0566595642,100
                135.7261617878,35.0567154705,100
                135.7258424893,35.0566593951,100
                135.7257682763,35.0566530298,100
                135.725678482,35.056806779,100
                135.7255666818,35.0569584362,100
                135.7253809689,35.0571554926,100
                135.7251291603,35.0573190171,100
                135.7248991176,35.0574463202,100
                135.724762128,35.0575100973,100
                135.7248507186,35.0576360805,100
                135.7247111535,35.0577336564,100
                135.7245498365,35.0579206951,100
                135.7243888349,35.0580643527,100
                135.7241758788,35.05830677,100
                135.7238280488,35.0584909183,100
                135.7235731134,35.0585821741,100
                135.723499474,35.0586795478,100
                135.7232802648,35.0587797581,100
                135.723066124,35.0587986364,100
                135.722973131,35.0588690625,100
                135.7228790621,35.0590438569,100
                135.7227272446,35.0591159091,100
                135.7224823787,35.0590380206,100
                135.7224137915,35.0590518082,100
                135.7223181119,35.0591380031,100
                135.722154537,35.0593641907,100
                135.7219083628,35.059559272,100
                135.7217112943,35.0596887589,100
                135.7215475526,35.0598856489,100
                135.7214497948,35.0600981831,100
                135.7212125924,35.060426321,100
                135.7209480297,35.0607771427,100
                135.7208461915,35.0612536976,100
                135.7208699657,35.061677934,100
                135.7208965268,35.0619348455,100
                135.7209156189,35.0620830699,100
                135.7208894243,35.0623063378,100
                135.7208777944,35.0626804946,100
                135.7208693537,35.0631312148,100
                135.7206268666,35.0639523421,100
                135.7204811492,35.0644059152,100
                135.7203816805,35.0647848706,100
                135.7203349871,35.0652493772,100
                135.7202340778,35.065396057,100
                135.7200112917,35.0658159987,100
                135.7198840443,35.0661386875,100
                135.719688756,35.0665698186,100
                135.7191652076,35.0672251358,100
                135.7187349129,35.0678621428,100
                135.7184585797,35.0685323256,100
                135.7182514496,35.0692992937,100
                135.7180497053,35.0698734436,100
                135.7179084005,35.0703145552,100
                135.7175415545,35.0704515258,100
                135.7171191484,35.070603367,100
                135.7168809898,35.0707393697,100
                135.7168214847,35.0708995231,100
                135.716806967,35.0712488806,100
                135.7167672172,35.0715058489,100
                135.7163897665,35.0722665678,100
                135.7160674328,35.0726593602,100
                135.7159703604,35.0727697036,100
                135.7157973232,35.0728116239,100
                135.715629723,35.0728729946,100
                135.7153065898,35.0730363301,100
                135.714912888,35.0733485226,100
                135.7146318662,35.0736762631,100
                135.7143422305,35.073936301,100
                135.7140298981,35.0740771212,100
                135.7136707152,35.0743383302,100
                135.7135125941,35.074617059,100
                135.713290179,35.0748771828,100
                135.7131485364,35.0750849592,100
                135.7130564786,35.0753217989,100
                135.7130247504,35.0755405411,100
                135.7131137897,35.0757475273,100
                135.7132685958,35.0759317814,100
                135.7135204654,35.0762825436,100
                135.7136462594,35.0766809678,100
                135.7135946868,35.0772805342,100
                135.7137005059,35.0775416482,100
                135.7137548627,35.0779313114,100
                135.7136329889,35.0782426627,100
                135.7134323384,35.0787029856,100
                135.7132416018,35.0789717723,100
                135.7130928064,35.0791583296,100
                135.7130452228,35.0792180085,100
                135.7130003235,35.0793681915,100
                135.7129948648,35.0795403011,100
                135.7129691366,35.0797638437,100
                135.7126637005,35.0802422271,100
                135.7125118638,35.0805941384,100
                135.7124073374,35.0809279924,100
                135.7121806174,35.0812375403,100
                135.7120151158,35.0816435063,100
                135.7119642425,35.0818780453,100
                135.7117843318,35.082121996,100
                135.7114947167,35.082395546,100
                135.7113011017,35.0826439708,100
                135.7112055805,35.0827524811,100
                135.7110112677,35.0828747695,100
                135.7108065884,35.0831075326,100
                135.7106784446,35.083276884,100
                135.7104352663,35.0835052579,100
                135.7102553203,35.0837446298,100
                135.710127659,35.0840018737,100
                135.7100852348,35.0842746039,100
                135.7100371908,35.0845249256,100
                135.709887369,35.084748453,100
                135.7096908115,35.0849653883,100
                135.7095766675,35.0851842813,100
                135.7093631892,35.0856435119,100
                135.7090391091,35.0860377533,100
                135.7087753867,35.086535737,100
                135.7086077495,35.0869502801,100
                135.7083385762,35.087285983,100
                135.7081463341,35.0875089792,100
                135.7081104352,35.0876482649,100
                135.7080940814,35.0877117494,100
                135.708250462,35.0878965723,100
                135.7086593887,35.0879912264,100
                135.709016178,35.0881106829,100
                135.7092768149,35.0883811111,100
                135.7094303818,35.0886853671,100
                135.7095812299,35.088946798,100
                135.7098968464,35.0890798137,100
                135.7103056968,35.0893750296,100
                135.7106240271,35.0895531918,100
                135.710923174,35.0896433455,100
                135.711227838,35.0896997782,100
                135.7114116824,35.0898867731,100
                135.7116257304,35.0899882731,100
                135.7119688406,35.0900152865,100
                135.7122790326,35.0899793315,100
                135.7125863763,35.0901776748,100
                135.7128113912,35.0903353974,100
                135.7130968155,35.0904616416,100
                135.7128276968,35.0907477766,100
                135.7127424308,35.0911331531,100
                135.7127504277,35.0916806594,100
                135.7129506263,35.0923799636,100
                135.7132575237,35.093452,100
                135.7136331325,35.094585396,100
                135.7137290544,35.0949460588,100
                135.7136904739,35.0952795017,100
                135.7137974248,35.0955792014,100
                135.71406083,35.0958587058,100
                135.7144231934,35.0958453332,100
                135.7147333955,35.0958250756,100
                135.7149776901,35.0959198077,100
                135.7151505795,35.0960347242,100
                135.715394881,35.0960844537,100
                135.715738001,35.0961227945,100
                135.7160728632,35.0962513291,100
                135.7163335682,35.0964339874,100
                135.7165669049,35.0964519976,100
                135.716704168,35.0964182315,100
                135.7170829563,35.0965446121,100
                135.7174523044,35.0965879383,100
                135.7176017739,35.0966054702,100
                135.718266123,35.0965200376,100
                135.7188674086,35.0962700133,100
                135.7191667284,35.0960042174,100
                135.7196444986,35.0957000991,100
                135.7199410506,35.0954725357,100
                135.7201882021,35.0952134483,100
                135.7204051296,35.0950286602,100
                135.720674178,35.0949318816,100
                135.7208471837,35.0947920634,100
                135.7208335115,35.0946027997,100
                135.720570064,35.0943165501,100
                135.7201775728,35.0941316961,100
                135.7198070566,35.0939738647,100
                135.7195984675,35.0938228849,100
                135.7195902838,35.0936966644,100
                135.7197248523,35.0935141514,100
                135.720175107,35.0933203949,100
                135.7204195435,35.0929418614,100
                135.7205404585,35.0925384636,100
                135.7205548352,35.0923977172,100
                135.7206258142,35.0917024348,100
                135.7205353764,35.091307987,100
                135.7205738861,35.0910556022,100
                135.7207358965,35.0908640674,100
                135.721021416,35.0907311285,100
                135.7211394474,35.0907243581,100
                135.7212876757,35.0907514598,100
                135.7214469206,35.0906365407,100
                135.7218478755,35.0900122987,100
                135.7219768982,35.0899537904,100
                135.7221580719,35.0899289937,100
                135.7222211746,35.0900957634,100
                135.7221991411,35.0903233966,100
                135.7222347597,35.0905036954,100
                135.7224542856,35.0907380786,100
                135.7227561237,35.0911032877,100
                135.7228905531,35.0913488137,100
                135.7229068337,35.0919190111,100
                135.7229260584,35.092403156,100
                135.7228626898,35.0926673159,100
                135.722846153,35.0929106666,100
                135.722771793,35.0937197497,100
                135.7227469728,35.0940825924,100
                135.7227551681,35.0942967028,100
                135.7227468867,35.0944093637,100
                135.7226782323,35.0945175195,100
                135.7223323002,35.094668493,100
                135.7220248222,35.0947923708,100
                135.7217777252,35.0949365275,100
                135.7215690211,35.0951168301,100
                135.7212670517,35.0951550824,100
                135.7210995784,35.0951978684,100
                135.7210227046,35.0952518486,100
                135.7208880299,35.095736416,100
                135.7208604932,35.0959729808,100
                135.7209372481,35.0963021125,100
                135.7210798938,35.0965635052,100
                135.721140219,35.0967978779,100
                135.7211428631,35.0971178952,100
                135.7212552814,35.0974559814,100
                135.721236029,35.097586717,100
                135.7211124756,35.0976586895,100
                135.720950487,35.0977060656,100
                135.720794004,35.0977218328,100
                135.7207390649,35.0978074138,100
                135.7207965582,35.0983145356,100
                135.7208870132,35.0987044055,100
                135.7209637851,35.098941069,100
                135.7210104294,35.0990086427,100
                135.721243799,35.0989434019,100
                135.7214744068,35.0989343529,100
                135.7216775091,35.0990832032,100
                135.7218091981,35.0993175974,100
                135.7218585325,35.0995339854,100
                135.7218639277,35.0998269655,100
                135.7215454669,35.099871942,100
                135.7218830981,35.1000117341,100
                135.7220779694,35.100131269,100
                135.7227587453,35.1002170521,100
                135.7229344034,35.1003094982,100
                135.72299477,35.1004380204,100
                135.7230798407,35.1005529364,100
                135.7232033732,35.1005575144,100
                135.723354376,35.1004650383,100
                135.7234560005,35.100352449,100
                135.7235850637,35.1002668239,100
                135.723711318,35.1002961267,100
                135.7239583574,35.1004404957,100
                135.7241641919,35.1006004747,100
                135.7242712545,35.1006546636,100
                135.7244853964,35.1006050773,100
                135.7246885677,35.1004857448,100
                135.7249411365,35.1004632879,100
                135.7251909037,35.1006255482,100
                135.7253473176,35.1008690084,100
                135.7253417928,35.1010154793,100
                135.7252758244,35.1012611822,100
                135.7256490215,35.1018066894,100
                135.7260496433,35.1024626126,100
                135.7263486369,35.1033619744,100
                135.7263622939,35.1035963086,100
                135.7262881295,35.1037293147,100
                135.7261645421,35.1038486885,100
                135.726098624,35.1039500934,100
                135.7260984111,35.1046803284,100
                135.726172426,35.1050793108,100
                135.7261997364,35.1055683314,100
                135.7262435835,35.1058659045,100
                135.7263477891,35.1062197417,100
                135.7269792423,35.1061996789,100
                135.7275255637,35.1062471711,100
                135.7283163711,35.1058596998,100
                135.7283740597,35.1056682029,100
                135.7285719284,35.1049402414,100
                135.728731295,35.1045030485,100
                135.7289125813,35.1041356947,100
                135.7291020704,35.1039306168,100
                135.7293024871,35.1038089464,100
                135.7293601949,35.1036692818,100
                135.7296298322,35.1033134626,100
                135.7297034654,35.1032162993,100
                135.7300467796,35.1025852846,100
                135.7304037718,35.1021909257,100
                135.7307194105,35.1024840265,100
                135.7310625144,35.1027185236,100
                135.7314303568,35.1029101863,100
                135.7317405298,35.1030612262,100
                135.7321138695,35.1032168405,100
                135.732179827,35.1028968376,100
                135.7322869626,35.1026421386,100
                135.7322595768,35.1023153104,100
                135.7322102289,35.1020290685,100
                135.732306348,35.1018149086,100
                135.7324409558,35.1013799139,100
                135.7323202898,35.1007780853,100
                135.7318895774,35.0994188641,100
                135.7316289207,35.0988689097,100
                135.7314697488,35.0985939027,100
                135.7314478466,35.0983211716,100
                135.7315001014,35.0979199395,100
                135.7314288403,35.0974443478,100
                135.7313383192,35.0971400554,100
                135.7312917267,35.0967726897,100
                135.7313165188,35.0963713967,100
                135.7313961777,35.0961911468,100
                135.7315856242,35.0960176883,100
                135.7318244844,35.095839621,100
                135.7322198178,35.0956525333,100
                135.7321595076,35.095352745,100
                135.7322474178,35.0949403232,100
                135.7322968834,35.0946269694,100
                135.7323271512,35.0943407568,100
                135.7322338467,35.094151387,100
                135.7320719118,35.0940139112,100
                135.7320526959,35.0939079486,100
                135.7320966455,35.0937366294,100
                135.7323163202,35.0933241389,100
                135.7321352764,35.0926411744,100
                135.7321368968,35.0924238446,100
                135.7321380785,35.0922625725,100
                135.7321628248,35.0920010671,100
                135.7324318666,35.0918433439,100
                135.7334640008,35.0915526446,100
                135.734021295,35.091167159,100
                135.7344056337,35.0907884766,100
                135.7348256477,35.090477403,100
                135.7351742528,35.0902632137,100
                135.7355091472,35.0899950481,100
                135.7355805401,35.0898191376,100
                135.7355037141,35.0896073426,100
                135.7354324015,35.089183508,100
                135.7355010813,35.0887687779,100
                135.7358442432,35.0881533596,100
                135.7362258275,35.0876799315,100
                135.7363795662,35.0874522936,100
                135.7365003597,35.0871231708,100
                135.7367336579,35.0871298679,100
                135.7369697244,35.0870397352,100
                135.737233216,35.0869945922,100
                135.7375214048,35.0870780282,100
                135.7381061642,35.0858066024,100
                135.7373431796,35.0854617856,100
                135.73639359,35.0849050732,100
                135.735652629,35.0843078127,100
                135.7354358299,35.084039584,100
                135.7351916102,35.0836857274,100
                135.7349336547,35.083496358,100
                135.7346784074,35.0834445367,100
                135.7344835524,35.0833341765,100
                135.7341350423,35.0829555067,100
                135.7338057262,35.0827639319,100
                135.7334928694,35.0825633072,100
                135.7333227467,35.0823491905,100
                135.7332075026,35.0821801963,100
                135.7331690748,35.0820877835,100
                135.7331966001,35.0817338791,100
                135.733416155,35.0817676709,100
                135.7338415716,35.0817112731,100
                135.7344015044,35.0815038186,100
                135.7347830113,35.0813662587,100
                135.7350410098,35.0813256154,100
                135.7356557635,35.0814518049,100
                135.7361772052,35.0815305354,100
                135.7367013957,35.0815935648,100
                135.7373271631,35.081530392,100
                135.7379309834,35.0813904756,100
                135.7381999575,35.0812778024,100
                135.738348172,35.0811740267,100
                135.7383811304,35.0810049324,100
                135.7384582418,35.0809818551,100
                135.7386611571,35.0810074993,100
                135.7387579362,35.0810503137,100
                135.7388705876,35.0810723143,100
                135.7389255747,35.0811242652,100
                135.7391903202,35.0810959521,100
                135.7391638627,35.0810503299,100
                135.7393662593,35.081070549,100
                135.7395998617,35.0811043563,100
                135.7398795868,35.0810802287,100
                135.7398944922,35.0810463849,100
                135.7396824526,35.0809317739,100
                135.7393562045,35.0808143158,100
                135.7391087734,35.0807101229,100
                135.7390426705,35.0806721634,100
                135.7389768157,35.0805956805,100
                135.7387146878,35.0804389877,100
                135.7385771468,35.0803298161,100
                135.7384373232,35.0802040177,100
                135.7383485355,35.0801398813,100
                135.7382579928,35.0800484155,100
                135.7380831223,35.0798780335,100
                135.738014108,35.0797788659,100
                135.7378633511,35.0796636081,100
                135.7375869395,35.0795285034,100
                135.7375009727,35.0794669781,100
                135.737270744,35.079357184,100
                135.7371528517,35.0791917109,100
                135.7369562447,35.0788529608,100
                135.7367284303,35.0784211086,100
                135.7365784577,35.078054427,100
                135.7363071129,35.0775166264,100
                135.7358965387,35.0769933157,100
                135.7355635239,35.0767021574,100
                135.7353524746,35.0764920409,100
                135.7350908094,35.0761513135,100
                135.7349426926,35.0760183787,100
                135.7345086441,35.0759060231,100
                135.7342790777,35.0758072778,100
                135.7340482651,35.0756426098,100
                135.7338129862,35.0754491962,100
                135.7336571547,35.0753313137,100
                135.7334115722,35.0752516169,100
                135.7330526558,35.0751720246,100
                135.7327223914,35.0750538298,100
                135.7324046262,35.0749245333,100
                135.7321377651,35.0747308361,100
                135.7319125556,35.0745577945,100
                135.7315344767,35.0743063827,100
                135.7313053394,35.0741107943,100
                135.7311781337,35.0740299452,100
                135.731029972,35.0738405203,100
                135.7308324618,35.0734957653,100
                135.7308983735,35.0732410328,100
                135.7310274309,35.0729434799,100
                135.7312113397,35.072722461,100
                135.7313103924,35.0725564702,100
                135.7313935445,35.0724591817,100
                135.7315445514,35.0723523938,100
                135.7317699637,35.0722821094,100
                135.7321005456,35.0722593835,100
                135.7325050894,35.0722519613,100
                135.732899569,35.072283954,100
                135.7331516029,35.0723388755,100
                135.7344348675,35.0713872439,100
                135.7339939506,35.0711663388,100
                135.7338876191,35.0711011727,100
                135.7337649499,35.0710816783,100
                135.7333290885,35.0710669217,100
                135.7332080851,35.0710225691,100
                135.7330097066,35.0708464193,100
                135.7329269343,35.0708203906,100
                135.7327994609,35.0708565229,100
                135.7326880285,35.070872477,100
                135.7325450215,35.0708314558,100
                135.7323757672,35.0708012936,100
                135.7322024419,35.0708247181,100
                135.7319765696,35.0708792252,100
                135.7316373816,35.0709891213,100
                135.7314786867,35.0710503248,100
                135.7310250347,35.0712709608,100
                135.7306929639,35.071325162,100
                135.7303636685,35.0712891496,100
                135.73001514,35.0712938019,100
                135.7296309412,35.0712825973,100
                135.7294306253,35.0712555314,100
                135.7292438711,35.0719521392,100
                135.7291339323,35.0726553968,100
                135.7289363469,35.072630661,100
                135.7286921288,35.0725044047,100
                135.7284451938,35.0723061648,100
                135.7282173623,35.0725180673,100
                135.7280636514,35.0727233032,100
                135.727962064,35.0728832992,100
                135.7279153857,35.0729847518,100
                135.7277918966,35.0729734198,100
                135.7276025595,35.0729148943,100
                135.727163511,35.0727279131,100
                135.7266970237,35.0725815771,100
                135.7263951543,35.0725861121,100
                135.7261680632,35.0725663757,100
                135.7258380786,35.072556901,100
                135.725967097,35.0723472461,100
                135.7267000194,35.071668769,100
                135.7271666221,35.0712786581,100
                135.727556421,35.0708638651,100
                135.7279023185,35.070363404,100
              </coordinates>
            </LinearRing>
          </outerBoundaryIs>
        </Polygon>
      </Placemark>
    </Document>
  </Document>
</kml>
