<?xml version="1.0" encoding="UTF-8"?>
<kml xmlns="http://www.opengis.net/kml/2.2">
  <Document id="root_doc">
    <Document id="_0_09_________disv4326">
      <name>10_09上賀茂disv4326</name>
      <Placemark id="_0_09_________disv4326.1">
        <visibility>1</visibility>
        <Polygon>
          <extrude>0</extrude>
          <outerBoundaryIs>
            <LinearRing>
              <coordinates>
                135.759702454,35.0507230268,100
                135.7593313087,35.0506840598,100
                135.7590114666,35.0505999783,100
                135.7586675515,35.0504747197,100
                135.7582850339,35.0503203686,100
                135.7578056408,35.0510262249,100
                135.7574461336,35.0514280024,100
                135.7572446033,35.0516509976,100
                135.7566874575,35.0522674648,100
                135.7564143064,35.0525696861,100
                135.7553076118,35.0534742984,100
                135.7550057058,35.0537211751,100
                135.7549202717,35.0537802335,100
                135.7548450399,35.0538348049,100
                135.754413943,35.0541302289,100
                135.7536505732,35.0546634492,100
                135.753038531,35.0550975276,100
                135.7527164204,35.0553578189,100
                135.7526693981,35.0553958162,100
                135.7523634172,35.0556620455,100
                135.7521661061,35.0558337706,100
                135.751802034,35.0562770044,100
                135.7517118159,35.0563868278,100
                135.7516960398,35.0564066562,100
                135.7510178281,35.0572606136,100
                135.7510073762,35.0572544653,100
                135.750854052,35.0574711391,100
                135.7506753641,35.0577416363,100
                135.750325273,35.0584483594,100
                135.7500463686,35.0590722638,100
                135.7505293155,35.059013312,100
                135.7509225026,35.0590525621,100
                135.7511510202,35.0590797875,100
                135.7511470768,35.0595987519,100
                135.751147485,35.0598746125,100
                135.751147251,35.0601295556,100
                135.7518431914,35.0607470527,100
                135.7519683921,35.0608756222,100
                135.7521233365,35.0610106604,100
                135.75241549,35.0614189475,100
                135.7525705463,35.0616169473,100
                135.7526492598,35.0619164886,100
                135.7530900227,35.0619335726,100
                135.7536242588,35.0619416868,100
                135.7543584013,35.0622038747,100
                135.7545589545,35.0627288121,100
                135.7550712353,35.0628201912,100
                135.756012338,35.0628706561,100
                135.7572812552,35.0627995,100
                135.7560532691,35.0641305267,100
                135.7582807517,35.0653635126,100
                135.760795591,35.0667860448,100
                135.7634010984,35.0682556795,100
                135.7646158586,35.0689086142,100
                135.7645979552,35.0686396914,100
                135.7651134776,35.0686458195,100
                135.7652501754,35.0685831195,100
                135.7657265948,35.0685662811,100
                135.7661004874,35.0685997425,100
                135.7662188672,35.0685848262,100
                135.7665037101,35.0686055804,100
                135.766888956,35.0685472946,100
                135.7670041771,35.0686117423,100
                135.7671261273,35.068644581,100
                135.767450098,35.0686944224,100
                135.7676529807,35.0687703741,100
                135.767947164,35.0689265025,100
                135.7681078641,35.06897864,100
                135.7682739603,35.0690005045,100
                135.7684490945,35.0690220326,100
                135.7685348168,35.0690071229,100
                135.7687015101,35.0689919441,100
                135.7687025247,35.0689900482,100
                135.7687480544,35.0689049129,100
                135.7687316259,35.0686936725,100
                135.7689250615,35.0683909203,100
                135.7689994346,35.068315422,100
                135.7691278065,35.0682117141,100
                135.7691972962,35.0681131059,100
                135.7692447254,35.0679624121,100
                135.7693025826,35.0676447557,100
                135.7693201041,35.0673541378,100
                135.7693471273,35.0672400968,100
                135.7692428387,35.067171728,100
                135.7690767196,35.0670298584,100
                135.7688940334,35.0668477443,100
                135.7687545339,35.0666905708,100
                135.768719721,35.0667183238,100
                135.7686844261,35.0663935201,100
                135.7685000657,35.0663271133,100
                135.7684609103,35.0662849943,100
                135.7680748772,35.0660880584,100
                135.7679679787,35.0660688029,100
                135.7679180122,35.0660598023,100
                135.7677998442,35.0661376124,100
                135.767580471,35.0660414175,100
                135.7673634588,35.0654074485,100
                135.7670282215,35.0650456658,100
                135.7667994489,35.0647927526,100
                135.7666867263,35.0646492211,100
                135.7665522604,35.0643511311,100
                135.7664594166,35.0642135524,100
                135.7661895377,35.0639511938,100
                135.7664291659,35.0637147336,100
                135.765946928,35.063468239,100
                135.7659138669,35.0634302166,100
                135.7656219196,35.0630911896,100
                135.7655457983,35.0627975768,100
                135.7656707635,35.0623710303,100
                135.7657870727,35.0623288544,100
                135.7659345773,35.0619570013,100
                135.765982884,35.0619799821,100
                135.7671521242,35.0624715251,100
                135.7674423292,35.0623315736,100
                135.7680304579,35.0622428896,100
                135.768105077,35.0622447206,100
                135.768872976,35.0624349095,100
                135.769254159,35.062455486,100
                135.7693131712,35.062433835,100
                135.7699547113,35.0622053742,100
                135.770333319,35.0620595236,100
                135.7707898678,35.0621286186,100
                135.7720686673,35.062011692,100
                135.773453117,35.0599635015,100
                135.7728553377,35.0596674475,100
                135.7728497759,35.059588771,100
                135.7727767795,35.05952011,100
                135.7727465603,35.059414766,100
                135.772826271,35.0592711029,100
                135.7728901921,35.0589452154,100
                135.7724667863,35.0589009767,100
                135.7723889817,35.0588832959,100
                135.7716815502,35.058941706,100
                135.7714803935,35.0589290785,100
                135.7713314725,35.0588516847,100
                135.7713199447,35.0587397558,100
                135.7714419827,35.0585227857,100
                135.7715240954,35.0584240595,100
                135.771673695,35.0582967936,100
                135.7718325394,35.0581942655,100
                135.771951116,35.0581347633,100
                135.7721204988,35.0581149343,100
                135.7722311753,35.0580311205,100
                135.7723867718,35.0580169018,100
                135.7724032672,35.0576527562,100
                135.772510968,35.0576375322,100
                135.7726191052,35.0574344819,100
                135.7725604972,35.0573510582,100
                135.7725244641,35.0573424696,100
                135.7723437638,35.0573379782,100
                135.7721737869,35.0574037231,100
                135.7720766335,35.0573983311,100
                135.7717674299,35.0574796654,100
                135.7713976014,35.0574872893,100
                135.7712597141,35.0575073871,100
                135.7710410785,35.0575749421,100
                135.7707868616,35.0576406005,100
                135.7704654478,35.0576621158,100
                135.7702115899,35.0577519288,100
                135.7701133468,35.0577762545,100
                135.7700140273,35.0577797307,100
                135.7693967712,35.057600115,100
                135.7690528315,35.0575152407,100
                135.7689530143,35.0574524441,100
                135.7688328593,35.0574265123,100
                135.7686844287,35.0573138331,100
                135.7685195957,35.0571480906,100
                135.7684905498,35.0570685248,100
                135.7686327878,35.0564711508,100
                135.7686451237,35.0564396932,100
                135.7686986324,35.0563031665,100
                135.7687625369,35.0561401777,100
                135.7687789127,35.0561225209,100
                135.7688007449,35.0560989794,100
                135.7689747316,35.0558885892,100
                135.7691371559,35.0557232501,100
                135.769375178,35.0555377694,100
                135.7694834375,35.0553774695,100
                135.7698919625,35.0551525155,100
                135.769034676,35.0551480239,100
                135.7690393835,35.054747516,100
                135.7671538293,35.0547079795,100
                135.7671631163,35.0543105084,100
                135.7671793167,35.0539369256,100
                135.7671880887,35.0537283389,100
                135.7672052629,35.0533282064,100
                135.7672226202,35.052923849,100
                135.7672273415,35.0527163094,100
                135.7672394969,35.0525302646,100
                135.7672475441,35.0523428035,100
                135.767263168,35.05172695,100
                135.767269953,35.0515395574,100
                135.7644951638,35.05127512,100
                135.7633392207,35.0511628299,100
                135.7629632456,35.0511266129,100
                135.7621810629,35.0510622871,100
                135.7609353902,35.0509447144,100
                135.7599757437,35.0508541301,100
                135.7598137744,35.0508388134,100
                135.7597167308,35.0508277088,100
                135.759702454,35.0507230268,100
              </coordinates>
            </LinearRing>
          </outerBoundaryIs>
        </Polygon>
      </Placemark>
    </Document>
  </Document>
</kml>
