<?xml version="1.0" encoding="UTF-8"?>
<kml xmlns="http://www.opengis.net/kml/2.2">
  <Document id="root_doc">
    <Document id="_0_05______disv4326">
      <name>10_05楽只disv4326</name>
      <Placemark id="_0_05______disv4326.1">
        <visibility>1</visibility>
        <Polygon>
          <extrude>0</extrude>
          <outerBoundaryIs>
            <LinearRing>
              <coordinates>
                135.7399726979,35.0385325199,100
                135.7403089757,35.0384514036,100
                135.7403032109,35.0380701034,100
                135.7404727701,35.0380730047,100
                135.7404731086,35.0381947615,100
                135.7405117101,35.0381942185,100
                135.7406382122,35.0381912481,100
                135.7406426083,35.0380723074,100
                135.7409096825,35.038078301,100
                135.7409138024,35.0378968211,100
                135.7410486242,35.0379027429,100
                135.7410481274,35.0378561185,100
                135.7412398867,35.0378296956,100
                135.7412391642,35.0377110263,100
                135.7410608726,35.0375656377,100
                135.7406577438,35.0375512551,100
                135.7406707291,35.0374306425,100
                135.7405749159,35.0374304377,100
                135.7405750255,35.0373953623,100
                135.7405817208,35.0373406383,100
                135.7405821675,35.0373370624,100
                135.74060825,35.0373381503,100
                135.7406149629,35.0372807969,100
                135.7406546194,35.0372291188,100
                135.7405940822,35.037215045,100
                135.7406004383,35.0371061795,100
                135.7407621746,35.0370889884,100
                135.740643979,35.0369075293,100
                135.7404256068,35.0369915036,100
                135.7404989787,35.0368231302,100
                135.7401519639,35.0367942874,100
                135.7402106641,35.0366836325,100
                135.740333255,35.0364456401,100
                135.7402557802,35.0364266707,100
                135.7403205094,35.0363050401,100
                135.740088866,35.0362115798,100
                135.7398623375,35.0362344053,100
                135.7396858316,35.0362721989,100
                135.7394567104,35.0363500923,100
                135.7394718653,35.0363911141,100
                135.7392660448,35.0364790584,100
                135.7392351944,35.0364599062,100
                135.7390963994,35.0365264429,100
                135.7390095668,35.0365630901,100
                135.7389826689,35.0370092544,100
                135.7386376681,35.0370271044,100
                135.7386433963,35.0370844434,100
                135.7386657874,35.0373087296,100
                135.7390559818,35.0372962591,100
                135.7390353709,35.0375267201,100
                135.7391007989,35.0375371431,100
                135.7390816715,35.0376907026,100
                135.7383902928,35.0377271034,100
                135.7383921873,35.0379271188,100
                135.7382107604,35.0379291221,100
                135.7381267856,35.0380158479,100
                135.7379679673,35.038023322,100
                135.7379715576,35.0380862207,100
                135.7376339224,35.0381152819,100
                135.7371535673,35.0381451607,100
                135.7371838037,35.0380814196,100
                135.7366995833,35.0380742433,100
                135.7364613152,35.0380706974,100
                135.7364532822,35.037910812,100
                135.7364976766,35.0378646375,100
                135.7364101542,35.0376394343,100
                135.7361409775,35.0375886352,100
                135.7360897437,35.0376314137,100
                135.7361193984,35.0377235258,100
                135.7361038853,35.0378157511,100
                135.7360493156,35.0378978908,100
                135.7358867773,35.0380645195,100
                135.7357056007,35.0381687083,100
                135.7355798583,35.0382891459,100
                135.7356730245,35.0385161932,100
                135.735914802,35.0383257221,100
                135.7359811034,35.0382840334,100
                135.7360233016,35.0387324614,100
                135.7362153915,35.0391682559,100
                135.7365180671,35.0391881393,100
                135.7365419461,35.0394341914,100
                135.7366689504,35.0406618624,100
                135.7366173393,35.0411125513,100
                135.7365891995,35.0413582786,100
                135.7365328039,35.0418054364,100
                135.7364555648,35.0424178392,100
                135.7364038323,35.0428253568,100
                135.7368209794,35.0428623182,100
                135.7368179554,35.0428842848,100
                135.736672656,35.0439434677,100
                135.7366761815,35.0440260859,100
                135.7376542202,35.0441563729,100
                135.7377421124,35.0430972066,100
                135.7381516028,35.0431191462,100
                135.7384987673,35.043184263,100
                135.7386637225,35.0426660669,100
                135.7386690766,35.0426458605,100
                135.7387213747,35.0424485031,100
                135.7395098515,35.0424828718,100
                135.7396522321,35.0424704992,100
                135.7403979661,35.0424312251,100
                135.740397928,35.0424053478,100
                135.7404305505,35.0423854394,100
                135.7404842271,35.0423843314,100
                135.7405433035,35.0423831116,100
                135.7406147679,35.0423816359,100
                135.7406981467,35.0423799132,100
                135.7407913162,35.0423779891,100
                135.7408747149,35.0423762664,100
                135.7409826602,35.0423740383,100
                135.7410163676,35.0421701557,100
                135.7413426437,35.0422047244,100
                135.7413773159,35.0420150698,100
                135.7413817141,35.0417577422,100
                135.7412790316,35.0417547067,100
                135.7412932006,35.0416249407,100
                135.7412021711,35.0416190425,100
                135.7412177725,35.0414763919,100
                135.7410288925,35.0414557071,100
                135.7410672831,35.0411380964,100
                135.7410784015,35.0410461436,100
                135.7413151362,35.0410705919,100
                135.7414399573,35.0410834868,100
                135.7414748932,35.0408759432,100
                135.741346054,35.0408698721,100
                135.7413290362,35.0407939166,100
                135.7412592121,35.0404824845,100
                135.7411084217,35.0401724277,100
                135.7408591813,35.0400061138,100
                135.7407354011,35.0399726085,100
                135.7402511444,35.0400417185,100
                135.7402432336,35.0399635283,100
                135.7401287992,35.0399880033,100
                135.7402216666,35.0391594244,100
                135.7397762126,35.0391100175,100
                135.7398721373,35.038556742,100
                135.7399726979,35.0385325199,100
              </coordinates>
            </LinearRing>
          </outerBoundaryIs>
        </Polygon>
      </Placemark>
    </Document>
  </Document>
</kml>
