<?xml version="1.0" encoding="UTF-8"?>
<kml xmlns="http://www.opengis.net/kml/2.2">
  <Document id="root_doc">
    <Document id="_0_10______disv4326">
      <name>10_10元町disv4326</name>
      <Placemark id="_0_10______disv4326.1">
        <visibility>1</visibility>
        <Polygon>
          <extrude>0</extrude>
          <outerBoundaryIs>
            <LinearRing>
              <coordinates>
                135.7553419948,35.0456036604,100
                135.75464411,35.0456202998,100
                135.7546318,35.0460748075,100
                135.7550624563,35.0460871446,100
                135.7550492451,35.046391501,100
                135.7550869028,35.0463917878,100
                135.7550643411,35.0470265655,100
                135.7549363609,35.047017367,100
                135.7549306916,35.0473191321,100
                135.7550484672,35.0473190855,100
                135.7550383292,35.0475758392,100
                135.7549793856,35.0475838913,100
                135.7549759673,35.0478558011,100
                135.754922543,35.0478582999,100
                135.7549272773,35.0479260369,100
                135.7548377669,35.0479266415,100
                135.7547676193,35.0479237974,100
                135.7547614534,35.0479670698,100
                135.7547638736,35.0480103164,100
                135.7545840896,35.0480046753,100
                135.7545837965,35.048154401,100
                135.7545542726,35.0489766399,100
                135.7539543839,35.0489760756,100
                135.7539397247,35.0492470467,100
                135.7538698903,35.0492526114,100
                135.7538600316,35.0499607986,100
                135.7538424896,35.0505745985,100
                135.7538904227,35.0505767373,100
                135.7538818675,35.0507965198,100
                135.7538677972,35.0514377936,100
                135.7537267088,35.0514350467,100
                135.7537085337,35.0520740585,100
                135.7537808569,35.0520749773,100
                135.7537768745,35.0523125177,100
                135.7536938039,35.0523110132,100
                135.7536740372,35.0528013515,100
                135.7536570254,35.053056753,100
                135.7537025211,35.0530581828,100
                135.7536674722,35.0535379272,100
                135.7546875088,35.0535646868,100
                135.7549202717,35.0537802335,100
                135.7550057058,35.0537211751,100
                135.7553076118,35.0534742984,100
                135.7564143064,35.0525696861,100
                135.7566874575,35.0522674648,100
                135.7572446033,35.0516509976,100
                135.7574461336,35.0514280024,100
                135.7578056408,35.0510262249,100
                135.7582850339,35.0503203686,100
                135.75884291,35.0495042366,100
                135.7579403001,35.0490505376,100
                135.7579482952,35.0484987621,100
                135.7575786778,35.0484898654,100
                135.7575834857,35.0482083801,100
                135.7575858411,35.0480695749,100
                135.7577692204,35.0480610618,100
                135.757782353,35.0479267147,100
                135.7580047929,35.0479298281,100
                135.7582190163,35.0479308127,100
                135.7582283481,35.0478735045,100
                135.7582348062,35.0474514513,100
                135.7582837891,35.0473793604,100
                135.7583783344,35.0472402427,100
                135.7583798348,35.0471076333,100
                135.7584336187,35.0470700608,100
                135.7584867793,35.0469893151,100
                135.7587520991,35.0466112936,100
                135.7587638604,35.0464620836,100
                135.7587639271,35.0464612381,100
                135.7578501323,35.0464524011,100
                135.7578760886,35.0456455763,100
                135.7572661221,35.0456436703,100
                135.7572596026,35.0455964014,100
                135.7570905006,35.0455932506,100
                135.757024937,35.0456104461,100
                135.7570171199,35.0456628279,100
                135.7568316447,35.0456647855,100
                135.7568339998,35.0456135902,100
                135.756670053,35.0456046741,100
                135.7565988499,35.0456032661,100
                135.7561345084,35.0455945289,100
                135.7561179211,35.0456146385,100
                135.755402923,35.0456045562,100
                135.7553419948,35.0456036604,100
              </coordinates>
            </LinearRing>
          </outerBoundaryIs>
        </Polygon>
      </Placemark>
    </Document>
  </Document>
</kml>
