<?xml version="1.0" encoding="UTF-8"?>
<kml xmlns="http://www.opengis.net/kml/2.2">
  <Document id="root_doc">
    <Document id="_0_11______disv4326">
      <name>10_11紫明disv4326</name>
      <Placemark id="_0_11______disv4326.1">
        <visibility>1</visibility>
        <Polygon>
          <extrude>0</extrude>
          <outerBoundaryIs>
            <LinearRing>
              <coordinates>
                135.7575691677,35.0371723534,100
                135.7572641323,35.0371815429,100
                135.7571571934,35.0372000645,100
                135.7569595857,35.0371703777,100
                135.756921737,35.0371801281,100
                135.756754458,35.0372232158,100
                135.7563542572,35.0372728504,100
                135.7560524225,35.037263943,100
                135.7558787029,35.0372643033,100
                135.755378779,35.0372654248,100
                135.7553985632,35.0375263928,100
                135.7553278144,35.0375259712,100
                135.7547692466,35.037522818,100
                135.7547759384,35.0375911447,100
                135.7547377543,35.0375962807,100
                135.7547716475,35.0377903715,100
                135.7547950991,35.0377869673,100
                135.7548110671,35.0379765861,100
                135.754713515,35.0379832943,100
                135.7547144344,35.0380490735,100
                135.7548169409,35.0380464605,100
                135.7548994545,35.0380415358,100
                135.7549040407,35.0380964107,100
                135.7548214333,35.038099782,100
                135.7548307161,35.0382099474,100
                135.7548805437,35.0388018364,100
                135.7549988982,35.0388262285,100
                135.7546907264,35.0408204329,100
                135.754619378,35.0412839054,100
                135.754610985,35.0413493855,100
                135.7545842517,35.0415580744,100
                135.7546178309,35.0417576583,100
                135.7546362023,35.0420037635,100
                135.7546874936,35.0422297925,100
                135.7547063716,35.0425145625,100
                135.7546995338,35.0427864638,100
                135.7546872957,35.0429582091,100
                135.7550542093,35.0429680946,100
                135.7550442888,35.0431966783,100
                135.7550020571,35.0431945387,100
                135.754996231,35.0433737305,100
                135.7549758815,35.0433732405,100
                135.7546767133,35.0433672223,100
                135.7546627777,35.0438603874,100
                135.7550305002,35.0438516124,100
                135.7550316113,35.0441071906,100
                135.7550317598,35.0441438124,100
                135.755032183,35.0443639656,100
                135.7546501243,35.0443620072,100
                135.75464411,35.0456202998,100
                135.7553419948,35.0456036604,100
                135.755402923,35.0456045562,100
                135.7561179211,35.0456146385,100
                135.7561345084,35.0455945289,100
                135.7565988499,35.0456032661,100
                135.756670053,35.0456046741,100
                135.7568339998,35.0456135902,100
                135.7568316447,35.0456647855,100
                135.7570171199,35.0456628279,100
                135.757024937,35.0456104461,100
                135.7570905006,35.0455932506,100
                135.7572596026,35.0455964014,100
                135.7572661221,35.0456436703,100
                135.7578760886,35.0456455763,100
                135.7578501323,35.0464524011,100
                135.7587639271,35.0464612381,100
                135.7587709228,35.0462581426,100
                135.758965561,35.0462559881,100
                135.7589673018,35.0461216184,100
                135.7591170475,35.0459204915,100
                135.7592618927,35.0459167606,100
                135.7592684661,35.0455417527,100
                135.7594775885,35.0456019536,100
                135.7596825507,35.0451051431,100
                135.7598291454,35.044682518,100
                135.7599929483,35.0444298653,100
                135.759859223,35.0443638987,100
                135.759923113,35.0442511291,100
                135.760067984,35.0443128219,100
                135.7604347003,35.0438146348,100
                135.7604335526,35.0436999784,100
                135.7605580992,35.0437040227,100
                135.7605572644,35.043398583,100
                135.7607947481,35.0434010857,100
                135.7607988592,35.0433110891,100
                135.7608735153,35.0433098245,100
                135.7608705948,35.0432457316,100
                135.7609657758,35.0432473237,100
                135.7610458998,35.0430711317,100
                135.7615527578,35.0424706725,100
                135.7614240641,35.0423454178,100
                135.7615310853,35.0422335061,100
                135.7617229595,35.0423047953,100
                135.7617941502,35.042129783,100
                135.761920009,35.041972905,100
                135.762014236,35.0420076652,100
                135.7621815794,35.0417470589,100
                135.7623137876,35.0415400495,100
                135.7621689325,35.0414744153,100
                135.7621953976,35.0411572674,100
                135.7623845679,35.040868603,100
                135.7625456517,35.0405792505,100
                135.7625566242,35.0405450446,100
                135.7626823033,35.040585922,100
                135.7627430779,35.0404358905,100
                135.762604316,35.0403961852,100
                135.7626669969,35.040200803,100
                135.7628908912,35.0399331213,100
                135.7629829106,35.0398093482,100
                135.7630568886,35.0396986397,100
                135.7631453998,35.0395661275,100
                135.763148431,35.039561626,100
                135.763444571,35.039067169,100
                135.7640550742,35.0381929427,100
                135.7642440105,35.0381945721,100
                135.7643841695,35.0381926566,100
                135.7643793201,35.0383034978,100
                135.7645453979,35.0383112095,100
                135.7645558931,35.0383777821,100
                135.7645959493,35.0383767317,100
                135.7648613913,35.0382653304,100
                135.7650805412,35.0382565925,100
                135.765099054,35.0380213347,100
                135.7652064017,35.0377648371,100
                135.7649591749,35.0376871091,100
                135.764943181,35.0377184176,100
                135.7647452278,35.0376426141,100
                135.7646885283,35.0377160312,100
                135.7644845615,35.0376323275,100
                135.7645671412,35.0375136061,100
                135.7633769897,35.036977429,100
                135.7633787796,35.0369195428,100
                135.7631667119,35.0369010356,100
                135.7631628015,35.0367851074,100
                135.7626571507,35.0367549083,100
                135.7626416028,35.0368172759,100
                135.7624793277,35.0368214706,100
                135.7624826291,35.0370003587,100
                135.7620997487,35.0369840564,100
                135.7610836435,35.0369783597,100
                135.7611627682,35.0375450908,100
                135.7607287796,35.0375388273,100
                135.7607285954,35.0373341685,100
                135.760336377,35.0373340406,100
                135.759548842,35.0373383521,100
                135.7595405211,35.037477217,100
                135.759534749,35.0375558713,100
                135.7594062422,35.0375482962,100
                135.7593812644,35.037546769,100
                135.7593781565,35.0375261275,100
                135.7593611154,35.037429892,100
                135.7592557227,35.0374243344,100
                135.7587023078,35.037393955,100
                135.7586980542,35.0375099386,100
                135.7586180373,35.0375236554,100
                135.7586173515,35.0377602861,100
                135.7585020413,35.037764497,100
                135.7579661837,35.0377391483,100
                135.7579391066,35.0374437288,100
                135.7575578477,35.0374355847,100
                135.7575691677,35.0371723534,100
              </coordinates>
            </LinearRing>
          </outerBoundaryIs>
        </Polygon>
      </Placemark>
    </Document>
  </Document>
</kml>
