<?xml version="1.0" encoding="UTF-8"?>
<kml xmlns="http://www.opengis.net/kml/2.2">
  <Document id="root_doc">
    <Document id="_0_13______disv4326">
      <name>10_13柏野disv4326</name>
      <Placemark id="_0_13______disv4326.1">
        <visibility>1</visibility>
        <Polygon>
          <extrude>0</extrude>
          <outerBoundaryIs>
            <LinearRing>
              <coordinates>
                135.7402011814,35.0339770856,100
                135.7398705973,35.0339822238,100
                135.7398553804,35.0336753381,100
                135.7395590691,35.0336868873,100
                135.7392987022,35.0336970335,100
                135.7391263009,35.0337037603,100
                135.7381182078,35.0337430871,100
                135.7381166271,35.0337082222,100
                135.7381387884,35.0332733807,100
                135.7381548778,35.0332218631,100
                135.738167865,35.0327367871,100
                135.7382295113,35.0323851344,100
                135.7378724734,35.032337249,100
                135.7375685244,35.0327068294,100
                135.7373050771,35.0330203654,100
                135.7371472405,35.0332067977,100
                135.7371115557,35.033268203,100
                135.7368841556,35.0335267428,100
                135.7367056335,35.0337351724,100
                135.7363782366,35.0341174457,100
                135.7359405826,35.03395423,100
                135.735954297,35.034197727,100
                135.7360364621,35.0342013566,100
                135.7361070531,35.0344581478,100
                135.7358879783,35.0345747919,100
                135.7356714113,35.0347701782,100
                135.7359151209,35.0352585587,100
                135.7359890465,35.0352549874,100
                135.7359898376,35.0353961249,100
                135.7358276588,35.0354051393,100
                135.7358359145,35.0358966688,100
                135.735959795,35.0358959525,100
                135.7359466661,35.0361122765,100
                135.7358846067,35.0362744763,100
                135.7359205184,35.0365718279,100
                135.7358771097,35.0366444842,100
                135.7358743488,35.0367587103,100
                135.7360187522,35.0367531088,100
                135.7360300443,35.0371731582,100
                135.7360228099,35.0372265969,100
                135.7361409775,35.0375886352,100
                135.7364101542,35.0376394343,100
                135.7364976766,35.0378646375,100
                135.7364532822,35.037910812,100
                135.7364613152,35.0380706974,100
                135.7366995833,35.0380742433,100
                135.7371838037,35.0380814196,100
                135.7371535673,35.0381451607,100
                135.7376339224,35.0381152819,100
                135.7379715576,35.0380862207,100
                135.7379679673,35.038023322,100
                135.7381267856,35.0380158479,100
                135.7382107604,35.0379291221,100
                135.7383921873,35.0379271188,100
                135.7383902928,35.0377271034,100
                135.7390816715,35.0376907026,100
                135.7391007989,35.0375371431,100
                135.7390353709,35.0375267201,100
                135.7390559818,35.0372962591,100
                135.7386657874,35.0373087296,100
                135.7386433963,35.0370844434,100
                135.7386376681,35.0370271044,100
                135.7389826689,35.0370092544,100
                135.7390095668,35.0365630901,100
                135.7390963994,35.0365264429,100
                135.7392351944,35.0364599062,100
                135.7392660448,35.0364790584,100
                135.7394718653,35.0363911141,100
                135.7394567104,35.0363500923,100
                135.7396858316,35.0362721989,100
                135.7398623375,35.0362344053,100
                135.740088866,35.0362115798,100
                135.7403205094,35.0363050401,100
                135.7404522346,35.0360729941,100
                135.7403947771,35.0360575408,100
                135.7403866445,35.0360553538,100
                135.7403790738,35.0360533182,100
                135.7403518559,35.0360459996,100
                135.7403191701,35.036037211,100
                135.7402876727,35.0360287419,100
                135.7402661904,35.0360229658,100
                135.7402411392,35.0360162301,100
                135.7402113147,35.0360130198,100
                135.7401917172,35.0360109106,100
                135.7401868643,35.0360103883,100
                135.7401678112,35.0360083378,100
                135.7401556794,35.0360070324,100
                135.740153266,35.0360073856,100
                135.7401509657,35.0360077227,100
                135.7401466751,35.0360083511,100
                135.7401417735,35.036009069,100
                135.7401363922,35.0360098569,100
                135.7401266901,35.0360074207,100
                135.740133368,35.0359736298,100
                135.7400032951,35.0359764505,100
                135.7399651858,35.0358967148,100
                135.7398216335,35.0359315509,100
                135.7397868653,35.0358377369,100
                135.7397370689,35.0355129596,100
                135.7396406029,35.0355232469,100
                135.7396127157,35.0353176792,100
                135.7397824183,35.0353052254,100
                135.7397807528,35.0352562747,100
                135.7398437097,35.0352492971,100
                135.7398075336,35.0349153928,100
                135.7401306446,35.0349053801,100
                135.7401060631,35.0342198574,100
                135.7402087048,35.0342126817,100
                135.7402011814,35.0339770856,100
              </coordinates>
            </LinearRing>
          </outerBoundaryIs>
        </Polygon>
      </Placemark>
    </Document>
  </Document>
</kml>
