<?xml version="1.0" encoding="UTF-8"?>
<kml xmlns="http://www.opengis.net/kml/2.2">
  <Document id="root_doc">
    <Document id="_0_14_________disv4326">
      <name>10_14大将軍disv4326</name>
      <Placemark id="_0_14_________disv4326.1">
        <visibility>1</visibility>
        <Polygon>
          <extrude>0</extrude>
          <outerBoundaryIs>
            <LinearRing>
              <coordinates>
                135.7293567125,35.0223479286,100
                135.7291343205,35.0223529273,100
                135.7290064009,35.0223516558,100
                135.7281982138,35.0223440775,100
                135.7276229675,35.0223387055,100
                135.7274775611,35.0223372528,100
                135.7273556702,35.022305428,100
                135.7269437166,35.0223035176,100
                135.7255200985,35.0222815787,100
                135.7254959624,35.0228083935,100
                135.7255121785,35.0235841195,100
                135.7254286705,35.0235820294,100
                135.7254321827,35.0236720444,100
                135.7254540366,35.0242322745,100
                135.7254675211,35.0245286644,100
                135.7254813055,35.0248314639,100
                135.725482732,35.0248528771,100
                135.7253424234,35.0248491796,100
                135.7253424801,35.0248516452,100
                135.7253526198,35.0252465557,100
                135.7250645247,35.0252538626,100
                135.7250649158,35.0253742237,100
                135.72506416,35.025775519,100
                135.7244728528,35.025771714,100
                135.7244141256,35.0253850743,100
                135.7242964469,35.0253920614,100
                135.7242525097,35.0253460435,100
                135.7239798839,35.0253612708,100
                135.7239971508,35.0259593098,100
                135.7230485192,35.0259460237,100
                135.7230592231,35.0260606342,100
                135.7230815252,35.0261882287,100
                135.7231420173,35.026276401,100
                135.7232319005,35.0263503434,100
                135.7233528591,35.0265085884,100
                135.7233755963,35.0265580797,100
                135.723373749,35.0266048394,100
                135.7233775796,35.0267457741,100
                135.723378375,35.0270004419,100
                135.7233671676,35.0270045708,100
                135.7232917542,35.0270320778,100
                135.7231362266,35.0271236308,100
                135.7231360109,35.0271239126,100
                135.723064201,35.0272223473,100
                135.7229524847,35.0273754829,100
                135.7229489212,35.0274041396,100
                135.7229470085,35.0274194172,100
                135.7229470042,35.0274206851,100
                135.7229469929,35.0274240656,100
                135.7230342863,35.0274674036,100
                135.7230362066,35.0274683567,100
                135.7232587845,35.0275778855,100
                135.7233189814,35.0276075321,100
                135.7233192369,35.0276077445,100
                135.7233545418,35.0276305018,100
                135.7233509178,35.0276772574,100
                135.7233230405,35.0277313535,100
                135.7232703578,35.0277588412,100
                135.7234042241,35.0278086554,100
                135.723437917,35.0276416786,100
                135.7238929803,35.0276255292,100
                135.7241441072,35.027614903,100
                135.7242803191,35.0276225371,100
                135.7243203926,35.027525156,100
                135.724815297,35.0275574065,100
                135.7249616745,35.0275590063,100
                135.7251068746,35.0275606726,100
                135.7253696198,35.0275449277,100
                135.7257110207,35.0275111198,100
                135.725934474,35.0274999332,100
                135.7262036758,35.0274865247,100
                135.7262625172,35.0274796145,100
                135.7264060018,35.0274045808,100
                135.7267645686,35.0273897525,100
                135.727270201,35.0273498999,100
                135.7275321544,35.0273011186,100
                135.7275329657,35.0273409115,100
                135.727565525,35.0276708682,100
                135.7298398658,35.0275008644,100
                135.7314280074,35.0273826172,100
                135.7315093199,35.0273765289,100
                135.7325438552,35.0273001428,100
                135.7327655376,35.0272867564,100
                135.7327386825,35.0272384548,100
                135.7326863416,35.0269362042,100
                135.7326825586,35.0268287929,100
                135.7327075512,35.0267315166,100
                135.7327816393,35.0265830064,100
                135.7328287056,35.0264044345,100
                135.732869945,35.0261876074,100
                135.7328567635,35.0257959995,100
                135.7328518432,35.025649288,100
                135.7328260453,35.0248829761,100
                135.7328154215,35.0245674359,100
                135.7327994852,35.0240945482,100
                135.7327930996,35.0239045896,100
                135.7327935357,35.023630767,100
                135.732804204,35.0235481086,100
                135.7328450072,35.0234726996,100
                135.732915447,35.0233196033,100
                135.732955063,35.023233557,100
                135.733043043,35.0229445023,100
                135.7330648419,35.0227822843,100
                135.7330293861,35.0225471181,100
                135.732944509,35.0223398743,100
                135.7324204242,35.0223713303,100
                135.7323547572,35.022378721,100
                135.7323454569,35.0222568611,100
                135.7320614841,35.0222636307,100
                135.7320576824,35.0223535582,100
                135.7320857445,35.0223529155,100
                135.7320948837,35.0224254066,100
                135.7316870273,35.0224200697,100
                135.7316771282,35.0225291411,100
                135.7306491384,35.0224869358,100
                135.7298626977,35.0224652596,100
                135.7298640226,35.0224200479,100
                135.7296066969,35.0224132079,100
                135.7293567125,35.0223479286,100
              </coordinates>
            </LinearRing>
          </outerBoundaryIs>
        </Polygon>
      </Placemark>
    </Document>
  </Document>
</kml>
