<?xml version="1.0" encoding="UTF-8"?>
<kml xmlns="http://www.opengis.net/kml/2.2">
  <Document id="root_doc">
    <Document id="_0_18_________disv4326">
      <name>10_18小野郷disv4326</name>
      <Placemark id="_0_18_________disv4326.1">
        <visibility>1</visibility>
        <Polygon>
          <extrude>0</extrude>
          <outerBoundaryIs>
            <LinearRing>
              <coordinates>
                135.6762405463,35.1063237074,100
                135.6758332315,35.1065115753,100
                135.6753361071,35.1066643403,100
                135.6749675235,35.1067063154,100
                135.6749008879,35.1063539374,100
                135.6748475924,35.1060196944,100
                135.6747448344,35.1055586227,100
                135.674715638,35.1049927428,100
                135.6745947907,35.1044795777,100
                135.6743323855,35.1040432205,100
                135.6739155571,35.1033838307,100
                135.6734448193,35.1028092981,100
                135.6729887737,35.1021898696,100
                135.6728560034,35.1015932121,100
                135.672742483,35.1009944939,100
                135.6722367549,35.1003901399,100
                135.6716153928,35.0999351306,100
                135.670843047,35.0994845715,100
                135.6704220704,35.0990256634,100
                135.6699335424,35.0982593012,100
                135.6689534724,35.0985493337,100
                135.6681452784,35.0987538361,100
                135.6676511769,35.0987669972,100
                135.6669675084,35.0987930903,100
                135.6663257523,35.098912185,100
                135.6659888963,35.0991416251,100
                135.6655910891,35.0992710334,100
                135.6653528874,35.0989905071,100
                135.6650723094,35.0985110515,100
                135.6649470653,35.0980811808,100
                135.6650634332,35.0976411979,100
                135.6646180268,35.0980541474,100
                135.6638815313,35.0982744526,100
                135.6635716927,35.0982305681,100
                135.6633856515,35.098126176,100
                135.663246726,35.0979319104,100
                135.6628456129,35.096968295,100
                135.6627238771,35.0961003145,100
                135.6623853867,35.0957589407,100
                135.6620084385,35.0954352069,100
                135.6615890627,35.0948231021,100
                135.6614344641,35.0944732211,100
                135.6613402231,35.0941259018,100
                135.6611519972,35.0939156516,100
                135.6607882611,35.0936889972,100
                135.6598569553,35.0933835745,100
                135.6593177916,35.0931247358,100
                135.6592197102,35.0929936816,100
                135.6591837774,35.0925158838,100
                135.659093896,35.0923916133,100
                135.6585924298,35.0922702776,100
                135.6582792953,35.0922384145,100
                135.6576737963,35.0921767872,100
                135.6569361885,35.0915678594,100
                135.6566823066,35.0913212893,100
                135.6561971525,35.0907088414,100
                135.6558065288,35.0909057073,100
                135.6555332006,35.0912313598,100
                135.655405479,35.0915193927,100
                135.6553903479,35.0917918974,100
                135.6546427285,35.0922281854,100
                135.6543583252,35.0923941488,100
                135.6542411109,35.092769961,100
                135.6538655158,35.0932395511,100
                135.6536347075,35.0934911613,100
                135.652979719,35.0942051079,100
                135.652537354,35.0948433855,100
                135.6525144244,35.0950324825,100
                135.652676944,35.0954297221,100
                135.6526755424,35.0957001516,100
                135.6526159484,35.0960739404,100
                135.6524882583,35.0963551377,100
                135.6523087279,35.0965797772,100
                135.6521455927,35.096818054,100
                135.6521641934,35.0974534847,100
                135.6520831652,35.0977280537,100
                135.6516341656,35.0982422173,100
                135.6514123873,35.098496172,100
                135.6512709103,35.0987885257,100
                135.6512132997,35.0993087341,100
                135.6510564335,35.099914367,100
                135.6508612331,35.1005062264,100
                135.6506812298,35.1008186823,100
                135.6502669423,35.1013308964,100
                135.650081108,35.1017087598,100
                135.6501151401,35.1020175309,100
                135.6503160862,35.102417137,100
                135.650564271,35.1027020131,100
                135.6507557486,35.1028153823,100
                135.6512551465,35.1028149787,100
                135.6515264179,35.1028858974,100
                135.6516142552,35.1029317126,100
                135.6518876443,35.1030742585,100
                135.6524958839,35.1037660176,100
                135.6528811252,35.1040829695,100
                135.6529292253,35.1043310026,100
                135.6531600339,35.1047915348,100
                135.6536208552,35.1053453267,100
                135.654117548,35.105863161,100
                135.6537554433,35.1063665197,100
                135.6535454053,35.1066474139,100
                135.6538071931,35.1069638004,100
                135.6540950822,35.1075282272,100
                135.6543212075,35.1078377516,100
                135.6546134575,35.1086252246,100
                135.6546261122,35.1088303379,100
                135.6544908991,35.1089717924,100
                135.6539255561,35.1089831517,100
                135.6532083271,35.1091764779,100
                135.6526342274,35.1092870359,100
                135.6518766074,35.1093336852,100
                135.6515872471,35.109294339,100
                135.6514844847,35.1092803836,100
                135.6514687003,35.1096723948,100
                135.6512623582,35.1097707538,100
                135.6509583896,35.1096547419,100
                135.6505547862,35.1096959845,100
                135.6501472438,35.1099625756,100
                135.6497204366,35.1097221198,100
                135.6490222039,35.1099538583,100
                135.6487288131,35.1104259219,100
                135.6484059191,35.1112921395,100
                135.6480207392,35.111998242,100
                135.6479771838,35.1124486973,100
                135.6480944366,35.1131093418,100
                135.6482248012,35.1133644451,100
                135.6486719255,35.1139204711,100
                135.64917972,35.1144203286,100
                135.6488259506,35.1148944724,100
                135.6486786127,35.1152521607,100
                135.6480678091,35.116067758,100
                135.6479756263,35.1163738426,100
                135.64795173,35.1167410411,100
                135.6477770932,35.1170716058,100
                135.6472641254,35.1175473262,100
                135.6471919242,35.1175898926,100
                135.6491581666,35.1185697412,100
                135.649278992,35.1184900666,100
                135.6494953179,35.1180605309,100
                135.6497797456,35.1177304181,100
                135.6498586262,35.1173409114,100
                135.6499452401,35.1170482609,100
                135.6504228703,35.1165070722,100
                135.6507572308,35.1160666724,100
                135.6515602415,35.1156792316,100
                135.6516376683,35.1156419151,100
                135.6522755079,35.1154167507,100
                135.6523205943,35.1154131272,100
                135.6523550587,35.1153694055,100
                135.6526185413,35.1149382011,100
                135.6533855371,35.1149590403,100
                135.6541289677,35.1146944375,100
                135.6557157883,35.1169352298,100
                135.6566844721,35.117866507,100
                135.6578057107,35.1170692618,100
                135.6583264139,35.1166990105,100
                135.6585693106,35.1165790084,100
                135.6588115436,35.1166466825,100
                135.6588169959,35.1166434833,100
                135.6590887487,35.1164840146,100
                135.6598655202,35.1160064712,100
                135.660879372,35.1165280712,100
                135.6618706625,35.1172463683,100
                135.6622583805,35.1175450579,100
                135.6624001712,35.1176541271,100
                135.6624689482,35.1177070317,100
                135.6624743145,35.11771116,100
                135.6624756403,35.1177121799,100
                135.6624801429,35.1177156433,100
                135.6625065173,35.1177359306,100
                135.6625987146,35.1178068513,100
                135.662603623,35.1178106269,100
                135.6628013003,35.1178309387,100
                135.6632368072,35.1179970864,100
                135.6634079397,35.1183446909,100
                135.6637799801,35.1185781281,100
                135.6641416677,35.1186921649,100
                135.664363346,35.1188146855,100
                135.6645324335,35.1190225574,100
                135.6645000295,35.1194573465,100
                135.664531251,35.1197909691,100
                135.6649196404,35.1205900362,100
                135.6653131254,35.1209249412,100
                135.6656936161,35.121124663,100
                135.6670067215,35.1214201235,100
                135.6672953133,35.1213400672,100
                135.6676379062,35.1214315053,100
                135.6681708136,35.1218817891,100
                135.6686889196,35.1225416886,100
                135.6689707425,35.1227139461,100
                135.669291545,35.1227736986,100
                135.669722812,35.1227009291,100
                135.6700245367,35.1227358373,100
                135.6701691918,35.1228963094,100
                135.6702935382,35.1238161281,100
                135.670476709,35.1245040538,100
                135.6703914955,35.1250715245,100
                135.6704390285,35.1254435025,100
                135.6707406025,35.1260529438,100
                135.6709748467,35.1264076126,100
                135.671437813,35.1265872592,100
                135.6722358356,35.1267164034,100
                135.6722328896,35.1273044514,100
                135.6723606769,35.1275437546,100
                135.6727875987,35.1277886583,100
                135.6728774106,35.1279422196,100
                135.6728902862,35.128111277,100
                135.6731281374,35.1283372153,100
                135.6731688955,35.1283759198,100
                135.6733131359,35.1286242808,100
                135.6735290452,35.1293574362,100
                135.6737143324,35.129626191,100
                135.674207265,35.1298465509,100
                135.6744282748,35.1306585268,100
                135.6742980037,35.1309126943,100
                135.6740223566,35.131146043,100
                135.6739941871,35.1312901285,100
                135.674337453,35.1318050982,100
                135.6745284182,35.1320378801,100
                135.6746094534,35.1322995906,100
                135.6749504827,35.1327086319,100
                135.6751185239,35.1331374179,100
                135.6753412708,35.1336023388,100
                135.6755536581,35.1339433516,100
                135.6755497559,35.1341799726,100
                135.6753151361,35.1344427319,100
                135.6752923234,35.134609439,100
                135.675447092,35.1349479734,100
                135.675426805,35.1351641963,100
                135.6753068079,35.1355580463,100
                135.675365679,35.1358602627,100
                135.6756856998,35.1366365175,100
                135.6758021123,35.1369591684,100
                135.6757565064,35.1372991979,100
                135.6755820542,35.137605005,100
                135.675287201,35.1378405538,100
                135.674308154,35.1382155192,100
                135.674060447,35.138347597,100
                135.6739981664,35.1387303991,100
                135.6733049299,35.139584107,100
                135.6730094874,35.1399345107,100
                135.6730555961,35.1405948707,100
                135.6729719734,35.1408492296,100
                135.672728911,35.1411502665,100
                135.6723150126,35.1415790804,100
                135.6723527369,35.1417211602,100
                135.6725128786,35.1420845685,100
                135.6725418683,35.1423280364,100
                135.6724951549,35.1428866598,100
                135.6725621673,35.1432068538,100
                135.6727932702,35.1436493316,100
                135.6728716742,35.1438906806,100
                135.6728652214,35.1440822189,100
                135.6726779592,35.1442054436,100
                135.6725758772,35.1443064358,100
                135.672480491,35.144525408,100
                135.6723707279,35.1448574432,100
                135.6724229305,35.1451954829,100
                135.6725739596,35.1455515384,100
                135.6728594302,35.1458963417,100
                135.673350739,35.1462253659,100
                135.6736883892,35.1466896083,100
                135.6737104405,35.1470434099,100
                135.6734635777,35.1476630354,100
                135.67341428,35.148145308,100
                135.6733594888,35.1485914373,100
                135.6732635553,35.1491209783,100
                135.6728491671,35.1492471049,100
                135.672706497,35.1494161565,100
                135.6729069787,35.1500425654,100
                135.6729318078,35.1506059575,100
                135.6729071562,35.150869559,100
                135.6726026311,35.1513765572,100
                135.67254507,35.1518272566,100
                135.6727787105,35.1536457676,100
                135.6728721007,35.1542474599,100
                135.6729791777,35.1546598144,100
                135.673138402,35.1549663186,100
                135.673385488,35.1554801146,100
                135.6734266984,35.1557460139,100
                135.6733251781,35.1560614564,100
                135.6727571581,35.1571273566,100
                135.6726144799,35.1575374803,100
                135.6725646052,35.1577918638,100
                135.6725486504,35.1578732328,100
                135.6729110481,35.1586777087,100
                135.6731526202,35.1589752097,100
                135.6733365286,35.1590630372,100
                135.6740749358,35.1594392827,100
                135.6745005204,35.1603180791,100
                135.6745966741,35.1609692841,100
                135.6746351535,35.1613365875,100
                135.674736792,35.1618435726,100
                135.6747340891,35.1620006143,100
                135.6747313599,35.1621590633,100
                135.6745721992,35.1625038591,100
                135.674465187,35.1627224514,100
                135.6743996451,35.162785532,100
                135.6742099389,35.1629681095,100
                135.6742538823,35.1631641515,100
                135.6745531238,35.1634187028,100
                135.6746602692,35.1639549984,100
                135.6748002918,35.1641645393,100
                135.6750280091,35.164400092,100
                135.6751269948,35.1645024754,100
                135.6753933189,35.1648855314,100
                135.6757968901,35.1651423311,100
                135.675879283,35.1653045305,100
                135.675895088,35.1660071818,100
                135.6758958563,35.1660413637,100
                135.6761017793,35.1661945987,100
                135.6766809917,35.1661426295,100
                135.6771229337,35.1661042343,100
                135.6773892421,35.1661853025,100
                135.6777351514,35.1664037704,100
                135.6784379764,35.1667145298,100
                135.6792725765,35.1670590883,100
                135.6795443253,35.1670387528,100
                135.6803897007,35.1664864689,100
                135.6811554822,35.1660717205,100
                135.6816138844,35.1658688399,100
                135.6822452251,35.1658348705,100
                135.6828491511,35.1658054732,100
                135.6832224545,35.1657017325,100
                135.6839032372,35.1657285895,100
                135.6842735721,35.1656993479,100
                135.6846196972,35.1656720132,100
                135.6850067717,35.1657710541,100
                135.6852157383,35.1658908271,100
                135.6854076268,35.1660007668,100
                135.6857839184,35.166672049,100
                135.6861847877,35.1669783116,100
                135.6863413725,35.1672666147,100
                135.6865611389,35.167741919,100
                135.6866649307,35.1678137895,100
                135.6867725576,35.1678883163,100
                135.6870004009,35.1678837656,100
                135.6871035751,35.1678267862,100
                135.6878045826,35.1674396339,100
                135.6884440556,35.1670226787,100
                135.6891165094,35.1667498238,100
                135.6892646764,35.1665582971,100
                135.6896296952,35.1663148612,100
                135.6900331737,35.1662291332,100
                135.6909692733,35.1662310372,100
                135.6923006644,35.166322958,100
                135.6929842398,35.1664241356,100
                135.693645881,35.1665770173,100
                135.6939780275,35.1665544067,100
                135.6945818052,35.1662252889,100
                135.6948892436,35.1661869097,100
                135.6955096974,35.1663353098,100
                135.6963797847,35.16610073,100
                135.6965252274,35.166026304,100
                135.6968408164,35.1657896935,100
                135.6971537282,35.1657670264,100
                135.6978044149,35.1659357585,100
                135.6983726895,35.1659873073,100
                135.6989134741,35.1659645577,100
                135.6995117637,35.1656894734,100
                135.6999425692,35.1653356616,100
                135.7003651612,35.1650223933,100
                135.7007194156,35.1653037652,100
                135.70154583,35.1655309383,100
                135.7022843425,35.1656702826,100
                135.7029568987,35.1656812183,100
                135.7034070484,35.1655706183,100
                135.7037254096,35.1654646269,100
                135.7040960472,35.1655410924,100
                135.7045326397,35.1657525815,100
                135.7049280486,35.1659348124,100
                135.7053974983,35.165984188,100
                135.70627585,35.1658373563,100
                135.7066875379,35.165713271,100
                135.7074887833,35.1651768617,100
                135.7082077405,35.1647643407,100
                135.7087385319,35.1644858073,100
                135.7091270145,35.1642819367,100
                135.7096786524,35.1640902128,100
                135.7101751299,35.1635269314,100
                135.7103203989,35.1632070519,100
                135.7105317437,35.1631416348,100
                135.7109408068,35.1632518337,100
                135.7125053209,35.1630100936,100
                135.712796285,35.1630257089,100
                135.713224598,35.163131367,100
                135.7134441792,35.1631132197,100
                135.7136526941,35.1629734919,100
                135.7138199493,35.1627009158,100
                135.7147119594,35.1625450384,100
                135.7148902926,35.1623963651,100
                135.7150737514,35.1618264891,100
                135.7152766938,35.161553923,100
                135.7160585192,35.1609297406,100
                135.7170269481,35.1602581662,100
                135.7171722462,35.1600374394,100
                135.7170783475,35.159301144,100
                135.7172395924,35.1583257139,100
                135.7172408219,35.1582860682,100
                135.7172398648,35.1582464164,100
                135.716983436,35.157269949,100
                135.7168509532,35.1563467277,100
                135.71623536,35.1553425955,100
                135.7157491082,35.1547550411,100
                135.7155017073,35.1542755086,100
                135.715254338,35.1538184412,100
                135.7150263971,35.1536271306,100
                135.7145954543,35.153606971,100
                135.7140323156,35.1529496509,100
                135.7139521861,35.1522154957,100
                135.7138885952,35.1515894813,100
                135.7136628443,35.1506481477,100
                135.7134181574,35.1500672041,100
                135.7123525626,35.149069886,100
                135.7117678165,35.1488065316,100
                135.7117677244,35.1486737101,100
                135.712223094,35.1483763193,100
                135.7126371217,35.1478424145,100
                135.7129385284,35.1471780276,100
                135.7128584425,35.1464911269,100
                135.7126217455,35.1455611053,100
                135.712566602,35.1451963154,100
                135.7123550181,35.1446267117,100
                135.711987311,35.1439901137,100
                135.7119914569,35.1436882064,100
                135.7118301018,35.1435592303,100
                135.7108418699,35.1435650045,100
                135.7105868433,35.1435101055,100
                135.7105282106,35.1431358647,100
                135.7099983964,35.1425595861,100
                135.7096170458,35.1425155142,100
                135.7092460284,35.1426089406,100
                135.7086835671,35.142555286,100
                135.7085223466,35.1424015183,100
                135.7084940406,35.1420003066,100
                135.7082295913,35.141611917,100
                135.707895625,35.1414192875,100
                135.7072892854,35.1413564398,100
                135.7067831353,35.1415801068,100
                135.7065966364,35.1415501558,100
                135.7063700274,35.1412880563,100
                135.7062808205,35.1409993112,100
                135.7061603771,35.1409290922,100
                135.7056444182,35.140904834,100
                135.7053203777,35.1409353303,100
                135.705136946,35.1408333392,100
                135.7047805545,35.1401607013,100
                135.7043763499,35.1397266913,100
                135.7036106406,35.1391225826,100
                135.7032085897,35.1388192833,100
                135.7029547598,35.138514298,100
                135.7028025035,35.1382095554,100
                135.702628832,35.1377876453,100
                135.7023993337,35.1375593399,100
                135.7021291459,35.1372339619,100
                135.7019399703,35.1371882231,100
                135.7017125178,35.1372424664,100
                135.7014161889,35.137288232,100
                135.7010844454,35.1374602542,100
                135.7006840672,35.137621122,100
                135.7003298872,35.1375903346,100
                135.699896011,35.1375033656,100
                135.699514185,35.137377929,100
                135.6992336866,35.1371553413,100
                135.6990607911,35.1371714704,100
                135.6989183322,35.1372867607,100
                135.6986773161,35.1375216731,100
                135.6983208707,35.1377005274,100
                135.6978104961,35.1377782981,100
                135.6972421363,35.1377118369,100
                135.6967064089,35.1374942144,100
                135.6962257871,35.1373644712,100
                135.695857816,35.1372930424,100
                135.6954430238,35.1371495891,100
                135.6949020902,35.1370559551,100
                135.6945644096,35.1370295999,100
                135.6944432937,35.136867526,100
                135.6943438964,35.1365994488,100
                135.694282772,35.1362591237,100
                135.6940159513,35.1359913748,100
                135.694028823,35.1355967932,100
                135.6939950202,35.1351955431,100
                135.6938047154,35.1347607923,100
                135.6933179762,35.1343288749,100
                135.6928450196,35.1339262212,100
                135.692306466,35.1336431969,100
                135.6919412691,35.133562747,100
                135.6916418663,35.1334596453,100
                135.691446396,35.1331714435,100
                135.6912122103,35.1327435521,100
                135.6910301041,35.1322929763,100
                135.6908347378,35.1320521029,100
                135.6905159849,35.1318701413,100
                135.6903536537,35.1316787928,100
                135.6902294877,35.1313633775,100
                135.690118979,35.1310525754,100
                135.6901075365,35.1306988556,100
                135.6900928351,35.1304823215,100
                135.6899957489,35.1302669139,100
                135.6898765111,35.1299295388,100
                135.6898147672,35.129599706,100
                135.6898156338,35.129295599,100
                135.6897967048,35.1290182049,100
                135.6896293022,35.1286215458,100
                135.6895670111,35.1283806626,100
                135.6895480208,35.1283072278,100
                135.6896208358,35.1279748513,100
                135.6899206055,35.1272897125,100
                135.6901474151,35.126680097,100
                135.6901773639,35.126297533,100
                135.6900938042,35.1256970537,100
                135.6900899464,35.1254875172,100
                135.6901875984,35.1251486512,100
                135.6903274578,35.1248915903,100
                135.690420491,35.1243792453,100
                135.6903981472,35.1240026746,100
                135.6905112615,35.1237113873,100
                135.690681127,35.1234637682,100
                135.6909669708,35.1233123687,100
                135.6911532104,35.1232000852,100
                135.6913536427,35.1229326118,100
                135.6917392518,35.1220774514,100
                135.6921918783,35.1211669595,100
                135.6925749904,35.1205618824,100
                135.69288629,35.1201112137,100
                135.6930231896,35.1197301199,100
                135.6930468207,35.1191221931,100
                135.6931014098,35.1187399892,100
                135.6934011244,35.1183162162,100
                135.6936597533,35.1181531977,100
                135.6938732445,35.1179174553,100
                135.6938879194,35.1176067741,100
                135.6938010149,35.117166253,100
                135.6937514889,35.1167757581,100
                135.6939285152,35.1165778138,100
                135.6936769129,35.1164030179,100
                135.6934626881,35.116278248,100
                135.6931061658,35.116002829,100
                135.6922925933,35.1155361754,100
                135.6917619504,35.1153191176,100
                135.691275235,35.1151026616,100
                135.6908100169,35.1150396455,100
                135.69028222,35.1149510449,100
                135.6898517152,35.1148029687,100
                135.6892172335,35.114566337,100
                135.6886069348,35.114485547,100
                135.6880616448,35.1143155485,100
                135.6874901723,35.1139536398,100
                135.6870249297,35.1134986149,100
                135.6865298081,35.113160419,100
                135.6861327004,35.1129902304,100
                135.685861277,35.1127159921,100
                135.6856716335,35.1123370301,100
                135.6853702148,35.1119227053,100
                135.6851665039,35.1118228755,100
                135.6848529842,35.1115931056,100
                135.6846169019,35.1113351577,100
                135.6843262398,35.1109322043,100
                135.6842637079,35.1106429454,100
                135.6842551718,35.1102643862,100
                135.6841876056,35.1099525075,100
                135.6840476757,35.1095584656,100
                135.6839587919,35.1089556745,100
                135.6837435179,35.1082293799,100
                135.6836242187,35.1078987732,100
                135.6835882484,35.1073890803,100
                135.6834099921,35.10633674,100
                135.6830835565,35.105548039,100
                135.6828861849,35.1051463801,100
                135.6827076472,35.1041097414,100
                135.6825711981,35.1038126824,100
                135.6819971144,35.1037120922,100
                135.6818516205,35.1037167122,100
                135.681479855,35.104565213,100
                135.6811872842,35.1050386216,100
                135.680667737,35.1058692671,100
                135.6803590726,35.106324392,100
                135.6799921555,35.10641822,100
                135.6798907032,35.1064186578,100
                135.6797506838,35.1064192745,100
                135.6796215804,35.1062957603,100
                135.6794677075,35.106045766,100
                135.6792904502,35.1057322556,100
                135.6790516287,35.1054765433,100
                135.6785668887,35.1053028604,100
                135.6781385085,35.1053191926,100
                135.6778154925,35.105413694,100
                135.6771513453,35.10568117,100
                135.6768461525,35.1058412817,100
                135.6766047751,35.1060968491,100
                135.6762405463,35.1063237074,100
              </coordinates>
            </LinearRing>
          </outerBoundaryIs>
        </Polygon>
      </Placemark>
    </Document>
  </Document>
</kml>
