<?xml version="1.0" encoding="UTF-8"?>
<kml xmlns="http://www.opengis.net/kml/2.2">
  <Document id="root_doc">
    <Document id="_0_16______disv4326">
      <name>10_16金閣disv4326</name>
      <Placemark id="_0_16______disv4326.1">
        <visibility>1</visibility>
        <Polygon>
          <extrude>0</extrude>
          <outerBoundaryIs>
            <LinearRing>
              <coordinates>
                135.730443512,35.0339638289,100
                135.7304437314,35.0333975247,100
                135.7304532348,35.0328784278,100
                135.7288092986,35.0328896942,100
                135.727807373,35.0328892104,100
                135.7277988805,35.0332452701,100
                135.7269927829,35.0333314213,100
                135.7268523332,35.0333531481,100
                135.726885364,35.0337352181,100
                135.7266286372,35.0337441477,100
                135.7266129394,35.0336362178,100
                135.7263931786,35.033645934,100
                135.7263855177,35.0335673203,100
                135.7258524641,35.0335508343,100
                135.725855363,35.0338263507,100
                135.7258620587,35.0344604887,100
                135.7258112827,35.034480445,100
                135.7257730682,35.0347661513,100
                135.7254675421,35.0347655302,100
                135.725323396,35.0347652036,100
                135.7249090745,35.0346970062,100
                135.7249890982,35.0346041548,100
                135.7247706601,35.0346206311,100
                135.7246881161,35.0343771197,100
                135.7244433467,35.0342400766,100
                135.7244114074,35.0340092149,100
                135.7242836372,35.0339765991,100
                135.7239506708,35.0339251342,100
                135.7239531823,35.0336601234,100
                135.7237814724,35.0335493032,100
                135.7237735016,35.0335128045,100
                135.7236484982,35.0334790664,100
                135.723439233,35.0334545039,100
                135.7233383962,35.0333889179,100
                135.7231515423,35.0335885738,100
                135.7230520312,35.0335302446,100
                135.7227547033,35.0334732942,100
                135.7225992561,35.0333901169,100
                135.7221127781,35.0332727987,100
                135.7215559733,35.0334235048,100
                135.7214228177,35.0330893775,100
                135.7213852828,35.0333914923,100
                135.7214971964,35.0338420569,100
                135.7216881233,35.0344195713,100
                135.7217647812,35.0345397539,100
                135.7217653135,35.0345406002,100
                135.7219253225,35.0350193745,100
                135.7219256798,35.0350213478,100
                135.7219767237,35.0352984522,100
                135.7219962644,35.0355673155,100
                135.7219963871,35.035569006,100
                135.7219939464,35.0357154879,100
                135.7219727385,35.0357329762,100
                135.7218383409,35.0358429563,100
                135.7215537943,35.0360173147,100
                135.7214037748,35.0360686649,100
                135.721182791,35.0361199922,100
                135.7211796418,35.0361206884,100
                135.7211583304,35.0361241611,100
                135.7208858241,35.0361679754,100
                135.7207595806,35.0361765592,100
                135.7205097231,35.0362516226,100
                135.7203914384,35.0364007959,100
                135.7200755749,35.0365857842,100
                135.7200436979,35.0365802879,100
                135.7200222854,35.0365758017,100
                135.7199013421,35.0365863693,100
                135.7199000992,35.0365869299,100
                135.7197369798,35.0366624032,100
                135.7197367615,35.0366636709,100
                135.7196118395,35.0374065284,100
                135.7193817151,35.0374311392,100
                135.7191617656,35.0374916209,100
                135.7188945597,35.0375486834,100
                135.7187758979,35.0376124264,100
                135.7186344367,35.0377328114,100
                135.7184198737,35.03781415,100
                135.7182936685,35.0378796368,100
                135.7179978871,35.0380798784,100
                135.7178580134,35.0381361071,100
                135.7176515663,35.0382034483,100
                135.7170588293,35.0384006742,100
                135.717011899,35.0384149314,100
                135.7170116837,35.0384152836,100
                135.7169493435,35.038515778,100
                135.7168850934,35.0386990905,100
                135.7168665237,35.0387520787,100
                135.716866174,35.0387539794,100
                135.7168509218,35.0388382449,100
                135.7168519727,35.038837684,100
                135.716833592,35.0389353233,100
                135.7168335305,35.0390846283,100
                135.7168334903,35.0391591404,100
                135.7168321741,35.0392935114,100
                135.7168528474,35.0394765992,100
                135.7168560571,35.0395082988,100
                135.7168015036,35.0394979598,100
                135.7165133475,35.0394880624,100
                135.7162044986,35.0395135397,100
                135.7160194799,35.0395607865,100
                135.7159608678,35.0396786146,100
                135.715636871,35.0399187173,100
                135.7155125499,35.0400329399,100
                135.7153936351,35.0401618244,100
                135.7153323608,35.0402566168,100
                135.7152775381,35.0404548105,100
                135.7152517058,35.0405958145,100
                135.7152357478,35.0408345947,100
                135.7151682788,35.0411243847,100
                135.7149195739,35.0417350363,100
                135.7149032524,35.0418929649,100
                135.714904589,35.0420890365,100
                135.7149361449,35.0422565856,100
                135.7149767687,35.042377534,100
                135.7149964741,35.0426046365,100
                135.7149749349,35.0426922669,100
                135.7149191582,35.0427814378,100
                135.7146939873,35.04294768,100
                135.7144691533,35.0430290576,100
                135.7141235707,35.0428071754,100
                135.713988552,35.0426635384,100
                135.7139253854,35.0425307054,100
                135.7135233154,35.0427773083,100
                135.7132129619,35.0424666978,100
                135.7133989767,35.0423318469,100
                135.7131493147,35.0422754795,100
                135.713013925,35.0422329741,100
                135.7128710922,35.0421701679,100
                135.7127481273,35.042095014,100
                135.712651198,35.0420188646,100
                135.7125536787,35.0419213739,100
                135.7125030984,35.0418947737,100
                135.7122806551,35.0418856545,100
                135.7121826348,35.0419202142,100
                135.7120436378,35.0419243217,100
                135.7120111871,35.0420028406,100
                135.7119666039,35.0420246371,100
                135.7118461954,35.0420023784,100
                135.7116861838,35.0419547429,100
                135.7113627933,35.0418435457,100
                135.7110353361,35.0417200836,100
                135.7109114981,35.0416990131,100
                135.710788786,35.0417418927,100
                135.7106811542,35.0419719326,100
                135.71078293,35.0420329533,100
                135.7108620458,35.0421152588,100
                135.7109041789,35.0422007868,100
                135.7109439721,35.0423611025,100
                135.7110290952,35.0424827209,100
                135.7110569054,35.0429178135,100
                135.7111220846,35.0430675556,100
                135.7111868595,35.0431373612,100
                135.7112016124,35.0432223311,100
                135.7111309623,35.0434434447,100
                135.7111221158,35.0436166026,100
                135.7111410529,35.043674539,100
                135.7112113999,35.0437242163,100
                135.7112597306,35.0437946166,100
                135.7113205299,35.0440036471,100
                135.7113087057,35.0441402475,100
                135.7113222388,35.0442928236,100
                135.7113526571,35.0444292422,100
                135.7113916342,35.0445356089,100
                135.7114532084,35.044602731,100
                135.7115593124,35.044792572,100
                135.7114768982,35.0450602787,100
                135.7114738468,35.045131895,100
                135.7115857308,35.0452731543,100
                135.7116054545,35.0452593277,100
                135.7117360881,35.0448599676,100
                135.7117841176,35.0447836691,100
                135.7118015618,35.0446128545,100
                135.7117658276,35.0443862771,100
                135.711757859,35.0442522365,100
                135.7117357025,35.0441597839,100
                135.7116863982,35.0440986063,100
                135.7118104535,35.044082844,100
                135.7118537914,35.0440251258,100
                135.7119272106,35.0439797338,100
                135.7120909994,35.043933641,100
                135.7121356077,35.043905083,100
                135.7122628239,35.0437498116,100
                135.7123464141,35.0439130472,100
                135.7123459457,35.0442260234,100
                135.712380049,35.0444481599,100
                135.7124363268,35.0445916112,100
                135.7125085912,35.0448603907,100
                135.7126034952,35.0451142204,100
                135.7126507879,35.0452874403,100
                135.712705173,35.0453909555,100
                135.7128397399,35.0454683197,100
                135.7129846445,35.0455345814,100
                135.7131138873,35.0455731284,100
                135.7135229754,35.0456536057,100
                135.7130403647,35.0458342367,100
                135.7130909049,35.0460535231,100
                135.7130803469,35.0461282211,100
                135.7131067981,35.0461996954,100
                135.7132091086,35.0463000835,100
                135.7133376538,35.0464356059,100
                135.7135146468,35.046497506,100
                135.7136297697,35.046607995,100
                135.713673638,35.0466201414,100
                135.7137808006,35.0465869416,100
                135.7138345437,35.0467220053,100
                135.7138617407,35.04678813,100
                135.7138303566,35.0468872165,100
                135.7138659507,35.0469768828,100
                135.7138716843,35.0471830345,100
                135.713847594,35.0472528407,100
                135.7136836181,35.0475442301,100
                135.7136589516,35.0477123502,100
                135.7136919094,35.048076181,100
                135.7137238864,35.0483147902,100
                135.7137676856,35.0484903962,100
                135.7139072772,35.0489255382,100
                135.7139319883,35.0491107481,100
                135.7139587311,35.0492032805,100
                135.713980064,35.0493936235,100
                135.7140083648,35.0495124997,100
                135.7140683372,35.0496549019,100
                135.7141356606,35.0497764054,100
                135.7141862108,35.049937872,100
                135.7142209748,35.0500078868,100
                135.7142153822,35.0500775964,100
                135.7140981025,35.0504800176,100
                135.7139878937,35.0508244244,100
                135.7139557181,35.050997105,100
                135.7139788105,35.0512357636,100
                135.7139438981,35.0514078737,100
                135.7139258164,35.0516343223,100
                135.7139045381,35.0517137131,100
                135.7138189566,35.0518821822,100
                135.7137967367,35.0520177005,100
                135.7138221531,35.0521164983,100
                135.713988471,35.0523778208,100
                135.7140321583,35.0525365247,100
                135.7140572771,35.0527717371,100
                135.7140447982,35.0529258011,100
                135.7141070166,35.0530883507,100
                135.7141623472,35.0531613726,100
                135.714713606,35.0533759958,100
                135.7149071074,35.0534106796,100
                135.7151374635,35.0533564996,100
                135.7153246534,35.0533215147,100
                135.7155335062,35.0531628399,100
                135.7157289198,35.0531206203,100
                135.715863194,35.0530440296,100
                135.7160534943,35.0528691849,100
                135.7162357595,35.0527774232,100
                135.7164571128,35.0526817389,100
                135.7166017338,35.0526405966,100
                135.7170371923,35.0525958373,100
                135.7172003657,35.0525642446,100
                135.7173052113,35.0525152606,100
                135.7173688632,35.0524528704,100
                135.7176041096,35.0521245273,100
                135.7178549947,35.0517743868,100
                135.7192296705,35.0518437814,100
                135.7194553939,35.0518722631,100
                135.7197149724,35.0520068154,100
                135.7198956818,35.0521330154,100
                135.7199939693,35.0522307131,100
                135.7200922317,35.052304184,100
                135.7203572851,35.0524286063,100
                135.7205123387,35.052442486,100
                135.7209147543,35.0523545351,100
                135.720999791,35.0523499425,100
                135.7214469966,35.0523511119,100
                135.7216102605,35.0523555015,100
                135.7216698937,35.0523352147,100
                135.7219322487,35.0521928507,100
                135.7220071096,35.0522411246,100
                135.7222752134,35.0522032148,100
                135.7223386334,35.0523367482,100
                135.7224726951,35.052455161,100
                135.7224709092,35.0525664307,100
                135.7224203556,35.052643996,100
                135.7222957893,35.0527586478,100
                135.7223042814,35.0528631806,100
                135.7224306749,35.0529444604,100
                135.7226311302,35.0530060493,100
                135.7226984488,35.053049867,100
                135.7228263165,35.0531642508,100
                135.7229343695,35.0533012653,100
                135.7230827232,35.0533853408,100
                135.7233152052,35.0533587563,100
                135.7236247918,35.0534595377,100
                135.7237711358,35.0535492414,100
                135.7238576569,35.053587962,100
                135.7241119245,35.0537646056,100
                135.7242351029,35.0539189082,100
                135.7243068835,35.0540896443,100
                135.7245582747,35.0542236025,100
                135.7246985793,35.0543599848,100
                135.7249490277,35.0543911883,100
                135.7251987543,35.0544016128,100
                135.7253758166,35.0544362406,100
                135.7254737166,35.0546215435,100
                135.7256218024,35.054852314,100
                135.7256947127,35.0549224123,100
                135.7258437763,35.0550003584,100
                135.7262023671,35.0549370798,100
                135.7263759372,35.0549464151,100
                135.7265475369,35.0549827187,100
                135.7267638033,35.0550499,100
                135.727023252,35.0551058382,100
                135.7271563907,35.0551243075,100
                135.7273030874,35.0550892828,100
                135.7274564478,35.0549750429,100
                135.7275253091,35.0548239216,100
                135.7275762409,35.0546300803,100
                135.7276788781,35.0545412208,100
                135.7278902077,35.0543123853,100
                135.7281286875,35.0539784636,100
                135.728172967,35.0538604567,100
                135.7281102287,35.0537509442,100
                135.7278392602,35.0534939843,100
                135.7277784526,35.0533311619,100
                135.7278521731,35.0531996292,100
                135.7283137057,35.0529188149,100
                135.7284780262,35.0528096695,100
                135.7286356518,35.0527578351,100
                135.7287583868,35.052748179,100
                135.7289793136,35.052770927,100
                135.7291797476,35.0528275046,100
                135.7293450492,35.0528239995,100
                135.7294895788,35.0527564297,100
                135.7295674832,35.052654062,100
                135.7296548751,35.0522691645,100
                135.7297348689,35.0521758864,100
                135.7302676163,35.051877053,100
                135.7303379708,35.0517719215,100
                135.7304698987,35.0518582756,100
                135.7305166187,35.0518840855,100
                135.7305738849,35.0519980918,100
                135.7307382944,35.0521697338,100
                135.7308338641,35.0522443865,100
                135.730937563,35.0522886329,100
                135.7316686424,35.0515631672,100
                135.7320201106,35.0516639484,100
                135.7322758783,35.0514125264,100
                135.7339507783,35.0496222342,100
                135.7342378272,35.0492995345,100
                135.7345726432,35.0489020053,100
                135.7346200802,35.0487171697,100
                135.7346421769,35.0485424899,100
                135.7346605378,35.0484918934,100
                135.7347996683,35.0483343706,100
                135.7349706136,35.0481232512,100
                135.7351005533,35.0480078935,100
                135.7353861453,35.0475415865,100
                135.7354618925,35.0474140684,100
                135.7355657777,35.0472706943,100
                135.7356888536,35.0471385596,100
                135.7357830866,35.0469737542,100
                135.7358164887,35.0468720604,100
                135.7358425598,35.046732673,100
                135.7358810704,35.0466061996,100
                135.7358812581,35.0463392837,100
                135.7358276259,35.0462326121,100
                135.7357634937,35.0460146445,100
                135.7355849919,35.0458181194,100
                135.7356595571,35.0457585596,100
                135.7357875403,35.0456909455,100
                135.73587345,35.0454571052,100
                135.7356052957,35.0453258823,100
                135.7356133629,35.0452331476,100
                135.7356793518,35.044989263,100
                135.7360289682,35.0445818997,100
                135.736123044,35.0444723085,100
                135.736226064,35.0438665102,100
                135.7362536715,35.0437147308,100
                135.7363284306,35.0433036718,100
                135.7364098354,35.0428560049,100
                135.7368179554,35.0428842848,100
                135.7368209794,35.0428623182,100
                135.7364038323,35.0428253568,100
                135.7364555648,35.0424178392,100
                135.7365328039,35.0418054364,100
                135.7365891995,35.0413582786,100
                135.7366173393,35.0411125513,100
                135.7366689504,35.0406618624,100
                135.7365419461,35.0394341914,100
                135.7365180671,35.0391881393,100
                135.7362153915,35.0391682559,100
                135.7360233016,35.0387324614,100
                135.7359811034,35.0382840334,100
                135.735914802,35.0383257221,100
                135.7356730245,35.0385161932,100
                135.7354328442,35.0387025832,100
                135.7352918753,35.0388041835,100
                135.735147184,35.0388247848,100
                135.7348677391,35.0388646,100
                135.7348759664,35.0382065502,100
                135.7350020538,35.0374164964,100
                135.7350160979,35.0372484887,100
                135.7344120876,35.0373429479,100
                135.7341918099,35.0373773256,100
                135.734183227,35.0373300509,100
                135.7337083769,35.0374059842,100
                135.7336894616,35.037363264,100
                135.7334025382,35.0373798876,100
                135.7334083541,35.0374349747,100
                135.7332084405,35.0374408021,100
                135.7331588343,35.037110462,100
                135.7331382358,35.0369594914,100
                135.7331078868,35.0365655279,100
                135.7329216594,35.0365696947,100
                135.7329109487,35.0364393814,100
                135.7328981366,35.0362834974,100
                135.732969726,35.0362816837,100
                135.732927954,35.0357937428,100
                135.7327431634,35.0357905887,100
                135.732721974,35.0355708791,100
                135.7327617452,35.0355580787,100
                135.7327570487,35.0354350326,100
                135.7326647018,35.0354284195,100
                135.7326971021,35.0350667067,100
                135.7327485858,35.0350660461,100
                135.732703,35.0347520517,100
                135.7320099637,35.0347377032,100
                135.7319864909,35.0346618717,100
                135.7314937897,35.0347545204,100
                135.7314883817,35.0347059842,100
                135.7308647599,35.0347589703,100
                135.7308543448,35.0346774636,100
                135.7304511476,35.0346885403,100
                135.730443512,35.0339638289,100
              </coordinates>
            </LinearRing>
          </outerBoundaryIs>
        </Polygon>
      </Placemark>
    </Document>
  </Document>
</kml>
