<?xml version="1.0" encoding="UTF-8"?>
<kml xmlns="http://www.opengis.net/kml/2.2">
  <Document id="root_doc">
    <Document id="_0_12_________disv4326">
      <name>10_12出雲路disv4326</name>
      <Placemark id="_0_12_________disv4326.1">
        <visibility>1</visibility>
        <Polygon>
          <extrude>0</extrude>
          <outerBoundaryIs>
            <LinearRing>
              <coordinates>
                135.7687733373,35.0342842832,100
                135.7694199136,35.033214874,100
                135.7699697363,35.0323107818,100
                135.7691029276,35.0319575223,100
                135.7689697141,35.0321704538,100
                135.7689135309,35.0322845794,100
                135.7689024997,35.0323963258,100
                135.7688162131,35.0325053953,100
                135.7685423899,35.0324052991,100
                135.7681899286,35.0329078318,100
                135.7681172458,35.0330200251,100
                135.7675879952,35.0334813773,100
                135.7675113369,35.0335134175,100
                135.7672483579,35.0338325865,100
                135.7665494008,35.0346350408,100
                135.7667633136,35.0347271414,100
                135.7666489487,35.0348698905,100
                135.7664414963,35.0350480279,100
                135.7660944181,35.035261537,100
                135.7660211255,35.0353828829,100
                135.7658426689,35.0356554468,100
                135.7658159249,35.0356963132,100
                135.7656683605,35.0359217499,100
                135.7655907272,35.0360256215,100
                135.7651539876,35.0366601765,100
                135.7649415162,35.0369762659,100
                135.7645671412,35.0375136061,100
                135.7644845615,35.0376323275,100
                135.7646885283,35.0377160312,100
                135.7647452278,35.0376426141,100
                135.764943181,35.0377184176,100
                135.7649591749,35.0376871091,100
                135.7652064017,35.0377648371,100
                135.765099054,35.0380213347,100
                135.7650805412,35.0382565925,100
                135.7648613913,35.0382653304,100
                135.7645959493,35.0383767317,100
                135.7645558931,35.0383777821,100
                135.7645453979,35.0383112095,100
                135.7643793201,35.0383034978,100
                135.7643841695,35.0381926566,100
                135.7642440105,35.0381945721,100
                135.7640550742,35.0381929427,100
                135.763444571,35.039067169,100
                135.763148431,35.039561626,100
                135.7631453998,35.0395661275,100
                135.7630568886,35.0396986397,100
                135.7629829106,35.0398093482,100
                135.7628908912,35.0399331213,100
                135.7626669969,35.040200803,100
                135.762604316,35.0403961852,100
                135.7627430779,35.0404358905,100
                135.7626823033,35.040585922,100
                135.7625566242,35.0405450446,100
                135.7625456517,35.0405792505,100
                135.7623845679,35.040868603,100
                135.7621953976,35.0411572674,100
                135.7621689325,35.0414744153,100
                135.7623137876,35.0415400495,100
                135.7621815794,35.0417470589,100
                135.762014236,35.0420076652,100
                135.761920009,35.041972905,100
                135.7617941502,35.042129783,100
                135.7617229595,35.0423047953,100
                135.7615310853,35.0422335061,100
                135.7614240641,35.0423454178,100
                135.7615527578,35.0424706725,100
                135.7610458998,35.0430711317,100
                135.7609657758,35.0432473237,100
                135.7608705948,35.0432457316,100
                135.7608735153,35.0433098245,100
                135.7607988592,35.0433110891,100
                135.7607947481,35.0434010857,100
                135.7605572644,35.043398583,100
                135.7605580992,35.0437040227,100
                135.7604335526,35.0436999784,100
                135.7604347003,35.0438146348,100
                135.760067984,35.0443128219,100
                135.759923113,35.0442511291,100
                135.759859223,35.0443638987,100
                135.7599929483,35.0444298653,100
                135.7598291454,35.044682518,100
                135.7596825507,35.0451051431,100
                135.7594775885,35.0456019536,100
                135.7592684661,35.0455417527,100
                135.7592618927,35.0459167606,100
                135.7591170475,35.0459204915,100
                135.7589673018,35.0461216184,100
                135.758965561,35.0462559881,100
                135.7587709228,35.0462581426,100
                135.7587639271,35.0464612381,100
                135.7587638604,35.0464620836,100
                135.7587520991,35.0466112936,100
                135.7584867793,35.0469893151,100
                135.7584336187,35.0470700608,100
                135.7583798348,35.0471076333,100
                135.7583783344,35.0472402427,100
                135.7582837891,35.0473793604,100
                135.7582348062,35.0474514513,100
                135.7582283481,35.0478735045,100
                135.7582190163,35.0479308127,100
                135.7580047929,35.0479298281,100
                135.757782353,35.0479267147,100
                135.7577692204,35.0480610618,100
                135.7575858411,35.0480695749,100
                135.7575834857,35.0482083801,100
                135.7575786778,35.0484898654,100
                135.7579482952,35.0484987621,100
                135.7579403001,35.0490505376,100
                135.75884291,35.0495042366,100
                135.7597865593,35.0481602329,100
                135.7602987424,35.0474190747,100
                135.7605518154,35.0470625027,100
                135.7610721509,35.0463127638,100
                135.7614931358,35.0456967106,100
                135.7615554663,35.0456056982,100
                135.7619603186,35.0450286985,100
                135.7625414206,35.0441778709,100
                135.7628295667,35.0437560093,100
                135.7629090257,35.0436391137,100
                135.7633241318,35.043024456,100
                135.7637762205,35.0423658521,100
                135.7641546671,35.0417708425,100
                135.7643897485,35.0414000055,100
                135.7645879687,35.0410875509,100
                135.7648167794,35.0407293081,100
                135.7651414468,35.0402126477,100
                135.7653140697,35.0399485965,100
                135.7654440521,35.0397367213,100
                135.7658210897,35.0391372677,100
                135.766309405,35.0383268873,100
                135.7666107104,35.037842575,100
                135.7669478219,35.0372974825,100
                135.7672005364,35.0368942794,100
                135.767788348,35.0358954061,100
                135.7680166943,35.035500111,100
                135.7681233201,35.0353374149,100
                135.7683192436,35.0349917787,100
                135.76859939,35.0345719301,100
                135.7687733373,35.0342842832,100
              </coordinates>
            </LinearRing>
          </outerBoundaryIs>
        </Polygon>
      </Placemark>
    </Document>
  </Document>
</kml>
