<?xml version="1.0" encoding="UTF-8"?>
<kml xmlns="http://www.opengis.net/kml/2.2">
  <Document id="root_doc">
    <Document id="_0_17______disv4326">
      <name>10_17中川disv4326</name>
      <Placemark id="_0_17______disv4326.1">
        <visibility>1</visibility>
        <Polygon>
          <extrude>0</extrude>
          <outerBoundaryIs>
            <LinearRing>
              <coordinates>
                135.687808526,35.0814279716,100
                135.687594685,35.0812274814,100
                135.6872716687,35.0810674166,100
                135.6869977662,35.0809193098,100
                135.6868461581,35.0806939776,100
                135.6866501758,35.0803600759,100
                135.6865435078,35.0800836602,100
                135.6865273293,35.0798086044,100
                135.6866558744,35.0795626563,100
                135.6866493627,35.0792178337,100
                135.6865132955,35.0790356432,100
                135.68610001,35.0787345606,100
                135.6855741385,35.078307898,100
                135.6853697631,35.0778521311,100
                135.6853203416,35.0773310565,100
                135.6851689985,35.0768309859,100
                135.6848771075,35.0764955603,100
                135.6846064391,35.0763249866,100
                135.6838411899,35.0759399361,100
                135.6835030711,35.0763721065,100
                135.6829504197,35.0768349834,100
                135.6820997294,35.0772553116,100
                135.6808407579,35.0776606127,100
                135.6794685971,35.0781003923,100
                135.6783969344,35.0784634151,100
                135.6775365991,35.0786875467,100
                135.6769896607,35.0788755357,100
                135.6765508786,35.0791350837,100
                135.6762846259,35.0792776898,100
                135.6758806023,35.0794497882,100
                135.6755497705,35.0794022088,100
                135.6750825605,35.0794494803,100
                135.6745983746,35.0795213527,100
                135.6742550715,35.0795457126,100
                135.6737847209,35.0794824701,100
                135.6736641286,35.0801273279,100
                135.673763583,35.0810006806,100
                135.6742475478,35.0814582797,100
                135.6750362669,35.0820307852,100
                135.6757542643,35.082446677,100
                135.6762447757,35.0825957432,100
                135.6765203698,35.0826628208,100
                135.6764874559,35.0837031482,100
                135.6758065935,35.0837361922,100
                135.675276619,35.0836361064,100
                135.6750035487,35.0835803019,100
                135.6744150626,35.0840426966,100
                135.6748401528,35.0844340725,100
                135.6752461151,35.0849513879,100
                135.6755934582,35.0855174214,100
                135.6759145762,35.0860266898,100
                135.6759927443,35.0862216284,100
                135.6760568833,35.0864320233,100
                135.6756752348,35.0867103866,100
                135.6753980475,35.0868483857,100
                135.6750297325,35.0870142403,100
                135.6747746017,35.0870173607,100
                135.6744138458,35.0869558289,100
                135.6739418703,35.0868362479,100
                135.6739875561,35.0870104632,100
                135.6729378979,35.0872295541,100
                135.6727212068,35.0871002317,100
                135.6721037518,35.0863387401,100
                135.6718227316,35.0858795748,100
                135.6714190785,35.0853848647,100
                135.6703955424,35.0841151201,100
                135.6697818198,35.0840859247,100
                135.6683603461,35.0843807531,100
                135.6681322439,35.0849181258,100
                135.6681256563,35.0852289031,100
                135.6681773993,35.0857614021,100
                135.6679995987,35.086126083,100
                135.6677893556,35.0863393269,100
                135.6674792017,35.0866074426,100
                135.6675830253,35.0871428901,100
                135.6678112305,35.0876328296,100
                135.6678926962,35.0879291921,100
                135.6679433934,35.0882543443,100
                135.6679349434,35.0885223616,100
                135.6679491943,35.088754594,100
                135.6678672474,35.088996706,100
                135.6675518016,35.0893841751,100
                135.6673886193,35.0894471131,100
                135.6668511562,35.0896984056,100
                135.6667515765,35.0898659582,100
                135.6670605079,35.0903007641,100
                135.6672779915,35.0907791957,100
                135.667394507,35.0912337591,100
                135.6672492335,35.0914862618,100
                135.6666817014,35.0921178402,100
                135.6667861706,35.0922619347,100
                135.6670201393,35.0925846305,100
                135.6672989353,35.0932758436,100
                135.6674457349,35.0938547906,100
                135.6675380864,35.0942841463,100
                135.6675512487,35.0945682083,100
                135.6668914451,35.0946352857,100
                135.6662054271,35.0947739817,100
                135.6654281867,35.0949451708,100
                135.6663878832,35.0957386108,100
                135.666915436,35.0962149351,100
                135.6659005924,35.0969775479,100
                135.6650634332,35.0976411979,100
                135.6649470653,35.0980811808,100
                135.6650723094,35.0985110515,100
                135.6653528874,35.0989905071,100
                135.6655910891,35.0992710334,100
                135.6659888963,35.0991416251,100
                135.6663257523,35.098912185,100
                135.6669675084,35.0987930903,100
                135.6676511769,35.0987669972,100
                135.6681452784,35.0987538361,100
                135.6689534724,35.0985493337,100
                135.6699335424,35.0982593012,100
                135.6704220704,35.0990256634,100
                135.670843047,35.0994845715,100
                135.6716153928,35.0999351306,100
                135.6722367549,35.1003901399,100
                135.672742483,35.1009944939,100
                135.6728560034,35.1015932121,100
                135.6729887737,35.1021898696,100
                135.6734448193,35.1028092981,100
                135.6739155571,35.1033838307,100
                135.6743323855,35.1040432205,100
                135.6745947907,35.1044795777,100
                135.674715638,35.1049927428,100
                135.6747448344,35.1055586227,100
                135.6748475924,35.1060196944,100
                135.6749008879,35.1063539374,100
                135.6749675235,35.1067063154,100
                135.6753361071,35.1066643403,100
                135.6758332315,35.1065115753,100
                135.6762405463,35.1063237074,100
                135.6766047751,35.1060968491,100
                135.6768461525,35.1058412817,100
                135.6771513453,35.10568117,100
                135.6778154925,35.105413694,100
                135.6781385085,35.1053191926,100
                135.6785668887,35.1053028604,100
                135.6790516287,35.1054765433,100
                135.6792904502,35.1057322556,100
                135.6794677075,35.106045766,100
                135.6796215804,35.1062957603,100
                135.6797506838,35.1064192745,100
                135.6798907032,35.1064186578,100
                135.6799921555,35.10641822,100
                135.6803590726,35.106324392,100
                135.680667737,35.1058692671,100
                135.6811872842,35.1050386216,100
                135.681479855,35.104565213,100
                135.6818516205,35.1037167122,100
                135.6819971144,35.1037120922,100
                135.6825711981,35.1038126824,100
                135.6827076472,35.1041097414,100
                135.6828861849,35.1051463801,100
                135.6830835565,35.105548039,100
                135.6834099921,35.10633674,100
                135.6835882484,35.1073890803,100
                135.6836242187,35.1078987732,100
                135.6837435179,35.1082293799,100
                135.6839587919,35.1089556745,100
                135.6840476757,35.1095584656,100
                135.6841876056,35.1099525075,100
                135.6842551718,35.1102643862,100
                135.6842637079,35.1106429454,100
                135.6843262398,35.1109322043,100
                135.6846169019,35.1113351577,100
                135.6848529842,35.1115931056,100
                135.6851665039,35.1118228755,100
                135.6853702148,35.1119227053,100
                135.6856716335,35.1123370301,100
                135.685861277,35.1127159921,100
                135.6861327004,35.1129902304,100
                135.6865298081,35.113160419,100
                135.6870249297,35.1134986149,100
                135.6874901723,35.1139536398,100
                135.6880616448,35.1143155485,100
                135.6886069348,35.114485547,100
                135.6892172335,35.114566337,100
                135.6898517152,35.1148029687,100
                135.69028222,35.1149510449,100
                135.6908100169,35.1150396455,100
                135.691275235,35.1151026616,100
                135.6917619504,35.1153191176,100
                135.6922925933,35.1155361754,100
                135.6931061658,35.116002829,100
                135.6934626881,35.116278248,100
                135.6936769129,35.1164030179,100
                135.6939285152,35.1165778138,100
                135.6937514889,35.1167757581,100
                135.6938010149,35.117166253,100
                135.6938879194,35.1176067741,100
                135.6938732445,35.1179174553,100
                135.6936597533,35.1181531977,100
                135.6934011244,35.1183162162,100
                135.6931014098,35.1187399892,100
                135.6930468207,35.1191221931,100
                135.6930231896,35.1197301199,100
                135.69288629,35.1201112137,100
                135.6925749904,35.1205618824,100
                135.6921918783,35.1211669595,100
                135.6917392518,35.1220774514,100
                135.6913536427,35.1229326118,100
                135.6911532104,35.1232000852,100
                135.6909669708,35.1233123687,100
                135.690681127,35.1234637682,100
                135.6905112615,35.1237113873,100
                135.6903981472,35.1240026746,100
                135.690420491,35.1243792453,100
                135.6903274578,35.1248915903,100
                135.6901875984,35.1251486512,100
                135.6900899464,35.1254875172,100
                135.6900938042,35.1256970537,100
                135.6901773639,35.126297533,100
                135.6901474151,35.126680097,100
                135.6899206055,35.1272897125,100
                135.6896208358,35.1279748513,100
                135.6895480208,35.1283072278,100
                135.6895670111,35.1283806626,100
                135.6896293022,35.1286215458,100
                135.6897967048,35.1290182049,100
                135.6898156338,35.129295599,100
                135.6898147672,35.129599706,100
                135.6898765111,35.1299295388,100
                135.6899957489,35.1302669139,100
                135.6900928351,35.1304823215,100
                135.6901075365,35.1306988556,100
                135.690118979,35.1310525754,100
                135.6902294877,35.1313633775,100
                135.6903536537,35.1316787928,100
                135.6905159849,35.1318701413,100
                135.6908347378,35.1320521029,100
                135.6910301041,35.1322929763,100
                135.6912122103,35.1327435521,100
                135.691446396,35.1331714435,100
                135.6916418663,35.1334596453,100
                135.6919412691,35.133562747,100
                135.692306466,35.1336431969,100
                135.6928450196,35.1339262212,100
                135.6933179762,35.1343288749,100
                135.6938047154,35.1347607923,100
                135.6939950202,35.1351955431,100
                135.694028823,35.1355967932,100
                135.6940159513,35.1359913748,100
                135.694282772,35.1362591237,100
                135.6943438964,35.1365994488,100
                135.6944432937,35.136867526,100
                135.6945644096,35.1370295999,100
                135.6949020902,35.1370559551,100
                135.6954430238,35.1371495891,100
                135.695857816,35.1372930424,100
                135.6962257871,35.1373644712,100
                135.6967064089,35.1374942144,100
                135.6972421363,35.1377118369,100
                135.6978104961,35.1377782981,100
                135.6983208707,35.1377005274,100
                135.6986773161,35.1375216731,100
                135.6989183322,35.1372867607,100
                135.6990607911,35.1371714704,100
                135.6992336866,35.1371553413,100
                135.699514185,35.137377929,100
                135.699896011,35.1375033656,100
                135.7003298872,35.1375903346,100
                135.7006840672,35.137621122,100
                135.7010844454,35.1374602542,100
                135.7014161889,35.137288232,100
                135.7017125178,35.1372424664,100
                135.7019399703,35.1371882231,100
                135.702079864,35.137034259,100
                135.7022357494,35.136790471,100
                135.7025727011,35.1364989442,100
                135.7032760984,35.135627244,100
                135.7035776335,35.135461966,100
                135.7038850402,35.1354567857,100
                135.704148474,35.1354201594,100
                135.7044720229,35.1352774688,100
                135.7048012128,35.1352045862,100
                135.7050507088,35.1350801002,100
                135.7051767157,35.1349715885,100
                135.7052614868,35.1348451608,100
                135.7053159996,35.1346759802,100
                135.7053703022,35.1344278496,100
                135.7060267624,35.1334660239,100
                135.7062100347,35.1332018603,100
                135.7062425439,35.1330236843,100
                135.706209064,35.1327915436,100
                135.7062277636,35.1325795985,100
                135.706337134,35.1324057601,100
                135.7064382302,35.1322139434,100
                135.7063546555,35.1316978571,100
                135.7064420398,35.1315105148,100
                135.7066392068,35.1313207574,100
                135.706946127,35.1310941452,100
                135.707336718,35.1309024524,100
                135.7075960907,35.1305704369,100
                135.707729882,35.1303379898,100
                135.7079158299,35.1302392682,100
                135.7082683399,35.1301834087,100
                135.7084955041,35.1302158509,100
                135.7087671572,35.1300867649,100
                135.7088426403,35.1298873509,100
                135.7090198408,35.1298132577,100
                135.7092430468,35.1297713165,100
                135.709525395,35.1293878003,100
                135.7098055632,35.1289772323,100
                135.7098623961,35.1286152961,100
                135.7098292553,35.1284304864,100
                135.7098032804,35.1282855557,100
                135.7096671876,35.1279614834,100
                135.7095385662,35.1278087059,100
                135.7094438728,35.1276069197,100
                135.7094632561,35.1274652672,100
                135.7097029002,35.1270225672,100
                135.7101022015,35.1260211921,100
                135.7103641705,35.1254256458,100
                135.7105065924,35.1249049637,100
                135.7106287013,35.1245710066,100
                135.7108389812,35.1243554316,100
                135.7110497543,35.1241151391,100
                135.7111643314,35.1238801831,100
                135.7111096379,35.1236022925,100
                135.7110305432,35.1233106112,100
                135.7111399966,35.1230575445,100
                135.7112594827,35.1228519689,100
                135.7113879744,35.1226082439,100
                135.7114069905,35.1224846192,100
                135.7112909518,35.1222532065,100
                135.7107397352,35.1215606002,100
                135.71050481,35.1212396041,100
                135.710406704,35.1210715453,100
                135.7103753021,35.1208615994,100
                135.71056007,35.1202829883,100
                135.7106405254,35.1195699722,100
                135.7104700334,35.1191846214,100
                135.7104135057,35.1189968029,100
                135.7104408295,35.1188687638,100
                135.7108148497,35.1184280105,100
                135.7108055935,35.1182093873,100
                135.7107279254,35.1179829954,100
                135.71054336,35.1177483219,100
                135.7104630579,35.117515163,100
                135.7104084727,35.1172328375,100
                135.7103799181,35.1170183942,100
                135.7102357392,35.1168226202,100
                135.7101474438,35.1165781028,100
                135.7101643333,35.115886703,100
                135.7099434236,35.1155524288,100
                135.7098782058,35.1153870545,100
                135.7098780019,35.1152631749,100
                135.7099600957,35.115140407,100
                135.7103361688,35.1148663599,100
                135.7104780506,35.1146385883,100
                135.7105583372,35.1143355964,100
                135.7105111058,35.1138280663,100
                135.7102298564,35.1130896863,100
                135.7099909558,35.1124285226,100
                135.7098566714,35.1121517799,100
                135.7096967247,35.111789057,100
                135.709649311,35.1115585799,100
                135.7096677856,35.1113268567,100
                135.7100095229,35.1105837764,100
                135.7102582439,35.1102290778,100
                135.71034359,35.1100816001,100
                135.710305435,35.109934674,100
                135.7100982961,35.1098663602,100
                135.7096698918,35.1097499817,100
                135.7092919346,35.1094472354,100
                135.7089637784,35.1091249593,100
                135.7083137781,35.1087080318,100
                135.7079754574,35.1084801676,100
                135.7082869497,35.1080092821,100
                135.7082205754,35.1077672839,100
                135.7079970436,35.1075613859,100
                135.7073889028,35.1073792795,100
                135.7070822429,35.1073479032,100
                135.706901883,35.1073115503,100
                135.7067091594,35.1072097429,100
                135.7066947003,35.1071126616,100
                135.7068193746,35.1069207031,100
                135.7072811386,35.1066140632,100
                135.7076022883,35.106474482,100
                135.70838651,35.1062310119,100
                135.70906921,35.1059883507,100
                135.7093686282,35.1058371629,100
                135.7094434182,35.105669239,100
                135.7093398153,35.1055033511,100
                135.7090363259,35.1053165591,100
                135.7087964458,35.1051059048,100
                135.7087120909,35.1049380208,100
                135.7086708345,35.1048090434,100
                135.7086765519,35.1046649679,100
                135.708780554,35.1044095765,100
                135.7091351259,35.1040556989,100
                135.7094619849,35.1034799873,100
                135.7095835233,35.1032206229,100
                135.7096501743,35.1030318315,100
                135.709651436,35.1026725959,100
                135.7093728946,35.1026913636,100
                135.7090844249,35.1027003893,100
                135.7089568235,35.1026934623,100
                135.7086898164,35.1027404968,100
                135.7086617471,35.1027351473,100
                135.7088742454,35.1022945858,100
                135.7093233916,35.1016104284,100
                135.7095346297,35.1012640208,100
                135.7096572419,35.101019447,100
                135.7096607986,35.1000066689,100
                135.7093949989,35.0998344047,100
                135.7093518327,35.0997239446,100
                135.7093909289,35.0991576784,100
                135.7094037586,35.0989147419,100
                135.709453298,35.0984917456,100
                135.7095662803,35.0980479152,100
                135.7095897338,35.0978846551,100
                135.7096686634,35.0977669524,100
                135.709840942,35.0975788349,100
                135.7103198265,35.0973406727,100
                135.7102802177,35.0970835963,100
                135.7103384621,35.0966322391,100
                135.7105401297,35.0963519337,100
                135.7110520666,35.0961429333,100
                135.7113335673,35.0959255661,100
                135.7113545828,35.0957292709,100
                135.710888901,35.0952705388,100
                135.7112889754,35.0946038584,100
                135.7115232593,35.094262571,100
                135.7113333173,35.0935299763,100
                135.7110114207,35.0927301632,100
                135.7108128415,35.092491652,100
                135.7106046053,35.09237439,100
                135.7105736066,35.092356921,100
                135.7103360796,35.0920034519,100
                135.7101217492,35.0913273486,100
                135.7102020258,35.0908962541,100
                135.7103815764,35.0905844868,100
                135.7107363974,35.0902157409,100
                135.7110451021,35.0899621712,100
                135.711227838,35.0896997782,100
                135.710923174,35.0896433455,100
                135.7106240271,35.0895531918,100
                135.7103056968,35.0893750296,100
                135.7098968464,35.0890798137,100
                135.7095812299,35.088946798,100
                135.7094303818,35.0886853671,100
                135.7092768149,35.0883811111,100
                135.709016178,35.0881106829,100
                135.7086593887,35.0879912264,100
                135.708250462,35.0878965723,100
                135.7080940814,35.0877117494,100
                135.7081104352,35.0876482649,100
                135.7081463341,35.0875089792,100
                135.7083385762,35.087285983,100
                135.7086077495,35.0869502801,100
                135.7087753867,35.086535737,100
                135.7090391091,35.0860377533,100
                135.7093631892,35.0856435119,100
                135.7095766675,35.0851842813,100
                135.7093648449,35.08512412,100
                135.7091858625,35.085039036,100
                135.7089654717,35.0849180048,100
                135.7086738439,35.0848265213,100
                135.7081761676,35.0847267216,100
                135.7079096539,35.0847117093,100
                135.7077726728,35.0847729304,100
                135.7078310993,35.0849079393,100
                135.7079779658,35.0851464063,100
                135.7080061907,35.0852814823,100
                135.7078936125,35.085286351,100
                135.707739615,35.085253019,100
                135.707586149,35.0853120163,100
                135.7074577783,35.0854453747,100
                135.7073297031,35.0856282435,100
                135.7071290851,35.0856040934,100
                135.7064716842,35.0854303038,100
                135.7058967495,35.0852631193,100
                135.7058181234,35.0854480789,100
                135.7056735511,35.0856309761,100
                135.705436347,35.0859494299,100
                135.7051332859,35.0862770174,100
                135.704895491,35.0864895471,100
                135.7047197825,35.0865013709,100
                135.7045295315,35.0863689964,100
                135.7043853482,35.0861193341,100
                135.7042761929,35.0857479186,100
                135.7041339429,35.0858496883,100
                135.703953467,35.0859967186,100
                135.7037439166,35.0863487597,100
                135.7036016957,35.0864596837,100
                135.7034423928,35.0864601379,100
                135.7031891034,35.0863459872,100
                135.70270562,35.0863316277,100
                135.7022806988,35.086477067,100
                135.702010784,35.0868452231,100
                135.7019870749,35.0870277806,100
                135.702084365,35.0872414825,100
                135.7022665579,35.0874099697,100
                135.7024319818,35.0875243268,100
                135.7024413315,35.0877292909,100
                135.7023627016,35.0879120641,100
                135.7021819071,35.08800275,100
                135.7018936443,35.0880283084,100
                135.7018062769,35.088120985,100
                135.7018069439,35.0882449371,100
                135.7018986835,35.088447428,100
                135.7020832793,35.0885504945,100
                135.7018704862,35.0888169558,100
                135.7014871833,35.0885387408,100
                135.700842695,35.0882094517,100
                135.7005308753,35.0884514395,100
                135.6998365006,35.0885458478,100
                135.6989719879,35.088667789,100
                135.6987459665,35.0885242589,100
                135.6984897382,35.0883763581,100
                135.6983669059,35.0885186655,100
                135.6982450791,35.0888478878,100
                135.6982217065,35.0896027326,100
                135.6981521792,35.0899521572,100
                135.6979478396,35.0902568768,100
                135.6977376062,35.0904917171,100
                135.6971091491,35.0910973648,100
                135.6966061825,35.0915471205,100
                135.6963639745,35.0919690745,100
                135.6963377503,35.0921967684,100
                135.6962038327,35.0923210177,100
                135.6961459708,35.0923389723,100
                135.695888462,35.0924188242,100
                135.6953542017,35.0923369846,100
                135.6946483326,35.0922259764,100
                135.6945524188,35.0922108048,100
                135.693985826,35.0920683102,100
                135.6937298885,35.0919788562,100
                135.6937755095,35.0917737481,100
                135.6938488536,35.0916249099,100
                135.6938475521,35.0913815824,100
                135.6940368392,35.0908268871,100
                135.6941929295,35.0902294285,100
                135.694142543,35.0900516142,100
                135.6939521345,35.0898831659,100
                135.6937067968,35.0897216922,100
                135.6934255511,35.0895220258,100
                135.6933226156,35.0892767509,100
                135.6932849,35.0883892083,100
                135.6933487696,35.088006107,100
                135.6932841819,35.0877426885,100
                135.6930159193,35.0874010739,100
                135.6934978097,35.0871157968,100
                135.6938150519,35.087374008,100
                135.6940220403,35.0875580626,100
                135.6942871361,35.0873117451,100
                135.694443135,35.0872098781,100
                135.6945669681,35.087250122,100
                135.6947435334,35.0873959979,100
                135.6949003563,35.0874473821,100
                135.6950036095,35.0872374883,100
                135.6952686094,35.086975533,100
                135.6954192798,35.0869006951,100
                135.6957242184,35.0869132923,100
                135.696262263,35.0868599195,100
                135.6964021839,35.0868302686,100
                135.6964178556,35.086681425,100
                135.696246545,35.0864926751,100
                135.695890538,35.086178386,100
                135.6965542842,35.0860052508,100
                135.696901966,35.0857923757,100
                135.6970216864,35.0855870298,100
                135.6970718409,35.0852106558,100
                135.6970712067,35.084588931,100
                135.6965812108,35.0843830471,100
                135.6956167514,35.0837979242,100
                135.6953002044,35.083665996,100
                135.6950392497,35.0836599887,100
                135.6948523192,35.0836312074,100
                135.6947197701,35.0834987538,100
                135.6945158088,35.0833664026,100
                135.6942188115,35.0832951579,100
                135.6937063588,35.0829971599,100
                135.6935434024,35.0828287116,100
                135.6941314789,35.0817916193,100
                135.6940208435,35.0817233786,100
                135.6938825241,35.0815367524,100
                135.6937132804,35.0812219427,100
                135.6936183217,35.0809293643,100
                135.693468444,35.0806369982,100
                135.6932062126,35.0803944217,100
                135.6928728408,35.0801949066,100
                135.6927038814,35.0799319302,100
                135.6926889722,35.0797134308,100
                135.6927289249,35.0794812656,100
                135.6926923395,35.0793146155,100
                135.6924817069,35.0789639226,100
                135.6920268114,35.0786385987,100
                135.6913600714,35.0782441397,100
                135.6913568286,35.0784073084,100
                135.691020286,35.0788188688,100
                135.6907604907,35.0789763145,100
                135.6906798572,35.0791290044,100
                135.6906429376,35.0793735715,100
                135.6905547023,35.0795544118,100
                135.69041425,35.0797514584,100
                135.6903363271,35.0799120432,100
                135.6902029127,35.080031286,100
                135.6901003895,35.0801490587,100
                135.6899539221,35.0802762271,100
                135.6897656412,35.0803700463,100
                135.6895437316,35.0804638507,100
                135.6893988183,35.0805076368,100
                135.6892162447,35.0804961128,100
                135.6890266782,35.0805555606,100
                135.6888938601,35.0807205099,100
                135.6884427013,35.0814515031,100
                135.6883737803,35.081574853,100
                135.6882788352,35.0816812343,100
                135.6882101151,35.0817172568,100
                135.6881408343,35.0817029937,100
                135.687830204,35.0815638786,100
                135.687808526,35.0814279716,100
              </coordinates>
            </LinearRing>
          </outerBoundaryIs>
        </Polygon>
      </Placemark>
    </Document>
  </Document>
</kml>
