<?xml version="1.0" encoding="UTF-8"?>
<kml xmlns="http://www.opengis.net/kml/2.2">
  <Document id="root_doc">
    <Document id="_0_15______disv4326">
      <name>10_15衣笠disv4326</name>
      <Placemark id="_0_15______disv4326.1">
        <visibility>1</visibility>
        <Polygon>
          <extrude>0</extrude>
          <outerBoundaryIs>
            <LinearRing>
              <coordinates>
                135.7242803191,35.0276225371,100
                135.7241441072,35.027614903,100
                135.7238929803,35.0276255292,100
                135.723437917,35.0276416786,100
                135.7234042241,35.0278086554,100
                135.7232703578,35.0277588412,100
                135.723226737,35.0277715594,100
                135.7232263729,35.0277716282,100
                135.7231231194,35.027816256,100
                135.7225777834,35.0278290261,100
                135.7221590611,35.0278327881,100
                135.7220698243,35.0279733685,100
                135.7220840159,35.028228137,100
                135.7221060961,35.0284602437,100
                135.7220661874,35.0285908645,100
                135.7220581832,35.0287564899,100
                135.7220520885,35.0289269081,100
                135.7220403249,35.0292554924,100
                135.7220196232,35.0293203791,100
                135.7220218791,35.0294451799,100
                135.7219908938,35.029863303,100
                135.7219498718,35.0304459205,100
                135.7219738153,35.0308372657,100
                135.7220159107,35.0317450921,100
                135.7220620015,35.0329992157,100
                135.7214228177,35.0330893775,100
                135.7215559733,35.0334235048,100
                135.7221127781,35.0332727987,100
                135.7225992561,35.0333901169,100
                135.7227547033,35.0334732942,100
                135.7230520312,35.0335302446,100
                135.7231515423,35.0335885738,100
                135.7233383962,35.0333889179,100
                135.723439233,35.0334545039,100
                135.7236484982,35.0334790664,100
                135.7237735016,35.0335128045,100
                135.7237814724,35.0335493032,100
                135.7239531823,35.0336601234,100
                135.7239506708,35.0339251342,100
                135.7242836372,35.0339765991,100
                135.7244114074,35.0340092149,100
                135.7244433467,35.0342400766,100
                135.7246881161,35.0343771197,100
                135.7247706601,35.0346206311,100
                135.7249890982,35.0346041548,100
                135.7249090745,35.0346970062,100
                135.725323396,35.0347652036,100
                135.7254675421,35.0347655302,100
                135.7257730682,35.0347661513,100
                135.7258112827,35.034480445,100
                135.7258620587,35.0344604887,100
                135.725855363,35.0338263507,100
                135.7258524641,35.0335508343,100
                135.7263855177,35.0335673203,100
                135.7263931786,35.033645934,100
                135.7266129394,35.0336362178,100
                135.7266286372,35.0337441477,100
                135.726885364,35.0337352181,100
                135.7268523332,35.0333531481,100
                135.7269927829,35.0333314213,100
                135.7277988805,35.0332452701,100
                135.727807373,35.0328892104,100
                135.7288092986,35.0328896942,100
                135.7304532348,35.0328784278,100
                135.7304437314,35.0333975247,100
                135.730443512,35.0339638289,100
                135.7304511476,35.0346885403,100
                135.7308543448,35.0346774636,100
                135.7308647599,35.0347589703,100
                135.7314883817,35.0347059842,100
                135.7314937897,35.0347545204,100
                135.7319864909,35.0346618717,100
                135.7320099637,35.0347377032,100
                135.732703,35.0347520517,100
                135.7327485858,35.0350660461,100
                135.7326971021,35.0350667067,100
                135.7326647018,35.0354284195,100
                135.7327570487,35.0354350326,100
                135.7327617452,35.0355580787,100
                135.732721974,35.0355708791,100
                135.7327431634,35.0357905887,100
                135.732927954,35.0357937428,100
                135.732969726,35.0362816837,100
                135.7328981366,35.0362834974,100
                135.7329109487,35.0364393814,100
                135.7329216594,35.0365696947,100
                135.7331078868,35.0365655279,100
                135.7331382358,35.0369594914,100
                135.7331588343,35.037110462,100
                135.7332084405,35.0374408021,100
                135.7334083541,35.0374349747,100
                135.7334025382,35.0373798876,100
                135.7336894616,35.037363264,100
                135.7337083769,35.0374059842,100
                135.734183227,35.0373300509,100
                135.7341918099,35.0373773256,100
                135.7344120876,35.0373429479,100
                135.7350160979,35.0372484887,100
                135.7350020538,35.0374164964,100
                135.7348759664,35.0382065502,100
                135.7348677391,35.0388646,100
                135.735147184,35.0388247848,100
                135.7352918753,35.0388041835,100
                135.7354328442,35.0387025832,100
                135.7356730245,35.0385161932,100
                135.7355798583,35.0382891459,100
                135.7357056007,35.0381687083,100
                135.7358867773,35.0380645195,100
                135.7360493156,35.0378978908,100
                135.7361038853,35.0378157511,100
                135.7361193984,35.0377235258,100
                135.7360897437,35.0376314137,100
                135.7361409775,35.0375886352,100
                135.7360228099,35.0372265969,100
                135.7360300443,35.0371731582,100
                135.7360187522,35.0367531088,100
                135.7358743488,35.0367587103,100
                135.7358771097,35.0366444842,100
                135.7359205184,35.0365718279,100
                135.7358846067,35.0362744763,100
                135.7359466661,35.0361122765,100
                135.735959795,35.0358959525,100
                135.7358359145,35.0358966688,100
                135.7358276588,35.0354051393,100
                135.7359898376,35.0353961249,100
                135.7359890465,35.0352549874,100
                135.7359151209,35.0352585587,100
                135.7356714113,35.0347701782,100
                135.7356262498,35.0347820531,100
                135.7355522382,35.0343568626,100
                135.7355181495,35.0339319005,100
                135.7354626932,35.0337761359,100
                135.7353760962,35.033538748,100
                135.7352337782,35.0332220074,100
                135.735117444,35.0329596233,100
                135.7350829088,35.0327886215,100
                135.7350281454,35.0327912481,100
                135.7349610799,35.0325717207,100
                135.7349675817,35.0324059496,100
                135.7349102364,35.0323861048,100
                135.7349068705,35.0322674974,100
                135.734740144,35.032334814,100
                135.73467899,35.0323744014,100
                135.7346642066,35.0323321831,100
                135.7349223537,35.0321984426,100
                135.7349744807,35.0320700265,100
                135.7348739566,35.0320583269,100
                135.7348091438,35.0320243099,100
                135.7346256353,35.0317376925,100
                135.7343865852,35.0317499877,100
                135.7343011967,35.031504573,100
                135.7342791004,35.0313196525,100
                135.7342811751,35.0312072551,100
                135.7342470487,35.0310823128,100
                135.7340721173,35.0308259262,100
                135.7340166787,35.0307188963,100
                135.7339912967,35.0306177077,100
                135.7338925247,35.0300019563,100
                135.7338411963,35.0297688005,100
                135.7338368082,35.0297224492,100
                135.7338145056,35.0296952858,100
                135.7337655097,35.0296355969,100
                135.7336877397,35.0294914031,100
                135.7336165724,35.0291646752,100
                135.7335877057,35.0290757326,100
                135.7333446956,35.0286589042,100
                135.7331769576,35.0281317391,100
                135.7331178698,35.027956666,100
                135.7330368057,35.0277928845,100
                135.7329440113,35.0276425278,100
                135.7327655376,35.0272867564,100
                135.7325438552,35.0273001428,100
                135.7315093199,35.0273765289,100
                135.7314280074,35.0273826172,100
                135.7298398658,35.0275008644,100
                135.727565525,35.0276708682,100
                135.7275329657,35.0273409115,100
                135.7275321544,35.0273011186,100
                135.727270201,35.0273498999,100
                135.7267645686,35.0273897525,100
                135.7264060018,35.0274045808,100
                135.7262625172,35.0274796145,100
                135.7262036758,35.0274865247,100
                135.725934474,35.0274999332,100
                135.7257110207,35.0275111198,100
                135.7253696198,35.0275449277,100
                135.7251068746,35.0275606726,100
                135.7249616745,35.0275590063,100
                135.724815297,35.0275574065,100
                135.7243203926,35.027525156,100
                135.7242803191,35.0276225371,100
              </coordinates>
            </LinearRing>
          </outerBoundaryIs>
        </Polygon>
      </Placemark>
    </Document>
  </Document>
</kml>
