<?xml version="1.0" encoding="UTF-8"?>
<kml xmlns="http://www.opengis.net/kml/2.2">
  <Document id="root_doc">
    <Document id="_0_19_________disv4326">
      <name>10_19雲ヶ畑disv4326</name>
      <Placemark id="_0_19_________disv4326.1">
        <visibility>1</visibility>
        <Polygon>
          <extrude>0</extrude>
          <outerBoundaryIs>
            <LinearRing>
              <coordinates>
                135.7262881295,35.1037293147,100
                135.7263622939,35.1035963086,100
                135.7263486369,35.1033619744,100
                135.7260496433,35.1024626126,100
                135.7256490215,35.1018066894,100
                135.7252758244,35.1012611822,100
                135.7253417928,35.1010154793,100
                135.7253473176,35.1008690084,100
                135.7251909037,35.1006255482,100
                135.7249411365,35.1004632879,100
                135.7246885677,35.1004857448,100
                135.7244853964,35.1006050773,100
                135.7242712545,35.1006546636,100
                135.7241641919,35.1006004747,100
                135.7239583574,35.1004404957,100
                135.723711318,35.1002961267,100
                135.7235850637,35.1002668239,100
                135.7234560005,35.100352449,100
                135.723354376,35.1004650383,100
                135.7232033732,35.1005575144,100
                135.7230798407,35.1005529364,100
                135.72299477,35.1004380204,100
                135.7229344034,35.1003094982,100
                135.7227587453,35.1002170521,100
                135.7220779694,35.100131269,100
                135.7218830981,35.1000117341,100
                135.7215454669,35.099871942,100
                135.7218639277,35.0998269655,100
                135.7218585325,35.0995339854,100
                135.7218091981,35.0993175974,100
                135.7216775091,35.0990832032,100
                135.7214744068,35.0989343529,100
                135.721243799,35.0989434019,100
                135.7210104294,35.0990086427,100
                135.7209637851,35.098941069,100
                135.7208870132,35.0987044055,100
                135.7207965582,35.0983145356,100
                135.7207390649,35.0978074138,100
                135.720794004,35.0977218328,100
                135.720950487,35.0977060656,100
                135.7211124756,35.0976586895,100
                135.721236029,35.097586717,100
                135.7212552814,35.0974559814,100
                135.7211428631,35.0971178952,100
                135.721140219,35.0967978779,100
                135.7210798938,35.0965635052,100
                135.7209372481,35.0963021125,100
                135.7208604932,35.0959729808,100
                135.7208880299,35.095736416,100
                135.7210227046,35.0952518486,100
                135.7210995784,35.0951978684,100
                135.7212670517,35.0951550824,100
                135.7215690211,35.0951168301,100
                135.7217777252,35.0949365275,100
                135.7220248222,35.0947923708,100
                135.7223323002,35.094668493,100
                135.7226782323,35.0945175195,100
                135.7227468867,35.0944093637,100
                135.7227551681,35.0942967028,100
                135.7227469728,35.0940825924,100
                135.722771793,35.0937197497,100
                135.722846153,35.0929106666,100
                135.7228626898,35.0926673159,100
                135.7229260584,35.092403156,100
                135.7229068337,35.0919190111,100
                135.7228905531,35.0913488137,100
                135.7227561237,35.0911032877,100
                135.7224542856,35.0907380786,100
                135.7222347597,35.0905036954,100
                135.7221991411,35.0903233966,100
                135.7222211746,35.0900957634,100
                135.7221580719,35.0899289937,100
                135.7219768982,35.0899537904,100
                135.7218478755,35.0900122987,100
                135.7214469206,35.0906365407,100
                135.7212876757,35.0907514598,100
                135.7211394474,35.0907243581,100
                135.721021416,35.0907311285,100
                135.7207358965,35.0908640674,100
                135.7205738861,35.0910556022,100
                135.7205353764,35.091307987,100
                135.7206258142,35.0917024348,100
                135.7205548352,35.0923977172,100
                135.7205404585,35.0925384636,100
                135.7204195435,35.0929418614,100
                135.720175107,35.0933203949,100
                135.7197248523,35.0935141514,100
                135.7195902838,35.0936966644,100
                135.7195984675,35.0938228849,100
                135.7198070566,35.0939738647,100
                135.7201775728,35.0941316961,100
                135.720570064,35.0943165501,100
                135.7208335115,35.0946027997,100
                135.7208471837,35.0947920634,100
                135.720674178,35.0949318816,100
                135.7204051296,35.0950286602,100
                135.7201882021,35.0952134483,100
                135.7199410506,35.0954725357,100
                135.7196444986,35.0957000991,100
                135.7191667284,35.0960042174,100
                135.7188674086,35.0962700133,100
                135.718266123,35.0965200376,100
                135.7176017739,35.0966054702,100
                135.7174523044,35.0965879383,100
                135.7170829563,35.0965446121,100
                135.716704168,35.0964182315,100
                135.7165669049,35.0964519976,100
                135.7163335682,35.0964339874,100
                135.7160728632,35.0962513291,100
                135.715738001,35.0961227945,100
                135.715394881,35.0960844537,100
                135.7151505795,35.0960347242,100
                135.7149776901,35.0959198077,100
                135.7147333955,35.0958250756,100
                135.7144231934,35.0958453332,100
                135.71406083,35.0958587058,100
                135.7137974248,35.0955792014,100
                135.7136904739,35.0952795017,100
                135.7137290544,35.0949460588,100
                135.7136331325,35.094585396,100
                135.7132575237,35.093452,100
                135.7129506263,35.0923799636,100
                135.7127504277,35.0916806594,100
                135.7127424308,35.0911331531,100
                135.7128276968,35.0907477766,100
                135.7130968155,35.0904616416,100
                135.7128113912,35.0903353974,100
                135.7125863763,35.0901776748,100
                135.7122790326,35.0899793315,100
                135.7119688406,35.0900152865,100
                135.7116257304,35.0899882731,100
                135.7114116824,35.0898867731,100
                135.711227838,35.0896997782,100
                135.7110451021,35.0899621712,100
                135.7107363974,35.0902157409,100
                135.7103815764,35.0905844868,100
                135.7102020258,35.0908962541,100
                135.7101217492,35.0913273486,100
                135.7103360796,35.0920034519,100
                135.7105736066,35.092356921,100
                135.7106046053,35.09237439,100
                135.7108128415,35.092491652,100
                135.7110114207,35.0927301632,100
                135.7113333173,35.0935299763,100
                135.7115232593,35.094262571,100
                135.7112889754,35.0946038584,100
                135.710888901,35.0952705388,100
                135.7113545828,35.0957292709,100
                135.7113335673,35.0959255661,100
                135.7110520666,35.0961429333,100
                135.7105401297,35.0963519337,100
                135.7103384621,35.0966322391,100
                135.7102802177,35.0970835963,100
                135.7103198265,35.0973406727,100
                135.709840942,35.0975788349,100
                135.7096686634,35.0977669524,100
                135.7095897338,35.0978846551,100
                135.7095662803,35.0980479152,100
                135.709453298,35.0984917456,100
                135.7094037586,35.0989147419,100
                135.7093909289,35.0991576784,100
                135.7093518327,35.0997239446,100
                135.7093949989,35.0998344047,100
                135.7096607986,35.1000066689,100
                135.7096572419,35.101019447,100
                135.7095346297,35.1012640208,100
                135.7093233916,35.1016104284,100
                135.7088742454,35.1022945858,100
                135.7086617471,35.1027351473,100
                135.7086898164,35.1027404968,100
                135.7089568235,35.1026934623,100
                135.7090844249,35.1027003893,100
                135.7093728946,35.1026913636,100
                135.709651436,35.1026725959,100
                135.7096501743,35.1030318315,100
                135.7095835233,35.1032206229,100
                135.7094619849,35.1034799873,100
                135.7091351259,35.1040556989,100
                135.708780554,35.1044095765,100
                135.7086765519,35.1046649679,100
                135.7086708345,35.1048090434,100
                135.7087120909,35.1049380208,100
                135.7087964458,35.1051059048,100
                135.7090363259,35.1053165591,100
                135.7093398153,35.1055033511,100
                135.7094434182,35.105669239,100
                135.7093686282,35.1058371629,100
                135.70906921,35.1059883507,100
                135.70838651,35.1062310119,100
                135.7076022883,35.106474482,100
                135.7072811386,35.1066140632,100
                135.7068193746,35.1069207031,100
                135.7066947003,35.1071126616,100
                135.7067091594,35.1072097429,100
                135.706901883,35.1073115503,100
                135.7070822429,35.1073479032,100
                135.7073889028,35.1073792795,100
                135.7079970436,35.1075613859,100
                135.7082205754,35.1077672839,100
                135.7082869497,35.1080092821,100
                135.7079754574,35.1084801676,100
                135.7083137781,35.1087080318,100
                135.7089637784,35.1091249593,100
                135.7092919346,35.1094472354,100
                135.7096698918,35.1097499817,100
                135.7100982961,35.1098663602,100
                135.710305435,35.109934674,100
                135.71034359,35.1100816001,100
                135.7102582439,35.1102290778,100
                135.7100095229,35.1105837764,100
                135.7096677856,35.1113268567,100
                135.709649311,35.1115585799,100
                135.7096967247,35.111789057,100
                135.7098566714,35.1121517799,100
                135.7099909558,35.1124285226,100
                135.7102298564,35.1130896863,100
                135.7105111058,35.1138280663,100
                135.7105583372,35.1143355964,100
                135.7104780506,35.1146385883,100
                135.7103361688,35.1148663599,100
                135.7099600957,35.115140407,100
                135.7098780019,35.1152631749,100
                135.7098782058,35.1153870545,100
                135.7099434236,35.1155524288,100
                135.7101643333,35.115886703,100
                135.7101474438,35.1165781028,100
                135.7102357392,35.1168226202,100
                135.7103799181,35.1170183942,100
                135.7104084727,35.1172328375,100
                135.7104630579,35.117515163,100
                135.71054336,35.1177483219,100
                135.7107279254,35.1179829954,100
                135.7108055935,35.1182093873,100
                135.7108148497,35.1184280105,100
                135.7104408295,35.1188687638,100
                135.7104135057,35.1189968029,100
                135.7104700334,35.1191846214,100
                135.7106405254,35.1195699722,100
                135.71056007,35.1202829883,100
                135.7103753021,35.1208615994,100
                135.710406704,35.1210715453,100
                135.71050481,35.1212396041,100
                135.7107397352,35.1215606002,100
                135.7112909518,35.1222532065,100
                135.7114069905,35.1224846192,100
                135.7113879744,35.1226082439,100
                135.7112594827,35.1228519689,100
                135.7111399966,35.1230575445,100
                135.7110305432,35.1233106112,100
                135.7111096379,35.1236022925,100
                135.7111643314,35.1238801831,100
                135.7110497543,35.1241151391,100
                135.7108389812,35.1243554316,100
                135.7106287013,35.1245710066,100
                135.7105065924,35.1249049637,100
                135.7103641705,35.1254256458,100
                135.7101022015,35.1260211921,100
                135.7097029002,35.1270225672,100
                135.7094632561,35.1274652672,100
                135.7094438728,35.1276069197,100
                135.7095385662,35.1278087059,100
                135.7096671876,35.1279614834,100
                135.7098032804,35.1282855557,100
                135.7098292553,35.1284304864,100
                135.7098623961,35.1286152961,100
                135.7098055632,35.1289772323,100
                135.709525395,35.1293878003,100
                135.7092430468,35.1297713165,100
                135.7090198408,35.1298132577,100
                135.7088426403,35.1298873509,100
                135.7087671572,35.1300867649,100
                135.7084955041,35.1302158509,100
                135.7082683399,35.1301834087,100
                135.7079158299,35.1302392682,100
                135.707729882,35.1303379898,100
                135.7075960907,35.1305704369,100
                135.707336718,35.1309024524,100
                135.706946127,35.1310941452,100
                135.7066392068,35.1313207574,100
                135.7064420398,35.1315105148,100
                135.7063546555,35.1316978571,100
                135.7064382302,35.1322139434,100
                135.706337134,35.1324057601,100
                135.7062277636,35.1325795985,100
                135.706209064,35.1327915436,100
                135.7062425439,35.1330236843,100
                135.7062100347,35.1332018603,100
                135.7060267624,35.1334660239,100
                135.7053703022,35.1344278496,100
                135.7053159996,35.1346759802,100
                135.7052614868,35.1348451608,100
                135.7051767157,35.1349715885,100
                135.7050507088,35.1350801002,100
                135.7048012128,35.1352045862,100
                135.7044720229,35.1352774688,100
                135.704148474,35.1354201594,100
                135.7038850402,35.1354567857,100
                135.7035776335,35.135461966,100
                135.7032760984,35.135627244,100
                135.7025727011,35.1364989442,100
                135.7022357494,35.136790471,100
                135.702079864,35.137034259,100
                135.7019399703,35.1371882231,100
                135.7021291459,35.1372339619,100
                135.7023993337,35.1375593399,100
                135.702628832,35.1377876453,100
                135.7028025035,35.1382095554,100
                135.7029547598,35.138514298,100
                135.7032085897,35.1388192833,100
                135.7036106406,35.1391225826,100
                135.7043763499,35.1397266913,100
                135.7047805545,35.1401607013,100
                135.705136946,35.1408333392,100
                135.7053203777,35.1409353303,100
                135.7056444182,35.140904834,100
                135.7061603771,35.1409290922,100
                135.7062808205,35.1409993112,100
                135.7063700274,35.1412880563,100
                135.7065966364,35.1415501558,100
                135.7067831353,35.1415801068,100
                135.7072892854,35.1413564398,100
                135.707895625,35.1414192875,100
                135.7082295913,35.141611917,100
                135.7084940406,35.1420003066,100
                135.7085223466,35.1424015183,100
                135.7086835671,35.142555286,100
                135.7092460284,35.1426089406,100
                135.7096170458,35.1425155142,100
                135.7099983964,35.1425595861,100
                135.7105282106,35.1431358647,100
                135.7105868433,35.1435101055,100
                135.7108418699,35.1435650045,100
                135.7118301018,35.1435592303,100
                135.7119914569,35.1436882064,100
                135.711987311,35.1439901137,100
                135.7123550181,35.1446267117,100
                135.712566602,35.1451963154,100
                135.7126217455,35.1455611053,100
                135.7128584425,35.1464911269,100
                135.7129385284,35.1471780276,100
                135.7126371217,35.1478424145,100
                135.712223094,35.1483763193,100
                135.7117677244,35.1486737101,100
                135.7117678165,35.1488065316,100
                135.7123525626,35.149069886,100
                135.7134181574,35.1500672041,100
                135.7136628443,35.1506481477,100
                135.7138885952,35.1515894813,100
                135.7139521861,35.1522154957,100
                135.7140323156,35.1529496509,100
                135.7145954543,35.153606971,100
                135.7150263971,35.1536271306,100
                135.715254338,35.1538184412,100
                135.7155017073,35.1542755086,100
                135.7157491082,35.1547550411,100
                135.71623536,35.1553425955,100
                135.7168509532,35.1563467277,100
                135.716983436,35.157269949,100
                135.7172398648,35.1582464164,100
                135.7172408219,35.1582860682,100
                135.7172395924,35.1583257139,100
                135.7170783475,35.159301144,100
                135.7171722462,35.1600374394,100
                135.7170269481,35.1602581662,100
                135.7160585192,35.1609297406,100
                135.7152766938,35.161553923,100
                135.7150737514,35.1618264891,100
                135.7148902926,35.1623963651,100
                135.7147119594,35.1625450384,100
                135.7138199493,35.1627009158,100
                135.7136526941,35.1629734919,100
                135.7134441792,35.1631132197,100
                135.713224598,35.163131367,100
                135.712796285,35.1630257089,100
                135.7125053209,35.1630100936,100
                135.7109408068,35.1632518337,100
                135.7105317437,35.1631416348,100
                135.7103203989,35.1632070519,100
                135.7101751299,35.1635269314,100
                135.7096786524,35.1640902128,100
                135.7105884318,35.1644902053,100
                135.7106351397,35.1645107393,100
                135.7110615307,35.1649564859,100
                135.7114574038,35.1652173612,100
                135.7121203254,35.1658723317,100
                135.7123814745,35.1660297135,100
                135.7126345199,35.166254755,100
                135.7129424435,35.1664639376,100
                135.7130336802,35.1667929673,100
                135.7130101776,35.1674377975,100
                135.7132770376,35.1677056872,100
                135.7134099443,35.1682781346,100
                135.713762336,35.1687555279,100
                135.7145885204,35.1685849867,100
                135.7151842748,35.1685253169,100
                135.7156346822,35.1685696765,100
                135.7160553841,35.1688597494,100
                135.7163493879,35.1689584634,100
                135.7172035515,35.1688121263,100
                135.7175324794,35.168755771,100
                135.7191056096,35.1686131911,100
                135.7194458584,35.1684998834,100
                135.7196897568,35.1682649412,100
                135.7198846107,35.1682150337,100
                135.7202581531,35.1682662425,100
                135.7204315173,35.1684327715,100
                135.7202235451,35.1687780829,100
                135.7201911516,35.1690487231,100
                135.7204087787,35.1693774711,100
                135.7208766426,35.1698794724,100
                135.7213026414,35.1700567898,100
                135.7216817747,35.1701440658,100
                135.721942648,35.1701458561,100
                135.7223213973,35.170055023,100
                135.7225603535,35.1700771182,100
                135.7229426067,35.1703334243,100
                135.7231903045,35.1705923095,100
                135.7233665158,35.1708084247,100
                135.7236275489,35.1708778943,100
                135.7237843112,35.1709925514,100
                135.7238837999,35.1712854678,100
                135.7239751569,35.1716257612,100
                135.7241481745,35.1716254492,100
                135.7244031744,35.1714423561,100
                135.7247215266,35.1713583548,100
                135.7249848383,35.1712090837,100
                135.725198673,35.1710441357,100
                135.7254484318,35.1709918095,100
                135.7261272031,35.171207082,100
                135.7263466438,35.1711038038,100
                135.7265650454,35.1710010136,100
                135.7268678692,35.1708585176,100
                135.7270345228,35.17048169,100
                135.7273662704,35.1702420702,100
                135.7276848617,35.170264052,100
                135.7280890893,35.1705135594,100
                135.7286035922,35.1709455028,100
                135.7287682841,35.1709204461,100
                135.7293579879,35.1706104764,100
                135.7299117484,35.1702035871,100
                135.7308170491,35.1698186732,100
                135.7309074622,35.1697350668,100
                135.7307524517,35.1692123118,100
                135.7306000648,35.1686286437,100
                135.7306867766,35.1681279727,100
                135.7308070534,35.1679000616,100
                135.7313527958,35.167608158,100
                135.7314348205,35.1674592491,100
                135.7314010097,35.1670963446,100
                135.7314746198,35.1668707248,100
                135.7316444385,35.1666967967,100
                135.7320856947,35.166344305,100
                135.7322652321,35.165638266,100
                135.7326299258,35.1654414545,100
                135.7328795219,35.1653260121,100
                135.7330931464,35.1651023884,100
                135.7332105413,35.1648203819,100
                135.733242722,35.1645418502,100
                135.7332858439,35.1641686217,100
                135.7333613249,35.1635867939,100
                135.7334614894,35.1629959346,100
                135.733869238,35.162447299,100
                135.7343456861,35.1619211366,100
                135.7345787178,35.1617786821,100
                135.7349626409,35.1616021176,100
                135.7351188739,35.1614935799,100
                135.7355157896,35.1610216096,100
                135.7361222449,35.1608987672,100
                135.7367704423,35.1610170053,100
                135.7374128201,35.1609909981,100
                135.7382051348,35.1605543802,100
                135.738895478,35.1599668992,100
                135.7393639905,35.1596030327,100
                135.7403397653,35.1589902387,100
                135.7415979561,35.1582663449,100
                135.741956805,35.1579725899,100
                135.7421610976,35.1573567349,100
                135.7420333144,35.1567820789,100
                135.7420026407,35.1566017262,100
                135.7421119704,35.1564234317,100
                135.7427421062,35.155948765,100
                135.7430404615,35.1556280468,100
                135.743286495,35.1552488359,100
                135.7434249813,35.154673687,100
                135.7435211873,35.1536905487,100
                135.743606236,35.1526420279,100
                135.7438665151,35.1524566544,100
                135.7441079137,35.1516104407,100
                135.744119421,35.1515701118,100
                135.7444548928,35.1507736052,100
                135.7445471124,35.1503631501,100
                135.7446726767,35.1501081232,100
                135.7436725517,35.1497042371,100
                135.7435457725,35.1495060733,100
                135.7434406358,35.1491861204,100
                135.7433470776,35.1490938759,100
                135.7428528948,35.1490339527,100
                135.7425446315,35.148703074,100
                135.7423812927,35.1481667892,100
                135.7420966225,35.1474075597,100
                135.7421372022,35.1471798202,100
                135.7422274951,35.1470736696,100
                135.7428093287,35.1470793447,100
                135.7430231234,35.1469752166,100
                135.743250239,35.1467222377,100
                135.7436425299,35.1466629267,100
                135.7438670901,35.1464798739,100
                135.7440112896,35.1460061459,100
                135.7444273461,35.1455995452,100
                135.7447591402,35.1444693448,100
                135.7449581967,35.1439842379,100
                135.7450449395,35.1435737581,100
                135.7450635197,35.1433213852,100
                135.7449478739,35.1428593491,100
                135.7447624671,35.1425802764,100
                135.7448090886,35.1420523101,100
                135.7450838867,35.1405469363,100
                135.7453490679,35.1403385346,100
                135.7454604489,35.1401216405,100
                135.7455697909,35.1395145725,100
                135.7454390701,35.1391924446,100
                135.7452872455,35.1390328192,100
                135.7451245693,35.1388957777,100
                135.7450192747,35.1387089238,100
                135.7451323184,35.1382822291,100
                135.7449967548,35.1380841843,100
                135.7447488039,35.1379113281,100
                135.7445290002,35.1378737514,100
                135.7437135316,35.1378313291,100
                135.7432903152,35.1377379657,100
                135.7429079559,35.1375813738,100
                135.7426602612,35.137458166,100
                135.7422793443,35.1370556433,100
                135.7420669659,35.1368601103,100
                135.7417583617,35.1366355678,100
                135.741553951,35.1363881474,100
                135.7413625229,35.1360008153,100
                135.7411543379,35.1355526696,100
                135.7410578426,35.135474009,100
                135.7408738026,35.1354475599,100
                135.7403108445,35.1353930483,100
                135.7399724227,35.1352407682,100
                135.7390285271,35.1347724557,100
                135.7388915563,35.1342902318,100
                135.7390551621,35.1335543414,100
                135.7391274207,35.1331954599,100
                135.7391042094,35.1329541986,100
                135.7387461917,35.1327208129,100
                135.7384128087,35.1324715627,100
                135.7383300773,35.1318650818,100
                135.7383694754,35.1315220472,100
                135.7383890599,35.1310618506,100
                135.7385035208,35.1303735335,100
                135.7385547982,35.1302019429,100
                135.7390447802,35.1294221689,100
                135.7394777804,35.1287734758,100
                135.739615838,35.1284975559,100
                135.7396597944,35.1284096864,100
                135.7398193564,35.1279558443,100
                135.7398209349,35.1277302719,100
                135.7400482986,35.1271160012,100
                135.7400351222,35.1266920051,100
                135.7402848887,35.1261679284,100
                135.7404366211,35.1257952712,100
                135.7405371315,35.1255987124,100
                135.7408184537,35.1253383775,100
                135.7408998625,35.1251576944,100
                135.7408852062,35.124981808,100
                135.7408176358,35.124652702,100
                135.7408796365,35.1245165583,100
                135.7406657965,35.1244814548,100
                135.7404898697,35.1244984073,100
                135.740165713,35.1245099735,100
                135.7397839257,35.1245166972,100
                135.7395534209,35.1244995861,100
                135.7393982851,35.1243612196,100
                135.739314538,35.1242211035,100
                135.7392126571,35.1239749572,100
                135.73891665,35.1236421231,100
                135.7386106516,35.1234849115,100
                135.7381750376,35.123385383,100
                135.7377757714,35.1232186036,100
                135.7374354271,35.1229282797,100
                135.7370892837,35.1226694226,100
                135.7366031065,35.1224097709,100
                135.7362219183,35.1223602147,100
                135.7358811732,35.1221104515,100
                135.7356128657,35.1217597115,100
                135.7354561446,35.1215065421,100
                135.7352512693,35.1211292468,100
                135.7348847257,35.1207171626,100
                135.7342042634,35.1203955951,100
                135.7338953051,35.1202653371,100
                135.7337300154,35.1200459501,100
                135.7336421708,35.1197729307,100
                135.7334916223,35.1194544955,100
                135.7331139278,35.1187902041,100
                135.7329535784,35.1183568855,100
                135.7327677403,35.1179999915,100
                135.7326158363,35.1178166968,100
                135.7322794964,35.1176818017,100
                135.7320362432,35.117572252,100
                135.7318796783,35.1173078873,100
                135.7318343201,35.1169067922,100
                135.731483642,35.1160219863,100
                135.7312967471,35.1155007181,100
                135.7312306873,35.1152459186,100
                135.7312856178,35.1149737085,100
                135.7311953467,35.1147904068,100
                135.7311134168,35.1146902944,100
                135.7308509892,35.1144459779,100
                135.7306188402,35.1141881364,100
                135.730526873,35.1139217997,100
                135.7302931002,35.1134611321,100
                135.7300532544,35.1131086217,100
                135.7297887204,35.1127515485,100
                135.7296750219,35.1124422757,100
                135.7296028274,35.1120813319,100
                135.7296543684,35.1117073523,100
                135.7296803739,35.1114752208,100
                135.7295962086,35.1112945368,100
                135.72943253,35.1110821253,100
                135.7293869421,35.1108790607,100
                135.7294590649,35.1102615977,100
                135.7293272382,35.1097538957,100
                135.7291483828,35.1093114442,100
                135.7292452723,35.1091810216,100
                135.7296154568,35.1088126061,100
                135.7300729092,35.1085594571,100
                135.73016698,35.1084380421,100
                135.7302010947,35.1082285341,100
                135.7302080905,35.1079579785,100
                135.7304104427,35.1071336139,100
                135.7306702901,35.1063432504,100
                135.7309253628,35.1059157738,100
                135.7312587246,35.1057410822,100
                135.7315851849,35.1053184105,100
                135.7317375582,35.1050822609,100
                135.7316505346,35.1049241065,100
                135.7314832246,35.1048739475,100
                135.7313059729,35.1046411562,100
                135.7309702832,35.104240967,100
                135.7304890855,35.1038335522,100
                135.7300212096,35.1035005337,100
                135.7296298322,35.1033134626,100
                135.7293601949,35.1036692818,100
                135.7293024871,35.1038089464,100
                135.7291020704,35.1039306168,100
                135.7289125813,35.1041356947,100
                135.728731295,35.1045030485,100
                135.7285719284,35.1049402414,100
                135.7283740597,35.1056682029,100
                135.7283163711,35.1058596998,100
                135.7275255637,35.1062471711,100
                135.7269792423,35.1061996789,100
                135.7263477891,35.1062197417,100
                135.7262435835,35.1058659045,100
                135.7261997364,35.1055683314,100
                135.726172426,35.1050793108,100
                135.7260984111,35.1046803284,100
                135.726098624,35.1039500934,100
                135.7261645421,35.1038486885,100
                135.7262881295,35.1037293147,100
              </coordinates>
            </LinearRing>
          </outerBoundaryIs>
        </Polygon>
      </Placemark>
    </Document>
  </Document>
</kml>
