<?xml version="1.0" encoding="UTF-8"?>
<kml xmlns="http://www.opengis.net/kml/2.2">
  <Document id="root_doc">
    <Document id="_2_05______disv4326">
      <name>12_05正親disv4326</name>
      <Placemark id="_2_05______disv4326.1">
        <visibility>1</visibility>
        <Polygon>
          <extrude>0</extrude>
          <outerBoundaryIs>
            <LinearRing>
              <coordinates>
                135.7420925861,35.0232606572,100
                135.7420910728,35.0233986225,100
                135.7420906933,35.0235203213,100
                135.7420910237,35.0235243804,100
                135.7422061211,35.0235314034,100
                135.7422044231,35.0235824131,100
                135.7421964162,35.0238236829,100
                135.7421945325,35.0238650193,100
                135.7421699238,35.0244262082,100
                135.742155048,35.0246735198,100
                135.7421459737,35.0248241465,100
                135.7416594945,35.0248254382,100
                135.7416564363,35.0249477646,100
                135.7416565187,35.0252570846,100
                135.7416600354,35.0253990749,100
                135.7415725031,35.0253965659,100
                135.7415675067,35.0252557686,100
                135.7410379046,35.0252478117,100
                135.741038085,35.0251902014,100
                135.740915978,35.0251899413,100
                135.7409151177,35.0252459292,100
                135.7409038762,35.0259108864,100
                135.740903586,35.0259279299,100
                135.7408995174,35.0260107445,100
                135.7408954966,35.0260842622,100
                135.7411367786,35.0260846357,100
                135.7411318121,35.0262558356,100
                135.7412164735,35.0262527057,100
                135.7412180519,35.0262140435,100
                135.7414597966,35.0262096987,100
                135.7414609716,35.0262446335,100
                135.7415315335,35.0262397127,100
                135.7415310303,35.0260722333,100
                135.7420783364,35.0260740292,100
                135.7421582996,35.0260742692,100
                135.7421620669,35.0264311364,100
                135.7423712507,35.0264157334,100
                135.7423673807,35.0263184636,100
                135.7424252699,35.0263072473,100
                135.742456155,35.0263071725,100
                135.7424468084,35.0261746066,100
                135.742901691,35.0261636668,100
                135.742902782,35.0261298637,100
                135.7429045512,35.0260560589,100
                135.7429912642,35.0260538476,100
                135.7430066154,35.0261280413,100
                135.7430148831,35.0262225726,100
                135.7430097811,35.0263697569,100
                135.7428818047,35.0263777963,100
                135.7428849967,35.0265145743,100
                135.7429259845,35.0265286761,100
                135.7429306381,35.0269251257,100
                135.7432865758,35.0269209471,100
                135.743285222,35.0269569335,100
                135.7434591284,35.026950469,100
                135.7434586677,35.02685708,100
                135.7438431201,35.0268512702,100
                135.7438353544,35.0267813188,100
                135.7439596853,35.0267752427,100
                135.7439700365,35.0268334375,100
                135.7442420857,35.026824221,100
                135.7442453121,35.0269162062,100
                135.7448848699,35.0269125493,100
                135.7451122488,35.0268970394,100
                135.7451223971,35.0269516424,100
                135.7453168916,35.0269383159,100
                135.7453327166,35.0273392259,100
                135.7456933104,35.0273316695,100
                135.7456938601,35.027382802,100
                135.7461337102,35.0273347741,100
                135.7461334499,35.0273289275,100
                135.7466844924,35.0272742976,100
                135.7466809056,35.0272427384,100
                135.7468979109,35.0272317804,100
                135.7468945778,35.0271177515,100
                135.7470189758,35.0271114595,100
                135.7470168542,35.0270491268,100
                135.7471202252,35.0270455392,100
                135.7472907244,35.0270329332,100
                135.7472895672,35.026991589,100
                135.7472662149,35.0269919628,100
                135.7472641011,35.0268786397,100
                135.7472606784,35.0266954493,100
                135.7472659591,35.026648203,100
                135.7471972744,35.0266480612,100
                135.747197133,35.0266943321,100
                135.7468388101,35.0266878824,100
                135.7468088326,35.0264189962,100
                135.7468062707,35.0263961017,100
                135.7467700586,35.0263112315,100
                135.7467722848,35.0260942473,100
                135.7470262179,35.0260941419,100
                135.7482252569,35.0260935181,100
                135.7482276598,35.025768005,100
                135.7482313224,35.0252744534,100
                135.7485171727,35.0252794786,100
                135.7485122416,35.0250076876,100
                135.7484137007,35.0249930466,100
                135.748410926,35.0249766311,100
                135.7484220847,35.024692266,100
                135.7483268853,35.0246989015,100
                135.7483240672,35.0248579931,100
                135.7483226587,35.0249184592,100
                135.7482472068,35.0249187825,100
                135.7482453284,35.0248568444,100
                135.7482461251,35.0246932424,100
                135.7478784165,35.0247003723,100
                135.7478666393,35.0238452106,100
                135.7478639017,35.0238092162,100
                135.7475243496,35.0238138679,100
                135.7475222163,35.0232507202,100
                135.7478518503,35.0232478101,100
                135.7478515471,35.0229822958,100
                135.7476111558,35.0229806722,100
                135.7475113359,35.0229799728,100
                135.7475117509,35.0228996851,100
                135.7472611801,35.0229033224,100
                135.7467641976,35.0229055287,100
                135.7467634063,35.022905527,100
                135.7464321707,35.0229071611,100
                135.7460981535,35.0229020274,100
                135.7460768273,35.0229188857,100
                135.7457161053,35.022911371,100
                135.7457259409,35.0232695888,100
                135.7456671239,35.0232701701,100
                135.7456712877,35.0233501147,100
                135.7455633327,35.0233498889,100
                135.7453682021,35.0233494806,100
                135.7453630286,35.0232710833,100
                135.7452377508,35.0232734274,100
                135.7452382348,35.0232550461,100
                135.7450844533,35.0232627527,100
                135.7450809339,35.0232099953,100
                135.7450610098,35.0229107751,100
                135.7447276612,35.0229109206,100
                135.743999454,35.0229102359,100
                135.7429521304,35.0229095056,100
                135.7429550316,35.0226166725,100
                135.7425080033,35.0226062891,100
                135.7422288743,35.0226044312,100
                135.7422131193,35.0232644484,100
                135.7420925861,35.0232606572,100
              </coordinates>
            </LinearRing>
          </outerBoundaryIs>
        </Polygon>
      </Placemark>
    </Document>
  </Document>
</kml>
