<?xml version="1.0" encoding="UTF-8"?>
<kml xmlns="http://www.opengis.net/kml/2.2">
  <Document id="root_doc">
    <Document id="_2_08______disv4326">
      <name>12_08西陣disv4326</name>
      <Placemark id="_2_08______disv4326.1">
        <visibility>1</visibility>
        <Polygon>
          <extrude>0</extrude>
          <outerBoundaryIs>
            <LinearRing>
              <coordinates>
                135.7501669574,35.0308594635,100
                135.7499228754,35.0308801656,100
                135.7499111752,35.0307565409,100
                135.7500504216,35.0307401338,100
                135.7501182181,35.0307382289,100
                135.7501063153,35.0305541071,100
                135.750075269,35.030555086,100
                135.7500526095,35.0305558011,100
                135.7500505997,35.0304953979,100
                135.7500001823,35.0304970988,100
                135.7499519522,35.0304997043,100
                135.7499527768,35.0305582934,100
                135.7499123336,35.0305546132,100
                135.7497830014,35.0305579556,100
                135.7497689135,35.0305581739,100
                135.7497572359,35.0305583548,100
                135.749731491,35.0305587518,100
                135.7496098305,35.0305621097,100
                135.7495834076,35.0305630841,100
                135.749582837,35.0306093819,100
                135.7495488127,35.0306063545,100
                135.7495479066,35.030679528,100
                135.7494739058,35.0306876869,100
                135.7495018967,35.0307818353,100
                135.7493326454,35.0307891657,100
                135.7493295761,35.030983188,100
                135.7493291559,35.0310091045,100
                135.7491812304,35.0310210564,100
                135.7491740559,35.0311424598,100
                135.7491057869,35.031144996,100
                135.7491118136,35.0311764184,100
                135.7490480639,35.0311784714,100
                135.7490467598,35.0312055129,100
                135.749045515,35.0312565005,100
                135.7490417724,35.0313048766,100
                135.749107465,35.0313045179,100
                135.7491236147,35.0314568853,100
                135.7492023634,35.0314571871,100
                135.7492424256,35.0314607204,100
                135.7492404136,35.0317006625,100
                135.7492414612,35.0319063842,100
                135.7492024545,35.0319083464,100
                135.7491907054,35.0320908708,100
                135.7489762519,35.0321164909,100
                135.7489836047,35.0322186969,100
                135.7489578962,35.0322192788,100
                135.7484729803,35.0322240607,100
                135.7484699217,35.0321243993,100
                135.7483492168,35.0321315475,100
                135.7483258149,35.032132978,100
                135.7482667993,35.0321333512,100
                135.7482780812,35.0318799744,100
                135.7483044271,35.0318243908,100
                135.748339379,35.03182566,100
                135.7483315597,35.0316587298,100
                135.7483520919,35.0316572934,100
                135.7483443505,35.031358735,100
                135.7480932007,35.0313594866,100
                135.7480265146,35.0314047058,100
                135.7480336105,35.0314710627,100
                135.748004597,35.031509669,100
                135.7479381486,35.0315117159,100
                135.7479377155,35.0314779801,100
                135.7477734171,35.0314745433,100
                135.7477664625,35.0315089682,100
                135.7476835277,35.0315055586,100
                135.747654888,35.031471131,100
                135.747105964,35.0314656326,100
                135.7471054382,35.0313998519,100
                135.7466245337,35.0313844834,100
                135.7458404875,35.0314129879,100
                135.7458396,35.0313327696,100
                135.7455127367,35.0313363812,100
                135.7455183034,35.031426399,100
                135.7455383706,35.0317771722,100
                135.7455359244,35.0319000239,100
                135.7455350042,35.0319462622,100
                135.7455546581,35.0323003425,100
                135.7459534822,35.0322782889,100
                135.7460516626,35.0337724069,100
                135.7461450828,35.033769997,100
                135.7461545904,35.0338527694,100
                135.7463327887,35.0338470147,100
                135.7464239707,35.0338417828,100
                135.7464255236,35.0338936209,100
                135.7464345134,35.0340478758,100
                135.7464468769,35.0342603117,100
                135.7466619555,35.034255197,100
                135.7466692602,35.0343375423,100
                135.7469344889,35.0343266862,100
                135.746992425,35.0343367368,100
                135.7469943784,35.0342929348,100
                135.7470950322,35.0343056812,100
                135.747096996,35.0343494908,100
                135.7471651,35.0343247012,100
                135.7473053576,35.034330413,100
                135.7473082502,35.0343715487,100
                135.7473863033,35.0343695956,100
                135.747433061,35.034311378,100
                135.7475507123,35.0343102809,100
                135.74755049,35.0343342264,100
                135.74766235,35.0343093127,100
                135.7477829355,35.0343008979,100
                135.747790268,35.0343673263,100
                135.7478701996,35.0343668558,100
                135.7478684343,35.0343067074,100
                135.7480271572,35.0343010458,100
                135.7482798854,35.03429938,100
                135.7482791816,35.0342631088,100
                135.748377699,35.0342611266,100
                135.7484771845,35.0342504848,100
                135.7485394748,35.0342437806,100
                135.748536443,35.0342020048,100
                135.7485729809,35.0342010429,100
                135.7485729222,35.0341952748,100
                135.7485710869,35.0340185054,100
                135.7485708852,35.0340142188,100
                135.7485694679,35.0339839865,100
                135.748823994,35.0339654686,100
                135.7490253546,35.0339327793,100
                135.749081807,35.0339238088,100
                135.7490977864,35.0340616676,100
                135.7492032271,35.0340568119,100
                135.749233187,35.0342223073,100
                135.7492092757,35.034229583,100
                135.7492377949,35.0345534677,100
                135.749289859,35.0346434388,100
                135.749289544,35.0350867796,100
                135.749495177,35.0350793104,100
                135.7498703922,35.0350639461,100
                135.749900152,35.0352964168,100
                135.7505163121,35.0352983713,100
                135.7505166153,35.0351975902,100
                135.7509569656,35.035177072,100
                135.7510011331,35.0350962408,100
                135.7509904929,35.0349970575,100
                135.7509852253,35.0349478886,100
                135.7511106668,35.0349332111,100
                135.7511004215,35.0347166268,100
                135.7509930125,35.0347066195,100
                135.750943842,35.0347066614,100
                135.750942194,35.0345784797,100
                135.7509389355,35.0343234555,100
                135.750970467,35.0343231678,100
                135.7510551926,35.0343236914,100
                135.7510553285,35.0343065079,100
                135.751055348,35.0342719276,100
                135.7512293432,35.0342700963,100
                135.7512958998,35.0342609339,100
                135.7512941495,35.0341093002,100
                135.7512944585,35.0340133793,100
                135.7513380876,35.034012481,100
                135.7513395151,35.033900434,100
                135.7514788949,35.0338988857,100
                135.7514792317,35.0338576858,100
                135.7515948192,35.0338596805,100
                135.751597864,35.033936381,100
                135.7517296358,35.033944958,100
                135.7518113434,35.0339519543,100
                135.7520531415,35.0339756824,100
                135.7520402341,35.0340615073,100
                135.7519354487,35.0340976365,100
                135.7519335275,35.0345828767,100
                135.7522910787,35.0345827524,100
                135.7522904401,35.0347030403,100
                135.7525914703,35.0347126605,100
                135.752593583,35.034808235,100
                135.7529240216,35.0347761501,100
                135.7531778009,35.0347668694,100
                135.7531652116,35.0339389727,100
                135.7532314597,35.0336450018,100
                135.7532922992,35.0334489143,100
                135.7533356568,35.0333156117,100
                135.7530687523,35.0333066247,100
                135.7530086607,35.0333873544,100
                135.7525633321,35.0333945588,100
                135.7525236108,35.0323791291,100
                135.7524011276,35.0323717686,100
                135.7523671825,35.0322198596,100
                135.7523152033,35.0322146131,100
                135.7523087668,35.0321550192,100
                135.7521017726,35.0321557989,100
                135.7520809421,35.0318342556,100
                135.7523956724,35.031817988,100
                135.7524495272,35.0317681642,100
                135.7525091064,35.0317655376,100
                135.7525085616,35.0315894678,100
                135.7525627617,35.031588662,100
                135.7526070736,35.031587976,100
                135.7526654909,35.0315871077,100
                135.752663132,35.0315094927,100
                135.7526073092,35.0315088872,100
                135.7525559366,35.0315087837,100
                135.7525438154,35.0313668478,100
                135.7524744955,35.0313700187,100
                135.7524734334,35.0311951451,100
                135.7524535714,35.0311944712,100
                135.7524646015,35.0310269469,100
                135.7525769106,35.0310211166,100
                135.7525693355,35.0308838391,100
                135.7524741691,35.0308835058,100
                135.7524662796,35.0307727788,100
                135.7525232299,35.0307685266,100
                135.7525182594,35.0306551292,100
                135.7526916232,35.0306468866,100
                135.7526912339,35.03058329,100
                135.752874069,35.0305787278,100
                135.7528738497,35.0304797771,100
                135.7528693427,35.0302677116,100
                135.7525447472,35.0302567755,100
                135.752544409,35.0302914949,100
                135.7520872059,35.0302817691,100
                135.7520767932,35.0304142917,100
                135.7518107009,35.0304088238,100
                135.7513628926,35.0303997481,100
                135.7511820982,35.0304091705,100
                135.7511853769,35.0304342454,100
                135.7513527697,35.0304304334,100
                135.7513570677,35.0305591361,100
                135.7513628268,35.0307315452,100
                135.7512200223,35.0307347183,100
                135.751221617,35.0307501193,100
                135.7512393059,35.0308903761,100
                135.751252879,35.0312113418,100
                135.7508887354,35.0312237035,100
                135.7508773347,35.0311002211,100
                135.7506295564,35.0311044355,100
                135.7506146014,35.0310234845,100
                135.7504058385,35.0310158771,100
                135.7504034673,35.0309218516,100
                135.7503719361,35.0309214204,100
                135.7503694872,35.0308743281,100
                135.7501693829,35.0308823144,100
                135.7501669574,35.0308594635,100
              </coordinates>
            </LinearRing>
          </outerBoundaryIs>
        </Polygon>
      </Placemark>
    </Document>
  </Document>
</kml>
