<?xml version="1.0" encoding="UTF-8"?>
<kml xmlns="http://www.opengis.net/kml/2.2">
  <Document id="root_doc">
    <Document id="_2_09______disv4326">
      <name>12_09成逸disv4326</name>
      <Placemark id="_2_09______disv4326.1">
        <visibility>1</visibility>
        <Polygon>
          <extrude>0</extrude>
          <outerBoundaryIs>
            <LinearRing>
              <coordinates>
                135.749289859,35.0346434388,100
                135.7492377949,35.0345534677,100
                135.7492092757,35.034229583,100
                135.749233187,35.0342223073,100
                135.7492032271,35.0340568119,100
                135.7490977864,35.0340616676,100
                135.749081807,35.0339238088,100
                135.7490253546,35.0339327793,100
                135.748823994,35.0339654686,100
                135.7485694679,35.0339839865,100
                135.7485708852,35.0340142188,100
                135.7485710869,35.0340185054,100
                135.7485729222,35.0341952748,100
                135.7485729809,35.0342010429,100
                135.748536443,35.0342020048,100
                135.7485394748,35.0342437806,100
                135.7484771845,35.0342504848,100
                135.748377699,35.0342611266,100
                135.7482791816,35.0342631088,100
                135.7482798854,35.03429938,100
                135.7480271572,35.0343010458,100
                135.7478684343,35.0343067074,100
                135.7478701996,35.0343668558,100
                135.747790268,35.0343673263,100
                135.7477829355,35.0343008979,100
                135.74766235,35.0343093127,100
                135.74755049,35.0343342264,100
                135.7475507123,35.0343102809,100
                135.747433061,35.034311378,100
                135.7473863033,35.0343695956,100
                135.7473082502,35.0343715487,100
                135.7473053576,35.034330413,100
                135.7471651,35.0343247012,100
                135.747096996,35.0343494908,100
                135.7470950322,35.0343056812,100
                135.7469943784,35.0342929348,100
                135.746992425,35.0343367368,100
                135.7469344889,35.0343266862,100
                135.7466692602,35.0343375423,100
                135.7466619555,35.034255197,100
                135.7464468769,35.0342603117,100
                135.7464509644,35.0343304658,100
                135.7464631737,35.0348374307,100
                135.7464632504,35.0348403178,100
                135.7464643065,35.0352015439,100
                135.7464778244,35.0354071507,100
                135.7464928491,35.0356038867,100
                135.7472571276,35.0355920265,100
                135.7472224741,35.0358289453,100
                135.747206926,35.0358941999,100
                135.7471608624,35.0361379261,100
                135.7471582579,35.0362826497,100
                135.7471898111,35.0368517625,100
                135.747670708,35.036846085,100
                135.7476827887,35.0368459419,100
                135.7476873543,35.0372939618,100
                135.7476878547,35.0373429478,100
                135.7476665542,35.0377237674,100
                135.7476496346,35.0379030376,100
                135.7476378662,35.0380143183,100
                135.74762398,35.0381456017,100
                135.7475562177,35.0381482799,100
                135.7476046181,35.0388760198,100
                135.7476945697,35.0388764853,100
                135.7476943646,35.0389440937,100
                135.747694228,35.038989166,100
                135.7476531257,35.0389890817,100
                135.7476664505,35.0391130586,100
                135.7478493231,35.039081812,100
                135.7478834003,35.0393161193,100
                135.7479724893,35.039313764,100
                135.7482715945,35.0393058556,100
                135.7483866184,35.0392987664,100
                135.7487804341,35.0392485826,100
                135.7488054264,35.039344694,100
                135.749357277,35.0393218742,100
                135.7495725361,35.0390358189,100
                135.7497530298,35.0389052651,100
                135.7498512759,35.0388246146,100
                135.7500982844,35.0386363745,100
                135.7503390246,35.038511082,100
                135.7505401766,35.0383511298,100
                135.7505946836,35.03841392,100
                135.7508749424,35.0383302568,100
                135.7510354027,35.0382548037,100
                135.7510906988,35.0382976637,100
                135.751153061,35.0382753241,100
                135.7512286857,35.0381899808,100
                135.7512346468,35.0381755525,100
                135.7512347457,35.0381753129,100
                135.7512640203,35.0381044403,100
                135.7513149609,35.0381082978,100
                135.7513357937,35.0380892051,100
                135.7515469297,35.0380617416,100
                135.751781741,35.0379058699,100
                135.7519038505,35.0378258296,100
                135.7520015565,35.0377600371,100
                135.7521472114,35.0371992461,100
                135.7522317671,35.0371934872,100
                135.752324228,35.0372592105,100
                135.7524056565,35.0371816448,100
                135.7526983966,35.0371617073,100
                135.7527017275,35.0371040175,100
                135.7528953171,35.0371194665,100
                135.7530629574,35.0359615768,100
                135.7529498626,35.0359554347,100
                135.7518332448,35.0358624798,100
                135.7518569154,35.035666897,100
                135.7515716834,35.0356467822,100
                135.7515767506,35.0354187207,100
                135.7516981236,35.0354234603,100
                135.7517284084,35.0351853912,100
                135.7516045721,35.0351707748,100
                135.7516395145,35.0349612536,100
                135.7519363589,35.0349819944,100
                135.751934279,35.0348902939,100
                135.751611361,35.0348694294,100
                135.7517047644,35.0346380529,100
                135.7519334618,35.0346263302,100
                135.7519335275,35.0345828767,100
                135.7519354487,35.0340976365,100
                135.7520402341,35.0340615073,100
                135.7520531415,35.0339756824,100
                135.7518113434,35.0339519543,100
                135.7517296358,35.033944958,100
                135.751597864,35.033936381,100
                135.7515948192,35.0338596805,100
                135.7514792317,35.0338576858,100
                135.7514788949,35.0338988857,100
                135.7513395151,35.033900434,100
                135.7513380876,35.034012481,100
                135.7512944585,35.0340133793,100
                135.7512941495,35.0341093002,100
                135.7512958998,35.0342609339,100
                135.7512293432,35.0342700963,100
                135.751055348,35.0342719276,100
                135.7510553285,35.0343065079,100
                135.7510551926,35.0343236914,100
                135.750970467,35.0343231678,100
                135.7509389355,35.0343234555,100
                135.750942194,35.0345784797,100
                135.750943842,35.0347066614,100
                135.7509930125,35.0347066195,100
                135.7511004215,35.0347166268,100
                135.7511106668,35.0349332111,100
                135.7509852253,35.0349478886,100
                135.7509904929,35.0349970575,100
                135.7510011331,35.0350962408,100
                135.7509569656,35.035177072,100
                135.7505166153,35.0351975902,100
                135.7505163121,35.0352983713,100
                135.749900152,35.0352964168,100
                135.7498703922,35.0350639461,100
                135.749495177,35.0350793104,100
                135.749289544,35.0350867796,100
                135.749289859,35.0346434388,100
              </coordinates>
            </LinearRing>
          </outerBoundaryIs>
        </Polygon>
      </Placemark>
    </Document>
  </Document>
</kml>
