<?xml version="1.0" encoding="UTF-8"?>
<kml xmlns="http://www.opengis.net/kml/2.2">
  <Document id="root_doc">
    <Document id="_2_06______disv4326">
      <name>12_06嘉楽disv4326</name>
      <Placemark id="_2_06______disv4326.1">
        <visibility>1</visibility>
        <Polygon>
          <extrude>0</extrude>
          <outerBoundaryIs>
            <LinearRing>
              <coordinates>
                135.7430097811,35.0263697569,100
                135.7430148831,35.0262225726,100
                135.7430066154,35.0261280413,100
                135.7429912642,35.0260538476,100
                135.7429045512,35.0260560589,100
                135.742902782,35.0261298637,100
                135.742901691,35.0261636668,100
                135.7424468084,35.0261746066,100
                135.742456155,35.0263071725,100
                135.7424252699,35.0263072473,100
                135.7423673807,35.0263184636,100
                135.7423712507,35.0264157334,100
                135.7421620669,35.0264311364,100
                135.74216654,35.0265616484,100
                135.7420809637,35.026549213,100
                135.7420825907,35.0267414843,100
                135.7420243381,35.0267453752,100
                135.7420343879,35.0270367571,100
                135.7416863543,35.0270251024,100
                135.7416884676,35.0273694992,100
                135.7416893458,35.0275131742,100
                135.7417022326,35.027882878,100
                135.7421233829,35.0278753911,100
                135.7421406132,35.0279162061,100
                135.7423785962,35.0279121325,100
                135.7424564899,35.027910818,100
                135.7424725658,35.0283713238,100
                135.7424740189,35.0284129353,100
                135.7424764171,35.0284815376,100
                135.741622046,35.0284948669,100
                135.7416145494,35.0287912101,100
                135.7415574596,35.0287926376,100
                135.7415528394,35.0290997631,100
                135.7420026386,35.0290978305,100
                135.7420062108,35.0291946761,100
                135.741997727,35.0293891087,100
                135.742429076,35.0294148141,100
                135.7423890944,35.0296824957,100
                135.742380372,35.0297409316,100
                135.7423358857,35.0300386758,100
                135.7420996646,35.0300178211,100
                135.7420359746,35.0303991923,100
                135.741866684,35.0304061573,100
                135.7418554228,35.0305303682,100
                135.7419609565,35.0305417193,100
                135.7419525784,35.0306607952,100
                135.7419489767,35.0307108615,100
                135.7419034358,35.0307078773,100
                135.7418696348,35.0309145809,100
                135.7419277554,35.0309198456,100
                135.7419013381,35.0310445162,100
                135.7421506234,35.031091246,100
                135.7421249153,35.031249231,100
                135.7423802141,35.0312972414,100
                135.7424380887,35.0313051106,100
                135.7424416143,35.0313348385,100
                135.7426259686,35.0313441735,100
                135.7426222203,35.0313857883,100
                135.7428209586,35.0313950132,100
                135.742833484,35.0313252459,100
                135.7429410182,35.0313129368,100
                135.7429514871,35.0312365455,100
                135.7430945638,35.0312484682,100
                135.7430895894,35.0313338864,100
                135.7434565941,35.031349452,100
                135.7434573699,35.0314266861,100
                135.7434436293,35.0314273319,100
                135.743320871,35.03143158,100
                135.7433218548,35.031467641,100
                135.7433227833,35.0315217314,100
                135.7434625252,35.0315186673,100
                135.743457706,35.0314602368,100
                135.7436426056,35.0314592896,100
                135.7436539211,35.0312957094,100
                135.7438429199,35.0312987146,100
                135.7438495951,35.031375213,100
                135.7442509023,35.031366551,100
                135.7442569258,35.032028372,100
                135.7443579962,35.0320233025,100
                135.7444438869,35.0320189758,100
                135.7444465423,35.0320600419,100
                135.7450505081,35.0320123627,100
                135.7450490323,35.0319909496,100
                135.7450443209,35.0319230096,100
                135.7450353837,35.0317941468,100
                135.7450854825,35.0317070616,100
                135.745105671,35.0317059078,100
                135.7450978494,35.0314380538,100
                135.7452206781,35.0314287337,100
                135.7452578387,35.03142846,100
                135.7452581454,35.0313288748,100
                135.7455127367,35.0313363812,100
                135.7458396,35.0313327696,100
                135.7458259687,35.0307322733,100
                135.7458242145,35.0305995843,100
                135.7458611294,35.030602549,100
                135.7460912822,35.0305998604,100
                135.746094454,35.0306962122,100
                135.7462948777,35.0307066321,100
                135.7462495614,35.0302260786,100
                135.746553582,35.030209247,100
                135.7470789625,35.030180199,100
                135.7470798004,35.0299133492,100
                135.7470798117,35.0299024334,100
                135.7470798386,35.0298236247,100
                135.7470794722,35.029810876,100
                135.7470742918,35.0296355704,100
                135.7470696112,35.0294864649,100
                135.7467723904,35.0294996505,100
                135.7467509924,35.0295882035,100
                135.746747024,35.0294721302,100
                135.746683432,35.0294720682,100
                135.7467009762,35.0294116078,100
                135.7466978964,35.0292500394,100
                135.7466690812,35.0292515992,100
                135.7466608892,35.0290329742,100
                135.746855812,35.0290280987,100
                135.7468560467,35.0289514028,100
                135.7470067028,35.0289406598,100
                135.7469946662,35.0283269266,100
                135.7469941669,35.0283012189,100
                135.7469827711,35.0280596272,100
                135.74676577,35.0280610776,100
                135.7467552163,35.027992106,100
                135.7466814988,35.027971459,100
                135.7466284328,35.0279240208,100
                135.7466247529,35.0277560418,100
                135.7461537527,35.0277711165,100
                135.7461337102,35.0273347741,100
                135.7456938601,35.027382802,100
                135.7456933104,35.0273316695,100
                135.7453327166,35.0273392259,100
                135.7453168916,35.0269383159,100
                135.7451223971,35.0269516424,100
                135.7451122488,35.0268970394,100
                135.7448848699,35.0269125493,100
                135.7442453121,35.0269162062,100
                135.7442420857,35.026824221,100
                135.7439700365,35.0268334375,100
                135.7439596853,35.0267752427,100
                135.7438353544,35.0267813188,100
                135.7438431201,35.0268512702,100
                135.7434586677,35.02685708,100
                135.7434591284,35.026950469,100
                135.743285222,35.0269569335,100
                135.7432865758,35.0269209471,100
                135.7429306381,35.0269251257,100
                135.7429259845,35.0265286761,100
                135.7428849967,35.0265145743,100
                135.7428818047,35.0263777963,100
                135.7430097811,35.0263697569,100
              </coordinates>
            </LinearRing>
          </outerBoundaryIs>
        </Polygon>
      </Placemark>
    </Document>
  </Document>
</kml>
