<?xml version="1.0" encoding="UTF-8"?>
<kml xmlns="http://www.opengis.net/kml/2.2">
  <Document id="root_doc">
    <Document id="_2_04______disv4326">
      <name>12_04聚楽disv4326</name>
      <Placemark id="_2_04______disv4326.1">
        <visibility>1</visibility>
        <Polygon>
          <extrude>0</extrude>
          <outerBoundaryIs>
            <LinearRing>
              <coordinates>
                135.7502019204,35.0225977322,100
                135.7498338488,35.0225935973,100
                135.749416618,35.0225890093,100
                135.7494024094,35.0225887688,100
                135.7491073579,35.0225932329,100
                135.7490478558,35.0225940966,100
                135.7488282832,35.0225949126,100
                135.7487972703,35.0225950606,100
                135.7487834305,35.0228744198,100
                135.7483653047,35.0228753193,100
                135.7483510256,35.0225944226,100
                135.7482107864,35.0225902598,100
                135.7482241005,35.0229696834,100
                135.7478515471,35.0229822958,100
                135.7478518503,35.0232478101,100
                135.7475222163,35.0232507202,100
                135.7475243496,35.0238138679,100
                135.7478639017,35.0238092162,100
                135.7478666393,35.0238452106,100
                135.7478784165,35.0247003723,100
                135.7482461251,35.0246932424,100
                135.7482453284,35.0248568444,100
                135.7482472068,35.0249187825,100
                135.7483226587,35.0249184592,100
                135.7483240672,35.0248579931,100
                135.7483268853,35.0246989015,100
                135.7484220847,35.024692266,100
                135.748410926,35.0249766311,100
                135.7484137007,35.0249930466,100
                135.7485122416,35.0250076876,100
                135.7485171727,35.0252794786,100
                135.7482313224,35.0252744534,100
                135.7482276598,35.025768005,100
                135.7482252569,35.0260935181,100
                135.7470262179,35.0260941419,100
                135.7467722848,35.0260942473,100
                135.7467700586,35.0263112315,100
                135.7468062707,35.0263961017,100
                135.7468088326,35.0264189962,100
                135.7468388101,35.0266878824,100
                135.747197133,35.0266943321,100
                135.7471972744,35.0266480612,100
                135.7472659591,35.026648203,100
                135.7472606784,35.0266954493,100
                135.7472641011,35.0268786397,100
                135.7472662149,35.0269919628,100
                135.7472895672,35.026991589,100
                135.7474030147,35.0269892873,100
                135.7474065024,35.0270185925,100
                135.7476615209,35.0270140477,100
                135.7479223296,35.0270093575,100
                135.7485995598,35.0269971744,100
                135.7486610569,35.026996033,100
                135.7487528859,35.0269943194,100
                135.748749837,35.0267301381,100
                135.7490007642,35.0267264988,100
                135.7490360499,35.0267081884,100
                135.7490783194,35.0267092622,100
                135.7493240307,35.0267042757,100
                135.7493239963,35.0267156101,100
                135.7494438697,35.0267186727,100
                135.7494351519,35.0265866038,100
                135.7494980941,35.0265885627,100
                135.7494980295,35.0264969365,100
                135.7495363778,35.0264920856,100
                135.7495349348,35.0263959475,100
                135.7496850615,35.0263958327,100
                135.7499840727,35.0263956688,100
                135.750066715,35.0263956269,100
                135.7500682623,35.0264853556,100
                135.7500697019,35.0265686746,100
                135.7501504207,35.0265746135,100
                135.7501534683,35.0266353295,100
                135.7502342283,35.0266345073,100
                135.7502334788,35.0266912007,100
                135.7502329537,35.0267304983,100
                135.7505543492,35.0267326322,100
                135.7505544889,35.0266862212,100
                135.7506302189,35.0266781349,100
                135.7509230056,35.0266988036,100
                135.7509744593,35.0266776397,100
                135.7509714357,35.0265869227,100
                135.7510421295,35.0265810791,100
                135.7510394964,35.0263963424,100
                135.751352899,35.0263928239,100
                135.7513695952,35.0263926471,100
                135.7515478311,35.0263905436,100
                135.7515543167,35.0263904864,100
                135.7515970408,35.0263900097,100
                135.7517316962,35.0263743669,100
                135.7519244815,35.0263520802,100
                135.7519444346,35.0263505008,100
                135.7520218173,35.025467354,100
                135.7520069283,35.0254504212,100
                135.7520118905,35.0252938003,100
                135.7520118283,35.0252859827,100
                135.7520117663,35.0252780947,100
                135.7520092424,35.0249553198,100
                135.7520072341,35.0247321306,100
                135.7520069172,35.0246593782,100
                135.7520216673,35.0244862271,100
                135.7520007481,35.0244388573,100
                135.7520043861,35.0237948744,100
                135.7520000456,35.0235282965,100
                135.7519849775,35.0226051003,100
                135.7514607047,35.0226097386,100
                135.7514086539,35.0226095622,100
                135.750911192,35.0226077359,100
                135.7508911847,35.0226076626,100
                135.7508390135,35.0226041503,100
                135.7508388327,35.0227533407,100
                135.7507810081,35.0227625934,100
                135.7507692959,35.0227644671,100
                135.7507692499,35.0227644687,100
                135.7506111599,35.0227688634,100
                135.7504944456,35.0227705963,100
                135.7504944442,35.0227703801,100
                135.7504683964,35.0227697128,100
                135.7504693047,35.0228319156,100
                135.7503334302,35.0228298347,100
                135.7503333815,35.0228460226,100
                135.7503332781,35.0228803179,100
                135.750274719,35.0228809195,100
                135.7501952558,35.022881837,100
                135.7502019204,35.0225977322,100
              </coordinates>
            </LinearRing>
          </outerBoundaryIs>
        </Polygon>
      </Placemark>
    </Document>
  </Document>
</kml>
