<?xml version="1.0" encoding="UTF-8"?>
<kml xmlns="http://www.opengis.net/kml/2.2">
  <Document id="root_doc">
    <Document id="_2_03______disv4326">
      <name>12_03中立disv4326</name>
      <Placemark id="_2_03______disv4326.1">
        <visibility>1</visibility>
        <Polygon>
          <extrude>0</extrude>
          <outerBoundaryIs>
            <LinearRing>
              <coordinates>
                135.7551197446,35.0228882087,100
                135.7551219105,35.0226615079,100
                135.7550102254,35.0226634671,100
                135.7550117381,35.022730939,100
                135.7548113055,35.0227296216,100
                135.7548053396,35.022887367,100
                135.7546502373,35.0228933933,100
                135.7546425328,35.0230092315,100
                135.7545700359,35.0230111276,100
                135.7542810229,35.0230147725,100
                135.7542830084,35.022886176,100
                135.754011969,35.0228742205,100
                135.754012073,35.0228391054,100
                135.7539419412,35.0228389641,100
                135.7538631836,35.0228388054,100
                135.7538632153,35.0228281048,100
                135.753809374,35.0228296821,100
                135.7538057701,35.0227424037,100
                135.7536959485,35.0227429403,100
                135.7536976667,35.0225823691,100
                135.753001287,35.0225825818,100
                135.7530117112,35.0228769202,100
                135.7526154036,35.0228816106,100
                135.752368342,35.0228778002,100
                135.7523664486,35.0228524424,100
                135.7525662651,35.0228523546,100
                135.7525999875,35.0228264351,100
                135.752609563,35.0227156714,100
                135.7524859003,35.022715139,100
                135.7524869552,35.0227343684,100
                135.7523636729,35.0227352453,100
                135.7523647269,35.0226046042,100
                135.7522762686,35.0226047059,100
                135.7519849775,35.0226051003,100
                135.7520000456,35.0235282965,100
                135.7520043861,35.0237948744,100
                135.7520007481,35.0244388573,100
                135.7520216673,35.0244862271,100
                135.7520069172,35.0246593782,100
                135.7520072341,35.0247321306,100
                135.7520092424,35.0249553198,100
                135.7520117663,35.0252780947,100
                135.7520118283,35.0252859827,100
                135.7520118905,35.0252938003,100
                135.7520069283,35.0254504212,100
                135.7520218173,35.025467354,100
                135.7519444346,35.0263505008,100
                135.7520087033,35.0263456313,100
                135.7520818986,35.0263054939,100
                135.7524643086,35.0262799992,100
                135.7528893873,35.0262516315,100
                135.7531160004,35.0262550459,100
                135.7532967864,35.026251115,100
                135.7535329226,35.0262696907,100
                135.7539073751,35.0262866421,100
                135.754245531,35.0263019707,100
                135.7543578009,35.0263068448,100
                135.7543648453,35.0264290499,100
                135.7546297792,35.0264229618,100
                135.7546286048,35.0265230362,100
                135.7547587611,35.0265089304,100
                135.7547515045,35.0267410444,100
                135.754825451,35.0267423893,100
                135.7550815982,35.0267257178,100
                135.7554629196,35.0267369034,100
                135.7554638242,35.0266838036,100
                135.7558471322,35.0266742154,100
                135.755980497,35.0266900458,100
                135.7560129037,35.0266529248,100
                135.7561623097,35.0266506168,100
                135.7561841813,35.0266300257,100
                135.7563094831,35.0266288661,100
                135.7563209888,35.0265442355,100
                135.7563640572,35.0265429127,100
                135.7563964826,35.026499806,100
                135.7566072909,35.0265062821,100
                135.7566137592,35.0265708761,100
                135.7567280735,35.0265719491,100
                135.7567264042,35.0266231463,100
                135.7568899959,35.0266227667,100
                135.7568854399,35.0265704304,100
                135.7570703922,35.0265626277,100
                135.7572791584,35.0265650849,100
                135.7572815217,35.0266281215,100
                135.7574570968,35.0266284695,100
                135.7575469918,35.0266287183,100
                135.7575508983,35.0265149159,100
                135.7575875738,35.0265112554,100
                135.7575879518,35.0264399839,100
                135.757746784,35.0264348056,100
                135.7577413288,35.0263085895,100
                135.7577744058,35.0262621021,100
                135.7580011426,35.0262524796,100
                135.7581644162,35.0262577323,100
                135.758314014,35.0262625351,100
                135.7583121859,35.0263245777,100
                135.7583118752,35.0264685305,100
                135.7584454889,35.0264723855,100
                135.7584613459,35.0265692545,100
                135.7584504768,35.0270107394,100
                135.7585429647,35.0270105702,100
                135.7585472609,35.0268649351,100
                135.7586889251,35.0268676799,100
                135.7588782584,35.0268601255,100
                135.7588904662,35.0268376525,100
                135.7588687736,35.0266711199,100
                135.7593465422,35.026674596,100
                135.7593564165,35.0262717734,100
                135.7593482563,35.0250575266,100
                135.7593228276,35.0227154281,100
                135.7590948899,35.0227149786,100
                135.7590747763,35.0227576881,100
                135.7587536792,35.0227700831,100
                135.7587500748,35.0229574817,100
                135.7584160824,35.0229583004,100
                135.7583940217,35.0229561439,100
                135.7583834778,35.0225918749,100
                135.7577263973,35.0225759942,100
                135.7576408354,35.0225739223,100
                135.7576146447,35.0226159153,100
                135.7576079311,35.022709148,100
                135.7576941795,35.0227107272,100
                135.7576937752,35.0228496797,100
                135.7576949205,35.0229084385,100
                135.757612342,35.022909298,100
                135.7575305488,35.022910148,100
                135.7575283302,35.0228711369,100
                135.757587641,35.0228723997,100
                135.7575883662,35.0228491222,100
                135.7575955123,35.0226146669,100
                135.7574875853,35.0226116767,100
                135.7574811107,35.0228025913,100
                135.7574630121,35.0228484743,100
                135.75734406,35.0228478584,100
                135.7573440187,35.0228620141,100
                135.7571884569,35.0228571271,100
                135.7571883635,35.0228891713,100
                135.7570625195,35.0228872307,100
                135.7570605058,35.0228291947,100
                135.7569451219,35.0228224148,100
                135.7569484691,35.0228637622,100
                135.7569208691,35.0228602564,100
                135.7569210665,35.0227926466,100
                135.7568662758,35.0227925375,100
                135.7568732709,35.0225226745,100
                135.7567932968,35.0225200507,100
                135.7567932295,35.0225430803,100
                135.7565288189,35.0225510749,100
                135.7565303822,35.0228653243,100
                135.7552767015,35.0228844386,100
                135.7551197446,35.0228882087,100
              </coordinates>
            </LinearRing>
          </outerBoundaryIs>
        </Polygon>
      </Placemark>
    </Document>
  </Document>
</kml>
