<?xml version="1.0" encoding="UTF-8"?>
<kml xmlns="http://www.opengis.net/kml/2.2">
  <Document id="root_doc">
    <Document id="_2_07______disv4326">
      <name>12_07乾隆disv4326</name>
      <Placemark id="_2_07______disv4326.1">
        <visibility>1</visibility>
        <Polygon>
          <extrude>0</extrude>
          <outerBoundaryIs>
            <LinearRing>
              <coordinates>
                135.7418385117,35.0310381851,100
                135.7418301134,35.0310954964,100
                135.7416257344,35.0310901309,100
                135.7416249058,35.0311774593,100
                135.7416174841,35.0319772196,100
                135.7413627865,35.0319768894,100
                135.7413560459,35.0322479622,100
                135.7413537759,35.0323392189,100
                135.7413512046,35.0323950624,100
                135.741072877,35.0323929909,100
                135.7409568431,35.0323916871,100
                135.7409481967,35.0326238682,100
                135.7409215817,35.0327766387,100
                135.740910806,35.0330325493,100
                135.7408944247,35.0332940123,100
                135.7408606775,35.033291264,100
                135.7408535621,35.0333830864,100
                135.740849521,35.0334905496,100
                135.7409849548,35.0335045725,100
                135.740927413,35.0339974424,100
                135.7409243986,35.0340233533,100
                135.7408857808,35.034044469,100
                135.7405208166,35.0340369284,100
                135.7405303629,35.0342075242,100
                135.7408157503,35.0342397558,100
                135.7408900334,35.0342462248,100
                135.7408745857,35.0342795464,100
                135.7408125418,35.0344930624,100
                135.7407829709,35.0344866894,100
                135.7406569976,35.0344609085,100
                135.7406559153,35.0344645013,100
                135.7405871747,35.0347193718,100
                135.7405417583,35.0348878077,100
                135.740158694,35.0349029758,100
                135.7401189258,35.0354878607,100
                135.7401110943,35.0355686242,100
                135.7401375038,35.0357271431,100
                135.7401080345,35.0357317276,100
                135.7401066215,35.0357185976,100
                135.740101789,35.035717544,100
                135.7399329594,35.0357325074,100
                135.7399598574,35.0358921256,100
                135.7399651858,35.0358967148,100
                135.7400032951,35.0359764505,100
                135.740133368,35.0359736298,100
                135.7401266901,35.0360074207,100
                135.7401363922,35.0360098569,100
                135.7401417735,35.036009069,100
                135.7401466751,35.0360083511,100
                135.7401509657,35.0360077227,100
                135.740153266,35.0360073856,100
                135.7401556794,35.0360070324,100
                135.7401678112,35.0360083378,100
                135.7401868643,35.0360103883,100
                135.7401917172,35.0360109106,100
                135.7402113147,35.0360130198,100
                135.7402411392,35.0360162301,100
                135.7402661904,35.0360229658,100
                135.7402876727,35.0360287419,100
                135.7403191701,35.036037211,100
                135.7403518559,35.0360459996,100
                135.7403790738,35.0360533182,100
                135.7403866445,35.0360553538,100
                135.7403947771,35.0360575408,100
                135.7404522346,35.0360729941,100
                135.7404557957,35.0360667208,100
                135.7405354033,35.0360742155,100
                135.7408972182,35.0361676719,100
                135.7409921858,35.0361921721,100
                135.74101735,35.0361129944,100
                135.741140649,35.0361132575,100
                135.7411412485,35.035921696,100
                135.7411280071,35.0357751785,100
                135.7411342952,35.03572216,100
                135.7411177824,35.0355676074,100
                135.7411462686,35.0354530116,100
                135.7412017009,35.0354560174,100
                135.7412032513,35.0354484063,100
                135.7412808091,35.0354532287,100
                135.7412849199,35.0353984063,100
                135.7412905973,35.0353990151,100
                135.7413107437,35.0354011763,100
                135.742227682,35.0354596802,100
                135.7424152108,35.035462825,100
                135.7424349353,35.0360445281,100
                135.7426423585,35.0360315166,100
                135.7426320251,35.0358714128,100
                135.7430825582,35.0358308864,100
                135.743082706,35.0357910522,100
                135.7431341768,35.0357907105,100
                135.7431258458,35.0356500633,100
                135.743083239,35.0356468044,100
                135.7430838938,35.0354695951,100
                135.74329342,35.0354617286,100
                135.7433708765,35.0354587227,100
                135.7433794084,35.0357029132,100
                135.7435327617,35.0357083864,100
                135.7435326435,35.035590525,100
                135.7435885419,35.0355897413,100
                135.7435882597,35.0356807898,100
                135.7435882384,35.035681592,100
                135.7435881426,35.0357103615,100
                135.7441725256,35.0357312102,100
                135.7442293817,35.0357307666,100
                135.7443070231,35.0357300846,100
                135.7443146868,35.0354603629,100
                135.744568825,35.0354551341,100
                135.744811531,35.0354501403,100
                135.7448123324,35.0355026111,100
                135.7448169451,35.0356586176,100
                135.7451620419,35.035621242,100
                135.7451649844,35.0355622292,100
                135.7452307143,35.0355579303,100
                135.7452338793,35.0354410276,100
                135.7458396485,35.0354341277,100
                135.7458439067,35.0357690209,100
                135.7459027632,35.0359607779,100
                135.7460403715,35.0359509949,100
                135.7465212851,35.0358033975,100
                135.7464928491,35.0356038867,100
                135.7464778244,35.0354071507,100
                135.7464643065,35.0352015439,100
                135.7464632504,35.0348403178,100
                135.7464631737,35.0348374307,100
                135.7464509644,35.0343304658,100
                135.7464468769,35.0342603117,100
                135.7464345134,35.0340478758,100
                135.7464255236,35.0338936209,100
                135.7464239707,35.0338417828,100
                135.7463327887,35.0338470147,100
                135.7461545904,35.0338527694,100
                135.7461450828,35.033769997,100
                135.7460516626,35.0337724069,100
                135.7459534822,35.0322782889,100
                135.7455546581,35.0323003425,100
                135.7455350042,35.0319462622,100
                135.7455359244,35.0319000239,100
                135.7455383706,35.0317771722,100
                135.7455183034,35.031426399,100
                135.7455127367,35.0313363812,100
                135.7452581454,35.0313288748,100
                135.7452578387,35.03142846,100
                135.7452206781,35.0314287337,100
                135.7450978494,35.0314380538,100
                135.745105671,35.0317059078,100
                135.7450854825,35.0317070616,100
                135.7450353837,35.0317941468,100
                135.7450443209,35.0319230096,100
                135.7450490323,35.0319909496,100
                135.7450505081,35.0320123627,100
                135.7444465423,35.0320600419,100
                135.7444438869,35.0320189758,100
                135.7443579962,35.0320233025,100
                135.7442569258,35.032028372,100
                135.7442509023,35.031366551,100
                135.7438495951,35.031375213,100
                135.7438429199,35.0312987146,100
                135.7436539211,35.0312957094,100
                135.7436426056,35.0314592896,100
                135.743457706,35.0314602368,100
                135.7434625252,35.0315186673,100
                135.7433227833,35.0315217314,100
                135.7433218548,35.031467641,100
                135.743320871,35.03143158,100
                135.7434436293,35.0314273319,100
                135.7434573699,35.0314266861,100
                135.7434565941,35.031349452,100
                135.7430895894,35.0313338864,100
                135.7430945638,35.0312484682,100
                135.7429514871,35.0312365455,100
                135.7429410182,35.0313129368,100
                135.742833484,35.0313252459,100
                135.7428209586,35.0313950132,100
                135.7426222203,35.0313857883,100
                135.7426259686,35.0313441735,100
                135.7424416143,35.0313348385,100
                135.7424380887,35.0313051106,100
                135.7423802141,35.0312972414,100
                135.7421249153,35.031249231,100
                135.7421506234,35.031091246,100
                135.7419013381,35.0310445162,100
                135.7418385117,35.0310381851,100
              </coordinates>
            </LinearRing>
          </outerBoundaryIs>
        </Polygon>
      </Placemark>
    </Document>
  </Document>
</kml>
