<?xml version="1.0" encoding="UTF-8"?>
<kml xmlns="http://www.opengis.net/kml/2.2">
  <Document id="root_doc">
    <Document id="_2_02______disv4326">
      <name>12_02小川disv4326</name>
      <Placemark id="_2_02______disv4326.1">
        <visibility>1</visibility>
        <Polygon>
          <extrude>0</extrude>
          <outerBoundaryIs>
            <LinearRing>
              <coordinates>
                135.7535329226,35.0262696907,100
                135.7532967864,35.026251115,100
                135.7531160004,35.0262550459,100
                135.7528893873,35.0262516315,100
                135.7524643086,35.0262799992,100
                135.7520818986,35.0263054939,100
                135.7520087033,35.0263456313,100
                135.7519444346,35.0263505008,100
                135.7519244815,35.0263520802,100
                135.7519805025,35.0270583708,100
                135.7520420127,35.0276903723,100
                135.7521449171,35.0280726501,100
                135.752025816,35.0280746628,100
                135.7520298547,35.0282274994,100
                135.7522720319,35.0282389044,100
                135.7522956361,35.0285134075,100
                135.752018821,35.0285100305,100
                135.7519896298,35.0287738632,100
                135.7519719246,35.0290045469,100
                135.7519601198,35.0291584068,100
                135.751963435,35.0292523635,100
                135.752294059,35.0292716952,100
                135.75230141,35.0294334112,100
                135.7523803206,35.0294435014,100
                135.7523792541,35.029535759,100
                135.7523634476,35.0296610872,100
                135.7523607118,35.0297097469,100
                135.7523144562,35.0297096535,100
                135.7523103342,35.029764015,100
                135.7523107091,35.0297964124,100
                135.752290374,35.0297963713,100
                135.7522902187,35.0298484173,100
                135.7522436894,35.0298467734,100
                135.7522450443,35.0300167882,100
                135.7523119985,35.0300169234,100
                135.7523058207,35.03016509,100
                135.7525453054,35.0301628261,100
                135.7525447472,35.0302567755,100
                135.7528693427,35.0302677116,100
                135.7528738497,35.0304797771,100
                135.752874069,35.0305787278,100
                135.7526912339,35.03058329,100
                135.7526916232,35.0306468866,100
                135.7525182594,35.0306551292,100
                135.7525232299,35.0307685266,100
                135.7524662796,35.0307727788,100
                135.7524741691,35.0308835058,100
                135.7525693355,35.0308838391,100
                135.7525769106,35.0310211166,100
                135.7524646015,35.0310269469,100
                135.7524535714,35.0311944712,100
                135.7524734334,35.0311951451,100
                135.7524744955,35.0313700187,100
                135.7525438154,35.0313668478,100
                135.7525559366,35.0315087837,100
                135.7526073092,35.0315088872,100
                135.752663132,35.0315094927,100
                135.7526654909,35.0315871077,100
                135.7526070736,35.031587976,100
                135.7525627617,35.031588662,100
                135.7525085616,35.0315894678,100
                135.7525091064,35.0317655376,100
                135.7524495272,35.0317681642,100
                135.7523956724,35.031817988,100
                135.7520809421,35.0318342556,100
                135.7521017726,35.0321557989,100
                135.7523087668,35.0321550192,100
                135.7523152033,35.0322146131,100
                135.7523671825,35.0322198596,100
                135.7524011276,35.0323717686,100
                135.7525236108,35.0323791291,100
                135.7528901387,35.032379162,100
                135.7534231975,35.0323305817,100
                135.7534434651,35.032512325,100
                135.7540396679,35.0325010541,100
                135.7540583754,35.032501655,100
                135.7540637881,35.0323791925,100
                135.7547926433,35.032356952,100
                135.7548327483,35.0323557275,100
                135.7548291688,35.0325316471,100
                135.7550339239,35.0325210696,100
                135.7550405609,35.0324697413,100
                135.7552018841,35.0324735846,100
                135.7552146508,35.0322959222,100
                135.7553057272,35.0322973715,100
                135.755307653,35.0324723859,100
                135.7554489559,35.0324923867,100
                135.7555059771,35.0324503147,100
                135.7555033987,35.0323665721,100
                135.7558697315,35.0323743426,100
                135.7558720035,35.0322640588,100
                135.7560362217,35.0322657225,100
                135.7560366357,35.0322853735,100
                135.756216673,35.0322949557,100
                135.7562321855,35.0324868304,100
                135.7563080747,35.0324845148,100
                135.7563371896,35.0324836576,100
                135.7563401709,35.0323502045,100
                135.7563431084,35.0321946374,100
                135.7564458616,35.0321849104,100
                135.7564381749,35.031922133,100
                135.7564381566,35.0319212873,100
                135.7564338066,35.0317399295,100
                135.7564597144,35.0317372342,100
                135.7564464974,35.0311037887,100
                135.7564422281,35.0309170086,100
                135.7563998384,35.0309119941,100
                135.7563943069,35.0308786718,100
                135.7563609479,35.0308817742,100
                135.7563515851,35.0306215992,100
                135.7559926477,35.0305759533,100
                135.7559883669,35.0306270048,100
                135.7559276202,35.030626884,100
                135.7558967915,35.030577383,100
                135.7558066307,35.0305782601,100
                135.7557662571,35.030543248,100
                135.7557585935,35.0299741829,100
                135.7557311263,35.029968494,100
                135.7557293817,35.0297754497,100
                135.7556448548,35.0297314053,100
                135.7556376638,35.0295266603,100
                135.7556473909,35.0293120183,100
                135.7556466848,35.0292682107,100
                135.7556463763,35.0292493362,100
                135.7557637007,35.029247527,100
                135.7557636405,35.0292680212,100
                135.7559162355,35.0292676912,100
                135.756009728,35.0292614689,100
                135.7560532933,35.0293687449,100
                135.7562032853,35.029365874,100
                135.7562218795,35.0295216254,100
                135.7564479078,35.0295236943,100
                135.7564458896,35.0299286444,100
                135.7568034493,35.0299385802,100
                135.756809439,35.0299031668,100
                135.7568294456,35.0296635444,100
                135.7568442034,35.0294694767,100
                135.756980507,35.0294700995,100
                135.7569995515,35.0293108312,100
                135.7572105009,35.0293085024,100
                135.757235564,35.0293899659,100
                135.7574451613,35.0293891829,100
                135.7574492571,35.0293130596,100
                135.7575953609,35.0293146871,100
                135.757602227,35.0290807424,100
                135.7582086397,35.029081658,100
                135.7582504062,35.0290793464,100
                135.7582559781,35.0289662515,100
                135.7583333911,35.0289687986,100
                135.7583352752,35.0287989336,100
                135.758470187,35.0287990581,100
                135.7584629598,35.028722561,100
                135.7584985724,35.0287241096,100
                135.7585048368,35.0286082706,100
                135.7586761227,35.0286205799,100
                135.7586732453,35.0285941642,100
                135.7590568001,35.0285916791,100
                135.7590720913,35.0287739035,100
                135.7593803133,35.0287750722,100
                135.7593779343,35.0279077619,100
                135.7593465422,35.026674596,100
                135.7588687736,35.0266711199,100
                135.7588904662,35.0268376525,100
                135.7588782584,35.0268601255,100
                135.7586889251,35.0268676799,100
                135.7585472609,35.0268649351,100
                135.7585429647,35.0270105702,100
                135.7584504768,35.0270107394,100
                135.7584613459,35.0265692545,100
                135.7584454889,35.0264723855,100
                135.7583118752,35.0264685305,100
                135.7583121859,35.0263245777,100
                135.758314014,35.0262625351,100
                135.7581644162,35.0262577323,100
                135.7580011426,35.0262524796,100
                135.7577744058,35.0262621021,100
                135.7577413288,35.0263085895,100
                135.757746784,35.0264348056,100
                135.7575879518,35.0264399839,100
                135.7575875738,35.0265112554,100
                135.7575508983,35.0265149159,100
                135.7575469918,35.0266287183,100
                135.7574570968,35.0266284695,100
                135.7572815217,35.0266281215,100
                135.7572791584,35.0265650849,100
                135.7570703922,35.0265626277,100
                135.7568854399,35.0265704304,100
                135.7568899959,35.0266227667,100
                135.7567264042,35.0266231463,100
                135.7567280735,35.0265719491,100
                135.7566137592,35.0265708761,100
                135.7566072909,35.0265062821,100
                135.7563964826,35.026499806,100
                135.7563640572,35.0265429127,100
                135.7563209888,35.0265442355,100
                135.7563094831,35.0266288661,100
                135.7561841813,35.0266300257,100
                135.7561623097,35.0266506168,100
                135.7560129037,35.0266529248,100
                135.755980497,35.0266900458,100
                135.7558471322,35.0266742154,100
                135.7554638242,35.0266838036,100
                135.7554629196,35.0267369034,100
                135.7550815982,35.0267257178,100
                135.754825451,35.0267423893,100
                135.7547515045,35.0267410444,100
                135.7547587611,35.0265089304,100
                135.7546286048,35.0265230362,100
                135.7546297792,35.0264229618,100
                135.7543648453,35.0264290499,100
                135.7543578009,35.0263068448,100
                135.754245531,35.0263019707,100
                135.7539073751,35.0262866421,100
                135.7535329226,35.0262696907,100
              </coordinates>
            </LinearRing>
          </outerBoundaryIs>
        </Polygon>
      </Placemark>
    </Document>
  </Document>
</kml>
