<?xml version="1.0" encoding="UTF-8"?>
<kml xmlns="http://www.opengis.net/kml/2.2">
  <Document id="root_doc">
    <Document id="_2_01______disv4326">
      <name>12_01桃薗disv4326</name>
      <Placemark id="_2_01______disv4326.1">
        <visibility>1</visibility>
        <Polygon>
          <extrude>0</extrude>
          <outerBoundaryIs>
            <LinearRing>
              <coordinates>
                135.7493240307,35.0267042757,100
                135.7490783194,35.0267092622,100
                135.7490360499,35.0267081884,100
                135.7490007642,35.0267264988,100
                135.748749837,35.0267301381,100
                135.7487528859,35.0269943194,100
                135.7486610569,35.026996033,100
                135.7485995598,35.0269971744,100
                135.7479223296,35.0270093575,100
                135.7476615209,35.0270140477,100
                135.7474065024,35.0270185925,100
                135.7474030147,35.0269892873,100
                135.7472895672,35.026991589,100
                135.7472907244,35.0270329332,100
                135.7471202252,35.0270455392,100
                135.7470168542,35.0270491268,100
                135.7470189758,35.0271114595,100
                135.7468945778,35.0271177515,100
                135.7468979109,35.0272317804,100
                135.7466809056,35.0272427384,100
                135.7466844924,35.0272742976,100
                135.7461334499,35.0273289275,100
                135.7461337102,35.0273347741,100
                135.7461537527,35.0277711165,100
                135.7466247529,35.0277560418,100
                135.7466284328,35.0279240208,100
                135.7466814988,35.027971459,100
                135.7467552163,35.027992106,100
                135.74676577,35.0280610776,100
                135.7469827711,35.0280596272,100
                135.7469941669,35.0283012189,100
                135.7469946662,35.0283269266,100
                135.7470067028,35.0289406598,100
                135.7468560467,35.0289514028,100
                135.746855812,35.0290280987,100
                135.7466608892,35.0290329742,100
                135.7466690812,35.0292515992,100
                135.7466978964,35.0292500394,100
                135.7467009762,35.0294116078,100
                135.746683432,35.0294720682,100
                135.746747024,35.0294721302,100
                135.7467509924,35.0295882035,100
                135.7467723904,35.0294996505,100
                135.7470696112,35.0294864649,100
                135.7470742918,35.0296355704,100
                135.7470794722,35.029810876,100
                135.7470798386,35.0298236247,100
                135.7470798117,35.0299024334,100
                135.7470798004,35.0299133492,100
                135.7470789625,35.030180199,100
                135.746553582,35.030209247,100
                135.7462495614,35.0302260786,100
                135.7462948777,35.0307066321,100
                135.746094454,35.0306962122,100
                135.7460912822,35.0305998604,100
                135.7458611294,35.030602549,100
                135.7458242145,35.0305995843,100
                135.7458259687,35.0307322733,100
                135.7458396,35.0313327696,100
                135.7458404875,35.0314129879,100
                135.7466245337,35.0313844834,100
                135.7471054382,35.0313998519,100
                135.747105964,35.0314656326,100
                135.747654888,35.031471131,100
                135.7476835277,35.0315055586,100
                135.7477664625,35.0315089682,100
                135.7477734171,35.0314745433,100
                135.7479377155,35.0314779801,100
                135.7479381486,35.0315117159,100
                135.748004597,35.031509669,100
                135.7480336105,35.0314710627,100
                135.7480265146,35.0314047058,100
                135.7480932007,35.0313594866,100
                135.7483443505,35.031358735,100
                135.7483520919,35.0316572934,100
                135.7483315597,35.0316587298,100
                135.748339379,35.03182566,100
                135.7483044271,35.0318243908,100
                135.7482780812,35.0318799744,100
                135.7482667993,35.0321333512,100
                135.7483258149,35.032132978,100
                135.7483492168,35.0321315475,100
                135.7484699217,35.0321243993,100
                135.7484729803,35.0322240607,100
                135.7489578962,35.0322192788,100
                135.7489836047,35.0322186969,100
                135.7489762519,35.0321164909,100
                135.7491907054,35.0320908708,100
                135.7492024545,35.0319083464,100
                135.7492414612,35.0319063842,100
                135.7492404136,35.0317006625,100
                135.7492424256,35.0314607204,100
                135.7492023634,35.0314571871,100
                135.7491236147,35.0314568853,100
                135.749107465,35.0313045179,100
                135.7490417724,35.0313048766,100
                135.749045515,35.0312565005,100
                135.7490467598,35.0312055129,100
                135.7490480639,35.0311784714,100
                135.7491118136,35.0311764184,100
                135.7491057869,35.031144996,100
                135.7491740559,35.0311424598,100
                135.7491812304,35.0310210564,100
                135.7493291559,35.0310091045,100
                135.7493295761,35.030983188,100
                135.7493326454,35.0307891657,100
                135.7495018967,35.0307818353,100
                135.7494739058,35.0306876869,100
                135.7495479066,35.030679528,100
                135.7495488127,35.0306063545,100
                135.749582837,35.0306093819,100
                135.7495834076,35.0305630841,100
                135.7496098305,35.0305621097,100
                135.749731491,35.0305587518,100
                135.7497572359,35.0305583548,100
                135.7497689135,35.0305581739,100
                135.7497830014,35.0305579556,100
                135.7499123336,35.0305546132,100
                135.7499527768,35.0305582934,100
                135.7499519522,35.0304997043,100
                135.7500001823,35.0304970988,100
                135.7500505997,35.0304953979,100
                135.7500526095,35.0305558011,100
                135.750075269,35.030555086,100
                135.7501063153,35.0305541071,100
                135.7501182181,35.0307382289,100
                135.7500504216,35.0307401338,100
                135.7499111752,35.0307565409,100
                135.7499228754,35.0308801656,100
                135.7501669574,35.0308594635,100
                135.7501693829,35.0308823144,100
                135.7503694872,35.0308743281,100
                135.7503719361,35.0309214204,100
                135.7504034673,35.0309218516,100
                135.7504058385,35.0310158771,100
                135.7506146014,35.0310234845,100
                135.7506295564,35.0311044355,100
                135.7508773347,35.0311002211,100
                135.7508887354,35.0312237035,100
                135.751252879,35.0312113418,100
                135.7512393059,35.0308903761,100
                135.751221617,35.0307501193,100
                135.7512200223,35.0307347183,100
                135.7513628268,35.0307315452,100
                135.7513570677,35.0305591361,100
                135.7513527697,35.0304304334,100
                135.7511853769,35.0304342454,100
                135.7511820982,35.0304091705,100
                135.7513628926,35.0303997481,100
                135.7518107009,35.0304088238,100
                135.7520767932,35.0304142917,100
                135.7520872059,35.0302817691,100
                135.752544409,35.0302914949,100
                135.7525447472,35.0302567755,100
                135.7525453054,35.0301628261,100
                135.7523058207,35.03016509,100
                135.7523119985,35.0300169234,100
                135.7522450443,35.0300167882,100
                135.7522436894,35.0298467734,100
                135.7522902187,35.0298484173,100
                135.752290374,35.0297963713,100
                135.7523107091,35.0297964124,100
                135.7523103342,35.029764015,100
                135.7523144562,35.0297096535,100
                135.7523607118,35.0297097469,100
                135.7523634476,35.0296610872,100
                135.7523792541,35.029535759,100
                135.7523803206,35.0294435014,100
                135.75230141,35.0294334112,100
                135.752294059,35.0292716952,100
                135.751963435,35.0292523635,100
                135.7519601198,35.0291584068,100
                135.7519719246,35.0290045469,100
                135.7519896298,35.0287738632,100
                135.752018821,35.0285100305,100
                135.7522956361,35.0285134075,100
                135.7522720319,35.0282389044,100
                135.7520298547,35.0282274994,100
                135.752025816,35.0280746628,100
                135.7521449171,35.0280726501,100
                135.7520420127,35.0276903723,100
                135.7519805025,35.0270583708,100
                135.7519244815,35.0263520802,100
                135.7517316962,35.0263743669,100
                135.7515970408,35.0263900097,100
                135.7515543167,35.0263904864,100
                135.7515478311,35.0263905436,100
                135.7513695952,35.0263926471,100
                135.751352899,35.0263928239,100
                135.7510394964,35.0263963424,100
                135.7510421295,35.0265810791,100
                135.7509714357,35.0265869227,100
                135.7509744593,35.0266776397,100
                135.7509230056,35.0266988036,100
                135.7506302189,35.0266781349,100
                135.7505544889,35.0266862212,100
                135.7505543492,35.0267326322,100
                135.7502329537,35.0267304983,100
                135.7502334788,35.0266912007,100
                135.7502342283,35.0266345073,100
                135.7501534683,35.0266353295,100
                135.7501504207,35.0265746135,100
                135.7500697019,35.0265686746,100
                135.7500682623,35.0264853556,100
                135.750066715,35.0263956269,100
                135.7499840727,35.0263956688,100
                135.7496850615,35.0263958327,100
                135.7495349348,35.0263959475,100
                135.7495363778,35.0264920856,100
                135.7494980295,35.0264969365,100
                135.7494980941,35.0265885627,100
                135.7494351519,35.0265866038,100
                135.7494438697,35.0267186727,100
                135.7493239963,35.0267156101,100
                135.7493240307,35.0267042757,100
              </coordinates>
            </LinearRing>
          </outerBoundaryIs>
        </Polygon>
      </Placemark>
    </Document>
  </Document>
</kml>
