<?xml version="1.0" encoding="UTF-8"?>
<kml xmlns="http://www.opengis.net/kml/2.2">
  <Document id="root_doc">
    <Document id="_2_14______disv4326">
      <name>12_14待賢disv4326</name>
      <Placemark id="_2_14______disv4326.1">
        <visibility>1</visibility>
        <Polygon>
          <extrude>0</extrude>
          <outerBoundaryIs>
            <LinearRing>
              <coordinates>
                135.7488990049,35.0158892887,100
                135.7477199331,35.0159351691,100
                135.7477402569,35.0165321652,100
                135.7477441103,35.0165952069,100
                135.7480675148,35.0165907341,100
                135.7483379236,35.0165884044,100
                135.7483744982,35.0171987451,100
                135.7483792811,35.0173428517,100
                135.7483839044,35.0173777233,100
                135.7485550751,35.0173765272,100
                135.7485552562,35.0174784379,100
                135.7485676116,35.0176101648,100
                135.7485715559,35.0176920115,100
                135.7486075857,35.0184392636,100
                135.7486222003,35.0187423483,100
                135.7488140716,35.0187542243,100
                135.7488285174,35.0188386276,100
                135.7485991113,35.0188395626,100
                135.7486141387,35.0190141875,100
                135.7486421598,35.0191317192,100
                135.7486208267,35.0191506909,100
                135.7486584402,35.0197089868,100
                135.7489040619,35.0197183672,100
                135.7489039049,35.0197699202,100
                135.7490482368,35.019777683,100
                135.7490684376,35.0201738125,100
                135.7490633661,35.0202086639,100
                135.7489351376,35.0202329093,100
                135.7489396339,35.020317009,100
                135.7487320247,35.020334329,100
                135.748732258,35.0203420766,100
                135.7487408393,35.0206247223,100
                135.7487138957,35.0206735438,100
                135.748718838,35.0209277285,100
                135.7487215226,35.0210657024,100
                135.7487940798,35.0210715566,100
                135.7487887409,35.0211807794,100
                135.7488770855,35.0211820882,100
                135.7488848638,35.0214116988,100
                135.7487110994,35.0214115521,100
                135.7487158512,35.0215522066,100
                135.7486595206,35.0215520905,100
                135.7486626554,35.0216056222,100
                135.7486813227,35.0216460165,100
                135.7487079346,35.0218899633,100
                135.7487471037,35.0222490153,100
                135.7486609656,35.022274614,100
                135.7486258478,35.0222735562,100
                135.7486315249,35.022314064,100
                135.7486240554,35.0223913785,100
                135.7486565789,35.0224084885,100
                135.7488169311,35.0224141007,100
                135.7488282832,35.0225949126,100
                135.7490478558,35.0225940966,100
                135.7491073579,35.0225932329,100
                135.7494024094,35.0225887688,100
                135.749416618,35.0225890093,100
                135.7498338488,35.0225935973,100
                135.7502019204,35.0225977322,100
                135.7501952558,35.022881837,100
                135.750274719,35.0228809195,100
                135.7503332781,35.0228803179,100
                135.7503333815,35.0228460226,100
                135.7503334302,35.0228298347,100
                135.7504693047,35.0228319156,100
                135.7504683964,35.0227697128,100
                135.7504944442,35.0227703801,100
                135.7504944456,35.0227705963,100
                135.7506111599,35.0227688634,100
                135.7507692499,35.0227644687,100
                135.7507692959,35.0227644671,100
                135.7507810081,35.0227625934,100
                135.7508388327,35.0227533407,100
                135.7508390135,35.0226041503,100
                135.7508911847,35.0226076626,100
                135.750911192,35.0226077359,100
                135.7514086539,35.0226095622,100
                135.7514607047,35.0226097386,100
                135.7519849775,35.0226051003,100
                135.7519898929,35.0212326161,100
                135.7519902302,35.0211770494,100
                135.7519954027,35.0203487601,100
                135.751995861,35.0202741787,100
                135.7519964006,35.020187201,100
                135.7519990521,35.0197659066,100
                135.7520004935,35.0195358181,100
                135.7520066169,35.0188664047,100
                135.7520087319,35.0187116064,100
                135.7520076029,35.0184746816,100
                135.7520044909,35.0178232092,100
                135.7520022669,35.0173531621,100
                135.7520026453,35.017227377,100
                135.7520029653,35.0171210301,100
                135.752003964,35.016789101,100
                135.7519917401,35.0163707294,100
                135.751984558,35.0160337832,100
                135.7519812568,35.0157653012,100
                135.7512953962,35.0157953864,100
                135.750512558,35.0158218184,100
                135.7488990049,35.0158892887,100
              </coordinates>
            </LinearRing>
          </outerBoundaryIs>
        </Polygon>
      </Placemark>
    </Document>
  </Document>
</kml>
