<?xml version="1.0" encoding="UTF-8"?>
<kml xmlns="http://www.opengis.net/kml/2.2">
  <Document id="root_doc">
    <Document id="_2_16______disv4326">
      <name>12_16仁和disv4326</name>
      <Placemark id="_2_16______disv4326.1">
        <visibility>1</visibility>
        <Polygon>
          <extrude>0</extrude>
          <outerBoundaryIs>
            <LinearRing>
              <coordinates>
                135.7367238642,35.0197118527,100
                135.7367261507,35.01943775,100
                135.7367300212,35.0189753969,100
                135.7367264861,35.0188691828,100
                135.7367696495,35.0188637123,100
                135.7367766959,35.0185868039,100
                135.736100277,35.0186059738,100
                135.735557502,35.0186214171,100
                135.7355395108,35.0187664598,100
                135.7355303375,35.0190575904,100
                135.7355133439,35.0191581961,100
                135.7355140734,35.0191641131,100
                135.7355323503,35.0193112071,100
                135.7355231872,35.0194792291,100
                135.7350054239,35.0195284593,100
                135.7343926155,35.0195633931,100
                135.7336133811,35.0196122571,100
                135.7334318124,35.0196232688,100
                135.7330347683,35.0196472595,100
                135.7329189552,35.0202720548,100
                135.7329102763,35.0203083759,100
                135.7328761277,35.0204579611,100
                135.7328165263,35.0205893183,100
                135.7327211308,35.0207497551,100
                135.7327288035,35.0208459058,100
                135.7328178801,35.0210711893,100
                135.7328244243,35.0211257146,100
                135.7328446532,35.0214688838,100
                135.732846286,35.0216127017,100
                135.7328723773,35.0219573622,100
                135.732914745,35.0222117006,100
                135.732944509,35.0223398743,100
                135.7330293861,35.0225471181,100
                135.7330648419,35.0227822843,100
                135.733043043,35.0229445023,100
                135.732955063,35.023233557,100
                135.732915447,35.0233196033,100
                135.7328450072,35.0234726996,100
                135.732804204,35.0235481086,100
                135.7327935357,35.023630767,100
                135.7327930996,35.0239045896,100
                135.7327994852,35.0240945482,100
                135.7328154215,35.0245674359,100
                135.7328260453,35.0248829761,100
                135.7328518432,35.025649288,100
                135.7328567635,35.0257959995,100
                135.732869945,35.0261876074,100
                135.7328287056,35.0264044345,100
                135.7327816393,35.0265830064,100
                135.7327075512,35.0267315166,100
                135.7326825586,35.0268287929,100
                135.7326863416,35.0269362042,100
                135.7327386825,35.0272384548,100
                135.7327655376,35.0272867564,100
                135.7332842072,35.027185283,100
                135.7334097457,35.0271776706,100
                135.7337208506,35.0271585627,100
                135.7338759961,35.0271491138,100
                135.7343712513,35.0273526774,100
                135.7343723753,35.0273228185,100
                135.7344396898,35.0273696593,100
                135.7347847621,35.0273643562,100
                135.7348538333,35.0272638659,100
                135.7352092052,35.027256682,100
                135.7352334483,35.0274461858,100
                135.7354150103,35.0274351013,100
                135.7354367489,35.0272237235,100
                135.7359057772,35.0272157987,100
                135.7362429746,35.0271082829,100
                135.7362464175,35.0269417289,100
                135.7365215095,35.0269385227,100
                135.7365216372,35.0267911867,100
                135.7368906041,35.0267853522,100
                135.7369564563,35.0267843106,100
                135.7370896388,35.0268488999,100
                135.737291859,35.0265335375,100
                135.7374149251,35.026460911,100
                135.7373957635,35.0263349439,100
                135.7378052129,35.0263358274,100
                135.739340891,35.0263271561,100
                135.7393326674,35.0263625643,100
                135.7397283834,35.0263543977,100
                135.7398424666,35.0263405562,100
                135.7399003428,35.0263335657,100
                135.7399929732,35.0263357368,100
                135.7405634679,35.0263492796,100
                135.7405899716,35.0263055998,100
                135.740672798,35.0263074668,100
                135.7406846038,35.0262760106,100
                135.7408844867,35.0262852408,100
                135.7408954966,35.0260842622,100
                135.7408995174,35.0260107445,100
                135.740903586,35.0259279299,100
                135.7409038762,35.0259108864,100
                135.7409151177,35.0252459292,100
                135.740915978,35.0251899413,100
                135.741038085,35.0251902014,100
                135.7410379046,35.0252478117,100
                135.7415675067,35.0252557686,100
                135.7415725031,35.0253965659,100
                135.7416600354,35.0253990749,100
                135.7416565187,35.0252570846,100
                135.7416564363,35.0249477646,100
                135.7416594945,35.0248254382,100
                135.7421459737,35.0248241465,100
                135.742155048,35.0246735198,100
                135.7421699238,35.0244262082,100
                135.7421945325,35.0238650193,100
                135.7421964162,35.0238236829,100
                135.7422044231,35.0235824131,100
                135.7422061211,35.0235314034,100
                135.7420910237,35.0235243804,100
                135.7420906933,35.0235203213,100
                135.7420910728,35.0233986225,100
                135.7420925861,35.0232606572,100
                135.7422131193,35.0232644484,100
                135.7422288743,35.0226044312,100
                135.7417221336,35.0226009612,100
                135.7417161479,35.0219958308,100
                135.7417139247,35.0218439131,100
                135.7417080775,35.0212285002,100
                135.741716828,35.0210373765,100
                135.7417206704,35.02081441,100
                135.7419294438,35.0208164724,100
                135.7419307137,35.0206356158,100
                135.7419357301,35.0205236464,100
                135.74227941,35.0205289527,100
                135.7422769821,35.0204637307,100
                135.7425739979,35.0204509077,100
                135.7425798121,35.0203292203,100
                135.7425888542,35.0201402111,100
                135.7425888773,35.0201398584,100
                135.7425986681,35.019827319,100
                135.7419419777,35.0198383937,100
                135.7419319509,35.0195333467,100
                135.7419291331,35.019311984,100
                135.7419249495,35.0192194321,100
                135.74174095,35.0192289727,100
                135.741680159,35.0192320828,100
                135.741145047,35.01925961,100
                135.7412044937,35.0198629567,100
                135.7409511241,35.0198805875,100
                135.7407395848,35.0198877437,100
                135.7407227569,35.0198353091,100
                135.7404208245,35.0198466381,100
                135.7404241045,35.0198719289,100
                135.7403859844,35.019872904,100
                135.7398067991,35.0198877943,100
                135.7395340293,35.0198948177,100
                135.7393495075,35.0198995637,100
                135.7393507503,35.019756737,100
                135.7390687171,35.0197695841,100
                135.7386852466,35.0197870026,100
                135.7386828576,35.0197234009,100
                135.738616613,35.0197249151,100
                135.738508483,35.0197273843,100
                135.7376402274,35.0197472147,100
                135.7370233229,35.019778139,100
                135.736774815,35.0197812644,100
                135.7367238642,35.0197118527,100
              </coordinates>
            </LinearRing>
          </outerBoundaryIs>
        </Polygon>
      </Placemark>
    </Document>
  </Document>
</kml>
