<?xml version="1.0" encoding="UTF-8"?>
<kml xmlns="http://www.opengis.net/kml/2.2">
  <Document id="root_doc">
    <Document id="_2_11______disv4326">
      <name>12_11京極disv4326</name>
      <Placemark id="_2_11______disv4326.1">
        <visibility>1</visibility>
        <Polygon>
          <extrude>0</extrude>
          <outerBoundaryIs>
            <LinearRing>
              <coordinates>
                135.7637049217,35.0275508408,100
                135.7623809616,35.0275369547,100
                135.7623720548,35.0292756318,100
                135.7644299873,35.0292898676,100
                135.764372328,35.0300179675,100
                135.764345652,35.0303549775,100
                135.7643351342,35.0305400376,100
                135.7647948518,35.0305619743,100
                135.764799855,35.0310059522,100
                135.7648085216,35.0317765039,100
                135.764237504,35.0317873145,100
                135.7642347258,35.0318009021,100
                135.7642097911,35.0317995157,100
                135.764186999,35.0324436633,100
                135.764263759,35.0324438102,100
                135.764265255,35.0325436777,100
                135.7641831436,35.0325435206,100
                135.764181454,35.0326417617,100
                135.7641973158,35.0326414405,100
                135.7642021064,35.0329091406,100
                135.764167686,35.0334105111,100
                135.7641377071,35.0338470269,100
                135.7641258484,35.0341963193,100
                135.7641198588,35.0352657332,100
                135.7640823809,35.0353327076,100
                135.7641295743,35.0353582218,100
                135.7644306029,35.0355211293,100
                135.764909994,35.035729591,100
                135.7655907272,35.0360256215,100
                135.7656683605,35.0359217499,100
                135.7658159249,35.0356963132,100
                135.7658426689,35.0356554468,100
                135.7660211255,35.0353828829,100
                135.7660944181,35.035261537,100
                135.7664414963,35.0350480279,100
                135.7666489487,35.0348698905,100
                135.7667633136,35.0347271414,100
                135.7665494008,35.0346350408,100
                135.7672483579,35.0338325865,100
                135.7675113369,35.0335134175,100
                135.7675879952,35.0334813773,100
                135.7681172458,35.0330200251,100
                135.7681899286,35.0329078318,100
                135.7685423899,35.0324052991,100
                135.7688162131,35.0325053953,100
                135.7689024997,35.0323963258,100
                135.7689135309,35.0322845794,100
                135.7689697141,35.0321704538,100
                135.7691029276,35.0319575223,100
                135.7699697363,35.0323107818,100
                135.7700482556,35.0321767662,100
                135.7701341108,35.0320365667,100
                135.7711232518,35.0303878973,100
                135.7711578317,35.0302738703,100
                135.7713842057,35.0295279125,100
                135.7714441408,35.0293304081,100
                135.7716621799,35.0293265862,100
                135.7716591705,35.0290396644,100
                135.7716534721,35.028497653,100
                135.7716185276,35.0274533668,100
                135.7716111249,35.0272570724,100
                135.771598678,35.0258641401,100
                135.7715562575,35.0243104359,100
                135.771550902,35.0241245684,100
                135.7715462604,35.0239286317,100
                135.7714977483,35.0225439412,100
                135.7692275383,35.0225913376,100
                135.7692323797,35.0233391422,100
                135.7675428585,35.0233934366,100
                135.7675398511,35.0233131446,100
                135.7670630867,35.0233168227,100
                135.7670204561,35.0248843788,100
                135.7669812785,35.0260587478,100
                135.7669661147,35.0269044077,100
                135.7670003486,35.0269622222,100
                135.7669776524,35.0277994165,100
                135.7637043154,35.0277342315,100
                135.7637049217,35.0275508408,100
              </coordinates>
            </LinearRing>
          </outerBoundaryIs>
        </Polygon>
      </Placemark>
    </Document>
  </Document>
</kml>
