<?xml version="1.0" encoding="UTF-8"?>
<kml xmlns="http://www.opengis.net/kml/2.2">
  <Document id="root_doc">
    <Document id="_2_10______disv4326">
      <name>12_10室町disv4326</name>
      <Placemark id="_2_10______disv4326.1">
        <visibility>1</visibility>
        <Polygon>
          <extrude>0</extrude>
          <outerBoundaryIs>
            <LinearRing>
              <coordinates>
                135.7564479078,35.0295236943,100
                135.7562218795,35.0295216254,100
                135.7562032853,35.029365874,100
                135.7560532933,35.0293687449,100
                135.756009728,35.0292614689,100
                135.7559162355,35.0292676912,100
                135.7557636405,35.0292680212,100
                135.7557637007,35.029247527,100
                135.7556463763,35.0292493362,100
                135.7556466848,35.0292682107,100
                135.7556473909,35.0293120183,100
                135.7556376638,35.0295266603,100
                135.7556448548,35.0297314053,100
                135.7557293817,35.0297754497,100
                135.7557311263,35.029968494,100
                135.7557585935,35.0299741829,100
                135.7557662571,35.030543248,100
                135.7558066307,35.0305782601,100
                135.7558967915,35.030577383,100
                135.7559276202,35.030626884,100
                135.7559883669,35.0306270048,100
                135.7559926477,35.0305759533,100
                135.7563515851,35.0306215992,100
                135.7563609479,35.0308817742,100
                135.7563943069,35.0308786718,100
                135.7563998384,35.0309119941,100
                135.7564422281,35.0309170086,100
                135.7564464974,35.0311037887,100
                135.7564597144,35.0317372342,100
                135.7564338066,35.0317399295,100
                135.7564381566,35.0319212873,100
                135.7564381749,35.031922133,100
                135.7564458616,35.0321849104,100
                135.7563431084,35.0321946374,100
                135.7563401709,35.0323502045,100
                135.7563371896,35.0324836576,100
                135.7563080747,35.0324845148,100
                135.7562321855,35.0324868304,100
                135.756216673,35.0322949557,100
                135.7560366357,35.0322853735,100
                135.7560362217,35.0322657225,100
                135.7558720035,35.0322640588,100
                135.7558697315,35.0323743426,100
                135.7555033987,35.0323665721,100
                135.7555059771,35.0324503147,100
                135.7554489559,35.0324923867,100
                135.755307653,35.0324723859,100
                135.7553057272,35.0322973715,100
                135.7552146508,35.0322959222,100
                135.7552018841,35.0324735846,100
                135.7550405609,35.0324697413,100
                135.7550339239,35.0325210696,100
                135.7548291688,35.0325316471,100
                135.7548327483,35.0323557275,100
                135.7547926433,35.032356952,100
                135.7540637881,35.0323791925,100
                135.7540583754,35.032501655,100
                135.7540396679,35.0325010541,100
                135.7534434651,35.032512325,100
                135.7534231975,35.0323305817,100
                135.7528901387,35.032379162,100
                135.7525236108,35.0323791291,100
                135.7525633321,35.0333945588,100
                135.7530086607,35.0333873544,100
                135.7530687523,35.0333066247,100
                135.7533356568,35.0333156117,100
                135.7532922992,35.0334489143,100
                135.7532314597,35.0336450018,100
                135.7531652116,35.0339389727,100
                135.7531778009,35.0347668694,100
                135.7529240216,35.0347761501,100
                135.752593583,35.034808235,100
                135.7525914703,35.0347126605,100
                135.7522904401,35.0347030403,100
                135.7522910787,35.0345827524,100
                135.7519335275,35.0345828767,100
                135.7519334618,35.0346263302,100
                135.7517047644,35.0346380529,100
                135.751611361,35.0348694294,100
                135.751934279,35.0348902939,100
                135.7519363589,35.0349819944,100
                135.7516395145,35.0349612536,100
                135.7516045721,35.0351707748,100
                135.7517284084,35.0351853912,100
                135.7516981236,35.0354234603,100
                135.7515767506,35.0354187207,100
                135.7515716834,35.0356467822,100
                135.7518569154,35.035666897,100
                135.7518332448,35.0358624798,100
                135.7529498626,35.0359554347,100
                135.7530629574,35.0359615768,100
                135.7528953171,35.0371194665,100
                135.7527017275,35.0371040175,100
                135.7526983966,35.0371617073,100
                135.7524056565,35.0371816448,100
                135.752324228,35.0372592105,100
                135.7522317671,35.0371934872,100
                135.7521472114,35.0371992461,100
                135.7520015565,35.0377600371,100
                135.7521683057,35.0376493812,100
                135.7528385379,35.0376296707,100
                135.7532589569,35.0375929053,100
                135.7537328026,35.0375502601,100
                135.7537423187,35.0375676738,100
                135.7543805844,35.0375422562,100
                135.7547692466,35.037522818,100
                135.7553278144,35.0375259712,100
                135.7553985632,35.0375263928,100
                135.755378779,35.0372654248,100
                135.7558787029,35.0372643033,100
                135.7560524225,35.037263943,100
                135.7563542572,35.0372728504,100
                135.756754458,35.0372232158,100
                135.756921737,35.0371801281,100
                135.7569595857,35.0371703777,100
                135.7571571934,35.0372000645,100
                135.7572641323,35.0371815429,100
                135.7575691677,35.0371723534,100
                135.7575578477,35.0374355847,100
                135.7579391066,35.0374437288,100
                135.7579661837,35.0377391483,100
                135.7585020413,35.037764497,100
                135.7586173515,35.0377602861,100
                135.7586180373,35.0375236554,100
                135.7586980542,35.0375099386,100
                135.7587023078,35.037393955,100
                135.7592557227,35.0374243344,100
                135.7593611154,35.037429892,100
                135.7593781565,35.0375261275,100
                135.7593812644,35.037546769,100
                135.7594062422,35.0375482962,100
                135.759534749,35.0375558713,100
                135.7595405211,35.037477217,100
                135.759548842,35.0373383521,100
                135.760336377,35.0373340406,100
                135.7607285954,35.0373341685,100
                135.7607287796,35.0375388273,100
                135.7611627682,35.0375450908,100
                135.7610836435,35.0369783597,100
                135.7620997487,35.0369840564,100
                135.7624826291,35.0370003587,100
                135.7624793277,35.0368214706,100
                135.7626416028,35.0368172759,100
                135.7626571507,35.0367549083,100
                135.7631628015,35.0367851074,100
                135.7631667119,35.0369010356,100
                135.7633787796,35.0369195428,100
                135.7633769897,35.036977429,100
                135.7645671412,35.0375136061,100
                135.7649415162,35.0369762659,100
                135.7651539876,35.0366601765,100
                135.7655907272,35.0360256215,100
                135.764909994,35.035729591,100
                135.7644306029,35.0355211293,100
                135.7641295743,35.0353582218,100
                135.7640823809,35.0353327076,100
                135.7641198588,35.0352657332,100
                135.7641258484,35.0341963193,100
                135.7641377071,35.0338470269,100
                135.764167686,35.0334105111,100
                135.7642021064,35.0329091406,100
                135.7641973158,35.0326414405,100
                135.764181454,35.0326417617,100
                135.7641831436,35.0325435206,100
                135.764265255,35.0325436777,100
                135.764263759,35.0324438102,100
                135.764186999,35.0324436633,100
                135.7642097911,35.0317995157,100
                135.7642347258,35.0318009021,100
                135.764237504,35.0317873145,100
                135.7648085216,35.0317765039,100
                135.764799855,35.0310059522,100
                135.7647948518,35.0305619743,100
                135.7643351342,35.0305400376,100
                135.764345652,35.0303549775,100
                135.764372328,35.0300179675,100
                135.7644299873,35.0292898676,100
                135.7623720548,35.0292756318,100
                135.76233554,35.0292753495,100
                135.761926565,35.0292587839,100
                135.7593849339,35.0291844706,100
                135.7593834814,35.029124253,100
                135.7593803133,35.0287750722,100
                135.7590720913,35.0287739035,100
                135.7590568001,35.0285916791,100
                135.7586732453,35.0285941642,100
                135.7586761227,35.0286205799,100
                135.7585048368,35.0286082706,100
                135.7584985724,35.0287241096,100
                135.7584629598,35.028722561,100
                135.758470187,35.0287990581,100
                135.7583352752,35.0287989336,100
                135.7583333911,35.0289687986,100
                135.7582559781,35.0289662515,100
                135.7582504062,35.0290793464,100
                135.7582086397,35.029081658,100
                135.757602227,35.0290807424,100
                135.7575953609,35.0293146871,100
                135.7574492571,35.0293130596,100
                135.7574451613,35.0293891829,100
                135.757235564,35.0293899659,100
                135.7572105009,35.0293085024,100
                135.7569995515,35.0293108312,100
                135.756980507,35.0294700995,100
                135.7568442034,35.0294694767,100
                135.7568294456,35.0296635444,100
                135.756809439,35.0299031668,100
                135.7568034493,35.0299385802,100
                135.7564458896,35.0299286444,100
                135.7564479078,35.0295236943,100
              </coordinates>
            </LinearRing>
          </outerBoundaryIs>
        </Polygon>
      </Placemark>
    </Document>
  </Document>
</kml>
