<?xml version="1.0" encoding="UTF-8"?>
<kml xmlns="http://www.opengis.net/kml/2.2">
  <Document id="root_doc">
    <Document id="_2_13______disv4326">
      <name>12_13滋野disv4326</name>
      <Placemark id="_2_13______disv4326.1">
        <visibility>1</visibility>
        <Polygon>
          <extrude>0</extrude>
          <outerBoundaryIs>
            <LinearRing>
              <coordinates>
                135.7530897173,35.0175998277,100
                135.7530164913,35.0176112303,100
                135.7530166447,35.0176814476,100
                135.7529454588,35.0176900365,100
                135.7529332741,35.0177495952,100
                135.7529395846,35.0179147637,100
                135.7525841016,35.0179098165,100
                135.7525856219,35.0178097407,100
                135.7525666589,35.0178099834,100
                135.7524110444,35.0178117105,100
                135.7524124568,35.0178331237,100
                135.7521820879,35.0178275144,100
                135.7520044909,35.0178232092,100
                135.7520076029,35.0184746816,100
                135.7520087319,35.0187116064,100
                135.7520066169,35.0188664047,100
                135.7520004935,35.0195358181,100
                135.7519990521,35.0197659066,100
                135.7519964006,35.020187201,100
                135.751995861,35.0202741787,100
                135.7519954027,35.0203487601,100
                135.7519902302,35.0211770494,100
                135.7519898929,35.0212326161,100
                135.7519849775,35.0226051003,100
                135.7522762686,35.0226047059,100
                135.7523647269,35.0226046042,100
                135.7523636729,35.0227352453,100
                135.7524869552,35.0227343684,100
                135.7524859003,35.022715139,100
                135.752609563,35.0227156714,100
                135.7525999875,35.0228264351,100
                135.7525662651,35.0228523546,100
                135.7523664486,35.0228524424,100
                135.752368342,35.0228778002,100
                135.7526154036,35.0228816106,100
                135.7530117112,35.0228769202,100
                135.753001287,35.0225825818,100
                135.7536976667,35.0225823691,100
                135.7536959485,35.0227429403,100
                135.7538057701,35.0227424037,100
                135.753809374,35.0228296821,100
                135.7538632153,35.0228281048,100
                135.7538631836,35.0228388054,100
                135.7539419412,35.0228389641,100
                135.754012073,35.0228391054,100
                135.754011969,35.0228742205,100
                135.7542830084,35.022886176,100
                135.7542810229,35.0230147725,100
                135.7545700359,35.0230111276,100
                135.7546425328,35.0230092315,100
                135.7546502373,35.0228933933,100
                135.7548053396,35.022887367,100
                135.7548113055,35.0227296216,100
                135.7550117381,35.022730939,100
                135.7550102254,35.0226634671,100
                135.7551219105,35.0226615079,100
                135.7551197446,35.0228882087,100
                135.7552767015,35.0228844386,100
                135.7565303822,35.0228653243,100
                135.7565288189,35.0225510749,100
                135.7567932295,35.0225430803,100
                135.7567932968,35.0225200507,100
                135.7568732709,35.0225226745,100
                135.7568662758,35.0227925375,100
                135.7569210665,35.0227926466,100
                135.7569208691,35.0228602564,100
                135.7569484691,35.0228637622,100
                135.7569451219,35.0228224148,100
                135.7570605058,35.0228291947,100
                135.7570625195,35.0228872307,100
                135.7571883635,35.0228891713,100
                135.7571884569,35.0228571271,100
                135.7573440187,35.0228620141,100
                135.75734406,35.0228478584,100
                135.7574630121,35.0228484743,100
                135.7574811107,35.0228025913,100
                135.7574875853,35.0226116767,100
                135.7575955123,35.0226146669,100
                135.7575883662,35.0228491222,100
                135.757587641,35.0228723997,100
                135.7575283302,35.0228711369,100
                135.7575305488,35.022910148,100
                135.757612342,35.022909298,100
                135.7576949205,35.0229084385,100
                135.7576937752,35.0228496797,100
                135.7576941795,35.0227107272,100
                135.7576079311,35.022709148,100
                135.7576146447,35.0226159153,100
                135.7576408354,35.0225739223,100
                135.7577263973,35.0225759942,100
                135.7583834778,35.0225918749,100
                135.7583940217,35.0229561439,100
                135.7584160824,35.0229583004,100
                135.7587500748,35.0229574817,100
                135.7587536792,35.0227700831,100
                135.7590747763,35.0227576881,100
                135.7590948899,35.0227149786,100
                135.7593228276,35.0227154281,100
                135.7593482563,35.0250575266,100
                135.7593564165,35.0262717734,100
                135.7593465422,35.026674596,100
                135.7593779343,35.0279077619,100
                135.7593803133,35.0287750722,100
                135.7593834814,35.029124253,100
                135.7593849339,35.0291844706,100
                135.761926565,35.0292587839,100
                135.76233554,35.0292753495,100
                135.7623720548,35.0292756318,100
                135.7623809616,35.0275369547,100
                135.7637049217,35.0275508408,100
                135.7637043154,35.0277342315,100
                135.7669776524,35.0277994165,100
                135.7670003486,35.0269622222,100
                135.7669661147,35.0269044077,100
                135.7669812785,35.0260587478,100
                135.7670204561,35.0248843788,100
                135.7670630867,35.0233168227,100
                135.7675398511,35.0233131446,100
                135.767488622,35.02195162,100
                135.7674654216,35.0213613267,100
                135.7674476023,35.0209128128,100
                135.7674192362,35.0203789911,100
                135.7673871097,35.0196458492,100
                135.7673560925,35.0188281159,100
                135.7673376688,35.0181128784,100
                135.7673183661,35.017740345,100
                135.7673053091,35.0174602259,100
                135.7670040968,35.0174555019,100
                135.7667436981,35.0174497974,100
                135.7665860432,35.017446329,100
                135.766127486,35.0174411632,100
                135.7657260914,35.0174365979,100
                135.7651824268,35.0174293651,100
                135.7645660211,35.0174210048,100
                135.7643286654,35.0174178741,100
                135.7636483018,35.0174133307,100
                135.7633164135,35.0174111445,100
                135.7626484846,35.0174062668,100
                135.7621143352,35.0174024191,100
                135.7610733435,35.0173947696,100
                135.7605939798,35.0173913038,100
                135.7596351481,35.0173842941,100
                135.7593854,35.0173824629,100
                135.759069748,35.0173548653,100
                135.7590719204,35.0177022963,100
                135.7584571794,35.0177123488,100
                135.758431165,35.0177163821,100
                135.7584151969,35.0176152149,100
                135.7583446783,35.0176158493,100
                135.758331913,35.0173712239,100
                135.7576291552,35.0173875772,100
                135.7575917854,35.0173884185,100
                135.7575859215,35.0173884069,100
                135.7572132153,35.0173897084,100
                135.7570385275,35.0173858384,100
                135.7570522381,35.0176422984,100
                135.7568680689,35.0176386915,100
                135.756840018,35.0176438468,100
                135.7568336806,35.0175724896,100
                135.756781658,35.0175709073,100
                135.7567675461,35.0173853692,100
                135.7565188128,35.0173809992,100
                135.7565300023,35.0179974161,100
                135.7561739815,35.0179929713,100
                135.7561792812,35.0182194815,100
                135.7556104338,35.0182182721,100
                135.7556091326,35.0176544856,100
                135.7550087383,35.017654971,100
                135.7550119549,35.0173647398,100
                135.7548402354,35.0173635501,100
                135.7548433206,35.0174556768,100
                135.7547796662,35.0174580144,100
                135.7547703375,35.017579485,100
                135.7546265824,35.0175803226,100
                135.7546206678,35.0176983501,100
                135.7545132066,35.0176996123,100
                135.7544830878,35.0177020172,100
                135.7544670664,35.0175771843,100
                135.7543582414,35.0175841489,100
                135.7543533522,35.0175447693,100
                135.7540651547,35.0175542596,100
                135.7540661599,35.0176976549,100
                135.7538792673,35.0177030535,100
                135.7538827489,35.0177339788,100
                135.7537889657,35.0177278729,100
                135.7537943493,35.0173732044,100
                135.7534031691,35.017368258,100
                135.7530969715,35.0173643987,100
                135.7530897173,35.0175998277,100
              </coordinates>
            </LinearRing>
          </outerBoundaryIs>
        </Polygon>
      </Placemark>
    </Document>
  </Document>
</kml>
