<?xml version="1.0" encoding="UTF-8"?>
<kml xmlns="http://www.opengis.net/kml/2.2">
  <Document id="root_doc">
    <Document id="_2_17______disv4326">
      <name>12_17翔鸞disv4326</name>
      <Placemark id="_2_17______disv4326.1">
        <visibility>1</visibility>
        <Polygon>
          <extrude>0</extrude>
          <outerBoundaryIs>
            <LinearRing>
              <coordinates>
                135.7365215095,35.0269385227,100
                135.7362464175,35.0269417289,100
                135.7362429746,35.0271082829,100
                135.7359057772,35.0272157987,100
                135.7354367489,35.0272237235,100
                135.7354150103,35.0274351013,100
                135.7352334483,35.0274461858,100
                135.7352092052,35.027256682,100
                135.7348538333,35.0272638659,100
                135.7347847621,35.0273643562,100
                135.7344396898,35.0273696593,100
                135.7343723753,35.0273228185,100
                135.7343712513,35.0273526774,100
                135.7338759961,35.0271491138,100
                135.7337208506,35.0271585627,100
                135.7334097457,35.0271776706,100
                135.7332842072,35.027185283,100
                135.7327655376,35.0272867564,100
                135.7329440113,35.0276425278,100
                135.7330368057,35.0277928845,100
                135.7331178698,35.027956666,100
                135.7331769576,35.0281317391,100
                135.7333446956,35.0286589042,100
                135.7335877057,35.0290757326,100
                135.7336165724,35.0291646752,100
                135.7336877397,35.0294914031,100
                135.7337655097,35.0296355969,100
                135.7338145056,35.0296952858,100
                135.7338368082,35.0297224492,100
                135.7338411963,35.0297688005,100
                135.7338925247,35.0300019563,100
                135.7339912967,35.0306177077,100
                135.7340166787,35.0307188963,100
                135.7340721173,35.0308259262,100
                135.7342470487,35.0310823128,100
                135.7342811751,35.0312072551,100
                135.7342791004,35.0313196525,100
                135.7343011967,35.031504573,100
                135.7343865852,35.0317499877,100
                135.7346256353,35.0317376925,100
                135.7348091438,35.0320243099,100
                135.7348739566,35.0320583269,100
                135.7349744807,35.0320700265,100
                135.7349223537,35.0321984426,100
                135.7346642066,35.0323321831,100
                135.73467899,35.0323744014,100
                135.734740144,35.032334814,100
                135.7349068705,35.0322674974,100
                135.7349102364,35.0323861048,100
                135.7349675817,35.0324059496,100
                135.7349610799,35.0325717207,100
                135.7350281454,35.0327912481,100
                135.7350829088,35.0327886215,100
                135.735117444,35.0329596233,100
                135.7352337782,35.0332220074,100
                135.7353760962,35.033538748,100
                135.7354626932,35.0337761359,100
                135.7355181495,35.0339319005,100
                135.7355522382,35.0343568626,100
                135.7356262498,35.0347820531,100
                135.7356714113,35.0347701782,100
                135.7358879783,35.0345747919,100
                135.7361070531,35.0344581478,100
                135.7360364621,35.0342013566,100
                135.735954297,35.034197727,100
                135.7359405826,35.03395423,100
                135.7363782366,35.0341174457,100
                135.7367056335,35.0337351724,100
                135.7368841556,35.0335267428,100
                135.7371115557,35.033268203,100
                135.7371472405,35.0332067977,100
                135.7373050771,35.0330203654,100
                135.7375685244,35.0327068294,100
                135.7378724734,35.032337249,100
                135.7382295113,35.0323851344,100
                135.738167865,35.0327367871,100
                135.7381548778,35.0332218631,100
                135.7381387884,35.0332733807,100
                135.7381166271,35.0337082222,100
                135.7381182078,35.0337430871,100
                135.7391263009,35.0337037603,100
                135.7392987022,35.0336970335,100
                135.7395590691,35.0336868873,100
                135.7398553804,35.0336753381,100
                135.7398705973,35.0339822238,100
                135.7402011814,35.0339770856,100
                135.7402087048,35.0342126817,100
                135.7401060631,35.0342198574,100
                135.7401306446,35.0349053801,100
                135.7398075336,35.0349153928,100
                135.7398437097,35.0352492971,100
                135.7397807528,35.0352562747,100
                135.7397824183,35.0353052254,100
                135.7396127157,35.0353176792,100
                135.7396406029,35.0355232469,100
                135.7397370689,35.0355129596,100
                135.7397868653,35.0358377369,100
                135.7398216335,35.0359315509,100
                135.7399651858,35.0358967148,100
                135.7399598574,35.0358921256,100
                135.7399329594,35.0357325074,100
                135.740101789,35.035717544,100
                135.7401066215,35.0357185976,100
                135.7401080345,35.0357317276,100
                135.7401375038,35.0357271431,100
                135.7401110943,35.0355686242,100
                135.7401189258,35.0354878607,100
                135.740158694,35.0349029758,100
                135.7405417583,35.0348878077,100
                135.7405871747,35.0347193718,100
                135.7406559153,35.0344645013,100
                135.7406569976,35.0344609085,100
                135.7407829709,35.0344866894,100
                135.7408125418,35.0344930624,100
                135.7408745857,35.0342795464,100
                135.7408900334,35.0342462248,100
                135.7408157503,35.0342397558,100
                135.7405303629,35.0342075242,100
                135.7405208166,35.0340369284,100
                135.7408857808,35.034044469,100
                135.7409243986,35.0340233533,100
                135.740927413,35.0339974424,100
                135.7409849548,35.0335045725,100
                135.740849521,35.0334905496,100
                135.7408535621,35.0333830864,100
                135.7408606775,35.033291264,100
                135.7408944247,35.0332940123,100
                135.740910806,35.0330325493,100
                135.7409215817,35.0327766387,100
                135.7409481967,35.0326238682,100
                135.7409568431,35.0323916871,100
                135.741072877,35.0323929909,100
                135.7413512046,35.0323950624,100
                135.7413537759,35.0323392189,100
                135.7413560459,35.0322479622,100
                135.7413627865,35.0319768894,100
                135.7416174841,35.0319772196,100
                135.7416249058,35.0311774593,100
                135.7416257344,35.0310901309,100
                135.7418301134,35.0310954964,100
                135.7418385117,35.0310381851,100
                135.7419013381,35.0310445162,100
                135.7419277554,35.0309198456,100
                135.7418696348,35.0309145809,100
                135.7419034358,35.0307078773,100
                135.7419489767,35.0307108615,100
                135.7419525784,35.0306607952,100
                135.7419609565,35.0305417193,100
                135.7418554228,35.0305303682,100
                135.741866684,35.0304061573,100
                135.7420359746,35.0303991923,100
                135.7420996646,35.0300178211,100
                135.7423358857,35.0300386758,100
                135.742380372,35.0297409316,100
                135.7423890944,35.0296824957,100
                135.742429076,35.0294148141,100
                135.741997727,35.0293891087,100
                135.7420062108,35.0291946761,100
                135.7420026386,35.0290978305,100
                135.7415528394,35.0290997631,100
                135.7415574596,35.0287926376,100
                135.7416145494,35.0287912101,100
                135.741622046,35.0284948669,100
                135.7424764171,35.0284815376,100
                135.7424740189,35.0284129353,100
                135.7424725658,35.0283713238,100
                135.7424564899,35.027910818,100
                135.7423785962,35.0279121325,100
                135.7421406132,35.0279162061,100
                135.7421233829,35.0278753911,100
                135.7417022326,35.027882878,100
                135.7416893458,35.0275131742,100
                135.7416884676,35.0273694992,100
                135.7416863543,35.0270251024,100
                135.7420343879,35.0270367571,100
                135.7420243381,35.0267453752,100
                135.7420825907,35.0267414843,100
                135.7420809637,35.026549213,100
                135.74216654,35.0265616484,100
                135.7421620669,35.0264311364,100
                135.7421582996,35.0260742692,100
                135.7420783364,35.0260740292,100
                135.7415310303,35.0260722333,100
                135.7415315335,35.0262397127,100
                135.7414609716,35.0262446335,100
                135.7414597966,35.0262096987,100
                135.7412180519,35.0262140435,100
                135.7412164735,35.0262527057,100
                135.7411318121,35.0262558356,100
                135.7411367786,35.0260846357,100
                135.7408954966,35.0260842622,100
                135.7408844867,35.0262852408,100
                135.7406846038,35.0262760106,100
                135.740672798,35.0263074668,100
                135.7405899716,35.0263055998,100
                135.7405634679,35.0263492796,100
                135.7399929732,35.0263357368,100
                135.7399003428,35.0263335657,100
                135.7398424666,35.0263405562,100
                135.7397283834,35.0263543977,100
                135.7393326674,35.0263625643,100
                135.739340891,35.0263271561,100
                135.7378052129,35.0263358274,100
                135.7373957635,35.0263349439,100
                135.7374149251,35.026460911,100
                135.737291859,35.0265335375,100
                135.7370896388,35.0268488999,100
                135.7369564563,35.0267843106,100
                135.7368906041,35.0267853522,100
                135.7365216372,35.0267911867,100
                135.7365215095,35.0269385227,100
              </coordinates>
            </LinearRing>
          </outerBoundaryIs>
        </Polygon>
      </Placemark>
    </Document>
  </Document>
</kml>
