<?xml version="1.0" encoding="UTF-8"?>
<kml xmlns="http://www.opengis.net/kml/2.2">
  <Document id="root_doc">
    <Document id="_2_15______disv4326">
      <name>12_15出水disv4326</name>
      <Placemark id="_2_15______disv4326.1">
        <visibility>1</visibility>
        <Polygon>
          <extrude>0</extrude>
          <outerBoundaryIs>
            <LinearRing>
              <coordinates>
                135.7420270654,35.0154713028,100
                135.7421777267,35.0154716219,100
                135.7421774452,35.0155617698,100
                135.7423007137,35.0155620307,100
                135.7423127391,35.015693335,100
                135.7425679475,35.0157197221,100
                135.7425774738,35.0164189567,100
                135.7425779621,35.0164545242,100
                135.7425955318,35.0171615933,100
                135.742600245,35.0173382386,100
                135.7426031228,35.0174105043,100
                135.7426087035,35.017550035,100
                135.7426179957,35.0178022586,100
                135.7426257732,35.0180190546,100
                135.7426265984,35.0182140723,100
                135.7426276452,35.0184550815,100
                135.7423805711,35.0184525157,100
                135.7423797454,35.0187373978,100
                135.7421758515,35.0187509813,100
                135.7421780867,35.0191110869,100
                135.7419208078,35.019127162,100
                135.7419249495,35.0192194321,100
                135.7419291331,35.019311984,100
                135.7419319509,35.0195333467,100
                135.7419419777,35.0198383937,100
                135.7425986681,35.019827319,100
                135.7425888773,35.0201398584,100
                135.7425888542,35.0201402111,100
                135.7425798121,35.0203292203,100
                135.7425739979,35.0204509077,100
                135.7422769821,35.0204637307,100
                135.74227941,35.0205289527,100
                135.7419357301,35.0205236464,100
                135.7419307137,35.0206356158,100
                135.7419294438,35.0208164724,100
                135.7417206704,35.02081441,100
                135.741716828,35.0210373765,100
                135.7417080775,35.0212285002,100
                135.7417139247,35.0218439131,100
                135.7417161479,35.0219958308,100
                135.7417221336,35.0226009612,100
                135.7422288743,35.0226044312,100
                135.7425080033,35.0226062891,100
                135.7429550316,35.0226166725,100
                135.7429521304,35.0229095056,100
                135.743999454,35.0229102359,100
                135.7447276612,35.0229109206,100
                135.7450610098,35.0229107751,100
                135.7450809339,35.0232099953,100
                135.7450844533,35.0232627527,100
                135.7452382348,35.0232550461,100
                135.7452377508,35.0232734274,100
                135.7453630286,35.0232710833,100
                135.7453682021,35.0233494806,100
                135.7455633327,35.0233498889,100
                135.7456712877,35.0233501147,100
                135.7456671239,35.0232701701,100
                135.7457259409,35.0232695888,100
                135.7457161053,35.022911371,100
                135.7460768273,35.0229188857,100
                135.7460981535,35.0229020274,100
                135.7464321707,35.0229071611,100
                135.7467634063,35.022905527,100
                135.7467641976,35.0229055287,100
                135.7472611801,35.0229033224,100
                135.7475117509,35.0228996851,100
                135.7475113359,35.0229799728,100
                135.7476111558,35.0229806722,100
                135.7478515471,35.0229822958,100
                135.7482241005,35.0229696834,100
                135.7482107864,35.0225902598,100
                135.7483510256,35.0225944226,100
                135.7483653047,35.0228753193,100
                135.7487834305,35.0228744198,100
                135.7487972703,35.0225950606,100
                135.7488282832,35.0225949126,100
                135.7488169311,35.0224141007,100
                135.7486565789,35.0224084885,100
                135.7486240554,35.0223913785,100
                135.7486315249,35.022314064,100
                135.7486258478,35.0222735562,100
                135.7486609656,35.022274614,100
                135.7487471037,35.0222490153,100
                135.7487079346,35.0218899633,100
                135.7486813227,35.0216460165,100
                135.7486626554,35.0216056222,100
                135.7486595206,35.0215520905,100
                135.7487158512,35.0215522066,100
                135.7487110994,35.0214115521,100
                135.7488848638,35.0214116988,100
                135.7488770855,35.0211820882,100
                135.7487887409,35.0211807794,100
                135.7487940798,35.0210715566,100
                135.7487215226,35.0210657024,100
                135.748718838,35.0209277285,100
                135.7487138957,35.0206735438,100
                135.7487408393,35.0206247223,100
                135.748732258,35.0203420766,100
                135.7487320247,35.020334329,100
                135.7489396339,35.020317009,100
                135.7489351376,35.0202329093,100
                135.7490633661,35.0202086639,100
                135.7490684376,35.0201738125,100
                135.7490482368,35.019777683,100
                135.7489039049,35.0197699202,100
                135.7489040619,35.0197183672,100
                135.7486584402,35.0197089868,100
                135.7486208267,35.0191506909,100
                135.7486421598,35.0191317192,100
                135.7486141387,35.0190141875,100
                135.7485991113,35.0188395626,100
                135.7488285174,35.0188386276,100
                135.7488140716,35.0187542243,100
                135.7486222003,35.0187423483,100
                135.7486075857,35.0184392636,100
                135.7485715559,35.0176920115,100
                135.7485676116,35.0176101648,100
                135.7485552562,35.0174784379,100
                135.7485550751,35.0173765272,100
                135.7483839044,35.0173777233,100
                135.7483792811,35.0173428517,100
                135.7483744982,35.0171987451,100
                135.7483379236,35.0165884044,100
                135.7480675148,35.0165907341,100
                135.7477441103,35.0165952069,100
                135.7477402569,35.0165321652,100
                135.7477199331,35.0159351691,100
                135.747353775,35.0159524409,100
                135.7454628229,35.0160428078,100
                135.7453726186,35.0146760216,100
                135.7436828479,35.0147976991,100
                135.7435082078,35.0148080365,100
                135.7431580914,35.0148287799,100
                135.7431578203,35.0149225896,100
                135.7426543173,35.0149592059,100
                135.7425431261,35.0149637601,100
                135.7425663241,35.0153415179,100
                135.7420274879,35.0153360809,100
                135.7420270654,35.0154713028,100
              </coordinates>
            </LinearRing>
          </outerBoundaryIs>
        </Polygon>
      </Placemark>
    </Document>
  </Document>
</kml>
