<?xml version="1.0" encoding="UTF-8"?>
<kml xmlns="http://www.opengis.net/kml/2.2">
  <Document id="root_doc">
    <Document id="_2_12______disv4326">
      <name>12_12春日disv4326</name>
      <Placemark id="_2_12______disv4326.1">
        <visibility>1</visibility>
        <Polygon>
          <extrude>0</extrude>
          <outerBoundaryIs>
            <LinearRing>
              <coordinates>
                135.7683374624,35.0172547589,100
                135.7683583053,35.0174843956,100
                135.7681158463,35.0174769666,100
                135.7680461494,35.0169866528,100
                135.7676433447,35.0169896269,100
                135.7676307786,35.0174621788,100
                135.76752446,35.0174606396,100
                135.767520592,35.0177169218,100
                135.7673183661,35.017740345,100
                135.7673376688,35.0181128784,100
                135.7673560925,35.0188281159,100
                135.7673871097,35.0196458492,100
                135.7674192362,35.0203789911,100
                135.7674476023,35.0209128128,100
                135.7674654216,35.0213613267,100
                135.767488622,35.02195162,100
                135.7675398511,35.0233131446,100
                135.7675428585,35.0233934366,100
                135.7692323797,35.0233391422,100
                135.7692275383,35.0225913376,100
                135.7714977483,35.0225439412,100
                135.7715011426,35.0223286513,100
                135.7715040119,35.0217353772,100
                135.7715098033,35.0214261417,100
                135.771534724,35.0204635178,100
                135.7715349304,35.0203882314,100
                135.7715548781,35.0198804873,100
                135.7715695996,35.019029742,100
                135.7715767891,35.0186665553,100
                135.7715873956,35.01841416,100
                135.7715990365,35.0177873704,100
                135.7715996212,35.017575734,100
                135.7715885834,35.0166442999,100
                135.7699253118,35.0166529661,100
                135.7699116672,35.0165189153,100
                135.7696362658,35.0165223445,100
                135.7693796551,35.0165255964,100
                135.7689448146,35.0165361914,100
                135.7688162832,35.0165499654,100
                135.7687124771,35.0165611095,100
                135.7685588249,35.0165883584,100
                135.7682616052,35.0166182246,100
                135.7683374624,35.0172547589,100
              </coordinates>
            </LinearRing>
          </outerBoundaryIs>
        </Polygon>
      </Placemark>
    </Document>
  </Document>
</kml>
