<?xml version="1.0" encoding="UTF-8"?>
<kml xmlns="http://www.opengis.net/kml/2.2">
  <Document id="root_doc">
    <Document id="_4_04______disv4326">
      <name>14_04静市disv4326</name>
      <Placemark id="_4_04______disv4326.1">
        <visibility>1</visibility>
        <Polygon>
          <extrude>0</extrude>
          <outerBoundaryIs>
            <LinearRing>
              <coordinates>
                135.7674848336,35.0801272171,100
                135.7674661658,35.0799105511,100
                135.7672617585,35.0794821832,100
                135.7671267613,35.0794977734,100
                135.76690355,35.0793746677,100
                135.766499565,35.0790726882,100
                135.7660129742,35.0784377141,100
                135.7657816834,35.0784319216,100
                135.7657949968,35.0782682053,100
                135.7658601757,35.078069516,100
                135.7660292935,35.0775540366,100
                135.7661780199,35.0772266257,100
                135.7667825134,35.07705347,100
                135.767058671,35.0771120949,100
                135.7673543497,35.0770756108,100
                135.7673669314,35.0771708509,100
                135.7674632546,35.0771974431,100
                135.7677458907,35.077229599,100
                135.7689907882,35.0772265935,100
                135.7693051723,35.0774015589,100
                135.7693569275,35.0772748183,100
                135.7691065346,35.0772003307,100
                135.7690553849,35.077110511,100
                135.7683811562,35.0769348668,100
                135.7681052135,35.0768075092,100
                135.7679444084,35.0768705888,100
                135.7677516506,35.0768650131,100
                135.7674178023,35.0767586014,100
                135.7673214272,35.076758419,100
                135.7672446175,35.0766473521,100
                135.76716157,35.0764780308,100
                135.7672130594,35.076446507,100
                135.7671940968,35.0763354793,100
                135.7670849999,35.0762824528,100
                135.7670722842,35.0762348211,100
                135.766969663,35.0761713127,100
                135.7668089179,35.0762132635,100
                135.766565075,35.0760968794,100
                135.7667398557,35.0756352853,100
                135.7669729356,35.0750197792,100
                135.7668511702,35.0749032738,100
                135.7670182534,35.0748982389,100
                135.7670958145,35.0747345738,100
                135.7673525928,35.0748196423,100
                135.7672358715,35.0751999345,100
                135.7672290903,35.075326689,100
                135.7675117194,35.0753589165,100
                135.7676574764,35.0754210259,100
                135.7677045585,35.0753112499,100
                135.7675443049,35.075195166,100
                135.7674617642,35.0748462588,100
                135.7675390255,35.0747882335,100
                135.7675584642,35.074730239,100
                135.7675270544,35.0744765035,100
                135.7675722509,35.0743973599,100
                135.7677571646,35.0743348184,100
                135.7677408931,35.0741123814,100
                135.7677324164,35.0739965146,100
                135.7677774866,35.0739701905,100
                135.7677585623,35.0738381049,100
                135.7686722808,35.0733800858,100
                135.7690519547,35.0731693798,100
                135.7703888654,35.073023991,100
                135.7705234768,35.0731351638,100
                135.7705617754,35.0732251692,100
                135.7706899403,35.0733521053,100
                135.7709659875,35.0733310708,100
                135.7717736304,35.0740353561,100
                135.771722144,35.0740670233,100
                135.7718627675,35.0743367358,100
                135.7718432818,35.0744053647,100
                135.7720091687,35.0748337233,100
                135.7721249395,35.0747969648,100
                135.7720485924,35.0745167375,100
                135.7722679103,35.074215931,100
                135.7725765423,35.0741743187,100
                135.7729040667,35.0742330987,100
                135.7729617075,35.0743072241,100
                135.7732568178,35.0744715814,100
                135.7732951643,35.0745456005,100
                135.7733593181,35.0745880443,100
                135.7733848277,35.0746567582,100
                135.7737443841,35.074757779,100
                135.7738415593,35.0744567449,100
                135.774080372,35.0740714608,100
                135.7734000675,35.0737849075,100
                135.7730078122,35.0738951737,100
                135.7724170228,35.0737672405,100
                135.7713524424,35.0730360696,100
                135.77038515,35.0725427612,100
                135.7702228282,35.0723467425,100
                135.7702229574,35.0723003329,100
                135.7702795811,35.0722077567,100
                135.770454171,35.0721118108,100
                135.7703414181,35.0721116001,100
                135.770222555,35.0720598957,100
                135.7700915384,35.0719816188,100
                135.7698852669,35.0718267167,100
                135.769740884,35.0717524023,100
                135.7682255178,35.0720586674,100
                135.7681629559,35.072125396,100
                135.7679957645,35.0721705757,100
                135.7677333076,35.0721960671,100
                135.7674465832,35.072252922,100
                135.7671150325,35.0723337777,100
                135.7669796051,35.0721875975,100
                135.7666746612,35.0721214512,100
                135.7666062873,35.0720061043,100
                135.7663836214,35.0717815134,100
                135.766216535,35.071645907,100
                135.766148792,35.0715349969,100
                135.7660902993,35.0713858639,100
                135.7660821416,35.0711209038,100
                135.7660684106,35.0710391127,100
                135.7660064724,35.0709733579,100
                135.7658904209,35.0708903852,100
                135.7656330992,35.0707908045,100
                135.765368016,35.0706341631,100
                135.7654326695,35.0705359714,100
                135.765386866,35.0705120798,100
                135.7652386475,35.07058835,100
                135.7650153346,35.0706089804,100
                135.7648194334,35.070554377,100
                135.7647203696,35.0706663765,100
                135.7648970299,35.070806723,100
                135.7649526381,35.0709749367,100
                135.7649851306,35.071033171,100
                135.7650980893,35.0711561403,100
                135.7652771899,35.0714181876,100
                135.7653876727,35.0715084741,100
                135.7655440616,35.0716096937,100
                135.7656953961,35.0716579423,100
                135.7657436722,35.0718825536,100
                135.765748098,35.0720133443,100
                135.7658864993,35.0721291778,100
                135.7657783476,35.0721753116,100
                135.7656891076,35.0721758457,100
                135.7654899058,35.0721053214,100
                135.7654376371,35.0722007896,100
                135.7650688741,35.0719624668,100
                135.7649540904,35.0718106897,100
                135.764673614,35.0716890192,100
                135.7645875133,35.0716400482,100
                135.7644989759,35.0715521976,100
                135.7643928822,35.0715148794,100
                135.7640805691,35.0713388477,100
                135.7638965058,35.0712633496,100
                135.7638146313,35.0711146624,100
                135.7637266815,35.0710392074,100
                135.7635795506,35.0709814563,100
                135.7634442144,35.0709935202,100
                135.7634102423,35.0710333866,100
                135.7635903812,35.0711702198,100
                135.7635639295,35.0712162982,100
                135.7635635196,35.0713520795,100
                135.7636865458,35.0715033104,100
                135.7635924888,35.0715033412,100
                135.7635862433,35.0715979822,100
                135.7639533072,35.0717094685,100
                135.7640304055,35.0717685635,100
                135.764062404,35.0718870821,100
                135.7640129967,35.0719701613,100
                135.7639600794,35.0719771721,100
                135.7639729848,35.0720775551,100
                135.7642001923,35.072081794,100
                135.7642710033,35.0721532019,100
                135.7643890579,35.0721567385,100
                135.7645996298,35.0723473633,100
                135.7645992003,35.0724003231,100
                135.7647875973,35.0726172457,100
                135.7648526406,35.072638568,100
                135.7649462503,35.0726081117,100
                135.7649791475,35.072614513,100
                135.7651498635,35.0725581469,100
                135.7651991334,35.072658739,100
                135.7653048896,35.0727398615,100
                135.7654579857,35.0729076278,100
                135.7655455995,35.072937515,100
                135.765769163,35.0729664636,100
                135.765880184,35.0729057565,100
                135.7661287321,35.0728998922,100
                135.7662655428,35.0729582537,100
                135.7662338763,35.073053833,100
                135.7662605775,35.0730629688,100
                135.7661530001,35.0732917195,100
                135.7660667931,35.0733397275,100
                135.7659773181,35.0734523795,100
                135.765809197,35.0736126311,100
                135.7657494305,35.0736183626,100
                135.7656390212,35.0736892831,100
                135.7654698594,35.073725511,100
                135.76542285,35.0736807005,100
                135.7652643795,35.0736701161,100
                135.7651926171,35.0737142061,100
                135.7650423049,35.0737115946,100
                135.7649348755,35.0736686403,100
                135.7647599988,35.0734788586,100
                135.7646613283,35.0734584573,100
                135.7645781966,35.0733813225,100
                135.7643929543,35.0734540693,100
                135.7643764805,35.0735384789,100
                135.7644846969,35.0735679134,100
                135.7645700137,35.0736298414,100
                135.7646105181,35.0736273127,100
                135.7648797855,35.0737765689,100
                135.7651132032,35.0739408975,100
                135.7653173444,35.0739100184,100
                135.7653579949,35.0740601751,100
                135.7652243715,35.0741150636,100
                135.765048619,35.0741191644,100
                135.7649742521,35.0741451498,100
                135.7649180398,35.074135746,100
                135.7647354074,35.074141453,100
                135.7647145304,35.0741774008,100
                135.7648085956,35.0742585014,100
                135.7651895722,35.0742951471,100
                135.7652653086,35.074389804,100
                135.7651303028,35.0744941994,100
                135.7650432564,35.0746181946,100
                135.7649827519,35.0746494186,100
                135.7648705624,35.074863723,100
                135.7646100814,35.0749661165,100
                135.7645659362,35.0751559717,100
                135.7644950822,35.0751961198,100
                135.7643996639,35.0752138256,100
                135.7642810354,35.0752071887,100
                135.7641579147,35.0751387797,100
                135.7639196038,35.0750597966,100
                135.7638321558,35.0751291393,100
                135.7637775304,35.0750812148,100
                135.7637593359,35.0750104019,100
                135.7634497001,35.0749345197,100
                135.7631172981,35.0747399954,100
                135.7630029106,35.0745692726,100
                135.7627384034,35.0745155196,100
                135.7626047554,35.0743549006,100
                135.7625624674,35.0740993125,100
                135.7626913207,35.0739530747,100
                135.7626985263,35.0738229407,100
                135.7626918703,35.0736279173,100
                135.7627237525,35.0735036054,100
                135.7623652676,35.0734376974,100
                135.7624155344,35.0736741461,100
                135.76241388,35.0737947129,100
                135.7622983575,35.0741602833,100
                135.7622188402,35.0742341475,100
                135.7621064799,35.0742081545,100
                135.7619041978,35.0741804365,100
                135.761833015,35.0740678276,100
                135.761699737,35.0741656026,100
                135.7613343499,35.0739968557,100
                135.7613446425,35.0739334925,100
                135.761275623,35.0738948346,100
                135.7613435623,35.0738107373,100
                135.761290724,35.073723587,100
                135.7611120348,35.0734925932,100
                135.761081333,35.0732969599,100
                135.7609866138,35.073037113,100
                135.7606839426,35.0730296927,100
                135.7607912115,35.0731785014,100
                135.7608990053,35.0734344289,100
                135.7608951334,35.0736620395,100
                135.7608771098,35.0737695455,100
                135.7607858902,35.0738462036,100
                135.760553175,35.0738487074,100
                135.7594588827,35.0733388664,100
                135.7594249974,35.073369647,100
                135.7593895321,35.073428524,100
                135.7595359045,35.0735190967,100
                135.7599759975,35.0738311014,100
                135.7598471934,35.0739733222,100
                135.7597769351,35.0740878384,100
                135.7596516904,35.0742137975,100
                135.7595657538,35.0742842673,100
                135.7594344148,35.0743547188,100
                135.7592516386,35.0744232384,100
                135.7591191647,35.0744424174,100
                135.7589140795,35.0744422266,100
                135.758892085,35.0745960652,100
                135.7591044823,35.0746440899,100
                135.7595586588,35.0750576056,100
                135.7596875152,35.0749349634,100
                135.7597612759,35.0750004633,100
                135.7598602972,35.0748046604,100
                135.7597474981,35.0747234494,100
                135.7598591535,35.0746091545,100
                135.7600717987,35.0747559866,100
                135.7602032068,35.0745283434,100
                135.7603305251,35.0745804968,100
                135.7605184957,35.0742861285,100
                135.7606172293,35.0741663144,100
                135.760904671,35.0742868809,100
                135.7617650957,35.074633783,100
                135.7609377409,35.0755413798,100
                135.7610938026,35.0757486665,100
                135.7613734062,35.07581189,100
                135.7613572972,35.0757243886,100
                135.7617778842,35.0752701809,100
                135.7622290591,35.0751610486,100
                135.7624567555,35.0750214117,100
                135.7625289797,35.0749812669,100
                135.7626271191,35.0751119566,100
                135.7626128909,35.0754939921,100
                135.7628322476,35.0755212488,100
                135.7629795207,35.0754200487,100
                135.763314559,35.0753537897,100
                135.763437173,35.075389661,100
                135.7634338176,35.0755138872,100
                135.7633944703,35.075702483,100
                135.7635580665,35.0757716755,100
                135.7637515341,35.0756183769,100
                135.7638243853,35.0755910507,100
                135.7639614347,35.0756196964,100
                135.7640028767,35.0758361962,100
                135.7639838955,35.0759283472,100
                135.7638163854,35.0759619713,100
                135.7636492346,35.0760563028,100
                135.7637249997,35.0761336358,100
                135.7638839105,35.0760369638,100
                135.7640379261,35.0759593682,100
                135.7641553962,35.0759221275,100
                135.7641659294,35.0757362222,100
                135.76422082,35.0757290736,100
                135.7644003624,35.0756218067,100
                135.7647548916,35.0756372046,100
                135.7647829618,35.0755119705,100
                135.7649879584,35.075528349,100
                135.7650307059,35.0757137461,100
                135.7651061109,35.0760407856,100
                135.7650696436,35.0763394642,100
                135.7647987739,35.0767416436,100
                135.7648878196,35.0767660407,100
                135.7648591471,35.0768772599,100
                135.7649679029,35.0769372599,100
                135.7649010847,35.0772668675,100
                135.76451104,35.0772283022,100
                135.7644660325,35.0773141355,100
                135.7645680092,35.0773561647,100
                135.7645257191,35.0774503839,100
                135.7645869551,35.0775461407,100
                135.7645216319,35.0777189825,100
                135.7643389232,35.0779133604,100
                135.7643063009,35.0779896405,100
                135.7643066809,35.0780515459,100
                135.7637759677,35.0780343282,100
                135.763741899,35.0779870771,100
                135.7635565334,35.077889673,100
                135.7633259772,35.0779119064,100
                135.7631614353,35.0779022936,100
                135.7630216197,35.0778810365,100
                135.7628025629,35.0777998348,100
                135.7625767868,35.0776865763,100
                135.7624738525,35.0777025754,100
                135.7620975007,35.0775275415,100
                135.7619915154,35.0777400947,100
                135.7619964407,35.077858772,100
                135.7620966078,35.0778517831,100
                135.7627161144,35.0780855992,100
                135.7628358133,35.0781534396,100
                135.7630766348,35.0783010248,100
                135.763160533,35.0783659084,100
                135.7633558786,35.0785240398,100
                135.7634627057,35.0786974938,100
                135.7634798468,35.078837464,100
                135.7634532308,35.0790902433,100
                135.7633683004,35.0792062833,100
                135.7634138765,35.0792811638,100
                135.763475875,35.0794180511,100
                135.7633353526,35.0799131595,100
                135.7632558248,35.0799066679,100
                135.7632265476,35.0800037294,100
                135.7632997851,35.0800304213,100
                135.7631968075,35.0803374231,100
                135.7630642478,35.0805185155,100
                135.7629382128,35.0806275741,100
                135.7627496504,35.0807690483,100
                135.7626042658,35.0807684864,100
                135.762429741,35.0806976524,100
                135.7623108842,35.0807455233,100
                135.7622258655,35.0807417676,100
                135.7620533251,35.0806883316,100
                135.7620270983,35.0807220151,100
                135.7622512066,35.080889641,100
                135.7623996617,35.0813869972,100
                135.7623888478,35.0814160624,100
                135.762316906,35.0816095258,100
                135.7620536045,35.0822301057,100
                135.7616927673,35.0821933483,100
                135.7616788099,35.0821907859,100
                135.7613562202,35.0820893095,100
                135.7613292363,35.0820810178,100
                135.7613282893,35.0820674941,100
                135.7613262125,35.0820157261,100
                135.7611630462,35.0819862526,100
                135.7609818217,35.0818914592,100
                135.7609819161,35.0818587815,100
                135.7608118141,35.0817390075,100
                135.7607901028,35.0817069917,100
                135.7606811048,35.0816997363,100
                135.7605619305,35.0816711928,100
                135.7603418033,35.0815349817,100
                135.7602715776,35.0814520937,100
                135.7601437347,35.0813702201,100
                135.7601481378,35.0813066337,100
                135.7600949321,35.0812485695,100
                135.7600379506,35.0811185914,100
                135.7598449193,35.081048704,100
                135.7597609531,35.0809702962,100
                135.7597365383,35.0809106672,100
                135.7597660735,35.0807556466,100
                135.7598597608,35.0806656135,100
                135.7599349548,35.080571459,100
                135.7599171017,35.0804348673,100
                135.7599321516,35.0802972137,100
                135.7593472789,35.0804264998,100
                135.7592649548,35.0802913314,100
                135.7593203982,35.0801691092,100
                135.7593532475,35.0800388142,100
                135.7593530279,35.079937118,100
                135.7595385683,35.0798574762,100
                135.7595688498,35.0796889346,100
                135.7596530047,35.0794442973,100
                135.7593981408,35.0793899226,100
                135.759291564,35.0794491546,100
                135.759217901,35.0795106331,100
                135.7590887968,35.079546228,100
                135.7587904046,35.0794208474,100
                135.758733348,35.0794498222,100
                135.7583767927,35.0791456546,100
                135.7584413557,35.0789812652,100
                135.7584913376,35.0787044471,100
                135.7585557834,35.0785647061,100
                135.7584163507,35.0784631597,100
                135.7582369219,35.0785556992,100
                135.7580057672,35.0787077181,100
                135.7578623637,35.0787262398,100
                135.757871116,35.0784650459,100
                135.7579060209,35.078335389,100
                135.7579654598,35.0782383873,100
                135.7580851789,35.0780067094,100
                135.758235829,35.0777662173,100
                135.7583254585,35.0776649091,100
                135.7581870587,35.0774896277,100
                135.7580321765,35.0774648853,100
                135.757768256,35.0778779798,100
                135.757639963,35.0780315382,100
                135.7574274775,35.0781560558,100
                135.7574036823,35.0782581975,100
                135.757020856,35.0782899086,100
                135.7569901747,35.0782499162,100
                135.7570988587,35.0781806206,100
                135.7567926278,35.0778115451,100
                135.7565919588,35.0776045168,100
                135.7564068144,35.077601615,100
                135.7562649072,35.0775853472,100
                135.7560815054,35.0774998383,100
                135.7560337269,35.0774479802,100
                135.7560203519,35.0773720341,100
                135.7559257318,35.0772199374,100
                135.755963152,35.0769875338,100
                135.7560615027,35.07692836,100
                135.7560884904,35.0768772835,100
                135.7561043996,35.076697587,100
                135.7560724639,35.0766334358,100
                135.7558582155,35.076688225,100
                135.7558157229,35.0766813094,100
                135.7557380563,35.0765686843,100
                135.7557064409,35.0764325579,100
                135.7556792618,35.0762307331,100
                135.755506963,35.0762593355,100
                135.755489313,35.0763683209,100
                135.7554131105,35.07668544,100
                135.7553410294,35.0768481223,100
                135.7552367297,35.0768617883,100
                135.7551252971,35.0767821966,100
                135.7550274453,35.0767306605,100
                135.7549543742,35.0766646669,100
                135.7548215464,35.0764630529,100
                135.7546426143,35.0761438058,100
                135.7545757405,35.0760683163,100
                135.7544185572,35.0759401794,100
                135.7542879478,35.0760076687,100
                135.7541620128,35.07610214,100
                135.7540538398,35.0762079858,100
                135.7541612277,35.0762717954,100
                135.7541723522,35.0763904161,100
                135.7542750804,35.0764228061,100
                135.754414563,35.0765182306,100
                135.7543707934,35.0766450514,100
                135.754258081,35.0766929973,100
                135.7540370006,35.0767472768,100
                135.7536663155,35.0768178064,100
                135.7535366949,35.0768190263,100
                135.753331102,35.0767789637,100
                135.7531288479,35.0769186364,100
                135.7529806214,35.0769321418,100
                135.7527235902,35.0768974692,100
                135.7525920797,35.0768576246,100
                135.7525759425,35.0769390753,100
                135.7526807824,35.0769596394,100
                135.7527074034,35.0769883564,100
                135.7526191413,35.0770959311,100
                135.7526886651,35.0771945973,100
                135.7527354828,35.0771520131,100
                135.7528856632,35.0771581608,100
                135.7531177378,35.0772522933,100
                135.7531344783,35.0773405716,100
                135.7531666256,35.0773620457,100
                135.7533060629,35.0773159843,100
                135.7535981121,35.0773434021,100
                135.7540171162,35.0773522693,100
                135.75427131,35.0774054568,100
                135.7544121555,35.0775043349,100
                135.7545459378,35.0776453136,100
                135.754559496,35.0776806941,100
                135.7544560538,35.0778011279,100
                135.7546015569,35.0780837579,100
                135.7545942296,35.0781853678,100
                135.7547404902,35.0782938346,100
                135.7549734581,35.0781896451,100
                135.7551721579,35.0782297618,100
                135.755332295,35.0781583858,100
                135.7554687831,35.078153235,100
                135.7558605612,35.0782665545,100
                135.755943851,35.0783477097,100
                135.7559706739,35.0784832641,100
                135.7559448864,35.0785708229,100
                135.7558413116,35.0787232317,100
                135.755625073,35.0789213352,100
                135.7554856299,35.0791225479,100
                135.7555509356,35.079237403,100
                135.7556458259,35.0791837851,100
                135.7557154135,35.0791104684,100
                135.7558017024,35.078987746,100
                135.7558800387,35.0789549413,100
                135.75613621,35.0790227072,100
                135.7563301499,35.0790509798,100
                135.7565317037,35.0790686338,100
                135.756908613,35.07912734,100
                135.7568635396,35.0792333127,100
                135.7566895538,35.0794843913,100
                135.7565482707,35.079487845,100
                135.7564109403,35.0796772312,100
                135.756590779,35.0797892136,100
                135.7566913643,35.079837795,100
                135.756818087,35.0798697379,100
                135.7568766949,35.0799469707,100
                135.7569682523,35.0800215219,100
                135.7570647428,35.0800645317,100
                135.7572038218,35.0800897371,100
                135.7574844611,35.0799071113,100
                135.7576481042,35.079816161,100
                135.7580243103,35.08002149,100
                135.7582146608,35.0800845431,100
                135.7582825555,35.0800848878,100
                135.7583499055,35.0801980544,100
                135.7584447346,35.0803040216,100
                135.7585225943,35.0803684033,100
                135.758637494,35.0804373648,100
                135.7586698051,35.0804183421,100
                135.7586701991,35.0803346058,100
                135.7587178484,35.0804101259,100
                135.7587086119,35.0804780699,100
                135.7587388803,35.0806018679,100
                135.7588306554,35.0807712829,100
                135.7588002831,35.0808155921,100
                135.7589135821,35.080927228,100
                135.7589341754,35.0809233949,100
                135.7590597959,35.0810401965,100
                135.7590913478,35.0810392019,100
                135.7590716702,35.0811402258,100
                135.7591464497,35.0812776326,100
                135.7592456085,35.0813314216,100
                135.7592896713,35.0813000976,100
                135.7595795918,35.081616385,100
                135.7597644132,35.0816817503,100
                135.7597405002,35.0818108655,100
                135.759833052,35.081956829,100
                135.7598444858,35.0820023462,100
                135.7597986014,35.0821375456,100
                135.7597164004,35.0822619697,100
                135.7595629366,35.0823800567,100
                135.7594702505,35.0824049469,100
                135.7594505477,35.0825070976,100
                135.7596427582,35.0826101546,100
                135.759801545,35.0825253195,100
                135.7599355722,35.0826319956,100
                135.7601162615,35.0824981152,100
                135.7601967149,35.0823629127,100
                135.7602275141,35.0823483241,100
                135.7603476974,35.0823248248,100
                135.7605810767,35.0825082479,100
                135.7606922325,35.0825550156,100
                135.7608298497,35.0825909197,100
                135.7609549387,35.0825889799,100
                135.7610513385,35.0825983222,100
                135.7608982355,35.0827996556,100
                135.7607821555,35.0829522544,100
                135.7607741997,35.082962733,100
                135.7607549162,35.0829872737,100
                135.7607231225,35.0829830567,100
                135.7605412656,35.0829653072,100
                135.760425753,35.0829436021,100
                135.7603953494,35.0829253029,100
                135.7601619567,35.0827679373,100
                135.7600492834,35.0829123032,100
                135.7600121728,35.0829465284,100
                135.759962653,35.0829760807,100
                135.7599511817,35.0829805655,100
                135.7598350897,35.0830259046,100
                135.7596285789,35.0830746587,100
                135.75965442,35.0831080208,100
                135.7597715424,35.0831583228,100
                135.759995034,35.083221298,100
                135.7602222292,35.083285266,100
                135.7602226947,35.0833094232,100
                135.7600468447,35.0834208466,100
                135.7600450321,35.0835140881,100
                135.7601110299,35.0836228144,100
                135.7600184091,35.0839202553,100
                135.759950576,35.0839127281,100
                135.7599097151,35.0839991313,100
                135.7598603544,35.084034023,100
                135.7596256971,35.0840782429,100
                135.7590629497,35.0841357382,100
                135.7590444142,35.0840987418,100
                135.7588789924,35.0840717342,100
                135.7589053481,35.0839817457,100
                135.7588178963,35.083915092,100
                135.7587224083,35.0839530051,100
                135.7587081948,35.0840602372,100
                135.7586300342,35.08406107,100
                135.7585757072,35.0840934296,100
                135.7585099516,35.0840785815,100
                135.7582443886,35.0841270069,100
                135.7581662601,35.0841165718,100
                135.758080776,35.0840730213,100
                135.7579667987,35.0839584954,100
                135.7579309473,35.0838544046,100
                135.7577486119,35.0838464405,100
                135.7577474669,35.083944753,100
                135.7575975477,35.0838964272,100
                135.7574169659,35.0836546499,100
                135.7573196124,35.0833570479,100
                135.7573981943,35.0832702256,100
                135.7574363325,35.0831782539,100
                135.7574426442,35.0828512055,100
                135.7574174652,35.0828112241,100
                135.75724937,35.0826875767,100
                135.7571820754,35.0827086419,100
                135.757117608,35.0830073346,100
                135.7570444393,35.0832565697,100
                135.7570232861,35.0833851266,100
                135.7570280828,35.0835318349,100
                135.7569255447,35.0834685304,100
                135.7568569684,35.083466071,100
                135.7566949977,35.0835030066,100
                135.7566600757,35.083491599,100
                135.7565967691,35.0833947778,100
                135.7563899292,35.083343451,100
                135.7559045456,35.0831802977,100
                135.7556523769,35.0831461331,100
                135.755352784,35.0831349038,100
                135.7551911784,35.0830921159,100
                135.7550056459,35.0830279405,100
                135.7548191549,35.0828755185,100
                135.7547496595,35.0827786135,100
                135.754697486,35.0826401919,100
                135.7546666553,35.0826361162,100
                135.7545333236,35.082701418,100
                135.7544003375,35.0826935462,100
                135.7542321638,35.0825833452,100
                135.7541121969,35.0824249987,100
                135.7535433484,35.0823649839,100
                135.7535592752,35.0824835437,100
                135.7537502639,35.0825556911,100
                135.7539505015,35.0827019448,100
                135.7540240171,35.08282245,100
                135.7541152904,35.0828048854,100
                135.7544142747,35.0829492222,100
                135.7545749696,35.0830464495,100
                135.7546008718,35.0830803058,100
                135.7546290211,35.0832231869,100
                135.7548606416,35.0832526639,100
                135.7550318913,35.0832865278,100
                135.7551530962,35.083324025,100
                135.7552495443,35.0833749943,100
                135.7553670047,35.0834766418,100
                135.7559072077,35.0834983483,100
                135.7563915747,35.083730518,100
                135.7563830224,35.083798462,100
                135.7565614677,35.0839131874,100
                135.7567365579,35.0840038207,100
                135.756927589,35.0840635668,100
                135.7574996623,35.0844455605,100
                135.7575444009,35.0844109283,100
                135.7578238915,35.0846103623,100
                135.7578970815,35.0846465645,100
                135.7580244459,35.0846813242,100
                135.7585114698,35.0847770034,100
                135.7589582622,35.0848242184,100
                135.759376348,35.0848512344,100
                135.7595238525,35.0848320847,100
                135.7597958335,35.0847504283,100
                135.7597532955,35.08517072,100
                135.7593771915,35.0852535113,100
                135.758508474,35.0854147787,100
                135.7580555223,35.0855103037,100
                135.7575826087,35.0856269862,100
                135.7573578716,35.0856949976,100
                135.7570073783,35.0857787481,100
                135.7569132647,35.0858216634,100
                135.7567777677,35.085916049,100
                135.7565337486,35.0859050036,100
                135.7562327152,35.0859218037,100
                135.7556805345,35.0856859081,100
                135.7551972377,35.0856762152,100
                135.754391083,35.085653976,100
                135.7540709448,35.0856488299,100
                135.7537177465,35.0856760125,100
                135.7537109434,35.0858176271,100
                135.7534707396,35.086022299,100
                135.7534921262,35.0861487568,100
                135.7533345472,35.0862774626,100
                135.7531365804,35.0863957352,100
                135.7529539963,35.0864478369,100
                135.752849727,35.0864620647,100
                135.7527112662,35.0864569978,100
                135.7524398957,35.0864306766,100
                135.7521199874,35.0863765795,100
                135.7520062053,35.0863699416,100
                135.7518229849,35.0863982367,100
                135.7515811753,35.0865222634,100
                135.7513080324,35.0865803763,100
                135.7510364128,35.0866015185,100
                135.7508396157,35.0865929513,100
                135.7504961796,35.0865558463,100
                135.7504658412,35.0864089461,100
                135.7503885514,35.0863473775,100
                135.7502999064,35.086401144,100
                135.7505048451,35.0868308032,100
                135.7498717259,35.0872808731,100
                135.7497239276,35.0871819778,100
                135.749584647,35.0874064209,100
                135.7495205823,35.0874843221,100
                135.7493644334,35.0876266146,100
                135.7492182624,35.08765653,100
                135.7490612191,35.0876543081,100
                135.7487740013,35.087619074,100
                135.7484524776,35.0875882048,100
                135.7480170423,35.0879758501,100
                135.7479918721,35.0879200219,100
                135.7479409001,35.08778287,100
                135.7478746564,35.0877099853,100
                135.7474603958,35.0873289827,100
                135.7474078976,35.0872366182,100
                135.7471895274,35.0869322151,100
                135.7471176527,35.0866959322,100
                135.7469816241,35.0865745919,100
                135.7466715074,35.086423382,100
                135.7465303965,35.0863751307,100
                135.7463687083,35.0863386692,100
                135.7462302268,35.0863269034,100
                135.7461383178,35.0863339677,100
                135.7459317111,35.0863900239,100
                135.7457277403,35.0864731983,100
                135.7455253658,35.0864966545,100
                135.7453224388,35.0864836281,100
                135.7453523644,35.0865528495,100
                135.7452972664,35.0866184416,100
                135.7451696852,35.0866286707,100
                135.7450264328,35.0866079511,100
                135.7449449883,35.0865621467,100
                135.7449042136,35.0864619152,100
                135.744960783,35.0863632244,100
                135.7449411799,35.0862810663,100
                135.744864512,35.0862419614,100
                135.7446535211,35.086183914,100
                135.7445426538,35.0861217793,100
                135.7444782145,35.086111433,100
                135.7443824813,35.0860386248,100
                135.7441427264,35.0861615138,100
                135.7439413521,35.0862844822,100
                135.7437448997,35.0863810505,100
                135.7435121726,35.0864538796,100
                135.743284995,35.0865048869,100
                135.7429496636,35.0865099615,100
                135.7425692204,35.0864682485,100
                135.7423758578,35.0864653076,100
                135.7422634943,35.0864373945,100
                135.7421484624,35.0863858828,100
                135.742081457,35.0863327814,100
                135.7420617721,35.0862775961,100
                135.7420685021,35.0861241505,100
                135.7420503647,35.0858256443,100
                135.741965514,35.085587565,100
                135.7418804998,35.0853883614,100
                135.7418162177,35.0853414631,100
                135.7416962258,35.085342831,100
                135.7416488037,35.0853707606,100
                135.7416177077,35.0854313326,100
                135.7415801601,35.0857695835,100
                135.7415890089,35.0859753189,100
                135.7416137696,35.0863339829,100
                135.7415397351,35.0867098325,100
                135.7414773804,35.086883864,100
                135.7414242795,35.0869679102,100
                135.7413644599,35.08701497,100
                135.7412463082,35.087071343,100
                135.7408776985,35.0871701486,100
                135.7406856227,35.0871868572,100
                135.7405833223,35.0872219951,100
                135.7404417249,35.0873169821,100
                135.7403281469,35.0874313252,100
                135.7402611782,35.087552386,100
                135.7402147984,35.0876713771,100
                135.7402007501,35.0877667739,100
                135.740138986,35.0879081992,100
                135.7401792138,35.088093221,100
                135.7402771585,35.0882670969,100
                135.7404271547,35.0884615065,100
                135.7406563576,35.0887395358,100
                135.7409575163,35.0889051767,100
                135.7412263755,35.0889466599,100
                135.7413352838,35.0891228109,100
                135.7413263815,35.0892513889,100
                135.741204801,35.0894041678,100
                135.741001417,35.0894464185,100
                135.7405424518,35.0895304558,100
                135.7401435914,35.0896756066,100
                135.7399137627,35.0900513337,100
                135.7397940703,35.090366587,100
                135.7394449186,35.0904577547,100
                135.7390851514,35.0904700923,100
                135.7388269585,35.0904894749,100
                135.7387039346,35.0903898441,100
                135.738634843,35.090475335,100
                135.7386012828,35.0905901983,100
                135.7386034289,35.0907051373,100
                135.7386824859,35.0908158022,100
                135.7393792302,35.0909422136,100
                135.7396175601,35.0910490595,100
                135.7402472475,35.0914073048,100
                135.7405040819,35.0916539128,100
                135.7429544685,35.0908866232,100
                135.7431617788,35.0911556569,100
                135.7434431147,35.0914473808,100
                135.743700378,35.091612782,100
                135.7440047508,35.0916927837,100
                135.7444294795,35.0918655023,100
                135.74480978,35.092137286,100
                135.7453186272,35.0924518701,100
                135.7454037838,35.0925045126,100
                135.7457977375,35.0927966033,100
                135.7463363482,35.0932649827,100
                135.7467022849,35.0936720164,100
                135.7472762948,35.0942037044,100
                135.7476283617,35.0946466949,100
                135.7478570921,35.0950374582,100
                135.748009781,35.0952566516,100
                135.7482665383,35.0955178888,100
                135.7486200286,35.0956620663,100
                135.7493507738,35.0958074335,100
                135.7495359641,35.0958712631,100
                135.7497768976,35.0962315542,100
                135.7499104283,35.096341899,100
                135.7501075591,35.0964105409,100
                135.7507142176,35.0967334011,100
                135.750819488,35.0968962258,100
                135.7509524613,35.0971927016,100
                135.751070369,35.0973706926,100
                135.7511835323,35.0974090922,100
                135.7516417974,35.0974226933,100
                135.7520277898,35.0974911497,100
                135.7522645867,35.0975212054,100
                135.7524291027,35.097602032,100
                135.7525627155,35.0977369532,100
                135.7527885632,35.0979829078,100
                135.7530146571,35.0981399164,100
                135.7532615099,35.0982462602,100
                135.7539773825,35.0982096638,100
                135.754450124,35.0986521017,100
                135.7549231898,35.0988857992,100
                135.7554535278,35.0988996008,100
                135.7555976838,35.0989125641,100
                135.7558240235,35.0989892132,100
                135.7560608416,35.0990065143,100
                135.7562823586,35.0989816,100
                135.7564422019,35.0989057867,100
                135.7565867701,35.0987790251,100
                135.7567279338,35.0985857764,100
                135.7573473754,35.0980707816,100
                135.7575227361,35.0979695034,100
                135.7575647493,35.0976902094,100
                135.757806739,35.0974112383,100
                135.7579926811,35.097221174,100
                135.7578848038,35.0971320854,100
                135.7577977082,35.0969838099,100
                135.7577525829,35.0966870902,100
                135.7576915588,35.096428792,100
                135.7577127903,35.0962088248,100
                135.7576259429,35.0959758282,100
                135.757580132,35.0957896048,100
                135.7575295378,35.0954889299,100
                135.7593206495,35.094061756,100
                135.7596179754,35.0944254463,100
                135.7598748024,35.0946459583,100
                135.7602704133,35.0949430128,100
                135.7606713424,35.0951934562,100
                135.7609641775,35.095422629,100
                135.7610720208,35.0955243936,100
                135.7612245835,35.0956143431,100
                135.7618985768,35.0958146084,100
                135.7625418195,35.0959597381,100
                135.7627680362,35.0960787034,100
                135.7629686703,35.0961467711,100
                135.7630868474,35.0962316506,100
                135.7632360211,35.0962869421,100
                135.7634332678,35.0962818313,100
                135.7637063041,35.0962315821,100
                135.7639336304,35.0959696167,100
                135.764191194,35.0959363096,100
                135.764206374,35.0960293705,100
                135.7643500609,35.09619895,100
                135.7646173628,35.0963645413,100
                135.7648912239,35.0965670467,100
                135.7650636567,35.0967459056,100
                135.765332761,35.0970250244,100
                135.76542291,35.0972125978,100
                135.7656808554,35.0977493789,100
                135.7657369687,35.0979357611,100
                135.7657466145,35.0981684639,100
                135.7660343021,35.0983563443,100
                135.7665701368,35.0982515894,100
                135.7664613293,35.0984883619,100
                135.7665532598,35.0987593923,100
                135.7665270918,35.0989074462,100
                135.7666713909,35.0992052669,100
                135.7668143587,35.0996415404,100
                135.766932412,35.0997813469,100
                135.7670339448,35.0999456309,100
                135.7670997366,35.1003562626,100
                135.7670884422,35.1007159018,100
                135.7671753695,35.1009319906,100
                135.7673704023,35.1016352719,100
                135.76740039,35.1019569589,100
                135.7674976246,35.1021729254,100
                135.767719356,35.1025328657,100
                135.7677806191,35.1027192551,100
                135.7678052663,35.1031128367,100
                135.7678513684,35.1031975753,100
                135.7685822756,35.1033301595,100
                135.7687161411,35.1033346372,100
                135.7691845016,35.1034286232,100
                135.7693074026,35.1034042937,100
                135.7693751509,35.1033908825,100
                135.7696419411,35.1038277392,100
                135.7697806504,35.1039465265,100
                135.7700944938,35.1040528948,100
                135.7704595924,35.1042483053,100
                135.7705519395,35.104375385,100
                135.7705822702,35.1045701683,100
                135.7705606545,35.1049383127,100
                135.7706642116,35.1051256272,100
                135.7708851217,35.1053164712,100
                135.7709924601,35.1056087259,100
                135.771063608,35.1059558465,100
                135.771176606,35.1060618363,100
                135.7714275575,35.1061212508,100
                135.7716129298,35.1061342739,100
                135.7717003401,35.1061809877,100
                135.7717715159,35.1065197263,100
                135.7719817764,35.1068375267,100
                135.7720637169,35.1070027568,100
                135.7720631896,35.1071931864,100
                135.7719945468,35.1074012359,100
                135.7718858182,35.107616817,100
                135.7718032204,35.1076886378,100
                135.7719473374,35.1077143302,100
                135.7720757607,35.1078372519,100
                135.7723124325,35.1079181192,100
                135.7725333182,35.1081217089,100
                135.7728725237,35.1083762268,100
                135.7730988815,35.1084612989,100
                135.7736091721,35.1085904934,100
                135.7739437865,35.1086461163,100
                135.7742630846,35.1086467083,100
                135.7746339681,35.1086178172,100
                135.7748814369,35.1085209456,100
                135.7752012654,35.1083268104,100
                135.7753712332,35.1083022631,100
                135.7756492823,35.1083196775,100
                135.7761996996,35.1085535165,100
                135.7764928634,35.108702159,100
                135.7766367212,35.1088251736,100
                135.7767702731,35.1089566207,100
                135.7769348453,35.1090415738,100
                135.7772231465,35.1090801302,100
                135.7775372236,35.1091103535,100
                135.7775641987,35.1092454779,100
                135.7777489604,35.1094870221,100
                135.7780261368,35.1098303567,100
                135.7782704187,35.1106466074,100
                135.7785121101,35.1107867702,100
                135.7787228045,35.1109563845,100
                135.7788100417,35.1110792939,100
                135.7788291569,35.1111817973,100
                135.7787203405,35.1114271033,100
                135.7786846127,35.1116867661,100
                135.7787532744,35.1118736564,100
                135.7788307697,35.1121620461,100
                135.7787514042,35.1122755685,100
                135.7785731318,35.1124213761,100
                135.7784046061,35.1126241055,100
                135.7784229433,35.1131519024,100
                135.7784915184,35.1133712596,100
                135.7784711745,35.1135904559,100
                135.7785301344,35.1137204964,100
                135.7788261535,35.1138834336,100
                135.7791023982,35.1140544332,100
                135.7792799114,35.1141846893,100
                135.7793701434,35.1146231773,100
                135.779606165,35.1150458716,100
                135.7799405321,35.11566361,100
                135.7799695797,35.1158828953,100
                135.7798602306,35.1161262969,100
                135.7797606062,35.1164265494,100
                135.7797292637,35.1166651638,100
                135.7800746199,35.1168687515,100
                135.7804100356,35.1170886599,100
                135.7807537101,35.1179174764,100
                135.7810476137,35.1188842353,100
                135.7810368904,35.1190652086,100
                135.7810269297,35.1192333649,100
                135.7812531784,35.1196316726,100
                135.7813013826,35.1200864249,100
                135.7813696013,35.1204519865,100
                135.7815934451,35.1207962066,100
                135.781395036,35.1210800891,100
                135.7813249577,35.1214209639,100
                135.7814918754,35.1218272682,100
                135.7817279653,35.1222417945,100
                135.7819745625,35.122420906,100
                135.7823097016,35.1227625057,100
                135.782516507,35.1230390138,100
                135.7828908215,35.1235106172,100
                135.7831892811,35.1237796816,100
                135.7834232443,35.1239905989,100
                135.7836300368,35.1242833024,100
                135.7843204663,35.1248123645,100
                135.7844883005,35.1248856929,100
                135.7847485944,35.1248647438,100
                135.7852751815,35.1247658826,100
                135.7854440759,35.124688572,100
                135.7856332565,35.1245891129,100
                135.7858153037,35.1246448582,100
                135.7859027607,35.1247502985,100
                135.7859494858,35.1249444736,100
                135.7862727654,35.1252018142,100
                135.7865715592,35.1254977042,100
                135.7869107695,35.1256132342,100
                135.7870300496,35.1258267625,100
                135.7869695791,35.126039976,100
                135.7869286982,35.1264009052,100
                135.7871673046,35.1268115532,100
                135.7874261202,35.1271237802,100
                135.7875453619,35.1273537882,100
                135.7876841529,35.1277478509,100
                135.7877629846,35.1281582174,100
                135.7879221754,35.1283882282,100
                135.7881551791,35.1285911827,100
                135.7882808646,35.1287006343,100
                135.7883598283,35.1290618511,100
                135.7884588914,35.1293738039,100
                135.788777052,35.1299158701,100
                135.7889162341,35.1301622539,100
                135.7891380069,35.1313968694,100
                135.7891769443,35.1317907638,100
                135.7892161563,35.1320697923,100
                135.7894152231,35.1323326877,100
                135.7899139665,35.1325632811,100
                135.7901532782,35.1327113775,100
                135.7902525638,35.1329412808,100
                135.7902121545,35.1331217143,100
                135.7900715815,35.1334169125,100
                135.7901704479,35.1338109086,100
                135.7904997565,35.1351459885,100
                135.7909956874,35.1364924776,100
                135.7916120013,35.1376422413,100
                135.7916708546,35.1380689803,100
                135.7918100638,35.1383153537,100
                135.7920892483,35.1384963286,100
                135.7926275833,35.1388910593,100
                135.7930458845,35.1393677007,100
                135.7936247549,35.1395327662,100
                135.7936025635,35.1399750003,100
                135.7936615524,35.140352509,100
                135.7937801016,35.1408778698,100
                135.7939589684,35.1412391699,100
                135.7941776497,35.1416661725,100
                135.7943163849,35.1421094494,100
                135.7945154785,35.1423723977,100
                135.7948344149,35.1426518838,100
                135.7952926035,35.143161327,100
                135.7955512504,35.1435883923,100
                135.795729729,35.1441138482,100
                135.7966100856,35.1445739808,100
                135.7973882092,35.1449690826,100
                135.7976275316,35.1451336425,100
                135.7979065053,35.145413063,100
                135.798445346,35.1456272747,100
                135.7986453971,35.1455127393,100
                135.7991247878,35.1455299379,100
                135.7998237272,35.1456295413,100
                135.8006623907,35.1457785967,100
                135.8012411952,35.1459928617,100
                135.8015806303,35.1460590503,100
                135.8019601193,35.1460924847,100
                135.8024595309,35.1460932933,100
                135.8028591336,35.1460611201,100
                135.8033582533,35.1461931992,100
                135.8038787103,35.1457345749,100
                135.8042589378,35.1454562258,100
                135.8045188519,35.1453581859,100
                135.8050929455,35.1453098745,100
                135.8055128677,35.1451300408,100
                135.8057726636,35.1450812266,100
                135.8061523435,35.1450326009,100
                135.8065924301,35.1447707497,100
                135.8068126367,35.144574188,100
                135.8070329742,35.1443119887,100
                135.8072929426,35.1441974638,100
                135.8078126617,35.1440505988,100
                135.8080734645,35.14357514,100
                135.8084344309,35.1429685638,100
                135.8086746056,35.1427720285,100
                135.8091344239,35.1426086542,100
                135.8091562569,35.1418045635,100
                135.8093368388,35.1414602506,100
                135.8095406492,35.1406717957,100
                135.8097613674,35.1402454962,100
                135.8099021059,35.1398518195,100
                135.8100233347,35.1392448632,100
                135.8101240811,35.1388676039,100
                135.8102849786,35.1383919112,100
                135.8105066649,35.137538968,100
                135.8106183878,35.1370459438,100
                135.8106479219,35.13691563,100
                135.8110481532,35.1365879849,100
                135.8118479156,35.1362446145,100
                135.8127070193,35.1361474629,100
                135.8130120268,35.1357380526,100
                135.8132322685,35.1355086605,100
                135.8134720184,35.1354762037,100
                135.8136121375,35.1353451433,100
                135.8136326297,35.1351154496,100
                135.8135731863,35.1349020434,100
                135.8131756048,35.134064518,100
                135.8129365059,35.1338016135,100
                135.8125780294,35.1333416196,100
                135.8125187009,35.1330789864,100
                135.8125590959,35.1328821408,100
                135.8128196665,35.1324722409,100
                135.8130961651,35.131394669,100
                135.8130766895,35.1311649142,100
                135.8128183145,35.1306065486,100
                135.8128192424,35.1301963261,100
                135.8128807205,35.1295072426,100
                135.8128812771,35.1292611097,100
                135.812722308,35.128899801,100
                135.8126030262,35.1286534855,100
                135.8126020695,35.1286311588,100
                135.8125840564,35.128210414,100
                135.8126203377,35.1277701675,100
                135.8127810202,35.1273765908,100
                135.8128416497,35.1270648378,100
                135.8129424277,35.1266547609,100
                135.8129832336,35.1262774113,100
                135.8129044883,35.1257850164,100
                135.8129053496,35.1254075357,100
                135.8119912984,35.1238457179,100
                135.8116095398,35.1233796193,100
                135.8115644553,35.1230146732,100
                135.8113970752,35.1225489014,100
                135.8111065161,35.1223849267,100
                135.8107085972,35.1222962109,100
                135.8104177564,35.1222454783,100
                135.8102960285,35.1219181618,100
                135.8099602618,35.121439591,100
                135.8099151373,35.1210872508,100
                135.8100077514,35.1207728007,100
                135.8095189526,35.1202562424,100
                135.8094124998,35.1199415537,100
                135.8092296834,35.119538646,100
                135.8089395379,35.1191985317,100
                135.8087417229,35.1186572161,100
                135.8086964214,35.118380374,100
                135.8089158653,35.1182687411,100
                135.809298903,35.118168701,100
                135.8094831085,35.1179676429,100
                135.8099122632,35.11777964,100
                135.8100044615,35.1176413267,100
                135.8100509294,35.1174023753,100
                135.8103430579,35.1168744267,100
                135.8104207986,35.1163586817,100
                135.8104058736,35.1161951311,100
                135.8101922404,35.1158802812,100
                135.8101780423,35.1155127101,100
                135.8100411404,35.1151224821,100
                135.8100419777,35.1147576104,100
                135.8097681243,35.1140023665,100
                135.8097994654,35.1136878258,100
                135.8099996776,35.1131723408,100
                135.8100465392,35.1127697918,100
                135.809985881,35.1125180685,100
                135.8098792933,35.1122537372,100
                135.8096795416,35.1121315213,100
                135.8092816901,35.1120427995,100
                135.8091287831,35.1119544597,100
                135.8090376338,35.111639798,100
                135.8088940323,35.1112257494,100
                135.8088034965,35.1106594507,100
                135.8085592178,35.1103570808,100
                135.8082694279,35.1098911105,100
                135.8084541191,35.109476235,100
                135.8084090036,35.1091238923,100
                135.8084563164,35.108532666,100
                135.8085819911,35.1081021352,100
                135.8084449468,35.1077748604,100
                135.8083690403,35.1074978968,100
                135.8083391283,35.107195931,100
                135.8081253807,35.1069439632,100
                135.8079422811,35.1066794367,100
                135.8079583119,35.1063649376,100
                135.8081729291,35.106252028,100
                135.8085105433,35.105900284,100
                135.8086952544,35.1054728017,100
                135.8087263878,35.1052589647,100
                135.8086517403,35.1044410573,100
                135.808610251,35.1041883724,100
                135.8086567694,35.1039368119,100
                135.808611334,35.1037228565,100
                135.807924967,35.1034778962,100
                135.807686515,35.1034339292,100
                135.807063186,35.1036072554,100
                135.8063736473,35.103747726,100
                135.8060021013,35.1039432059,100
                135.8051805435,35.1038656332,100
                135.8048755212,35.1039414189,100
                135.8044116495,35.1039406801,100
                135.8043866499,35.1033089163,100
                135.8039631701,35.1030359739,100
                135.8035392998,35.102937263,100
                135.8032323186,35.1028742329,100
                135.8028353917,35.1025904127,100
                135.8022136782,35.1020884036,100
                135.801869447,35.1019353752,100
                135.8014197638,35.1015534337,100
                135.8004248689,35.1019221188,100
                135.7996953816,35.1021496727,100
                135.7994702291,35.1020839497,100
                135.7981203796,35.1012648661,100
                135.7970488108,35.1004679916,100
                135.7966374258,35.1005280163,100
                135.7963208251,35.1007150334,100
                135.7958634582,35.1010030186,100
                135.7954759412,35.101449856,100
                135.7952994346,35.1017959851,100
                135.7949474397,35.1020840711,100
                135.7945424526,35.1024875658,100
                135.7944542065,35.1026606642,100
                135.794434843,35.1033823544,100
                135.7943465215,35.1035843283,100
                135.7936961967,35.1037564109,100
                135.7933097589,35.1037701961,100
                135.7929237358,35.1036107335,100
                135.7927133099,35.1034660749,100
                135.7916797173,35.1023961043,100
                135.7912938845,35.1021645216,100
                135.7910481317,35.1021063539,100
                135.7904510636,35.1020620217,100
                135.7901530157,35.1018450229,100
                135.7899776802,35.1017292243,100
                135.7896440788,35.1016853399,100
                135.7893981091,35.101713792,100
                135.7891165985,35.1019009905,100
                135.7887500055,35.1010198276,100
                135.7885400372,35.1007018458,100
                135.7883478072,35.1003262862,100
                135.7883677167,35.1001058886,100
                135.7884780071,35.0999705105,100
                135.7886005751,35.0998000809,100
                135.7886193757,35.0996194712,100
                135.7884852438,35.0995288841,100
                135.7880647998,35.0991617324,100
                135.7876618924,35.0990908208,100
                135.7872096727,35.0992104631,100
                135.7870811686,35.0993055965,100
                135.7868121964,35.0994004853,100
                135.7864646066,35.0992040956,100
                135.7863244887,35.0990683535,100
                135.7860865218,35.0989876518,100
                135.7857628076,35.099002157,100
                135.7851574668,35.0992821648,100
                135.784913054,35.0993319491,100
                135.7847231911,35.0992715431,100
                135.7845272268,35.0991932358,100
                135.7843097854,35.0990953823,100
                135.7840620193,35.0990507171,100
                135.7836977703,35.0990340842,100
                135.7832542898,35.0990698473,100
                135.7827585348,35.0991071365,100
                135.7825471317,35.0991652121,100
                135.7819908539,35.0988300501,100
                135.7818594651,35.0987908693,100
                135.7815775491,35.0986184563,100
                135.7812221255,35.0983438646,100
                135.7810790134,35.0980162709,100
                135.7810081412,35.0979134641,100
                135.7808833279,35.0978352786,100
                135.7807304015,35.0977995804,100
                135.780579639,35.0977479687,100
                135.7802391142,35.0977296789,100
                135.779844289,35.0976611479,100
                135.7795966147,35.0975845709,100
                135.7792176785,35.0974226114,100
                135.7790905231,35.097411747,100
                135.7783112139,35.0974066012,100
                135.7782271816,35.0973958148,100
                135.778042074,35.0972910371,100
                135.7777605732,35.0970800938,100
                135.7775369385,35.0968760877,100
                135.7773002204,35.0967338203,100
                135.7768097807,35.0964241807,100
                135.7766028968,35.0964043637,100
                135.7763421128,35.0963932524,100
                135.7758212487,35.0963403225,100
                135.7756100836,35.0963115542,100
                135.7753881981,35.0962704398,100
                135.7750688687,35.0961881587,100
                135.7749353904,35.0961241781,100
                135.7749035316,35.0959522824,100
                135.7749250055,35.0955389984,100
                135.7748930104,35.095409709,100
                135.7748242609,35.0953333819,100
                135.7747199241,35.0952670615,100
                135.7745241872,35.0951195819,100
                135.7744338762,35.0950396935,100
                135.7743089923,35.0949827712,100
                135.7741237755,35.0949293278,100
                135.7739192092,35.0948545095,100
                135.773616659,35.0947097163,100
                135.7735629825,35.0946369369,100
                135.7737486088,35.0945398817,100
                135.7739299882,35.0944215501,100
                135.7740552646,35.0943260734,100
                135.7743456105,35.0941701223,100
                135.7741483743,35.093921506,100
                135.7739423692,35.0935898402,100
                135.7737940488,35.093440684,100
                135.7736312465,35.0932603032,100
                135.7735669782,35.0931131342,100
                135.7734917365,35.0930386246,100
                135.7733433318,35.0929285548,100
                135.7731496921,35.0928006528,100
                135.7730916722,35.0927349783,100
                135.773040052,35.0925062085,100
                135.7728805532,35.0920996233,100
                135.7726771145,35.0916562646,100
                135.772600293,35.0913779375,100
                135.7723663054,35.0910776983,100
                135.7722310661,35.0908789845,100
                135.7719805512,35.0905451214,100
                135.7716877615,35.0899062341,100
                135.7715791868,35.0896790475,100
                135.7714446397,35.0895649191,100
                135.7713113981,35.089428326,100
                135.7711632987,35.0892030381,100
                135.7707968109,35.0887267666,100
                135.7707615916,35.0886668388,100
                135.7705595949,35.0884520853,100
                135.7703852978,35.0883525293,100
                135.7702420556,35.0882545801,100
                135.770102307,35.0881250875,100
                135.7700551419,35.0880398542,100
                135.7700663192,35.0878946572,100
                135.7700449718,35.087822007,100
                135.7699028503,35.0875677848,100
                135.7698794455,35.0874649906,100
                135.7698339069,35.0871415091,100
                135.7698732252,35.0869591783,100
                135.7698714217,35.0868298733,100
                135.7698373344,35.0866862818,100
                135.7695571903,35.0866698406,100
                135.769464328,35.0867423462,100
                135.7692613662,35.0868693662,100
                135.7690455432,35.0869841774,100
                135.7688535526,35.0870475522,100
                135.7687069276,35.0870501645,100
                135.768478755,35.0869540968,100
                135.7683361613,35.0870777778,100
                135.7682152744,35.0871448766,100
                135.7680879824,35.0871889355,100
                135.7678497292,35.0870594659,100
                135.7675892339,35.0869562221,100
                135.7674017486,35.0869558676,100
                135.7672442375,35.0870210655,100
                135.766720854,35.086881969,100
                135.7664129373,35.0867787743,100
                135.766184589,35.0867463672,100
                135.7661133548,35.0867888387,100
                135.7658501298,35.0868874971,100
                135.7656562801,35.0869486099,100
                135.7651580949,35.0870645653,100
                135.7647028539,35.0872337736,100
                135.7645633708,35.0871725879,100
                135.764423558,35.0870766818,100
                135.7639358511,35.0866782659,100
                135.7635540572,35.0864569584,100
                135.7632395557,35.0863136703,100
                135.763755887,35.0855432139,100
                135.7628894545,35.0851399052,100
                135.7630437529,35.0851191446,100
                135.7633655198,35.0849665167,100
                135.7642720516,35.0848202928,100
                135.7643942149,35.0847941171,100
                135.7645617409,35.0846411904,100
                135.764709553,35.0846414733,100
                135.7648314459,35.0847103721,100
                135.764927792,35.0847316836,100
                135.7650564321,35.0846949562,100
                135.7651658038,35.0846475564,100
                135.7652621589,35.0846583758,100
                135.7654227038,35.0847010073,100
                135.7655191036,35.0846958393,100
                135.7657509131,35.0845324696,100
                135.765892448,35.0844799189,100
                135.7660660073,35.0844644043,100
                135.7662779878,35.0844964277,100
                135.766605405,35.0846080413,100
                135.766727469,35.0846241187,100
                135.7668496759,35.0845820947,100
                135.7670106216,35.0844820424,100
                135.7669597069,35.0843075711,100
                135.7667734314,35.0842755256,100
                135.7665937747,35.084174757,100
                135.7665361519,35.0841006301,100
                135.7665235096,35.084026729,100
                135.7665879739,35.0839528329,100
                135.7665302475,35.08391575,100
                135.7663563395,35.0840633847,100
                135.7662017883,35.0841740123,100
                135.7660153187,35.084210632,100
                135.7658033105,35.0841891704,100
                135.765430775,35.0841197243,100
                135.76519353,35.0839343322,100
                135.7649036947,35.084166256,100
                135.7647812714,35.0842770137,100
                135.7644984461,35.0843028822,100
                135.7642735261,35.0843024512,100
                135.7639972869,35.0842649481,100
                135.7636376089,35.084200802,100
                135.7635414208,35.0841320224,100
                135.7634642917,35.0841318741,100
                135.7631362089,35.0842473754,100
                135.7628791455,35.0842522318,100
                135.7627314618,35.0842149026,100
                135.7622079028,35.084056419,100
                135.7624266823,35.0832558824,100
                135.7626727433,35.082634775,100
                135.7629043711,35.0825347946,100
                135.7630134222,35.0825985294,100
                135.7631036739,35.0825035575,100
                135.76300101,35.0824452579,100
                135.7629884928,35.0823288889,100
                135.7632788304,35.0819279479,100
                135.7633879434,35.0819703434,100
                135.7634329573,35.0819652185,100
                135.7634713893,35.0820075482,100
                135.7635999446,35.0819919507,100
                135.7636640994,35.0820343298,100
                135.7637155484,35.0820185823,100
                135.7640236767,35.082130166,100
                135.7640946431,35.0820298743,100
                135.7639150552,35.0819079737,100
                135.7640504773,35.081744492,100
                135.7642047254,35.0817394361,100
                135.7642819353,35.0817026099,100
                135.7643594231,35.0815759217,100
                135.7645264999,35.0815710298,100
                135.7645198484,35.0816502461,100
                135.7646930265,35.0817667817,100
                135.7647703784,35.0816877007,100
                135.7648860378,35.0816879219,100
                135.7650528946,35.08176747,100
                135.765104478,35.0817041844,100
                135.7650210971,35.0816512053,100
                135.7649827393,35.0815824663,100
                135.7648734855,35.0815822574,100
                135.7647515075,35.0815449803,100
                135.7646809713,35.0814868141,100
                135.7645652543,35.0815076494,100
                135.7643789547,35.0814862355,100
                135.7642634565,35.0814224901,100
                135.7642187944,35.0813114819,100
                135.7641099626,35.0811633074,100
                135.764167933,35.0811211629,100
                135.7644249259,35.0811375021,100
                135.7644189206,35.0809895948,100
                135.7640658135,35.0808726442,100
                135.7644269405,35.0804294398,100
                135.7646267927,35.0802026274,100
                135.7648607399,35.0800494787,100
                135.7649487023,35.0799918935,100
                135.7653599278,35.0799979618,100
                135.7663867728,35.0804648716,100
                135.7665471164,35.080576168,100
                135.7667012059,35.0806187163,100
                135.7671122476,35.0806987258,100
                135.7671697717,35.0808151785,100
                135.7675101735,35.0808739243,100
                135.7675104107,35.0807894133,100
                135.7677353417,35.0807673725,100
                135.7678763802,35.0808891241,100
                135.7681910382,35.0809637358,100
                135.7682621166,35.0808211862,100
                135.768551065,35.0809063125,100
                135.7688080127,35.0809384883,100
                135.7689107673,35.0809650907,100
                135.7689747701,35.081055005,100
                135.769090324,35.0810922663,100
                135.7693216452,35.0810979121,100
                135.7695977744,35.0811724472,100
                135.7700342902,35.0813370769,100
                135.7703734665,35.0816010333,100
                135.770559239,35.0818128001,100
                135.7706163523,35.0820717928,100
                135.7707380772,35.0822093514,100
                135.7710460853,35.0823685245,100
                135.7711223957,35.082664527,100
                135.7711219287,35.0828336199,100
                135.7712632749,35.0828390944,100
                135.7713597522,35.0828128645,100
                135.771372778,35.0827495751,100
                135.7712321825,35.0824639462,100
                135.7709757254,35.0822521209,100
                135.7709955867,35.0820407379,100
                135.7710343571,35.0819615801,100
                135.7711760027,35.0818667684,100
                135.7713493215,35.0819357563,100
                135.7714329247,35.0819095018,100
                135.7717217581,35.0820315246,100
                135.7721006564,35.0821220196,100
                135.7723511535,35.0821648118,100
                135.7724278242,35.0820644988,100
                135.7724479042,35.0820382248,100
                135.7724546931,35.081906048,100
                135.7722104987,35.0819003817,100
                135.7721338799,35.0817311454,100
                135.7721918616,35.0816677997,100
                135.7721342285,35.0816043085,100
                135.7719542657,35.0816145388,100
                135.7717998024,35.0816987637,100
                135.7715943108,35.0816455626,100
                135.7714682979,35.0815559582,100
                135.7711823778,35.0813804873,100
                135.7710735682,35.0812270373,100
                135.7709002076,35.0811738244,100
                135.7706622845,35.0812315535,100
                135.7703422081,35.0807923411,100
                135.7699956355,35.0806332348,100
                135.7698413314,35.0806593558,100
                135.7698353179,35.0805113092,100
                135.7698676353,35.080442703,100
                135.7701640786,35.0801421155,100
                135.7703183888,35.0801054307,100
                135.7706403564,35.0798682018,100
                135.7707818513,35.0798262099,100
                135.7710519109,35.079763329,100
                135.7712706243,35.0796791541,100
                135.7712385997,35.0796421918,100
                135.7707244115,35.0796781368,100
                135.7701003764,35.0799358588,100
                135.7699328924,35.080088793,100
                135.769586074,35.0800194779,100
                135.7695216746,35.0800721769,100
                135.7695279809,35.0801145149,100
                135.7688660289,35.0802724349,100
                135.7686156046,35.0801980174,100
                135.7682429586,35.080181469,100
                135.7680373125,35.0801864329,100
                135.7678379427,35.0802440878,100
                135.7677542362,35.0803073849,100
                135.7675486479,35.0802911498,100
                135.7674905907,35.0803650575,100
                135.7674326892,35.0803913578,100
                135.7674330008,35.0802803666,100
                135.7674848336,35.0801272171,100
              </coordinates>
            </LinearRing>
          </outerBoundaryIs>
        </Polygon>
      </Placemark>
    </Document>
  </Document>
</kml>
