<?xml version="1.0" encoding="UTF-8"?>
<kml xmlns="http://www.opengis.net/kml/2.2">
  <Document id="root_doc">
    <Document id="_4_01_________disv4326">
      <name>14_01岩倉北disv4326</name>
      <Placemark id="_4_01_________disv4326.1">
        <visibility>1</visibility>
        <Polygon>
          <extrude>0</extrude>
          <outerBoundaryIs>
            <LinearRing>
              <coordinates>
                135.78011603,35.0771856434,100
                135.779977884,35.0770348226,100
                135.7798842331,35.0768964069,100
                135.7799241774,35.0767581614,100
                135.7801225725,35.0765916764,100
                135.7804892591,35.0763930273,100
                135.7816534685,35.0758703578,100
                135.7822313594,35.0762659877,100
                135.7824195777,35.0761971625,100
                135.7826026021,35.0762219255,100
                135.782686396,35.076348138,100
                135.7828693365,35.0763972687,100
                135.7832453687,35.0764142735,100
                135.7833136828,35.076317064,100
                135.783384346,35.0762477487,100
                135.7834883216,35.0762234938,100
                135.7834627277,35.0757882814,100
                135.7833365955,35.0746096068,100
                135.7842204326,35.0734315161,100
                135.7833212428,35.073417536,100
                135.7812501923,35.0733854071,100
                135.7809700435,35.0732268701,100
                135.7810657211,35.0731323165,100
                135.7812603437,35.0729626541,100
                135.7812938509,35.0721282276,100
                135.7813629337,35.0720562337,100
                135.781104541,35.0718326572,100
                135.7809759299,35.0717836308,100
                135.7808670386,35.0717689492,100
                135.7807276451,35.0717792364,100
                135.7805385158,35.0718184091,100
                135.7803974958,35.0718379121,100
                135.7802885767,35.0718337661,100
                135.7801332442,35.0718137326,100
                135.7797108049,35.0717442961,100
                135.7797108327,35.0717801645,100
                135.7796957053,35.072758856,100
                135.7790196357,35.0727355266,100
                135.7757686798,35.0726229303,100
                135.7750433333,35.0726558998,100
                135.7723203384,35.0722801511,100
                135.7706988237,35.071988669,100
                135.770454171,35.0721118108,100
                135.7702795811,35.0722077567,100
                135.7702229574,35.0723003329,100
                135.7702228282,35.0723467425,100
                135.77038515,35.0725427612,100
                135.7713524424,35.0730360696,100
                135.7724170228,35.0737672405,100
                135.7730078122,35.0738951737,100
                135.7734000675,35.0737849075,100
                135.774080372,35.0740714608,100
                135.7738415593,35.0744567449,100
                135.7737443841,35.074757779,100
                135.7733848277,35.0746567582,100
                135.7733593181,35.0745880443,100
                135.7732951643,35.0745456005,100
                135.7732568178,35.0744715814,100
                135.7729617075,35.0743072241,100
                135.7729040667,35.0742330987,100
                135.7725765423,35.0741743187,100
                135.7722679103,35.074215931,100
                135.7720485924,35.0745167375,100
                135.7721249395,35.0747969648,100
                135.7720091687,35.0748337233,100
                135.7718432818,35.0744053647,100
                135.7718627675,35.0743367358,100
                135.771722144,35.0740670233,100
                135.7717736304,35.0740353561,100
                135.7709659875,35.0733310708,100
                135.7706899403,35.0733521053,100
                135.7705617754,35.0732251692,100
                135.7705234768,35.0731351638,100
                135.7703888654,35.073023991,100
                135.7690519547,35.0731693798,100
                135.7686722808,35.0733800858,100
                135.7677585623,35.0738381049,100
                135.7677774866,35.0739701905,100
                135.7677324164,35.0739965146,100
                135.7677408931,35.0741123814,100
                135.7677571646,35.0743348184,100
                135.7675722509,35.0743973599,100
                135.7675270544,35.0744765035,100
                135.7675584642,35.074730239,100
                135.7675390255,35.0747882335,100
                135.7674617642,35.0748462588,100
                135.7675443049,35.075195166,100
                135.7677045585,35.0753112499,100
                135.7676574764,35.0754210259,100
                135.7675117194,35.0753589165,100
                135.7672290903,35.075326689,100
                135.7672358715,35.0751999345,100
                135.7673525928,35.0748196423,100
                135.7670958145,35.0747345738,100
                135.7670182534,35.0748982389,100
                135.7668511702,35.0749032738,100
                135.7669729356,35.0750197792,100
                135.7667398557,35.0756352853,100
                135.766565075,35.0760968794,100
                135.7668089179,35.0762132635,100
                135.766969663,35.0761713127,100
                135.7670722842,35.0762348211,100
                135.7670849999,35.0762824528,100
                135.7671940968,35.0763354793,100
                135.7672130594,35.076446507,100
                135.76716157,35.0764780308,100
                135.7672446175,35.0766473521,100
                135.7673214272,35.076758419,100
                135.7674178023,35.0767586014,100
                135.7677516506,35.0768650131,100
                135.7679444084,35.0768705888,100
                135.7681052135,35.0768075092,100
                135.7683811562,35.0769348668,100
                135.7690553849,35.077110511,100
                135.7691065346,35.0772003307,100
                135.7693569275,35.0772748183,100
                135.7693051723,35.0774015589,100
                135.7689907882,35.0772265935,100
                135.7677458907,35.077229599,100
                135.7674632546,35.0771974431,100
                135.7673669314,35.0771708509,100
                135.7673543497,35.0770756108,100
                135.767058671,35.0771120949,100
                135.7667825134,35.07705347,100
                135.7661780199,35.0772266257,100
                135.7660292935,35.0775540366,100
                135.7658601757,35.078069516,100
                135.7657949968,35.0782682053,100
                135.7657816834,35.0784319216,100
                135.7660129742,35.0784377141,100
                135.766499565,35.0790726882,100
                135.76690355,35.0793746677,100
                135.7671267613,35.0794977734,100
                135.7672617585,35.0794821832,100
                135.7674661658,35.0799105511,100
                135.7674848336,35.0801272171,100
                135.7674330008,35.0802803666,100
                135.7674326892,35.0803913578,100
                135.7674905907,35.0803650575,100
                135.7675486479,35.0802911498,100
                135.7677542362,35.0803073849,100
                135.7678379427,35.0802440878,100
                135.7680373125,35.0801864329,100
                135.7682429586,35.080181469,100
                135.7686156046,35.0801980174,100
                135.7688660289,35.0802724349,100
                135.7695279809,35.0801145149,100
                135.7695216746,35.0800721769,100
                135.769586074,35.0800194779,100
                135.7699328924,35.080088793,100
                135.7701003764,35.0799358588,100
                135.7707244115,35.0796781368,100
                135.7712385997,35.0796421918,100
                135.7712706243,35.0796791541,100
                135.7710519109,35.079763329,100
                135.7707818513,35.0798262099,100
                135.7706403564,35.0798682018,100
                135.7703183888,35.0801054307,100
                135.7701640786,35.0801421155,100
                135.7698676353,35.080442703,100
                135.7698353179,35.0805113092,100
                135.7698413314,35.0806593558,100
                135.7699956355,35.0806332348,100
                135.7703422081,35.0807923411,100
                135.7706622845,35.0812315535,100
                135.7709002076,35.0811738244,100
                135.7710735682,35.0812270373,100
                135.7711823778,35.0813804873,100
                135.7714682979,35.0815559582,100
                135.7715943108,35.0816455626,100
                135.7717998024,35.0816987637,100
                135.7719542657,35.0816145388,100
                135.7721342285,35.0816043085,100
                135.7721918616,35.0816677997,100
                135.7721338799,35.0817311454,100
                135.7722104987,35.0819003817,100
                135.7724546931,35.081906048,100
                135.7724479042,35.0820382248,100
                135.7724278242,35.0820644988,100
                135.7723511535,35.0821648118,100
                135.7721006564,35.0821220196,100
                135.7717217581,35.0820315246,100
                135.7714329247,35.0819095018,100
                135.7713493215,35.0819357563,100
                135.7711760027,35.0818667684,100
                135.7710343571,35.0819615801,100
                135.7709955867,35.0820407379,100
                135.7709757254,35.0822521209,100
                135.7712321825,35.0824639462,100
                135.771372778,35.0827495751,100
                135.7713597522,35.0828128645,100
                135.7712632749,35.0828390944,100
                135.7711219287,35.0828336199,100
                135.7711223957,35.082664527,100
                135.7710460853,35.0823685245,100
                135.7707380772,35.0822093514,100
                135.7706163523,35.0820717928,100
                135.770559239,35.0818128001,100
                135.7703734665,35.0816010333,100
                135.7700342902,35.0813370769,100
                135.7695977744,35.0811724472,100
                135.7693216452,35.0810979121,100
                135.769090324,35.0810922663,100
                135.7689747701,35.081055005,100
                135.7689107673,35.0809650907,100
                135.7688080127,35.0809384883,100
                135.768551065,35.0809063125,100
                135.7682621166,35.0808211862,100
                135.7681910382,35.0809637358,100
                135.7678763802,35.0808891241,100
                135.7677353417,35.0807673725,100
                135.7675104107,35.0807894133,100
                135.7675101735,35.0808739243,100
                135.7671697717,35.0808151785,100
                135.7671122476,35.0806987258,100
                135.7667012059,35.0806187163,100
                135.7665471164,35.080576168,100
                135.7663867728,35.0804648716,100
                135.7653599278,35.0799979618,100
                135.7649487023,35.0799918935,100
                135.7648607399,35.0800494787,100
                135.7646267927,35.0802026274,100
                135.7644269405,35.0804294398,100
                135.7640658135,35.0808726442,100
                135.7644189206,35.0809895948,100
                135.7644249259,35.0811375021,100
                135.764167933,35.0811211629,100
                135.7641099626,35.0811633074,100
                135.7642187944,35.0813114819,100
                135.7642634565,35.0814224901,100
                135.7643789547,35.0814862355,100
                135.7645652543,35.0815076494,100
                135.7646809713,35.0814868141,100
                135.7647515075,35.0815449803,100
                135.7648734855,35.0815822574,100
                135.7649827393,35.0815824663,100
                135.7650210971,35.0816512053,100
                135.765104478,35.0817041844,100
                135.7650528946,35.08176747,100
                135.7648860378,35.0816879219,100
                135.7647703784,35.0816877007,100
                135.7646930265,35.0817667817,100
                135.7645198484,35.0816502461,100
                135.7645264999,35.0815710298,100
                135.7643594231,35.0815759217,100
                135.7642819353,35.0817026099,100
                135.7642047254,35.0817394361,100
                135.7640504773,35.081744492,100
                135.7639150552,35.0819079737,100
                135.7640946431,35.0820298743,100
                135.7640236767,35.082130166,100
                135.7637155484,35.0820185823,100
                135.7636640994,35.0820343298,100
                135.7635999446,35.0819919507,100
                135.7634713893,35.0820075482,100
                135.7634329573,35.0819652185,100
                135.7633879434,35.0819703434,100
                135.7632788304,35.0819279479,100
                135.7629884928,35.0823288889,100
                135.76300101,35.0824452579,100
                135.7631036739,35.0825035575,100
                135.7630134222,35.0825985294,100
                135.7629043711,35.0825347946,100
                135.7626727433,35.082634775,100
                135.7624266823,35.0832558824,100
                135.7622079028,35.084056419,100
                135.7627314618,35.0842149026,100
                135.7628791455,35.0842522318,100
                135.7631362089,35.0842473754,100
                135.7634642917,35.0841318741,100
                135.7635414208,35.0841320224,100
                135.7636376089,35.084200802,100
                135.7639972869,35.0842649481,100
                135.7642735261,35.0843024512,100
                135.7644984461,35.0843028822,100
                135.7647812714,35.0842770137,100
                135.7649036947,35.084166256,100
                135.76519353,35.0839343322,100
                135.765430775,35.0841197243,100
                135.7658033105,35.0841891704,100
                135.7660153187,35.084210632,100
                135.7662017883,35.0841740123,100
                135.7663563395,35.0840633847,100
                135.7665302475,35.08391575,100
                135.7665879739,35.0839528329,100
                135.7665235096,35.084026729,100
                135.7665361519,35.0841006301,100
                135.7665937747,35.084174757,100
                135.7667734314,35.0842755256,100
                135.7669597069,35.0843075711,100
                135.7670106216,35.0844820424,100
                135.7668496759,35.0845820947,100
                135.766727469,35.0846241187,100
                135.766605405,35.0846080413,100
                135.7662779878,35.0844964277,100
                135.7660660073,35.0844644043,100
                135.765892448,35.0844799189,100
                135.7657509131,35.0845324696,100
                135.7655191036,35.0846958393,100
                135.7654227038,35.0847010073,100
                135.7652621589,35.0846583758,100
                135.7651658038,35.0846475564,100
                135.7650564321,35.0846949562,100
                135.764927792,35.0847316836,100
                135.7648314459,35.0847103721,100
                135.764709553,35.0846414733,100
                135.7645617409,35.0846411904,100
                135.7643942149,35.0847941171,100
                135.7642720516,35.0848202928,100
                135.7633655198,35.0849665167,100
                135.7630437529,35.0851191446,100
                135.7628894545,35.0851399052,100
                135.763755887,35.0855432139,100
                135.7632395557,35.0863136703,100
                135.7635540572,35.0864569584,100
                135.7639358511,35.0866782659,100
                135.764423558,35.0870766818,100
                135.7645633708,35.0871725879,100
                135.7647028539,35.0872337736,100
                135.7651580949,35.0870645653,100
                135.7656562801,35.0869486099,100
                135.7658501298,35.0868874971,100
                135.7661133548,35.0867888387,100
                135.766184589,35.0867463672,100
                135.7664129373,35.0867787743,100
                135.766720854,35.086881969,100
                135.7672442375,35.0870210655,100
                135.7674017486,35.0869558676,100
                135.7675892339,35.0869562221,100
                135.7678497292,35.0870594659,100
                135.7680879824,35.0871889355,100
                135.7682152744,35.0871448766,100
                135.7683361613,35.0870777778,100
                135.768478755,35.0869540968,100
                135.7687069276,35.0870501645,100
                135.7688535526,35.0870475522,100
                135.7690455432,35.0869841774,100
                135.7692613662,35.0868693662,100
                135.769464328,35.0867423462,100
                135.7695571903,35.0866698406,100
                135.7698373344,35.0866862818,100
                135.7698714217,35.0868298733,100
                135.7698732252,35.0869591783,100
                135.7698339069,35.0871415091,100
                135.7698794455,35.0874649906,100
                135.7699028503,35.0875677848,100
                135.7700449718,35.087822007,100
                135.7700663192,35.0878946572,100
                135.7700551419,35.0880398542,100
                135.770102307,35.0881250875,100
                135.7702420556,35.0882545801,100
                135.7703852978,35.0883525293,100
                135.7705595949,35.0884520853,100
                135.7707615916,35.0886668388,100
                135.7707968109,35.0887267666,100
                135.7711632987,35.0892030381,100
                135.7713113981,35.089428326,100
                135.7714446397,35.0895649191,100
                135.7715791868,35.0896790475,100
                135.7716877615,35.0899062341,100
                135.7719805512,35.0905451214,100
                135.7722310661,35.0908789845,100
                135.7723663054,35.0910776983,100
                135.772600293,35.0913779375,100
                135.7726771145,35.0916562646,100
                135.7728805532,35.0920996233,100
                135.773040052,35.0925062085,100
                135.7730916722,35.0927349783,100
                135.7731496921,35.0928006528,100
                135.7733433318,35.0929285548,100
                135.7734917365,35.0930386246,100
                135.7735669782,35.0931131342,100
                135.7736312465,35.0932603032,100
                135.7737940488,35.093440684,100
                135.7739423692,35.0935898402,100
                135.7741483743,35.093921506,100
                135.7743456105,35.0941701223,100
                135.7740552646,35.0943260734,100
                135.7739299882,35.0944215501,100
                135.7737486088,35.0945398817,100
                135.7735629825,35.0946369369,100
                135.773616659,35.0947097163,100
                135.7739192092,35.0948545095,100
                135.7741237755,35.0949293278,100
                135.7743089923,35.0949827712,100
                135.7744338762,35.0950396935,100
                135.7745241872,35.0951195819,100
                135.7747199241,35.0952670615,100
                135.7748242609,35.0953333819,100
                135.7748930104,35.095409709,100
                135.7749250055,35.0955389984,100
                135.7749035316,35.0959522824,100
                135.7749353904,35.0961241781,100
                135.7750688687,35.0961881587,100
                135.7753881981,35.0962704398,100
                135.7756100836,35.0963115542,100
                135.7758212487,35.0963403225,100
                135.7763421128,35.0963932524,100
                135.7766028968,35.0964043637,100
                135.7768097807,35.0964241807,100
                135.7773002204,35.0967338203,100
                135.7775369385,35.0968760877,100
                135.7777605732,35.0970800938,100
                135.778042074,35.0972910371,100
                135.7782271816,35.0973958148,100
                135.7783112139,35.0974066012,100
                135.7790905231,35.097411747,100
                135.7792176785,35.0974226114,100
                135.7795966147,35.0975845709,100
                135.779844289,35.0976611479,100
                135.7802391142,35.0977296789,100
                135.780579639,35.0977479687,100
                135.7807304015,35.0977995804,100
                135.7808833279,35.0978352786,100
                135.7810081412,35.0979134641,100
                135.7810790134,35.0980162709,100
                135.7812221255,35.0983438646,100
                135.7815775491,35.0986184563,100
                135.7818594651,35.0987908693,100
                135.7819908539,35.0988300501,100
                135.7825471317,35.0991652121,100
                135.7827585348,35.0991071365,100
                135.7832542898,35.0990698473,100
                135.7836977703,35.0990340842,100
                135.7840620193,35.0990507171,100
                135.7843097854,35.0990953823,100
                135.7845272268,35.0991932358,100
                135.7847231911,35.0992715431,100
                135.784913054,35.0993319491,100
                135.7851574668,35.0992821648,100
                135.7857628076,35.099002157,100
                135.7860865218,35.0989876518,100
                135.7863244887,35.0990683535,100
                135.7864646066,35.0992040956,100
                135.7868121964,35.0994004853,100
                135.7870811686,35.0993055965,100
                135.7872096727,35.0992104631,100
                135.7876618924,35.0990908208,100
                135.7880647998,35.0991617324,100
                135.7884852438,35.0995288841,100
                135.7886193757,35.0996194712,100
                135.7886005751,35.0998000809,100
                135.7884780071,35.0999705105,100
                135.7883677167,35.1001058886,100
                135.7883478072,35.1003262862,100
                135.7885400372,35.1007018458,100
                135.7887500055,35.1010198276,100
                135.7891165985,35.1019009905,100
                135.7893981091,35.101713792,100
                135.7896440788,35.1016853399,100
                135.7899776802,35.1017292243,100
                135.7901530157,35.1018450229,100
                135.7904510636,35.1020620217,100
                135.7910481317,35.1021063539,100
                135.7912938845,35.1021645216,100
                135.7916797173,35.1023961043,100
                135.7927133099,35.1034660749,100
                135.7929237358,35.1036107335,100
                135.7933097589,35.1037701961,100
                135.7936961967,35.1037564109,100
                135.7943465215,35.1035843283,100
                135.794434843,35.1033823544,100
                135.7944542065,35.1026606642,100
                135.7945424526,35.1024875658,100
                135.7949474397,35.1020840711,100
                135.7952994346,35.1017959851,100
                135.7954759412,35.101449856,100
                135.7958634582,35.1010030186,100
                135.7963208251,35.1007150334,100
                135.7966374258,35.1005280163,100
                135.7970488108,35.1004679916,100
                135.7981203796,35.1012648661,100
                135.7994702291,35.1020839497,100
                135.7996953816,35.1021496727,100
                135.8004248689,35.1019221188,100
                135.8014197638,35.1015534337,100
                135.801869447,35.1019353752,100
                135.8022136782,35.1020884036,100
                135.8028353917,35.1025904127,100
                135.8032323186,35.1028742329,100
                135.8035392998,35.102937263,100
                135.8039631701,35.1030359739,100
                135.8043866499,35.1033089163,100
                135.8044116495,35.1039406801,100
                135.8048755212,35.1039414189,100
                135.8051805435,35.1038656332,100
                135.8060021013,35.1039432059,100
                135.8063736473,35.103747726,100
                135.807063186,35.1036072554,100
                135.807686515,35.1034339292,100
                135.807924967,35.1034778962,100
                135.8085226521,35.1029342247,100
                135.8091458193,35.1028263169,100
                135.8094243114,35.1027504789,100
                135.8095969733,35.1025982741,100
                135.809584266,35.1023586663,100
                135.809703954,35.1021845476,100
                135.8097444441,35.1018687509,100
                135.8096920753,35.1015855555,100
                135.8094542054,35.1012910872,100
                135.8095741738,35.1009863288,100
                135.8104805726,35.1002711564,100
                135.8106401645,35.1000318153,100
                135.8106010044,35.0997703332,100
                135.810271388,35.09902915,100
                135.8102717636,35.0988658332,100
                135.8103518591,35.0986154532,100
                135.8102075095,35.0979943526,100
                135.809824758,35.0973075937,100
                135.8093633485,35.0968893908,100
                135.809006692,35.0963878266,100
                135.8086493589,35.0961802879,100
                135.8082652799,35.0960708105,100
                135.8074979828,35.0954923293,100
                135.8068098825,35.0950556639,100
                135.8064806857,35.0941510851,100
                135.806849259,35.0937036835,100
                135.8072477012,35.0933340072,100
                135.8078708494,35.0932042718,100
                135.8084410793,35.0930309272,100
                135.8093299202,35.0926184848,100
                135.8093830105,35.0925681414,100
                135.8098345823,35.0921400178,100
                135.8095617278,35.0917468955,100
                135.8095103375,35.0910388201,100
                135.8091401415,35.0906679443,100
                135.8085055892,35.0900025561,100
                135.8084274816,35.0894034585,100
                135.8079510359,35.0891412926,100
                135.8075675699,35.0887812369,100
                135.8074623201,35.0884544342,100
                135.8075350342,35.0880886134,100
                135.8077750057,35.0874681806,100
                135.8081337625,35.0870439292,100
                135.808533226,35.0862059857,100
                135.8084161761,35.085247374,100
                135.8084704209,35.0847137697,100
                135.8087690958,35.0842092793,100
                135.8089027687,35.0837085461,100
                135.8088907651,35.083163922,100
                135.8090510058,35.0826304114,100
                135.8093035859,35.0822714192,100
                135.8097875144,35.0819997625,100
                135.8099264402,35.0818372245,100
                135.8099071348,35.0816256348,100
                135.8099968274,35.0813573096,100
                135.809977503,35.0811539591,100
                135.809879091,35.0809096381,100
                135.8093453597,35.0805997073,100
                135.8090891666,35.0801111147,100
                135.8090229354,35.0799283267,100
                135.8089416347,35.0797041034,100
                135.808645284,35.0794595448,100
                135.8085269338,35.0793833703,100
                135.8081511611,35.0791415029,100
                135.8078513519,35.0787737607,100
                135.8077331764,35.0785213081,100
                135.8075948715,35.078415311,100
                135.8069144231,35.0783574074,100
                135.8065371819,35.0782261015,100
                135.8061539657,35.0778116726,100
                135.8058630698,35.0775769743,100
                135.8055985653,35.0773859823,100
                135.8055524786,35.0772661137,100
                135.8055461929,35.0771244772,100
                135.8056327755,35.0769177023,100
                135.805904701,35.0767656601,100
                135.806117073,35.0765917624,100
                135.8062898277,35.0763428673,100
                135.8064297573,35.0759891969,100
                135.8064631484,35.0758694552,100
                135.8064104304,35.0757549294,100
                135.8061326738,35.0755638459,100
                135.8058948717,35.0752858491,100
                135.8057563293,35.0750568147,100
                135.8057027182,35.074685091,100
                135.8056835855,35.0743691281,100
                135.8056043787,35.0742546301,100
                135.8053266928,35.0740364309,100
                135.8050755984,35.0737854553,100
                135.8047492882,35.0733187127,100
                135.8045667766,35.0728934692,100
                135.8044260385,35.0724006833,100
                135.8044086221,35.0723397367,100
                135.8043682302,35.0719414818,100
                135.80438073,35.071645429,100
                135.8044047531,35.0714755293,100
                135.8042641272,35.071009152,100
                135.8039224052,35.0709252901,100
                135.8037926158,35.0708668393,100
                135.8036276152,35.0707112139,100
                135.8034742754,35.0706138496,100
                135.8032323511,35.0705212723,100
                135.8029844259,35.0704674194,100
                135.802730542,35.0704329941,100
                135.8026478459,35.0704377206,100
                135.8020685548,35.0706455978,100
                135.8011048872,35.0705179709,100
                135.8003911017,35.0701672099,100
                135.8002251814,35.070395191,100
                135.8001009093,35.0704921066,100
                135.7998110782,35.0706761491,100
                135.7996987324,35.070729349,100
                135.7995274051,35.0707485053,100
                135.7995323739,35.0711369162,100
                135.7993551127,35.0711657815,100
                135.7991955338,35.0712140439,100
                135.7990596265,35.0712332578,100
                135.7988234635,35.0712037128,100
                135.7987466291,35.0712278835,100
                135.7986518159,35.0713539318,100
                135.7991357839,35.0721314619,100
                135.7980221237,35.0732604669,100
                135.796753966,35.0743401199,100
                135.7960590646,35.075042457,100
                135.7969324696,35.0754142802,100
                135.7971041214,35.0756432395,100
                135.7975001561,35.076204843,100
                135.7976455822,35.0763249488,100
                135.7970415649,35.0763838126,100
                135.7964386587,35.076442605,100
                135.796510582,35.0768240138,100
                135.7964571178,35.0770090759,100
                135.7967152372,35.0770966224,100
                135.7967224171,35.0771642438,100
                135.7967211855,35.077665326,100
                135.7958072379,35.0776148609,100
                135.7958155762,35.0769177222,100
                135.7951201846,35.0768730388,100
                135.7946365831,35.0768994841,100
                135.7946429715,35.0769920354,100
                135.7945166592,35.0771878914,100
                135.7945826108,35.0772969524,100
                135.7947412804,35.0774223662,100
                135.7949266383,35.0774608477,100
                135.7952843539,35.0774505288,100
                135.7953504628,35.0775050795,100
                135.7953502472,35.0775922672,100
                135.7951572259,35.0779676701,100
                135.795328353,35.0784091082,100
                135.7943548952,35.0783094455,100
                135.7944280531,35.0781897026,100
                135.7944681075,35.078059058,100
                135.7944552358,35.0779120561,100
                135.7942696478,35.077966184,100
                135.7936536085,35.0779699377,100
                135.7936508781,35.077862603,100
                135.7935421165,35.0778644622,100
                135.7935489235,35.0781318137,100
                135.7935005456,35.0782590636,100
                135.7930501158,35.0782583041,100
                135.791205733,35.0782977844,100
                135.7911804388,35.0774050133,100
                135.7899254613,35.077585414,100
                135.7898286213,35.0775993341,100
                135.7895375598,35.0776413718,100
                135.7896403983,35.077880718,100
                135.7889741377,35.0780018335,100
                135.788579331,35.0781605993,100
                135.7880878477,35.0782002459,100
                135.7881337333,35.0786249977,100
                135.7881521426,35.0787716584,100
                135.7882169205,35.0791539055,100
                135.7880986933,35.0794740716,100
                135.787525158,35.0795776624,100
                135.7877861953,35.0803423855,100
                135.7876963386,35.0806243024,100
                135.7876915177,35.0806394215,100
                135.7876898921,35.0806443337,100
                135.7874452128,35.0813834045,100
                135.7866232948,35.081405147,100
                135.7863082024,35.0815667907,100
                135.7863689281,35.081698031,100
                135.7856820461,35.081740836,100
                135.7856455568,35.0817431089,100
                135.7856461035,35.0817449849,100
                135.7858138053,35.0823221699,100
                135.7856782427,35.0820748063,100
                135.7853214957,35.0820009383,100
                135.7852512106,35.0819389795,100
                135.7852140317,35.0817884125,100
                135.7850782519,35.0816260523,100
                135.7849458453,35.0819732359,100
                135.7848529104,35.0821717459,100
                135.784654573,35.0823548585,100
                135.7844812549,35.0826279495,100
                135.7844219482,35.082776657,100
                135.7844214188,35.0829808235,100
                135.7843363429,35.0833198481,100
                135.7841875584,35.0835143146,100
                135.7841534387,35.0836872926,100
                135.7840470925,35.0841093823,100
                135.7839110413,35.0846282569,100
                135.7838346754,35.0848530644,100
                135.7837333007,35.0849843709,100
                135.7835853293,35.0850784106,100
                135.7834282164,35.0851624323,100
                135.7832903152,35.0852795894,100
                135.7830712379,35.0855437222,100
                135.7830105035,35.0856874958,100
                135.7831842157,35.0861789592,100
                135.7831537509,35.086287926,100
                135.78281778,35.0866356588,100
                135.7828873347,35.0867402938,100
                135.7828809539,35.0867966234,100
                135.7828214877,35.0869218774,100
                135.7826462998,35.0872491169,100
                135.7825493761,35.0874126863,100
                135.7819622481,35.0869536567,100
                135.7823268681,35.0866409976,100
                135.7824322032,35.0865510315,100
                135.7826438665,35.0863702477,100
                135.7826983419,35.0859553342,100
                135.7827243845,35.0857607552,100
                135.7828571298,35.0855949876,100
                135.7830740218,35.0853175429,100
                135.7832495551,35.0850995794,100
                135.7834170892,35.0849443664,100
                135.783496947,35.0847768679,100
                135.7835998435,35.0844415906,100
                135.7837001198,35.0841148473,100
                135.783808207,35.084056842,100
                135.7839909529,35.0838529978,100
                135.7838687772,35.083526498,100
                135.783852334,35.0832182865,100
                135.7838435769,35.0828364233,100
                135.7837817633,35.0826219068,100
                135.7835746062,35.0823963841,100
                135.7835302451,35.0822341852,100
                135.7835109214,35.0821218045,100
                135.7834030188,35.0818818493,100
                135.7834029729,35.0816588026,100
                135.7834015286,35.0815631948,100
                135.7833352948,35.0812499261,100
                135.7833346676,35.0810660856,100
                135.7833625244,35.0809429945,100
                135.7834208266,35.0808381516,100
                135.7832929134,35.0804343183,100
                135.7832905415,35.0804268274,100
                135.7829088935,35.0804413145,100
                135.7827917524,35.0804124859,100
                135.7826950941,35.0803631559,100
                135.7826900161,35.0803605643,100
                135.7826886845,35.080360733,100
                135.7826872517,35.0803609153,100
                135.7810522567,35.0805685018,100
                135.7808348154,35.0804582471,100
                135.7805777513,35.0803560892,100
                135.7803502542,35.080306876,100
                135.7801275858,35.0803023912,100
                135.7799099518,35.0802653781,100
                135.7796775086,35.0802161547,100
                135.779469726,35.0801954265,100
                135.7792423932,35.0800770516,100
                135.7791288404,35.0799791651,100
                135.7792625064,35.0799632082,100
                135.7794408299,35.0798984563,100
                135.7796387702,35.0798907134,100
                135.7797873871,35.0798340059,100
                135.7799952114,35.0798383941,100
                135.780128921,35.0797979984,100
                135.7802528765,35.0797046242,100
                135.7803323362,35.0795990572,100
                135.7803377672,35.079415958,100
                135.7803283026,35.0792532557,100
                135.7802740434,35.0791839989,100
                135.7802146668,35.0791138184,100
                135.7801856073,35.0788779072,100
                135.7801266266,35.0787232156,100
                135.7801767886,35.0784710384,100
                135.7801373821,35.0783977934,100
                135.7800930937,35.0783082017,100
                135.7800836402,35.0781414146,100
                135.7800591951,35.0780233362,100
                135.7800198107,35.0779500922,100
                135.7798668546,35.077787062,100
                135.7798472173,35.077730051,100
                135.7798816995,35.0776813068,100
                135.7800011546,35.0775228509,100
                135.780080667,35.0773968597,100
                135.7801255602,35.0772586923,100
                135.78011603,35.0771856434,100
              </coordinates>
            </LinearRing>
          </outerBoundaryIs>
        </Polygon>
      </Placemark>
    </Document>
  </Document>
</kml>
