<?xml version="1.0" encoding="UTF-8"?>
<kml xmlns="http://www.opengis.net/kml/2.2">
  <Document id="root_doc">
    <Document id="_4_03_________disv4326">
      <name>14_03岩倉南disv4326</name>
      <Placemark id="_4_03_________disv4326.1">
        <visibility>1</visibility>
        <Polygon>
          <extrude>0</extrude>
          <outerBoundaryIs>
            <LinearRing>
              <coordinates>
                135.7847402968,35.0604915424,100
                135.7844997318,35.0603921699,100
                135.7843804449,35.0599688384,100
                135.7842986354,35.0598605899,100
                135.7841674143,35.059806342,100
                135.7839813569,35.0597926339,100
                135.7836638065,35.0598279911,100
                135.7833570121,35.059876255,100
                135.783012217,35.0599304371,100
                135.7828699124,35.0599301852,100
                135.7826948813,35.0598848023,100
                135.7822959646,35.0596455605,100
                135.7813631325,35.060530641,100
                135.7816569758,35.0607470217,100
                135.7817224064,35.0608460874,100
                135.7817494343,35.0609722688,100
                135.7816997555,35.0611251472,100
                135.7815790766,35.0612285297,100
                135.7814310599,35.0613136928,100
                135.7810252241,35.061610099,100
                135.7810031473,35.061682106,100
                135.7809320173,35.0616729644,100
                135.7805645201,35.0619649295,100
                135.7804717857,35.0618432073,100
                135.7796773123,35.0621433502,100
                135.7791035909,35.0619401938,100
                135.7788576581,35.0618002349,100
                135.7791819161,35.0613146643,100
                135.7782789224,35.0612680325,100
                135.7778510572,35.0616138985,100
                135.7777908701,35.0616047748,100
                135.7777357113,35.0617622188,100
                135.777462852,35.0617607386,100
                135.7773313842,35.061805573,100
                135.77673481,35.0617954738,100
                135.7765980349,35.0617681808,100
                135.7764063182,35.0618263555,100
                135.7755633094,35.061860874,100
                135.7755853414,35.0618068266,100
                135.7754214957,35.0616804634,100
                135.7757224279,35.0617125653,100
                135.7748000398,35.0604042487,100
                135.7743610766,35.0607950139,100
                135.773453117,35.0599635015,100
                135.7720686673,35.062011692,100
                135.7707898678,35.0621286186,100
                135.770333319,35.0620595236,100
                135.7699547113,35.0622053742,100
                135.7693131712,35.062433835,100
                135.769254159,35.062455486,100
                135.768872976,35.0624349095,100
                135.768105077,35.0622447206,100
                135.7680304579,35.0622428896,100
                135.7674423292,35.0623315736,100
                135.7671521242,35.0624715251,100
                135.765982884,35.0619799821,100
                135.7659345773,35.0619570013,100
                135.7657870727,35.0623288544,100
                135.7656707635,35.0623710303,100
                135.7655457983,35.0627975768,100
                135.7656219196,35.0630911896,100
                135.7659138669,35.0634302166,100
                135.765946928,35.063468239,100
                135.7664291659,35.0637147336,100
                135.7661895377,35.0639511938,100
                135.7664594166,35.0642135524,100
                135.7665522604,35.0643511311,100
                135.7666867263,35.0646492211,100
                135.7667994489,35.0647927526,100
                135.7670282215,35.0650456658,100
                135.7673634588,35.0654074485,100
                135.767580471,35.0660414175,100
                135.7677998442,35.0661376124,100
                135.7679180122,35.0660598023,100
                135.7679679787,35.0660688029,100
                135.7680748772,35.0660880584,100
                135.7684609103,35.0662849943,100
                135.7685000657,35.0663271133,100
                135.7686844261,35.0663935201,100
                135.768719721,35.0667183238,100
                135.7687545339,35.0666905708,100
                135.7688940334,35.0668477443,100
                135.7690767196,35.0670298584,100
                135.7692428387,35.067171728,100
                135.7693471273,35.0672400968,100
                135.7693201041,35.0673541378,100
                135.7693025826,35.0676447557,100
                135.7692447254,35.0679624121,100
                135.7691972962,35.0681131059,100
                135.7691278065,35.0682117141,100
                135.7689994346,35.068315422,100
                135.7689250615,35.0683909203,100
                135.7687316259,35.0686936725,100
                135.7687480544,35.0689049129,100
                135.7687025247,35.0689900482,100
                135.7687015101,35.0689919441,100
                135.7685348168,35.0690071229,100
                135.7684490945,35.0690220326,100
                135.7682739603,35.0690005045,100
                135.7681078641,35.06897864,100
                135.767947164,35.0689265025,100
                135.7676529807,35.0687703741,100
                135.767450098,35.0686944224,100
                135.7671261273,35.068644581,100
                135.7670041771,35.0686117423,100
                135.766888956,35.0685472946,100
                135.7665037101,35.0686055804,100
                135.7662188672,35.0685848262,100
                135.7661004874,35.0685997425,100
                135.7657265948,35.0685662811,100
                135.7652501754,35.0685831195,100
                135.7651134776,35.0686458195,100
                135.7645979552,35.0686396914,100
                135.7646158586,35.0689086142,100
                135.7651863084,35.0690878148,100
                135.7660617071,35.0693353439,100
                135.7669470567,35.0696245793,100
                135.7677274769,35.0698997349,100
                135.7679275266,35.0700327969,100
                135.7682256706,35.0703445733,100
                135.7683141271,35.0706911674,100
                135.768324405,35.0708597874,100
                135.7687326517,35.070972112,100
                135.7686899197,35.0710744314,100
                135.768612952,35.0711664047,100
                135.7684600117,35.0714000023,100
                135.7682938537,35.0719857763,100
                135.7682255178,35.0720586674,100
                135.769740884,35.0717524023,100
                135.7698852669,35.0718267167,100
                135.7700915384,35.0719816188,100
                135.770222555,35.0720598957,100
                135.7703414181,35.0721116001,100
                135.770454171,35.0721118108,100
                135.7706988237,35.071988669,100
                135.7723203384,35.0722801511,100
                135.7750433333,35.0726558998,100
                135.7757686798,35.0726229303,100
                135.7790196357,35.0727355266,100
                135.7796957053,35.072758856,100
                135.7797108327,35.0717801645,100
                135.7797108049,35.0717442961,100
                135.7801332442,35.0718137326,100
                135.7802885767,35.0718337661,100
                135.7803974958,35.0718379121,100
                135.7805385158,35.0718184091,100
                135.7807276451,35.0717792364,100
                135.7808670386,35.0717689492,100
                135.7809759299,35.0717836308,100
                135.781104541,35.0718326572,100
                135.7809692345,35.0717155813,100
                135.7821340784,35.0717949126,100
                135.7824723234,35.0717903714,100
                135.7830423229,35.0717860987,100
                135.7833255665,35.0717590616,100
                135.783994659,35.0716951664,100
                135.7844906348,35.0716130752,100
                135.7846180671,35.0715919595,100
                135.7861912646,35.071323715,100
                135.7868590525,35.0711743072,100
                135.7882361986,35.0708214653,100
                135.7889099649,35.0706429704,100
                135.7890097695,35.0706229999,100
                135.7894579773,35.0704807349,100
                135.7898990148,35.0702676776,100
                135.7901808045,35.0700718106,100
                135.7906221194,35.0697496604,100
                135.790952677,35.0694942965,100
                135.7912292241,35.0692722211,100
                135.7914367127,35.0690719301,100
                135.7916390024,35.0688278246,100
                135.7917213321,35.0687226773,100
                135.7918386404,35.0685047663,100
                135.7919454723,35.0682300032,100
                135.7920045454,35.0679552293,100
                135.7920999131,35.0675557919,100
                135.7921973358,35.0671477652,100
                135.792548858,35.0657842721,100
                135.7914250075,35.0659294824,100
                135.7912548056,35.0650300576,100
                135.7905767903,35.0650981281,100
                135.7902896969,35.0651545409,100
                135.7900966725,35.0651786479,100
                135.7900427602,35.0649751638,100
                135.7900209124,35.0648520208,100
                135.7899199807,35.0648632566,100
                135.789886262,35.0647181207,100
                135.7899937661,35.0646991493,100
                135.7900333592,35.0646910473,100
                135.7898720104,35.0639462925,100
                135.7885703466,35.0641149039,100
                135.7884236237,35.0629214141,100
                135.7874239031,35.063049829,100
                135.7873183963,35.0624586263,100
                135.7871431401,35.0624783231,100
                135.7869125478,35.0613091231,100
                135.7871657409,35.061265477,100
                135.7871267238,35.0610931462,100
                135.7870644427,35.0608180227,100
                135.7880822751,35.0605875249,100
                135.7880147204,35.0603632401,100
                135.787888117,35.0603840077,100
                135.7877372534,35.0603717735,100
                135.787576764,35.0603314926,100
                135.7874504117,35.0602551427,100
                135.7873436391,35.0601348801,100
                135.7872466093,35.0600147048,100
                135.7871300849,35.0599063975,100
                135.7870037358,35.0598300466,100
                135.7868140907,35.0597617541,100
                135.7866486892,35.059733436,100
                135.7864588465,35.0597411338,100
                135.786259065,35.0598248034,100
                135.7860933479,35.0599165605,100
                135.7858497238,35.0600202248,100
                135.7857034495,35.060120044,100
                135.785605972,35.0601719188,100
                135.7854258715,35.060179631,100
                135.7851724722,35.0602952488,100
                135.7847402968,35.0604915424,100
              </coordinates>
            </LinearRing>
          </outerBoundaryIs>
        </Polygon>
      </Placemark>
    </Document>
  </Document>
</kml>
