<?xml version="1.0" encoding="UTF-8"?>
<kml xmlns="http://www.opengis.net/kml/2.2">
  <Document id="root_doc">
    <Document id="_4_06______disv4326">
      <name>14_06花脊disv4326</name>
      <Placemark id="_4_06______disv4326.1">
        <visibility>1</visibility>
        <Polygon>
          <extrude>0</extrude>
          <outerBoundaryIs>
            <LinearRing>
              <coordinates>
                135.7939236347,35.1850807879,100
                135.7941925829,35.1849080588,100
                135.7944803509,35.1848769856,100
                135.7948444783,35.1849878755,100
                135.7950553585,35.1850197045,100
                135.795285589,35.1849886047,100
                135.7956122272,35.1847529369,100
                135.7958814185,35.1844699175,100
                135.7959971521,35.1842024914,100
                135.7959978873,35.183903255,100
                135.7959798378,35.1834466572,100
                135.7960763967,35.1831791295,100
                135.7964030027,35.182943459,100
                135.7969794478,35.1825035398,100
                135.7971911128,35.182220424,100
                135.7973265087,35.1817483045,100
                135.7973847349,35.1814649375,100
                135.7976926172,35.1810403574,100
                135.7974631307,35.1807722921,100
                135.7970844346,35.1806282808,100
                135.7967591107,35.180344286,100
                135.7966253717,35.1801394104,100
                135.7966450441,35.1799347163,100
                135.7969145856,35.1795100686,100
                135.7971653552,35.1789120731,100
                135.7972428271,35.1785973288,100
                135.7972050421,35.1783610596,100
                135.7970279134,35.1780723767,100
                135.7970286431,35.1777732114,100
                135.7972402946,35.1774900979,100
                135.7972793482,35.1772067713,100
                135.7973568543,35.1768762524,100
                135.7974149233,35.1766559179,100
                135.7973200271,35.1762463784,100
                135.7973013174,35.176057397,100
                135.7973597299,35.1756952965,100
                135.7974179514,35.1754120015,100
                135.7973993346,35.1751757643,100
                135.7972850631,35.1748606334,100
                135.7972096062,35.1743409101,100
                135.7969786655,35.1740081242,100
                135.7969035409,35.1733624127,100
                135.7969423623,35.1731735251,100
                135.796635638,35.1731258382,100
                135.7964251722,35.1729365422,100
                135.7960797634,35.1730304164,100
                135.7958112852,35.1730299752,100
                135.7949882351,35.1724145101,100
                135.7944519644,35.1721460071,100
                135.7941455576,35.1719722526,100
                135.7940309905,35.1717831119,100
                135.793954855,35.1715467784,100
                135.7939748261,35.1712319405,100
                135.7943404706,35.1702272244,100
                135.7943414828,35.1698178449,100
                135.79461178,35.1690782729,100
                135.7947100944,35.1680864384,100
                135.7950765153,35.1672368119,100
                135.7950199609,35.1668430463,100
                135.7947534307,35.166071106,100
                135.7946102905,35.1656471954,100
                135.793998331,35.1649848923,100
                135.7934996944,35.1646583472,100
                135.7933474604,35.1645586539,100
                135.7929320483,35.1646573975,100
                135.7928947833,35.1646582511,100
                135.7928575014,35.1646572726,100
                135.7927146054,35.1646048489,100
                135.7925426642,35.1643526511,100
                135.7922170462,35.1642104096,100
                135.7917950595,35.1642726593,100
                135.7915649659,35.1642722713,100
                135.7912011344,35.1640827068,100
                135.7910481287,35.1639249789,100
                135.7908764148,35.1635940435,100
                135.790627373,35.1634991113,100
                135.7905128266,35.1633099678,100
                135.7905133829,35.1630895391,100
                135.790418061,35.1628689471,100
                135.7900732862,35.1627266667,100
                135.7899401908,35.16228558,100
                135.7899745485,35.1618236514,100
                135.7898145573,35.1619719752,100
                135.7894484591,35.1619462799,100
                135.7893277417,35.1614197875,100
                135.7887179458,35.161243315,100
                135.7887798552,35.1608924934,100
                135.7885975545,35.1605913958,100
                135.7885990878,35.1599898992,100
                135.7882644239,35.1596133959,100
                135.7871356141,35.1595613099,100
                135.7868012166,35.1590845189,100
                135.7862825754,35.1590585505,100
                135.7856437198,35.1583306568,100
                135.7842426084,35.1574008538,100
                135.7834559953,35.1572718543,100
                135.7831013147,35.1572098862,100
                135.7828765754,35.1571706131,100
                135.7824197522,35.1568439456,100
                135.7817810818,35.15606588,100
                135.7810803343,35.1556886295,100
                135.7805014386,35.1553868772,100
                135.78025724,35.1554365109,100
                135.7798911088,35.1554358526,100
                135.7793130852,35.154808239,100
                135.7789470909,35.1547575056,100
                135.7785802488,35.1550324853,100
                135.7782140539,35.155056893,100
                135.7779399314,35.1548809665,100
                135.7769657976,35.1546481285,100
                135.7763860453,35.1546721409,100
                135.7758984181,35.154470748,100
                135.7759584342,35.1548467878,100
                135.7758969966,35.1549971035,100
                135.7752870071,35.1549207693,100
                135.7747983136,35.1551203708,100
                135.7744020199,35.1549943542,100
                135.7741571841,35.1552695462,100
                135.7737605712,35.155268813,100
                135.7736978975,35.1558702704,100
                135.7733011911,35.1558946065,100
                135.7726356441,35.156369165,100
                135.7731181595,35.1571558665,100
                135.7731685938,35.1574648454,100
                135.773116662,35.1577034908,100
                135.7730990169,35.1579000146,100
                135.7732178997,35.1581951062,100
                135.7729567124,35.1585574529,100
                135.7727659411,35.1595399536,100
                135.7724067947,35.1595814008,100
                135.7720813185,35.1598054527,100
                135.7719267365,35.1600579212,100
                135.771891306,35.1605071687,100
                135.7718562447,35.1608300738,100
                135.7716333847,35.1610402306,100
                135.7715812682,35.1613350042,100
                135.7716311274,35.1617508881,100
                135.7715619036,35.1620455602,100
                135.7712183032,35.162648746,100
                135.7709090458,35.163181711,100
                135.7707535063,35.1637851768,100
                135.7706474579,35.1646178285,100
                135.7705104051,35.1651326629,100
                135.7705092407,35.165553945,100
                135.770317806,35.1667610991,100
                135.7700773308,35.1671538333,100
                135.77031431,35.1680248041,100
                135.7703137273,35.1682354451,100
                135.770127795,35.1685039813,100
                135.7700587764,35.1687285081,100
                135.7701436997,35.1689393092,100
                135.7704678213,35.1692207722,100
                135.7705698149,35.1694315339,100
                135.7701558959,35.170708552,100
                135.7701209587,35.1709752563,100
                135.7704454777,35.171116291,100
                135.770616165,35.1712289384,100
                135.7709898483,35.1721422726,100
                135.7709893845,35.1723107282,100
                135.7706463391,35.1726892555,100
                135.7707311916,35.1729280842,100
                135.7709874127,35.1730268764,100
                135.7712264664,35.1731536646,100
                135.7715846942,35.1734773001,100
                135.7718741931,35.1739131357,100
                135.7722702934,35.1740952163,100
                135.7730790552,35.1746289202,100
                135.7730241945,35.1749392516,100
                135.7727796077,35.1754931827,100
                135.7730216516,35.175870617,100
                135.7733990844,35.1761152691,100
                135.7735605831,35.1763151531,100
                135.7739919949,35.1765820868,100
                135.774125957,35.1769815031,100
                135.7744220848,35.1773368509,100
                135.7747452733,35.1776700646,100
                135.7750137877,35.1782471282,100
                135.7752014104,35.1787796779,100
                135.7750384608,35.1791119963,100
                135.7747134387,35.1794440868,100
                135.7740646401,35.1796645881,100
                135.7737935082,35.1800410734,100
                135.7731713342,35.1803947936,100
                135.7727924265,35.1806823413,100
                135.7725056982,35.1812530981,100
                135.772152749,35.1812765962,100
                135.7722989958,35.1815665989,100
                135.7722395762,35.1817838202,100
                135.7717976227,35.1820968838,100
                135.7714144672,35.1824100552,100
                135.7708254137,35.1827469963,100
                135.7705304736,35.1830603296,100
                135.7700303513,35.1831318589,100
                135.7697358313,35.1833003263,100
                135.7697097435,35.1833676148,100
                135.7695581071,35.1837587425,100
                135.7693833375,35.1842949123,100
                135.7694119337,35.1845847659,100
                135.7695873762,35.1849472929,100
                135.7694102533,35.1851883776,100
                135.7693215785,35.1853572311,100
                135.7694972689,35.1856232052,100
                135.7697023195,35.1859133203,100
                135.7695544139,35.1862269276,100
                135.7693770852,35.1865404787,100
                135.7693763444,35.1868061223,100
                135.7691995062,35.1869506546,100
                135.768670092,35.1869738113,100
                135.7684342013,35.1871906288,100
                135.7683449566,35.1875526589,100
                135.7679608997,35.1881797045,100
                135.7677546982,35.1883000932,100
                135.7672840339,35.1883474406,100
                135.7669309117,35.188419237,100
                135.7666950328,35.1886361202,100
                135.7664006673,35.1887321125,100
                135.7659301349,35.1887312133,100
                135.7654890753,35.1887062127,100
                135.7651066151,35.188753791,100
                135.7648411222,35.1890430114,100
                135.7647751438,35.1891890169,100
                135.7646339527,35.1895014345,100
                135.7645736329,35.1900324673,100
                135.76436506,35.1909740067,100
                135.7641581572,35.1913358059,100
                135.7637456601,35.1916006538,100
                135.7630394218,35.1917441522,100
                135.762362633,35.1918635483,100
                135.7616265007,35.192176001,100
                135.7604767731,35.1931154806,100
                135.7592977495,35.1940065115,100
                135.7583538973,35.1949222259,100
                135.7577934248,35.1955282643,100
                135.7571452991,35.1958891831,100
                135.7565556936,35.1963467684,100
                135.7563770952,35.1970708159,100
                135.756169991,35.1974809175,100
                135.7559912917,35.1982290487,100
                135.7558140932,35.1984701863,100
                135.7558423772,35.1988565994,100
                135.7558414474,35.1991704868,100
                135.7554277999,35.1997974367,100
                135.7552792852,35.2002800494,100
                135.7552350855,35.2006457532,100
                135.7551888187,35.2010284259,100
                135.7548228941,35.2013486215,100
                135.7534845757,35.2025195702,100
                135.7533661991,35.2027607508,100
                135.7535416089,35.2031233052,100
                135.7535704439,35.2033165394,100
                135.7533636069,35.2036300034,100
                135.753395818,35.2037032695,100
                135.7535973639,35.2041616888,100
                135.7535082533,35.2044512353,100
                135.7533013439,35.2047888547,100
                135.7532417127,35.205054375,100
                135.7537690372,35.2057797578,100
                135.7540027802,35.2063114424,100
                135.7545289065,35.2074473228,100
                135.754880773,35.2078343799,100
                135.7559961653,35.2086575536,100
                135.7563188965,35.2089479953,100
                135.7569038476,35.2101081369,100
                135.7575530839,35.2110564253,100
                135.7580513592,35.2116851789,100
                135.7586380366,35.2122658677,100
                135.7592546756,35.2126534372,100
                135.759722509,35.2136443239,100
                135.7604567011,35.2140803587,100
                135.7610152198,35.2142263173,100
                135.7616623433,35.2142517366,100
                135.7624568497,35.2141808871,100
                135.7626627753,35.2141812872,100
                135.7624549156,35.2148569622,100
                135.7624833609,35.2151950569,100
                135.7623645825,35.2155811071,100
                135.7623339729,35.2162843803,100
                135.7620087749,35.2168390486,100
                135.7618309375,35.21729752,100
                135.7618577408,35.2182150676,100
                135.7620038602,35.2185533912,100
                135.7622676802,35.2188919431,100
                135.7624423878,35.2195201202,100
                135.762441076,35.2199788638,100
                135.7625871577,35.2203413397,100
                135.7629093356,35.2208490192,100
                135.7630848813,35.2211873956,100
                135.7629651397,35.2219114791,100
                135.7629933852,35.2223220366,100
                135.7625803405,35.2227317417,100
                135.7624595358,35.2238180143,100
                135.7625166664,35.224421803,100
                135.7620736867,35.2250003962,100
                135.761190344,35.2252401663,100
                135.7611365873,35.2254380952,100
                135.7611058338,35.2258967806,100
                135.7609282034,35.2262827828,100
                135.7606036586,35.226596033,100
                135.7606033507,35.226703302,100
                135.7606028946,35.2268616719,100
                135.7607479856,35.2275621148,100
                135.7607467362,35.2279967714,100
                135.7608631069,35.2284557387,100
                135.7610975174,35.2287942261,100
                135.7614197853,35.2292777444,100
                135.7614482574,35.2296158313,100
                135.7612995324,35.2301708996,100
                135.7611511752,35.2306051935,100
                135.7611496504,35.2311363929,100
                135.761208002,35.2313055221,100
                135.7611189847,35.2315709848,100
                135.7611768308,35.2326863199,100
                135.761175029,35.2333140682,100
                135.7609973637,35.2337000644,100
                135.7606421898,35.2344236734,100
                135.7604355204,35.2346647508,100
                135.7597876137,35.2348566542,100
                135.7595220262,35.2351216968,100
                135.7594569375,35.2355081207,100
                135.7591906203,35.2360146411,100
                135.758806546,35.2365450829,100
                135.7585905272,35.236709726,100
                135.7583641629,35.2368822356,100
                135.7582159646,35.2372441254,100
                135.7578013134,35.2381607692,100
                135.7576232168,35.2386916128,100
                135.7572093215,35.2393426923,100
                135.7569135549,35.239849146,100
                135.7565575937,35.2408142819,100
                135.7563211785,35.2411518383,100
                135.7559374601,35.2415373396,100
                135.7556998319,35.2422853855,100
                135.7551666159,35.2434674164,100
                135.7549879138,35.2441914247,100
                135.7546623985,35.2447943627,100
                135.7540048172,35.2452677646,100
                135.7550398108,35.2451081542,100
                135.7559020296,35.2450694593,100
                135.756370765,35.2448278578,100
                135.7570850698,35.2448292824,100
                135.7578479031,35.2450733376,100
                135.7583649822,35.2451349984,100
                135.7590304595,35.2449948333,100
                135.7594499595,35.2447329118,100
                135.7598940589,35.2444710381,100
                135.7606358896,35.2434417144,100
                135.7607114577,35.2428558054,100
                135.7609342171,35.2424722259,100
                135.7613537067,35.2421900856,100
                135.7616246929,35.2421704018,100
                135.7619693707,35.2422114944,100
                135.7624378757,35.2420102907,100
                135.7629561102,35.2416474917,100
                135.7632032651,35.2413447998,100
                135.7636719358,35.2410829578,100
                135.7645125127,35.2399527441,100
                135.7660902327,35.2394100608,100
                135.7675442373,35.2390692358,100
                135.7681845543,35.2390704485,100
                135.7688735197,35.2392940731,100
                135.7699062951,35.2398619324,100
                135.770520488,35.2404087876,100
                135.7710859199,35.2407736476,100
                135.7723336885,35.2414480825,100
                135.7728502191,35.2416915721,100
                135.7734161154,35.2418947265,100
                135.7739069078,35.2425423879,100
                135.7739539637,35.2433509235,100
                135.7741741323,35.2438970301,100
                135.7747147476,35.2443426657,100
                135.7748617525,35.2446258911,100
                135.7750065854,35.2456972774,100
                135.775300699,35.2462233024,100
                135.7760140223,35.2465681876,100
                135.7768259904,35.2468728241,100
                135.7771262613,35.2471147727,100
                135.7775175513,35.2481462442,100
                135.7778113094,35.2488137377,100
                135.7781797343,35.2491984094,100
                135.7787452581,35.2495632216,100
                135.7799269368,35.2497876491,100
                135.7806651721,35.250051703,100
                135.7818215489,35.2505387392,100
                135.7826564929,35.2514901225,100
                135.7828542476,35.2515150456,100
                135.7834690779,35.2515925987,100
                135.7840594993,35.2518765816,100
                135.784500703,35.2527059971,100
                135.7847922762,35.2530092496,100
                135.7858486143,35.2540823407,100
                135.7864629571,35.2546291452,100
                135.7872006483,35.2551154544,100
                135.7878158321,35.2553590711,100
                135.7882099927,35.255339545,100
                135.7894176861,35.2550788839,100
                135.7903789108,35.2548582805,100
                135.7913647699,35.2546376428,100
                135.7921784407,35.2543358555,100
                135.7930165445,35.2540947399,100
                135.7936077185,35.2540957435,100
                135.7940754595,35.2541975949,100
                135.7944697873,35.2541174138,100
                135.7954609297,35.2535544195,100
                135.7962256731,35.2530909039,100
                135.7966202399,35.2529095925,100
                135.7976307349,35.2526688139,100
                135.7980748999,35.2523461733,100
                135.7984453666,35.2519425637,100
                135.7987414674,35.2517207299,100
                135.7990616349,35.2517414711,100
                135.7996036325,35.2517019436,100
                135.7998503274,35.2515406596,100
                135.8003937966,35.2508947904,100
                135.8007637561,35.250693284,100
                135.8013797664,35.2505932341,100
                135.8023406234,35.2504937427,100
                135.803597392,35.2502532402,100
                135.8045089189,35.2501738626,100
                135.8055138063,35.2503923063,100
                135.8062766879,35.2506764843,100
                135.8068424839,35.2509805574,100
                135.807064166,35.2509809093,100
                135.8075822759,35.2506179217,100
                135.8079533065,35.2499515254,100
                135.8080775419,35.2494868545,100
                135.808177633,35.2488200292,100
                135.8084248914,35.2484161858,100
                135.8088935644,35.2481137473,100
                135.8099296853,35.247407957,100
                135.81081703,35.2471264411,100
                135.8112365285,35.2467834911,100
                135.8114097632,35.2464199481,100
                135.811435098,35.2461168118,100
                135.8128872882,35.2465434892,100
                135.8137054666,35.2469697478,100
                135.8140991434,35.2471522527,100
                135.8144437774,35.2472336234,100
                135.8147642974,35.2470926274,100
                135.8150353604,35.2470324032,100
                135.8153554693,35.2470733101,100
                135.8157492659,35.2471951754,100
                135.8163700355,35.2473660428,100
                135.8170784871,35.2475609833,100
                135.8175464157,35.2475818945,100
                135.8181130313,35.2475221043,100
                135.8187780627,35.2475230921,100
                135.8193690571,35.2475846018,100
                135.8199350706,35.247807767,100
                135.8208213581,35.2479909767,100
                135.8217351914,35.2476044139,100
                135.8222778345,35.2472413919,100
                135.8225247891,35.2469385742,100
                135.8227479892,35.2462314853,100
                135.8229217485,35.2456051711,100
                135.8229221855,35.2454030526,100
                135.8224313473,35.2445938624,100
                135.8223092273,35.2441288131,100
                135.8223107619,35.2434214023,100
                135.8222133032,35.2429362469,100
                135.8221357971,35.2423947814,100
                135.8221611352,35.2420714296,100
                135.8222604783,35.2416875518,100
                135.822679948,35.2413243536,100
                135.8236174614,35.2405576756,100
                135.8242097419,35.239992607,100
                135.824506259,35.2395281669,100
                135.8247041133,35.2391444309,100
                135.8246306951,35.2389219945,100
                135.8239207308,35.2379300931,100
                135.8237492039,35.2375256081,100
                135.823848196,35.2373034223,100
                135.8242678291,35.2368391626,100
                135.8242783068,35.2368212901,100
                135.8245397388,35.236374689,100
                135.8246883101,35.2359908834,100
                135.8248370738,35.2355060203,100
                135.824813402,35.2350614007,100
                135.8245679583,35.2346770236,100
                135.8234373108,35.2336647959,100
                135.8232162827,35.2333815095,100
                135.8222599896,35.2327713638,100
                135.8220389551,35.2324880789,100
                135.8218682072,35.231719789,100
                135.821450395,35.2313553729,100
                135.8213283434,35.2308499046,100
                135.8210091562,35.2304047835,100
                135.8210126057,35.2288081405,100
                135.8205705191,35.2282819924,100
                135.8206939849,35.2281204788,100
                135.8210640987,35.2277774166,100
                135.820301642,35.2259793452,100
                135.8188012411,35.2252292982,100
                135.8183094224,35.2249253923,100
                135.8179899977,35.2246217409,100
                135.8175226028,35.224418927,100
                135.8170792803,35.224458691,100
                135.8164886543,35.2243163256,100
                135.8160455034,35.2242752374,100
                135.8158242985,35.2240929984,100
                135.8153906546,35.2229000565,100
                135.8150468926,35.2224750882,100
                135.8146293109,35.222029796,100
                135.8142362503,35.2216249639,100
                135.8141136,35.2214226586,100
                135.8140407804,35.220957675,100
                135.8136723586,35.2205528773,100
                135.8137485974,35.219502043,100
                135.8140706921,35.218613204,100
                135.8140715116,35.2182493899,100
                135.8135601193,35.2177182427,100
                135.8133637732,35.2174349766,100
                135.8128467924,35.2174139777,100
                135.81235481,35.2172111071,100
                135.8119362101,35.2172306787,100
                135.8113706662,35.2169064199,100
                135.8102388734,35.2165610732,100
                135.8107093645,35.2163267208,100
                135.8108827614,35.2160120476,100
                135.8112691184,35.2148631656,100
                135.811538749,35.2144070146,100
                135.8120008563,35.2136834003,100
                135.8122328015,35.2129279531,100
                135.812176642,35.2123137611,100
                135.8119857273,35.2119040894,100
                135.8117180241,35.2115100742,100
                135.8115662791,35.2107540406,100
                135.8115676794,35.2101399359,100
                135.811491824,35.2097462135,100
                135.8113616121,35.2095394576,100
                135.8111126634,35.2093344215,100
                135.8100615093,35.2076007763,100
                135.8099858271,35.2071440245,100
                135.8099031619,35.206935581,100
                135.8096234339,35.2062301965,100
                135.8094640527,35.20600769,100
                135.8089083987,35.2057076675,100
                135.8086404934,35.2054238632,100
                135.8084491717,35.2052031375,100
                135.8081232059,35.2051396018,100
                135.8076817145,35.2052491304,100
                135.8072019791,35.2053114136,100
                135.8068757934,35.2053423845,100
                135.8065115437,35.2052316004,100
                135.806109331,35.2049632845,100
                135.8057448978,35.204931233,100
                135.805380154,35.2050408738,100
                135.8050344377,35.2052135045,100
                135.8046699517,35.2052129291,100
                135.804229222,35.2050075764,100
                135.8038457992,35.204896754,100
                135.8032133547,35.2046437676,100
                135.8029663434,35.2043416736,100
                135.8026796604,35.2039002855,100
                135.8025268973,35.2036008763,100
                135.8022012066,35.2034271805,100
                135.8018559799,35.2033951475,100
                135.8015872908,35.2034419715,100
                135.8012604482,35.2037406115,100
                135.8010683186,35.2038662221,100
                135.8008380983,35.2038816264,100
                135.8005503831,35.2038653871,100
                135.8003774657,35.2039753229,100
                135.8002047376,35.2040065941,100
                135.8000130611,35.2039432537,100
                135.7998029484,35.2035650131,100
                135.7998034049,35.2033760637,100
                135.7999387461,35.2029354216,100
                135.7999392028,35.2027464705,100
                135.7996906658,35.2023996452,100
                135.7995952764,35.2021790589,100
                135.7993846203,35.2020370214,100
                135.7988548393,35.2016375506,100
                135.7987017128,35.2014956055,100
                135.7985874582,35.2011489961,100
                135.7984343176,35.2010227542,100
                135.7982427422,35.2009122251,100
                135.7976099229,35.2008324532,100
                135.7974469849,35.200722603,100
                135.7973992525,35.2006904105,100
                135.797246267,35.2005012078,100
                135.7968828231,35.2000755223,100
                135.7967108953,35.1997917772,100
                135.7965966893,35.1994294614,100
                135.7965981992,35.1988153526,100
                135.7969269543,35.1977294358,100
                135.7970049568,35.1973999717,100
                135.7970054204,35.197211021,100
                135.7965457069,35.1969426499,100
                135.7962586354,35.1966744906,100
                135.7960100906,35.1963434336,100
                135.7959149115,35.1960441089,100
                135.7958389291,35.1957448158,100
                135.7958017065,35.1952881142,100
                135.7958025224,35.1949574672,100
                135.7958798633,35.1947056123,100
                135.796135438,35.1944091899,100
                135.7963663883,35.1940946977,100
                135.7967900718,35.1934025487,100
                135.7968674848,35.1931192839,100
                135.7966765279,35.1927725486,100
                135.7963708743,35.192268153,100
                135.7960645279,35.192047218,100
                135.7957584707,35.1917002917,100
                135.7955693862,35.1905978227,100
                135.79530449,35.1899572192,100
                135.7950558117,35.1896891213,100
                135.794309554,35.1889793343,100
                135.7941569256,35.1886483631,100
                135.7939080207,35.1884747738,100
                135.7935632877,35.1882694727,100
                135.7928172707,35.1874652365,100
                135.79279857,35.1872762543,100
                135.7927821502,35.1861739982,100
                135.7928216344,35.1857174271,100
                135.7937888389,35.1853009956,100
                135.7939236347,35.1850807879,100
              </coordinates>
            </LinearRing>
          </outerBoundaryIs>
        </Polygon>
      </Placemark>
    </Document>
  </Document>
</kml>
