<?xml version="1.0" encoding="UTF-8"?>
<kml xmlns="http://www.opengis.net/kml/2.2">
  <Document id="root_doc">
    <Document id="_4_02______disv4326">
      <name>14_02明徳disv4326</name>
      <Placemark id="_4_02______disv4326.1">
        <visibility>1</visibility>
        <Polygon>
          <extrude>0</extrude>
          <outerBoundaryIs>
            <LinearRing>
              <coordinates>
                135.7944105493,35.0691832347,100
                135.7940397484,35.0689076667,100
                135.7939819739,35.0686588239,100
                135.7937924822,35.0685605417,100
                135.7937540707,35.0685406167,100
                135.7937583753,35.0684208985,100
                135.7935938876,35.0684031555,100
                135.793593712,35.0684730182,100
                135.7933867796,35.0684552033,100
                135.7934083089,35.0683417832,100
                135.7932385001,35.0683284676,100
                135.7932497718,35.0681212217,100
                135.793319368,35.0679952055,100
                135.7933244882,35.0679261253,100
                135.7932106998,35.0679218484,100
                135.7932213102,35.0676371329,100
                135.7932117964,35.067486615,100
                135.7934938786,35.067458639,100
                135.7934843953,35.0673040376,100
                135.7938602184,35.0672808666,100
                135.7938015133,35.0671214637,100
                135.7937821446,35.0669465617,100
                135.7936287524,35.0669544027,100
                135.7934210483,35.0669134156,100
                135.7933022835,35.0669213147,100
                135.7932983331,35.0668147528,100
                135.7934418315,35.0668068955,100
                135.7934468494,35.0667783819,100
                135.7936546769,35.0667706329,100
                135.7936450794,35.0666525826,100
                135.793828194,35.0666366222,100
                135.7938220005,35.0665785105,100
                135.7938142588,35.0665058872,100
                135.7937943636,35.0663192242,100
                135.7937749114,35.0661768591,100
                135.7935770008,35.0661765254,100
                135.7935672499,35.066119534,100
                135.7934534439,35.0661234267,100
                135.7933452287,35.0661181733,100
                135.7933318072,35.0660054683,100
                135.7934277716,35.0659943621,100
                135.7933753091,35.0657124974,100
                135.792548858,35.0657842721,100
                135.7921973358,35.0671477652,100
                135.7920999131,35.0675557919,100
                135.7920045454,35.0679552293,100
                135.7919454723,35.0682300032,100
                135.7918386404,35.0685047663,100
                135.7917213321,35.0687226773,100
                135.7916390024,35.0688278246,100
                135.7914367127,35.0690719301,100
                135.7912292241,35.0692722211,100
                135.790952677,35.0694942965,100
                135.7906221194,35.0697496604,100
                135.7901808045,35.0700718106,100
                135.7898990148,35.0702676776,100
                135.7894579773,35.0704807349,100
                135.7890097695,35.0706229999,100
                135.7889099649,35.0706429704,100
                135.7882361986,35.0708214653,100
                135.7868590525,35.0711743072,100
                135.7861912646,35.071323715,100
                135.7846180671,35.0715919595,100
                135.7844906348,35.0716130752,100
                135.783994659,35.0716951664,100
                135.7833255665,35.0717590616,100
                135.7830423229,35.0717860987,100
                135.7824723234,35.0717903714,100
                135.7821340784,35.0717949126,100
                135.7809692345,35.0717155813,100
                135.781104541,35.0718326572,100
                135.7813629337,35.0720562337,100
                135.7812938509,35.0721282276,100
                135.7812603437,35.0729626541,100
                135.7810657211,35.0731323165,100
                135.7809700435,35.0732268701,100
                135.7812501923,35.0733854071,100
                135.7833212428,35.073417536,100
                135.7842204326,35.0734315161,100
                135.7833365955,35.0746096068,100
                135.7834627277,35.0757882814,100
                135.7834883216,35.0762234938,100
                135.783384346,35.0762477487,100
                135.7833136828,35.076317064,100
                135.7832453687,35.0764142735,100
                135.7828693365,35.0763972687,100
                135.782686396,35.076348138,100
                135.7826026021,35.0762219255,100
                135.7824195777,35.0761971625,100
                135.7822313594,35.0762659877,100
                135.7816534685,35.0758703578,100
                135.7804892591,35.0763930273,100
                135.7801225725,35.0765916764,100
                135.7799241774,35.0767581614,100
                135.7798842331,35.0768964069,100
                135.779977884,35.0770348226,100
                135.78011603,35.0771856434,100
                135.7801255602,35.0772586923,100
                135.780080667,35.0773968597,100
                135.7800011546,35.0775228509,100
                135.7798816995,35.0776813068,100
                135.7798472173,35.077730051,100
                135.7798668546,35.077787062,100
                135.7800198107,35.0779500922,100
                135.7800591951,35.0780233362,100
                135.7800836402,35.0781414146,100
                135.7800930937,35.0783082017,100
                135.7801373821,35.0783977934,100
                135.7801767886,35.0784710384,100
                135.7801266266,35.0787232156,100
                135.7801856073,35.0788779072,100
                135.7802146668,35.0791138184,100
                135.7802740434,35.0791839989,100
                135.7803283026,35.0792532557,100
                135.7803377672,35.079415958,100
                135.7803323362,35.0795990572,100
                135.7802528765,35.0797046242,100
                135.780128921,35.0797979984,100
                135.7799952114,35.0798383941,100
                135.7797873871,35.0798340059,100
                135.7796387702,35.0798907134,100
                135.7794408299,35.0798984563,100
                135.7792625064,35.0799632082,100
                135.7791288404,35.0799791651,100
                135.7792423932,35.0800770516,100
                135.779469726,35.0801954265,100
                135.7796775086,35.0802161547,100
                135.7799099518,35.0802653781,100
                135.7801275858,35.0803023912,100
                135.7803502542,35.080306876,100
                135.7805777513,35.0803560892,100
                135.7808348154,35.0804582471,100
                135.7810522567,35.0805685018,100
                135.7826872517,35.0803609153,100
                135.7826886845,35.080360733,100
                135.7826900161,35.0803605643,100
                135.7826950941,35.0803631559,100
                135.7827917524,35.0804124859,100
                135.7829088935,35.0804413145,100
                135.7832905415,35.0804268274,100
                135.7832929134,35.0804343183,100
                135.7834208266,35.0808381516,100
                135.7833625244,35.0809429945,100
                135.7833346676,35.0810660856,100
                135.7833352948,35.0812499261,100
                135.7834015286,35.0815631948,100
                135.7834029729,35.0816588026,100
                135.7834030188,35.0818818493,100
                135.7835109214,35.0821218045,100
                135.7835302451,35.0822341852,100
                135.7835746062,35.0823963841,100
                135.7837817633,35.0826219068,100
                135.7838435769,35.0828364233,100
                135.783852334,35.0832182865,100
                135.7838687772,35.083526498,100
                135.7839909529,35.0838529978,100
                135.783808207,35.084056842,100
                135.7837001198,35.0841148473,100
                135.7835998435,35.0844415906,100
                135.783496947,35.0847768679,100
                135.7834170892,35.0849443664,100
                135.7832495551,35.0850995794,100
                135.7830740218,35.0853175429,100
                135.7828571298,35.0855949876,100
                135.7827243845,35.0857607552,100
                135.7826983419,35.0859553342,100
                135.7826438665,35.0863702477,100
                135.7824322032,35.0865510315,100
                135.7823268681,35.0866409976,100
                135.7819622481,35.0869536567,100
                135.7825493761,35.0874126863,100
                135.7826462998,35.0872491169,100
                135.7828214877,35.0869218774,100
                135.7828809539,35.0867966234,100
                135.7828873347,35.0867402938,100
                135.78281778,35.0866356588,100
                135.7831537509,35.086287926,100
                135.7831842157,35.0861789592,100
                135.7830105035,35.0856874958,100
                135.7830712379,35.0855437222,100
                135.7832903152,35.0852795894,100
                135.7834282164,35.0851624323,100
                135.7835853293,35.0850784106,100
                135.7837333007,35.0849843709,100
                135.7838346754,35.0848530644,100
                135.7839110413,35.0846282569,100
                135.7840470925,35.0841093823,100
                135.7841534387,35.0836872926,100
                135.7841875584,35.0835143146,100
                135.7843363429,35.0833198481,100
                135.7844214188,35.0829808235,100
                135.7844219482,35.082776657,100
                135.7844812549,35.0826279495,100
                135.784654573,35.0823548585,100
                135.7848529104,35.0821717459,100
                135.7849458453,35.0819732359,100
                135.7850782519,35.0816260523,100
                135.7852140317,35.0817884125,100
                135.7852512106,35.0819389795,100
                135.7853214957,35.0820009383,100
                135.7856782427,35.0820748063,100
                135.7858138053,35.0823221699,100
                135.7856461035,35.0817449849,100
                135.7856455568,35.0817431089,100
                135.7856820461,35.081740836,100
                135.7863689281,35.081698031,100
                135.7863082024,35.0815667907,100
                135.7866232948,35.081405147,100
                135.7874452128,35.0813834045,100
                135.7876898921,35.0806443337,100
                135.7876915177,35.0806394215,100
                135.7876963386,35.0806243024,100
                135.7877861953,35.0803423855,100
                135.787525158,35.0795776624,100
                135.7880986933,35.0794740716,100
                135.7882169205,35.0791539055,100
                135.7881521426,35.0787716584,100
                135.7881337333,35.0786249977,100
                135.7880878477,35.0782002459,100
                135.788579331,35.0781605993,100
                135.7889741377,35.0780018335,100
                135.7896403983,35.077880718,100
                135.7895375598,35.0776413718,100
                135.7898286213,35.0775993341,100
                135.7899254613,35.077585414,100
                135.7911804388,35.0774050133,100
                135.791205733,35.0782977844,100
                135.7930501158,35.0782583041,100
                135.7935005456,35.0782590636,100
                135.7935489235,35.0781318137,100
                135.7935421165,35.0778644622,100
                135.7936508781,35.077862603,100
                135.7936536085,35.0779699377,100
                135.7942696478,35.077966184,100
                135.7944552358,35.0779120561,100
                135.7944681075,35.078059058,100
                135.7944280531,35.0781897026,100
                135.7943548952,35.0783094455,100
                135.795328353,35.0784091082,100
                135.7951572259,35.0779676701,100
                135.7953502472,35.0775922672,100
                135.7953504628,35.0775050795,100
                135.7952843539,35.0774505288,100
                135.7949266383,35.0774608477,100
                135.7947412804,35.0774223662,100
                135.7945826108,35.0772969524,100
                135.7945166592,35.0771878914,100
                135.7946429715,35.0769920354,100
                135.7946365831,35.0768994841,100
                135.7951201846,35.0768730388,100
                135.7958155762,35.0769177222,100
                135.7958072379,35.0776148609,100
                135.7967211855,35.077665326,100
                135.7967224171,35.0771642438,100
                135.7967152372,35.0770966224,100
                135.7964571178,35.0770090759,100
                135.796510582,35.0768240138,100
                135.7964386587,35.076442605,100
                135.7970415649,35.0763838126,100
                135.7976455822,35.0763249488,100
                135.7975001561,35.076204843,100
                135.7971041214,35.0756432395,100
                135.7969324696,35.0754142802,100
                135.7960590646,35.075042457,100
                135.796753966,35.0743401199,100
                135.7980221237,35.0732604669,100
                135.7991357839,35.0721314619,100
                135.7986518159,35.0713539318,100
                135.7987466291,35.0712278835,100
                135.7988234635,35.0712037128,100
                135.7990596265,35.0712332578,100
                135.7991955338,35.0712140439,100
                135.7993551127,35.0711657815,100
                135.7995323739,35.0711369162,100
                135.7995274051,35.0707485053,100
                135.7993932297,35.0707601168,100
                135.7992277546,35.07080358,100
                135.7989500974,35.0708322104,100
                135.7988497838,35.0707980993,100
                135.7988322056,35.0707348273,100
                135.7989096266,35.0704776865,100
                135.7989039526,35.0703806294,100
                135.7988513069,35.0701717286,100
                135.7988102375,35.0700551051,100
                135.7986572229,35.0698363196,100
                135.7985806181,35.0697585829,100
                135.7985571635,35.0696905827,100
                135.7985222664,35.0694769219,100
                135.7982743937,35.0694036217,100
                135.7981211366,35.0692771645,100
                135.7980800346,35.0691750493,100
                135.798021219,35.0690827634,100
                135.7979794972,35.0692332661,100
                135.7979967078,35.069437179,100
                135.798220399,35.0697385515,100
                135.7982613243,35.0699134175,100
                135.7984143273,35.0701370625,100
                135.7984317983,35.0702438585,100
                135.7985200858,35.0703702085,100
                135.7985198965,35.0704479591,100
                135.7984131205,35.0706323001,100
                135.79832425,35.070753499,100
                135.7980164793,35.071019978,100
                135.797779687,35.0704248335,100
                135.797191959,35.0704177325,100
                135.7969303538,35.070187286,100
                135.7967033944,35.0700815511,100
                135.796389641,35.0697313614,100
                135.7964364896,35.0696309414,100
                135.7964542846,35.0695015972,100
                135.796419631,35.0693818153,100
                135.7963267539,35.0692427794,100
                135.7961988446,35.0691371382,100
                135.7960652296,35.0689835975,100
                135.7960015011,35.0688446104,100
                135.7959027049,35.0687438769,100
                135.7957513451,35.0686909454,100
                135.79550668,35.0686809589,100
                135.7950690569,35.0689484107,100
                135.7951155949,35.0689820115,100
                135.7952671114,35.0689631795,100
                135.7953311715,35.0689775832,100
                135.7953834893,35.0690207716,100
                135.7953891227,35.0690974754,100
                135.795313222,35.069159606,100
                135.7951907455,35.0692120795,100
                135.795050866,35.0692358613,100
                135.7949055556,35.0691014556,100
                135.7946862333,35.0693015208,100
                135.7945852369,35.0693623412,100
                135.7944685018,35.0693534118,100
                135.7944105493,35.0691832347,100
              </coordinates>
            </LinearRing>
          </outerBoundaryIs>
        </Polygon>
      </Placemark>
    </Document>
  </Document>
</kml>
