<?xml version="1.0" encoding="UTF-8"?>
<kml xmlns="http://www.opengis.net/kml/2.2">
  <Document id="root_doc">
    <Document id="_4_05______disv4326">
      <name>14_05鞍馬disv4326</name>
      <Placemark id="_4_05______disv4326.1">
        <visibility>1</visibility>
        <Polygon>
          <extrude>0</extrude>
          <outerBoundaryIs>
            <LinearRing>
              <coordinates>
                135.7810476137,35.1188842353,100
                135.7807537101,35.1179174764,100
                135.7804100356,35.1170886599,100
                135.7800746199,35.1168687515,100
                135.7797292637,35.1166651638,100
                135.7797606062,35.1164265494,100
                135.7798602306,35.1161262969,100
                135.7799695797,35.1158828953,100
                135.7799405321,35.11566361,100
                135.779606165,35.1150458716,100
                135.7793701434,35.1146231773,100
                135.7792799114,35.1141846893,100
                135.7791023982,35.1140544332,100
                135.7788261535,35.1138834336,100
                135.7785301344,35.1137204964,100
                135.7784711745,35.1135904559,100
                135.7784915184,35.1133712596,100
                135.7784229433,35.1131519024,100
                135.7784046061,35.1126241055,100
                135.7785731318,35.1124213761,100
                135.7787514042,35.1122755685,100
                135.7788307697,35.1121620461,100
                135.7787532744,35.1118736564,100
                135.7786846127,35.1116867661,100
                135.7787203405,35.1114271033,100
                135.7788291569,35.1111817973,100
                135.7788100417,35.1110792939,100
                135.7787228045,35.1109563845,100
                135.7785121101,35.1107867702,100
                135.7782704187,35.1106466074,100
                135.7780261368,35.1098303567,100
                135.7777489604,35.1094870221,100
                135.7775641987,35.1092454779,100
                135.7775372236,35.1091103535,100
                135.7772231465,35.1090801302,100
                135.7769348453,35.1090415738,100
                135.7767702731,35.1089566207,100
                135.7766367212,35.1088251736,100
                135.7764928634,35.108702159,100
                135.7761996996,35.1085535165,100
                135.7756492823,35.1083196775,100
                135.7753712332,35.1083022631,100
                135.7752012654,35.1083268104,100
                135.7748814369,35.1085209456,100
                135.7746339681,35.1086178172,100
                135.7742630846,35.1086467083,100
                135.7739437865,35.1086461163,100
                135.7736091721,35.1085904934,100
                135.7730988815,35.1084612989,100
                135.7728725237,35.1083762268,100
                135.7725333182,35.1081217089,100
                135.7723124325,35.1079181192,100
                135.7720757607,35.1078372519,100
                135.7719473374,35.1077143302,100
                135.7718032204,35.1076886378,100
                135.7718858182,35.107616817,100
                135.7719945468,35.1074012359,100
                135.7720631896,35.1071931864,100
                135.7720637169,35.1070027568,100
                135.7719817764,35.1068375267,100
                135.7717715159,35.1065197263,100
                135.7717003401,35.1061809877,100
                135.7716129298,35.1061342739,100
                135.7714275575,35.1061212508,100
                135.771176606,35.1060618363,100
                135.771063608,35.1059558465,100
                135.7709924601,35.1056087259,100
                135.7708851217,35.1053164712,100
                135.7706642116,35.1051256272,100
                135.7705606545,35.1049383127,100
                135.7705822702,35.1045701683,100
                135.7705519395,35.104375385,100
                135.7704595924,35.1042483053,100
                135.7700944938,35.1040528948,100
                135.7697806504,35.1039465265,100
                135.7696419411,35.1038277392,100
                135.7693751509,35.1033908825,100
                135.7693074026,35.1034042937,100
                135.7691845016,35.1034286232,100
                135.7687161411,35.1033346372,100
                135.7685822756,35.1033301595,100
                135.7678513684,35.1031975753,100
                135.7678052663,35.1031128367,100
                135.7677806191,35.1027192551,100
                135.767719356,35.1025328657,100
                135.7674976246,35.1021729254,100
                135.76740039,35.1019569589,100
                135.7673704023,35.1016352719,100
                135.7671753695,35.1009319906,100
                135.7670884422,35.1007159018,100
                135.7670997366,35.1003562626,100
                135.7670339448,35.0999456309,100
                135.766932412,35.0997813469,100
                135.7668143587,35.0996415404,100
                135.7666713909,35.0992052669,100
                135.7665270918,35.0989074462,100
                135.7665532598,35.0987593923,100
                135.7664613293,35.0984883619,100
                135.7665701368,35.0982515894,100
                135.7660343021,35.0983563443,100
                135.7657466145,35.0981684639,100
                135.7657369687,35.0979357611,100
                135.7656808554,35.0977493789,100
                135.76542291,35.0972125978,100
                135.765332761,35.0970250244,100
                135.7650636567,35.0967459056,100
                135.7648912239,35.0965670467,100
                135.7646173628,35.0963645413,100
                135.7643500609,35.09619895,100
                135.764206374,35.0960293705,100
                135.764191194,35.0959363096,100
                135.7639336304,35.0959696167,100
                135.7637063041,35.0962315821,100
                135.7634332678,35.0962818313,100
                135.7632360211,35.0962869421,100
                135.7630868474,35.0962316506,100
                135.7629686703,35.0961467711,100
                135.7627680362,35.0960787034,100
                135.7625418195,35.0959597381,100
                135.7618985768,35.0958146084,100
                135.7612245835,35.0956143431,100
                135.7610720208,35.0955243936,100
                135.7609641775,35.095422629,100
                135.7606713424,35.0951934562,100
                135.7602704133,35.0949430128,100
                135.7598748024,35.0946459583,100
                135.7596179754,35.0944254463,100
                135.7593206495,35.094061756,100
                135.7575295378,35.0954889299,100
                135.757580132,35.0957896048,100
                135.7576259429,35.0959758282,100
                135.7577127903,35.0962088248,100
                135.7576915588,35.096428792,100
                135.7577525829,35.0966870902,100
                135.7577977082,35.0969838099,100
                135.7578848038,35.0971320854,100
                135.7579926811,35.097221174,100
                135.757806739,35.0974112383,100
                135.7575647493,35.0976902094,100
                135.7575227361,35.0979695034,100
                135.7573473754,35.0980707816,100
                135.7567279338,35.0985857764,100
                135.7565867701,35.0987790251,100
                135.7564422019,35.0989057867,100
                135.7562823586,35.0989816,100
                135.7560608416,35.0990065143,100
                135.7558240235,35.0989892132,100
                135.7555976838,35.0989125641,100
                135.7554535278,35.0988996008,100
                135.7549231898,35.0988857992,100
                135.754450124,35.0986521017,100
                135.7539773825,35.0982096638,100
                135.7532615099,35.0982462602,100
                135.7530146571,35.0981399164,100
                135.7527885632,35.0979829078,100
                135.7525627155,35.0977369532,100
                135.7524291027,35.097602032,100
                135.7522645867,35.0975212054,100
                135.7520277898,35.0974911497,100
                135.7516417974,35.0974226933,100
                135.7511835323,35.0974090922,100
                135.751070369,35.0973706926,100
                135.7509524613,35.0971927016,100
                135.750819488,35.0968962258,100
                135.7507142176,35.0967334011,100
                135.7501075591,35.0964105409,100
                135.7499104283,35.096341899,100
                135.7497768976,35.0962315542,100
                135.7495359641,35.0958712631,100
                135.7493507738,35.0958074335,100
                135.7486200286,35.0956620663,100
                135.7482665383,35.0955178888,100
                135.7477150945,35.0959837476,100
                135.7464712729,35.0959480261,100
                135.7463427705,35.0958349416,100
                135.7461207871,35.0957418067,100
                135.7458653409,35.0957544499,100
                135.7456977088,35.0957786833,100
                135.7454733014,35.0956246239,100
                135.745086725,35.0955015688,100
                135.7445436552,35.0953690341,100
                135.7442972456,35.0952239415,100
                135.7440641455,35.0951600768,100
                135.7436824303,35.0951632285,100
                135.7434279024,35.0949910744,100
                135.7432998552,35.0947946051,100
                135.743027785,35.0948365048,100
                135.7429963143,35.0945455831,100
                135.7426522663,35.0946999426,100
                135.7426458046,35.0948915561,100
                135.7426611381,35.0951125808,100
                135.7425446612,35.0953353014,100
                135.7422329607,35.0956092363,100
                135.7420726319,35.0958116534,100
                135.742006201,35.0959151083,100
                135.7420849953,35.0960776725,100
                135.7423121323,35.096233996,100
                135.7430381459,35.0965722806,100
                135.7434979177,35.0968827534,100
                135.7436803344,35.097196593,100
                135.7436976444,35.0975686814,100
                135.7435890196,35.0978703656,100
                135.7433050357,35.0980880912,100
                135.742877883,35.0983751668,100
                135.7424754767,35.0986533478,100
                135.7423180248,35.0988309819,100
                135.7424315136,35.0991965807,100
                135.7425041695,35.0994875862,100
                135.7425518568,35.0998304412,100
                135.7426657603,35.100112518,100
                135.7428219471,35.1001829875,100
                135.743057819,35.100249115,100
                135.7433288671,35.1004191215,100
                135.7428183189,35.1008930694,100
                135.7425614588,35.1011740196,100
                135.7424527864,35.1014734483,100
                135.7424979451,35.1017756637,100
                135.7425967943,35.1023170113,100
                135.7424685501,35.1026885839,100
                135.7422283543,35.1034609884,100
                135.7421050481,35.1039362347,100
                135.7421262267,35.1040895928,100
                135.742251584,35.1042861286,100
                135.7425098744,35.1048054853,100
                135.7426630812,35.1054619484,100
                135.7427307734,35.1061903479,100
                135.7425512736,35.1069111168,100
                135.7422940298,35.1077848951,100
                135.7419945495,35.1083249136,100
                135.7417409407,35.1090274264,100
                135.7416440085,35.1102421821,100
                135.7415680266,35.1111233105,100
                135.7417101225,35.1118046139,100
                135.7416653115,35.1125010207,100
                135.7418438874,35.1130359208,100
                135.7419519324,35.1133991871,100
                135.7418978523,35.113759719,100
                135.7416908284,35.1144736026,100
                135.7415791755,35.1148127447,100
                135.7414205375,35.1151028425,100
                135.7412969312,35.1153859014,100
                135.7412347048,35.1155702825,100
                135.7412046177,35.1158358617,100
                135.7412014432,35.1161556532,100
                135.7411909478,35.1163853566,100
                135.7412298404,35.1166153049,100
                135.741350429,35.1169155692,100
                135.7413663838,35.1172444858,100
                135.7414676959,35.1175491462,100
                135.7416756327,35.1179017082,100
                135.7418994858,35.1183107132,100
                135.741990565,35.1188179633,100
                135.742107383,35.1192218136,100
                135.7420825268,35.119514517,100
                135.7419392549,35.1198424655,100
                135.7417658902,35.1201567651,100
                135.7415484688,35.1204843541,100
                135.741371344,35.1206251856,100
                135.7412059478,35.1206895589,100
                135.7410841296,35.1207901524,100
                135.7409439662,35.121079873,100
                135.7407942884,35.121220902,100
                135.7406663832,35.1213822604,100
                135.7405017745,35.1216425607,100
                135.7404812579,35.1217730888,100
                135.7405591475,35.1219492496,100
                135.7406420876,35.122168241,100
                135.7407307849,35.122362455,100
                135.7409647886,35.1225778216,100
                135.7410401946,35.1227269342,100
                135.7410327502,35.1229250985,100
                135.7410497637,35.1231481758,100
                135.7411443912,35.1232973994,100
                135.7413847926,35.1234227031,100
                135.7416660952,35.1235775317,100
                135.7417855261,35.123717863,100
                135.7417754685,35.1239025,100
                135.7416778813,35.1240506131,100
                135.7414703776,35.1242070145,100
                135.7411639001,35.1243741235,100
                135.7408796365,35.1245165583,100
                135.7408176358,35.124652702,100
                135.7408852062,35.124981808,100
                135.7408998625,35.1251576944,100
                135.7408184537,35.1253383775,100
                135.7405371315,35.1255987124,100
                135.7404366211,35.1257952712,100
                135.7402848887,35.1261679284,100
                135.7400351222,35.1266920051,100
                135.7400482986,35.1271160012,100
                135.7398209349,35.1277302719,100
                135.7398193564,35.1279558443,100
                135.7396597944,35.1284096864,100
                135.739615838,35.1284975559,100
                135.7394777804,35.1287734758,100
                135.7390447802,35.1294221689,100
                135.7385547982,35.1302019429,100
                135.7385035208,35.1303735335,100
                135.7383890599,35.1310618506,100
                135.7383694754,35.1315220472,100
                135.7383300773,35.1318650818,100
                135.7384128087,35.1324715627,100
                135.7387461917,35.1327208129,100
                135.7391042094,35.1329541986,100
                135.7391274207,35.1331954599,100
                135.7390551621,35.1335543414,100
                135.7388915563,35.1342902318,100
                135.7390285271,35.1347724557,100
                135.7399724227,35.1352407682,100
                135.7403108445,35.1353930483,100
                135.7408738026,35.1354475599,100
                135.7410578426,35.135474009,100
                135.7411543379,35.1355526696,100
                135.7413625229,35.1360008153,100
                135.741553951,35.1363881474,100
                135.7417583617,35.1366355678,100
                135.7420669659,35.1368601103,100
                135.7422793443,35.1370556433,100
                135.7426602612,35.137458166,100
                135.7429079559,35.1375813738,100
                135.7432903152,35.1377379657,100
                135.7437135316,35.1378313291,100
                135.7445290002,35.1378737514,100
                135.7447488039,35.1379113281,100
                135.7449967548,35.1380841843,100
                135.7451323184,35.1382822291,100
                135.7450192747,35.1387089238,100
                135.7451245693,35.1388957777,100
                135.7452872455,35.1390328192,100
                135.7454390701,35.1391924446,100
                135.7455697909,35.1395145725,100
                135.7454604489,35.1401216405,100
                135.7453490679,35.1403385346,100
                135.7450838867,35.1405469363,100
                135.7448090886,35.1420523101,100
                135.7447624671,35.1425802764,100
                135.7449478739,35.1428593491,100
                135.7450635197,35.1433213852,100
                135.7450449395,35.1435737581,100
                135.7449581967,35.1439842379,100
                135.7447591402,35.1444693448,100
                135.7444273461,35.1455995452,100
                135.7440112896,35.1460061459,100
                135.7438670901,35.1464798739,100
                135.7436425299,35.1466629267,100
                135.743250239,35.1467222377,100
                135.7430231234,35.1469752166,100
                135.7428093287,35.1470793447,100
                135.7422274951,35.1470736696,100
                135.7421372022,35.1471798202,100
                135.7420966225,35.1474075597,100
                135.7423812927,35.1481667892,100
                135.7425446315,35.148703074,100
                135.7428528948,35.1490339527,100
                135.7433470776,35.1490938759,100
                135.7434406358,35.1491861204,100
                135.7435457725,35.1495060733,100
                135.7436725517,35.1497042371,100
                135.7446726767,35.1501081232,100
                135.7451576119,35.1498043431,100
                135.745554215,35.1498051761,100
                135.7462249264,35.1499570096,100
                135.7471097186,35.1499337862,100
                135.7486977587,35.1494106891,100
                135.7491549258,35.1495619814,100
                135.749796221,35.1493627875,100
                135.7501621599,35.1494136747,100
                135.7510479566,35.1490646134,100
                135.7512245719,35.1483733817,100
                135.7515920659,35.1479093044,100
                135.7516039774,35.1478942626,100
                135.7525004703,35.1472310952,100
                135.7530487591,35.147029799,100
                135.7537218698,35.147655851,100
                135.7540105586,35.1476921445,100
                135.7543025876,35.1478583173,100
                135.7547520304,35.1475908904,100
                135.7559654105,35.1481909253,100
                135.7565797833,35.1485109037,100
                135.75695251,35.148252371,100
                135.7571309069,35.1486956325,100
                135.7580672347,35.1494521629,100
                135.7586442542,35.1498065545,100
                135.7589172231,35.1503585271,100
                135.7597405993,35.1504854284,100
                135.7600753117,35.1507868746,100
                135.7604413516,35.1508126628,100
                135.7610525365,35.1504629217,100
                135.7614794403,35.1505389678,100
                135.7619960674,35.1512417696,100
                135.7623312962,35.1513677084,100
                135.7627892854,35.1512433071,100
                135.7630950194,35.1510183235,100
                135.7635835313,35.1508939073,100
                135.7639182583,35.1511953429,100
                135.7641309503,35.1514965434,100
                135.7646487518,35.1517982587,100
                135.7656574011,35.1511485359,100
                135.7660856608,35.1507483465,100
                135.7665182762,35.1509439701,100
                135.7670672034,35.151020159,100
                135.7673412899,35.1511961822,100
                135.7674929847,35.1514971901,100
                135.7680415172,35.1517238038,100
                135.7683762636,35.1520252278,100
                135.7684360283,35.1524764913,100
                135.7690745405,35.1532546375,100
                135.7696833571,35.1537570697,100
                135.7712071043,35.1543864965,100
                135.7718157834,35.1549390611,100
                135.7721498744,35.1554910429,100
                135.7723315743,35.1559926689,100
                135.7726356441,35.156369165,100
                135.7733011911,35.1558946065,100
                135.7736978975,35.1558702704,100
                135.7737605712,35.155268813,100
                135.7741571841,35.1552695462,100
                135.7744020199,35.1549943542,100
                135.7747983136,35.1551203708,100
                135.7752870071,35.1549207693,100
                135.7758969966,35.1549971035,100
                135.7759584342,35.1548467878,100
                135.7758984181,35.154470748,100
                135.7763860453,35.1546721409,100
                135.7769657976,35.1546481285,100
                135.7779399314,35.1548809665,100
                135.7782140539,35.155056893,100
                135.7785802488,35.1550324853,100
                135.7789470909,35.1547575056,100
                135.7793130852,35.154808239,100
                135.7798911088,35.1554358526,100
                135.78025724,35.1554365109,100
                135.7805014386,35.1553868772,100
                135.7810803343,35.1556886295,100
                135.7817810818,35.15606588,100
                135.7824197522,35.1568439456,100
                135.7828765754,35.1571706131,100
                135.7831013147,35.1572098862,100
                135.7834559953,35.1572718543,100
                135.7842426084,35.1574008538,100
                135.7856437198,35.1583306568,100
                135.7862825754,35.1590585505,100
                135.7868012166,35.1590845189,100
                135.7871356141,35.1595613099,100
                135.7882644239,35.1596133959,100
                135.7885990878,35.1599898992,100
                135.7885975545,35.1605913958,100
                135.7887798552,35.1608924934,100
                135.7887179458,35.161243315,100
                135.7893277417,35.1614197875,100
                135.7894484591,35.1619462799,100
                135.7898145573,35.1619719752,100
                135.7899745485,35.1618236514,100
                135.7902732969,35.1615466867,100
                135.791036187,35.1615229105,100
                135.7914644339,35.1610975639,100
                135.7915587935,35.1599698654,100
                135.79101166,35.1591418672,100
                135.7913495099,35.1582652238,100
                135.7916860088,35.1579149342,100
                135.7918706432,35.1572886731,100
                135.792512075,35.1570140382,100
                135.7929402302,35.1566137558,100
                135.7927245722,35.1557100505,100
                135.7923597562,35.1551831503,100
                135.7934590683,35.1548090623,100
                135.7946487918,35.1548861892,100
                135.7953506279,35.1548372104,100
                135.7959004932,35.1545624748,100
                135.7959629241,35.1539860753,100
                135.7952022938,35.1531326707,100
                135.7950203004,35.1527062902,100
                135.7952668056,35.1517292522,100
                135.7958775389,35.1515046862,100
                135.7966400068,35.1516061593,100
                135.7970671946,35.1515817899,100
                135.7974662081,35.1506050047,100
                135.7981379851,35.1503554695,100
                135.798604872,35.1494642923,100
                135.7987938722,35.1486634346,100
                135.7990355759,35.1481809195,100
                135.7994031843,35.1476913568,100
                135.7994837781,35.1475158454,100
                135.799697866,35.1473954866,100
                135.8002997611,35.1471330772,100
                135.80059351,35.1472213787,100
                135.8008869433,35.1474413767,100
                135.8011939161,35.1475845599,100
                135.8014611822,35.1475630216,100
                135.8016886998,35.1474097209,100
                135.8019560905,35.1473443061,100
                135.802824471,35.1474005736,100
                135.8028783796,35.1472031142,100
                135.8028523052,35.1469286911,100
                135.8033582533,35.1461931992,100
                135.8028591336,35.1460611201,100
                135.8024595309,35.1460932933,100
                135.8019601193,35.1460924847,100
                135.8015806303,35.1460590503,100
                135.8012411952,35.1459928617,100
                135.8006623907,35.1457785967,100
                135.7998237272,35.1456295413,100
                135.7991247878,35.1455299379,100
                135.7986453971,35.1455127393,100
                135.798445346,35.1456272747,100
                135.7979065053,35.145413063,100
                135.7976275316,35.1451336425,100
                135.7973882092,35.1449690826,100
                135.7966100856,35.1445739808,100
                135.795729729,35.1441138482,100
                135.7955512504,35.1435883923,100
                135.7952926035,35.143161327,100
                135.7948344149,35.1426518838,100
                135.7945154785,35.1423723977,100
                135.7943163849,35.1421094494,100
                135.7941776497,35.1416661725,100
                135.7939589684,35.1412391699,100
                135.7937801016,35.1408778698,100
                135.7936615524,35.140352509,100
                135.7936025635,35.1399750003,100
                135.7936247549,35.1395327662,100
                135.7930458845,35.1393677007,100
                135.7926275833,35.1388910593,100
                135.7920892483,35.1384963286,100
                135.7918100638,35.1383153537,100
                135.7916708546,35.1380689803,100
                135.7916120013,35.1376422413,100
                135.7909956874,35.1364924776,100
                135.7904997565,35.1351459885,100
                135.7901704479,35.1338109086,100
                135.7900715815,35.1334169125,100
                135.7902121545,35.1331217143,100
                135.7902525638,35.1329412808,100
                135.7901532782,35.1327113775,100
                135.7899139665,35.1325632811,100
                135.7894152231,35.1323326877,100
                135.7892161563,35.1320697923,100
                135.7891769443,35.1317907638,100
                135.7891380069,35.1313968694,100
                135.7889162341,35.1301622539,100
                135.788777052,35.1299158701,100
                135.7884588914,35.1293738039,100
                135.7883598283,35.1290618511,100
                135.7882808646,35.1287006343,100
                135.7881551791,35.1285911827,100
                135.7879221754,35.1283882282,100
                135.7877629846,35.1281582174,100
                135.7876841529,35.1277478509,100
                135.7875453619,35.1273537882,100
                135.7874261202,35.1271237802,100
                135.7871673046,35.1268115532,100
                135.7869286982,35.1264009052,100
                135.7869695791,35.126039976,100
                135.7870300496,35.1258267625,100
                135.7869107695,35.1256132342,100
                135.7865715592,35.1254977042,100
                135.7862727654,35.1252018142,100
                135.7859494858,35.1249444736,100
                135.7859027607,35.1247502985,100
                135.7858153037,35.1246448582,100
                135.7856332565,35.1245891129,100
                135.7854440759,35.124688572,100
                135.7852751815,35.1247658826,100
                135.7847485944,35.1248647438,100
                135.7844883005,35.1248856929,100
                135.7843204663,35.1248123645,100
                135.7836300368,35.1242833024,100
                135.7834232443,35.1239905989,100
                135.7831892811,35.1237796816,100
                135.7828908215,35.1235106172,100
                135.782516507,35.1230390138,100
                135.7823097016,35.1227625057,100
                135.7819745625,35.122420906,100
                135.7817279653,35.1222417945,100
                135.7814918754,35.1218272682,100
                135.7813249577,35.1214209639,100
                135.781395036,35.1210800891,100
                135.7815934451,35.1207962066,100
                135.7813696013,35.1204519865,100
                135.7813013826,35.1200864249,100
                135.7812531784,35.1196316726,100
                135.7810269297,35.1192333649,100
                135.7810368904,35.1190652086,100
                135.7810476137,35.1188842353,100
              </coordinates>
            </LinearRing>
          </outerBoundaryIs>
        </Polygon>
      </Placemark>
    </Document>
  </Document>
</kml>
