<?xml version="1.0" encoding="UTF-8"?>
<kml xmlns="http://www.opengis.net/kml/2.2">
  <Document id="root_doc">
    <Document id="_4_08_________disv4326">
      <name>14_08広河原disv4326</name>
      <Placemark id="_4_08_________disv4326.1">
        <visibility>1</visibility>
        <Polygon>
          <extrude>0</extrude>
          <outerBoundaryIs>
            <LinearRing>
              <coordinates>
                135.7872006483,35.2551154544,100
                135.7864629571,35.2546291452,100
                135.7858486143,35.2540823407,100
                135.7847922762,35.2530092496,100
                135.784500703,35.2527059971,100
                135.7840594993,35.2518765816,100
                135.7834690779,35.2515925987,100
                135.7828542476,35.2515150456,100
                135.7826564929,35.2514901225,100
                135.7818215489,35.2505387392,100
                135.7806651721,35.250051703,100
                135.7799269368,35.2497876491,100
                135.7787452581,35.2495632216,100
                135.7781797343,35.2491984094,100
                135.7778113094,35.2488137377,100
                135.7775175513,35.2481462442,100
                135.7771262613,35.2471147727,100
                135.7768259904,35.2468728241,100
                135.7760140223,35.2465681876,100
                135.775300699,35.2462233024,100
                135.7750065854,35.2456972774,100
                135.7748617525,35.2446258911,100
                135.7747147476,35.2443426657,100
                135.7741741323,35.2438970301,100
                135.7739539637,35.2433509235,100
                135.7739069078,35.2425423879,100
                135.7734161154,35.2418947265,100
                135.7728502191,35.2416915721,100
                135.7723336885,35.2414480825,100
                135.7710859199,35.2407736476,100
                135.770520488,35.2404087876,100
                135.7699062951,35.2398619324,100
                135.7688735197,35.2392940731,100
                135.7681845543,35.2390704485,100
                135.7675442373,35.2390692358,100
                135.7660902327,35.2394100608,100
                135.7645125127,35.2399527441,100
                135.7636719358,35.2410829578,100
                135.7632032651,35.2413447998,100
                135.7629561102,35.2416474917,100
                135.7624378757,35.2420102907,100
                135.7619693707,35.2422114944,100
                135.7616246929,35.2421704018,100
                135.7613537067,35.2421900856,100
                135.7609342171,35.2424722259,100
                135.7607114577,35.2428558054,100
                135.7606358896,35.2434417144,100
                135.7598940589,35.2444710381,100
                135.7594499595,35.2447329118,100
                135.7590304595,35.2449948333,100
                135.7583649822,35.2451349984,100
                135.7578479031,35.2450733376,100
                135.7570850698,35.2448292824,100
                135.756370765,35.2448278578,100
                135.7559020296,35.2450694593,100
                135.7550398108,35.2451081542,100
                135.7540048172,35.2452677646,100
                135.7537603212,35.2453721325,100
                135.7532264853,35.2453162644,100
                135.7524921824,35.2453330862,100
                135.7520697202,35.2452409588,100
                135.7516923652,35.244948073,100
                135.7513823681,35.2444546215,100
                135.7511602563,35.2443264218,100
                135.7507153727,35.2442889638,100
                135.7502041609,35.2441053822,100
                135.7497815351,35.2440680373,100
                135.7493137891,35.2442313723,100
                135.7486010872,35.2444671592,100
                135.7480437206,35.2448310802,100
                135.7477541567,35.2449399909,100
                135.7473317349,35.2448296071,100
                135.7466868327,35.2447187624,100
                135.7459502792,35.2446054706,100
                135.7443810249,35.2437482467,100
                135.7424588623,35.2430155412,100
                135.7411265073,35.2430329322,100
                135.7402630642,35.2430108863,100
                135.7396208765,35.2432321234,100
                135.7389018677,35.2443438985,100
                135.7385554351,35.2446670302,100
                135.7372040945,35.2450086354,100
                135.7364395117,35.2449260694,100
                135.7351072559,35.2449029012,100
                135.7339247983,35.2452983387,100
                135.7337240867,35.2453654596,100
                135.7334020202,35.245769622,100
                135.7318453119,35.2483568829,100
                135.7297205953,35.2492023496,100
                135.7283117798,35.2499279653,100
                135.7283107068,35.2502517707,100
                135.7283263509,35.2502811551,100
                135.7288502064,35.2512650991,100
                135.7296868584,35.2519551333,100
                135.7300558871,35.2522798279,100
                135.7302025461,35.2527052292,100
                135.7305217249,35.2531917158,100
                135.7308668315,35.2532936757,100
                135.7312840988,35.2539625669,100
                135.7322945528,35.2547912836,100
                135.7327631092,35.2548732984,100
                135.7329590556,35.2553190886,100
                135.7327357684,35.2556829037,100
                135.7319926349,35.2565516456,100
                135.7313472037,35.2577242653,100
                135.7311962206,35.2586145852,100
                135.7314898638,35.2593641906,100
                135.7312655125,35.2600518797,100
                135.7311872025,35.2613471567,100
                135.731381732,35.2622180189,100
                135.7317645339,35.2629949253,100
                135.7320391509,35.2635044783,100
                135.7322574691,35.2646587015,100
                135.7321973896,35.266014639,100
                135.7317773253,35.2661756185,100
                135.730543669,35.2660919834,100
                135.7294316598,35.2665348086,100
                135.7283921478,35.2674433523,100
                135.7272559632,35.2677242006,100
                135.7272792254,35.2681696093,100
                135.726977859,35.2697275428,100
                135.7255340238,35.271590999,100
                135.7263390935,35.2726983707,100
                135.7266395167,35.2731115791,100
                135.727254656,35.2736796448,100
                135.7279448194,35.2739443529,100
                135.7289292228,35.2747966813,100
                135.7292998946,35.2756104598,100
                135.7300640823,35.2758955296,100
                135.7300626749,35.2763205962,100
                135.7311200873,35.2774968674,100
                135.7315883668,35.2777002892,100
                135.7304770361,35.27887292,100
                135.7300571751,35.2789529095,100
                135.7295610438,35.2797007626,100
                135.7299536657,35.2803898738,100
                135.7299258183,35.2813411565,100
                135.7296018657,35.2822715028,100
                135.729103353,35.2837278008,100
                135.7292251545,35.2842138487,100
                135.7307055996,35.2847919842,100
                135.7313972181,35.2846518168,100
                135.7316136663,35.2846996873,100
                135.7316626292,35.2847104992,100
                135.7321371965,35.2848154144,100
                135.7331732243,35.2850200782,100
                135.7334923261,35.2855672581,100
                135.7334404396,35.2863363767,100
                135.7334640681,35.2866602353,100
                135.7337591412,35.287005043,100
                135.7348449973,35.2875152366,100
                135.7352152646,35.2875160381,100
                135.7357577904,35.287679186,100
                135.7360786068,35.2877000898,100
                135.7366473451,35.2873977155,100
                135.7376599229,35.2872379144,100
                135.7383029064,35.2868749855,100
                135.7410180967,35.286900972,100
                135.7416340936,35.2872637611,100
                135.7427707246,35.2869018501,100
                135.7432904313,35.2864778626,100
                135.7436612053,35.2863166681,100
                135.7440304464,35.2866413163,100
                135.7445485482,35.2867233861,100
                135.7449933158,35.2865826197,100
                135.7463013106,35.2866662547,100
                135.7468203214,35.2864649317,100
                135.7483009884,35.2865894651,100
                135.748645552,35.286914053,100
                135.74945888,35.2873205179,100
                135.7507421859,35.2874041263,100
                135.7518531046,35.2873658902,100
                135.7538279099,35.2873496667,100
                135.7544691966,35.2875128608,100
                135.754667351,35.2872905766,100
                135.7551926467,35.2871912028,100
                135.7568620321,35.2880237066,100
                135.7573501279,35.2885725066,100
                135.7579685166,35.2881486496,100
                135.7584379972,35.287987672,100
                135.7590303174,35.2880293331,100
                135.7597212265,35.2881116089,100
                135.7605599113,35.2883156491,100
                135.7609055455,35.2882961114,100
                135.7619193222,35.2877110941,100
                135.7624375609,35.2877525921,100
                135.7626847007,35.2876518,100
                135.7629313072,35.2877332646,100
                135.7633743291,35.2881794162,100
                135.7641884865,35.288322678,100
                135.7647562347,35.288323768,100
                135.7658888488,35.2893178006,100
                135.7661949888,35.2894657837,100
                135.7669350127,35.2896493828,100
                135.7676521923,35.289848638,100
                135.7683442433,35.2895463447,100
                135.7687886128,35.2895269009,100
                135.770716324,35.2887208396,100
                135.7711620523,35.288215665,100
                135.7717307643,35.287872625,100
                135.7719788546,35.2874277158,100
                135.7720541015,35.2870027665,100
                135.773290809,35.2861145036,100
                135.7735638264,35.2855887465,100
                135.7740088647,35.2853264087,100
                135.7739851017,35.2850024904,100
                135.7744005828,35.2841130517,100
                135.7754409671,35.2843557606,100
                135.776056663,35.2848629589,100
                135.7767229054,35.2849451755,100
                135.7768450411,35.2854109659,100
                135.7767693058,35.2860180129,100
                135.7772366316,35.2866261343,100
                135.7775325891,35.2867278795,100
                135.7790861198,35.2873177205,100
                135.7799500387,35.2873395771,100
                135.7801927338,35.288878386,100
                135.7807832124,35.2896082152,100
                135.7812268508,35.2898721257,100
                135.7816397206,35.2898958998,100
                135.7818750615,35.2896824429,100
                135.7818763225,35.2892119353,100
                135.7820339641,35.2887845277,100
                135.7825040218,35.2885714922,100
                135.7827552851,35.2883517248,100
                135.7828700477,35.2882513632,100
                135.7840992114,35.2870345052,100
                135.7849890226,35.2859026127,100
                135.7853261985,35.2853904575,100
                135.7852515706,35.2840216427,100
                135.7850710907,35.283230043,100
                135.7846811093,35.2827588505,100
                135.7847344168,35.2823312628,100
                135.7852846624,35.28136983,100
                135.7861476224,35.2804945107,100
                135.7871665897,35.2797905862,100
                135.7888108669,35.2793229584,100
                135.789357554,35.2797088451,100
                135.7904207213,35.2795177251,100
                135.7921965811,35.2785797725,100
                135.7928261521,35.2771479296,100
                135.7938193391,35.2762941803,100
                135.7944775333,35.2756299305,100
                135.7953621874,35.2749843696,100
                135.7956191116,35.2741720393,100
                135.7955649912,35.2731733355,100
                135.7952057172,35.2728331443,100
                135.7949999213,35.2726382852,100
                135.7944629024,35.2722193384,100
                135.7943508146,35.2717547019,100
                135.7946075622,35.2710120225,100
                135.7948069099,35.2705711529,100
                135.7947230219,35.2701529733,100
                135.794781241,35.2695260127,100
                135.7951228335,35.2688299488,100
                135.7955206383,35.2682965182,100
                135.7955796402,35.2673676431,100
                135.7951570265,35.2644627512,100
                135.7950449886,35.2639748713,100
                135.7951026158,35.2635801658,100
                135.7960115823,35.2624670022,100
                135.7966069767,35.2621660832,100
                135.7968342595,35.2618645488,100
                135.7974327955,35.2603096568,100
                135.7968455591,35.2600538127,100
                135.7963085003,35.2596813589,100
                135.795489812,35.258704612,100
                135.7951512649,35.2582164251,100
                135.7948980887,35.2575656998,100
                135.7948987941,35.2572870316,100
                135.7951837651,35.256567631,100
                135.7953843421,35.2556158282,100
                135.7952436121,35.2552904418,100
                135.7948414515,35.2549436984,100
                135.7945304712,35.2547573947,100
                135.7940754595,35.2541975949,100
                135.7936077185,35.2540957435,100
                135.7930165445,35.2540947399,100
                135.7921784407,35.2543358555,100
                135.7913647699,35.2546376428,100
                135.7903789108,35.2548582805,100
                135.7894176861,35.2550788839,100
                135.7882099927,35.255339545,100
                135.7878158321,35.2553590711,100
                135.7872006483,35.2551154544,100
              </coordinates>
            </LinearRing>
          </outerBoundaryIs>
        </Polygon>
      </Placemark>
    </Document>
  </Document>
</kml>
