<?xml version="1.0" encoding="UTF-8"?>
<kml xmlns="http://www.opengis.net/kml/2.2">
  <Document id="root_doc">
    <Document id="_4_09______disv4326">
      <name>14_09大原disv4326</name>
      <Placemark id="_4_09______disv4326.1">
        <visibility>1</visibility>
        <Polygon>
          <extrude>0</extrude>
          <outerBoundaryIs>
            <LinearRing>
              <coordinates>
                135.8236595073,35.1026065042,100
                135.8233651025,35.10242988,100
                135.8229957822,35.1021871585,100
                135.8228458815,35.1021164479,100
                135.8224279785,35.1020321829,100
                135.8220904323,35.1019700044,100
                135.8219458448,35.1019213404,100
                135.8218276934,35.1017239755,100
                135.8217370077,35.1015256647,100
                135.8215070892,35.1012655274,100
                135.8211056733,35.1010094335,100
                135.8206667462,35.1007489183,100
                135.8205222947,35.1006341222,100
                135.8204568525,35.100528457,100
                135.8204076934,35.1004220415,100
                135.8203859685,35.1002801019,100
                135.8202651462,35.1001169578,100
                135.8201222333,35.0999748389,100
                135.8200125473,35.0997543849,100
                135.8198640321,35.0995644387,100
                135.8195377859,35.0993103524,100
                135.8191636902,35.0991076052,100
                135.8185990745,35.0987880883,100
                135.8180122221,35.0984762828,100
                135.8177812833,35.0983039587,100
                135.817703962,35.0982301764,100
                135.817685837,35.098124511,100
                135.8176935451,35.0979615564,100
                135.8176496966,35.0978678947,100
                135.8175324321,35.0977560237,100
                135.8171181642,35.097459684,100
                135.8167663885,35.0971240688,100
                135.8164067299,35.0967992873,100
                135.8163297741,35.0967357869,100
                135.8160619122,35.0966509425,100
                135.8157975606,35.0966444864,100
                135.8155624892,35.0966682868,100
                135.8153569704,35.0966196638,100
                135.8151222253,35.0965076116,100
                135.8149309595,35.096465136,100
                135.8147326679,35.0964708912,100
                135.8145895245,35.0964434884,100
                135.8143403634,35.0962076748,100
                135.8142120454,35.0961230389,100
                135.8140215843,35.095914498,100
                135.8139155063,35.0957332004,100
                135.8134094366,35.0955379094,100
                135.8130207237,35.0953199786,100
                135.8128129161,35.09507345,100
                135.8127790929,35.09475134,100
                135.8126011689,35.094447952,100
                135.8124863189,35.0942820623,100
                135.8123525888,35.0940067005,100
                135.8122897516,35.0937745493,100
                135.8119737848,35.0933715054,100
                135.8114568941,35.0926760213,100
                135.8113581045,35.0925712148,100
                135.8108514673,35.0920337103,100
                135.8101290308,35.0920088509,100
                135.8098345823,35.0921400178,100
                135.8093830105,35.0925681414,100
                135.8093299202,35.0926184848,100
                135.8084410793,35.0930309272,100
                135.8078708494,35.0932042718,100
                135.8072477012,35.0933340072,100
                135.806849259,35.0937036835,100
                135.8064806857,35.0941510851,100
                135.8068098825,35.0950556639,100
                135.8074979828,35.0954923293,100
                135.8082652799,35.0960708105,100
                135.8086493589,35.0961802879,100
                135.809006692,35.0963878266,100
                135.8093633485,35.0968893908,100
                135.809824758,35.0973075937,100
                135.8102075095,35.0979943526,100
                135.8103518591,35.0986154532,100
                135.8102717636,35.0988658332,100
                135.810271388,35.09902915,100
                135.8106010044,35.0997703332,100
                135.8106401645,35.1000318153,100
                135.8104805726,35.1002711564,100
                135.8095741738,35.1009863288,100
                135.8094542054,35.1012910872,100
                135.8096920753,35.1015855555,100
                135.8097444441,35.1018687509,100
                135.809703954,35.1021845476,100
                135.809584266,35.1023586663,100
                135.8095969733,35.1025982741,100
                135.8094243114,35.1027504789,100
                135.8091458193,35.1028263169,100
                135.8085226521,35.1029342247,100
                135.807924967,35.1034778962,100
                135.808611334,35.1037228565,100
                135.8086567694,35.1039368119,100
                135.808610251,35.1041883724,100
                135.8086517403,35.1044410573,100
                135.8087263878,35.1052589647,100
                135.8086952544,35.1054728017,100
                135.8085105433,35.105900284,100
                135.8081729291,35.106252028,100
                135.8079583119,35.1063649376,100
                135.8079422811,35.1066794367,100
                135.8081253807,35.1069439632,100
                135.8083391283,35.107195931,100
                135.8083690403,35.1074978968,100
                135.8084449468,35.1077748604,100
                135.8085819911,35.1081021352,100
                135.8084563164,35.108532666,100
                135.8084090036,35.1091238923,100
                135.8084541191,35.109476235,100
                135.8082694279,35.1098911105,100
                135.8085592178,35.1103570808,100
                135.8088034965,35.1106594507,100
                135.8088940323,35.1112257494,100
                135.8090376338,35.111639798,100
                135.8091287831,35.1119544597,100
                135.8092816901,35.1120427995,100
                135.8096795416,35.1121315213,100
                135.8098792933,35.1122537372,100
                135.809985881,35.1125180685,100
                135.8100465392,35.1127697918,100
                135.8099996776,35.1131723408,100
                135.8097994654,35.1136878258,100
                135.8097681243,35.1140023665,100
                135.8100419777,35.1147576104,100
                135.8100411404,35.1151224821,100
                135.8101780423,35.1155127101,100
                135.8101922404,35.1158802812,100
                135.8104058736,35.1161951311,100
                135.8104207986,35.1163586817,100
                135.8103430579,35.1168744267,100
                135.8100509294,35.1174023753,100
                135.8100044615,35.1176413267,100
                135.8099122632,35.11777964,100
                135.8094831085,35.1179676429,100
                135.809298903,35.118168701,100
                135.8089158653,35.1182687411,100
                135.8086964214,35.118380374,100
                135.8087417229,35.1186572161,100
                135.8089395379,35.1191985317,100
                135.8092296834,35.119538646,100
                135.8094124998,35.1199415537,100
                135.8095189526,35.1202562424,100
                135.8100077514,35.1207728007,100
                135.8099151373,35.1210872508,100
                135.8099602618,35.121439591,100
                135.8102960285,35.1219181618,100
                135.8104177564,35.1222454783,100
                135.8107085972,35.1222962109,100
                135.8111065161,35.1223849267,100
                135.8113970752,35.1225489014,100
                135.8115644553,35.1230146732,100
                135.8116095398,35.1233796193,100
                135.8119912984,35.1238457179,100
                135.8129053496,35.1254075357,100
                135.8129044883,35.1257850164,100
                135.8129832336,35.1262774113,100
                135.8129424277,35.1266547609,100
                135.8128416497,35.1270648378,100
                135.8127810202,35.1273765908,100
                135.8126203377,35.1277701675,100
                135.8125840564,35.128210414,100
                135.8126020695,35.1286311588,100
                135.8126030262,35.1286534855,100
                135.812722308,35.128899801,100
                135.8128812771,35.1292611097,100
                135.8128807205,35.1295072426,100
                135.8128192424,35.1301963261,100
                135.8128183145,35.1306065486,100
                135.8130766895,35.1311649142,100
                135.8130961651,35.131394669,100
                135.8128196665,35.1324722409,100
                135.8125590959,35.1328821408,100
                135.8125187009,35.1330789864,100
                135.8125780294,35.1333416196,100
                135.8129365059,35.1338016135,100
                135.8131756048,35.134064518,100
                135.8135731863,35.1349020434,100
                135.8136326297,35.1351154496,100
                135.8136121375,35.1353451433,100
                135.8134720184,35.1354762037,100
                135.8132322685,35.1355086605,100
                135.8130120268,35.1357380526,100
                135.8127070193,35.1361474629,100
                135.8118479156,35.1362446145,100
                135.8110481532,35.1365879849,100
                135.8106479219,35.13691563,100
                135.8106183878,35.1370459438,100
                135.8105066649,35.137538968,100
                135.8102849786,35.1383919112,100
                135.8101240811,35.1388676039,100
                135.8100233347,35.1392448632,100
                135.8099021059,35.1398518195,100
                135.8097613674,35.1402454962,100
                135.8095406492,35.1406717957,100
                135.8093368388,35.1414602506,100
                135.8091562569,35.1418045635,100
                135.8091344239,35.1426086542,100
                135.8086746056,35.1427720285,100
                135.8084344309,35.1429685638,100
                135.8080734645,35.14357514,100
                135.8078126617,35.1440505988,100
                135.8072929426,35.1441974638,100
                135.8070329742,35.1443119887,100
                135.8068126367,35.144574188,100
                135.8065924301,35.1447707497,100
                135.8061523435,35.1450326009,100
                135.8057726636,35.1450812266,100
                135.8055128677,35.1451300408,100
                135.8050929455,35.1453098745,100
                135.8045188519,35.1453581859,100
                135.8042589378,35.1454562258,100
                135.8038787103,35.1457345749,100
                135.8033582533,35.1461931992,100
                135.8028523052,35.1469286911,100
                135.8028783796,35.1472031142,100
                135.802824471,35.1474005736,100
                135.8019560905,35.1473443061,100
                135.8016886998,35.1474097209,100
                135.8014611822,35.1475630216,100
                135.8011939161,35.1475845599,100
                135.8008869433,35.1474413767,100
                135.80059351,35.1472213787,100
                135.8002997611,35.1471330772,100
                135.799697866,35.1473954866,100
                135.7994837781,35.1475158454,100
                135.7994031843,35.1476913568,100
                135.7990355759,35.1481809195,100
                135.7987938722,35.1486634346,100
                135.798604872,35.1494642923,100
                135.7981379851,35.1503554695,100
                135.7974662081,35.1506050047,100
                135.7970671946,35.1515817899,100
                135.7966400068,35.1516061593,100
                135.7958775389,35.1515046862,100
                135.7952668056,35.1517292522,100
                135.7950203004,35.1527062902,100
                135.7952022938,35.1531326707,100
                135.7959629241,35.1539860753,100
                135.7959004932,35.1545624748,100
                135.7953506279,35.1548372104,100
                135.7946487918,35.1548861892,100
                135.7934590683,35.1548090623,100
                135.7923597562,35.1551831503,100
                135.7927245722,35.1557100505,100
                135.7929402302,35.1566137558,100
                135.792512075,35.1570140382,100
                135.7918706432,35.1572886731,100
                135.7916860088,35.1579149342,100
                135.7913495099,35.1582652238,100
                135.79101166,35.1591418672,100
                135.7915587935,35.1599698654,100
                135.7914644339,35.1610975639,100
                135.791036187,35.1615229105,100
                135.7902732969,35.1615466867,100
                135.7899745485,35.1618236514,100
                135.7899401908,35.16228558,100
                135.7900732862,35.1627266667,100
                135.790418061,35.1628689471,100
                135.7905133829,35.1630895391,100
                135.7905128266,35.1633099678,100
                135.790627373,35.1634991113,100
                135.7908764148,35.1635940435,100
                135.7910481287,35.1639249789,100
                135.7912011344,35.1640827068,100
                135.7915649659,35.1642722713,100
                135.7917950595,35.1642726593,100
                135.7922170462,35.1642104096,100
                135.7925426642,35.1643526511,100
                135.7927146054,35.1646048489,100
                135.7928575014,35.1646572726,100
                135.7928947833,35.1646582511,100
                135.7929320483,35.1646573975,100
                135.7933474604,35.1645586539,100
                135.7934996944,35.1646583472,100
                135.793998331,35.1649848923,100
                135.7946102905,35.1656471954,100
                135.7947534307,35.166071106,100
                135.7950199609,35.1668430463,100
                135.7950765153,35.1672368119,100
                135.7947100944,35.1680864384,100
                135.79461178,35.1690782729,100
                135.7943414828,35.1698178449,100
                135.7943404706,35.1702272244,100
                135.7939748261,35.1712319405,100
                135.793954855,35.1715467784,100
                135.7940309905,35.1717831119,100
                135.7941455576,35.1719722526,100
                135.7944519644,35.1721460071,100
                135.7949882351,35.1724145101,100
                135.7958112852,35.1730299752,100
                135.7960797634,35.1730304164,100
                135.7964251722,35.1729365422,100
                135.796635638,35.1731258382,100
                135.7969423623,35.1731735251,100
                135.7969035409,35.1733624127,100
                135.7969786655,35.1740081242,100
                135.7972096062,35.1743409101,100
                135.7972850631,35.1748606334,100
                135.7973993346,35.1751757643,100
                135.7974179514,35.1754120015,100
                135.7973597299,35.1756952965,100
                135.7973013174,35.176057397,100
                135.7973200271,35.1762463784,100
                135.7974149233,35.1766559179,100
                135.7973568543,35.1768762524,100
                135.7972793482,35.1772067713,100
                135.7972402946,35.1774900979,100
                135.7970286431,35.1777732114,100
                135.7970279134,35.1780723767,100
                135.7972050421,35.1783610596,100
                135.7972428271,35.1785973288,100
                135.7971653552,35.1789120731,100
                135.7969145856,35.1795100686,100
                135.7966450441,35.1799347163,100
                135.7966253717,35.1801394104,100
                135.7967591107,35.180344286,100
                135.7970844346,35.1806282808,100
                135.7974631307,35.1807722921,100
                135.7976926172,35.1810403574,100
                135.7973847349,35.1814649375,100
                135.7973265087,35.1817483045,100
                135.7971911128,35.182220424,100
                135.7969794478,35.1825035398,100
                135.7964030027,35.182943459,100
                135.7960763967,35.1831791295,100
                135.7959798378,35.1834466572,100
                135.7959978873,35.183903255,100
                135.7959971521,35.1842024914,100
                135.7958814185,35.1844699175,100
                135.7956122272,35.1847529369,100
                135.795285589,35.1849886047,100
                135.7950553585,35.1850197045,100
                135.7948444783,35.1849878755,100
                135.7944803509,35.1848769856,100
                135.7941925829,35.1849080588,100
                135.7939236347,35.1850807879,100
                135.7937888389,35.1853009956,100
                135.7928216344,35.1857174271,100
                135.7927821502,35.1861739982,100
                135.79279857,35.1872762543,100
                135.7928172707,35.1874652365,100
                135.7935632877,35.1882694727,100
                135.7939080207,35.1884747738,100
                135.7941569256,35.1886483631,100
                135.794309554,35.1889793343,100
                135.7950558117,35.1896891213,100
                135.79530449,35.1899572192,100
                135.7955693862,35.1905978227,100
                135.7957584707,35.1917002917,100
                135.7960645279,35.192047218,100
                135.7963708743,35.192268153,100
                135.7966765279,35.1927725486,100
                135.7968674848,35.1931192839,100
                135.7967900718,35.1934025487,100
                135.7963663883,35.1940946977,100
                135.796135438,35.1944091899,100
                135.7958798633,35.1947056123,100
                135.7958025224,35.1949574672,100
                135.7958017065,35.1952881142,100
                135.7958389291,35.1957448158,100
                135.7959149115,35.1960441089,100
                135.7960100906,35.1963434336,100
                135.7962586354,35.1966744906,100
                135.7965457069,35.1969426499,100
                135.7970054204,35.197211021,100
                135.7970049568,35.1973999717,100
                135.7969269543,35.1977294358,100
                135.7965981992,35.1988153526,100
                135.7965966893,35.1994294614,100
                135.7967108953,35.1997917772,100
                135.7968828231,35.2000755223,100
                135.797246267,35.2005012078,100
                135.7973992525,35.2006904105,100
                135.7974469849,35.200722603,100
                135.7976099229,35.2008324532,100
                135.7982427422,35.2009122251,100
                135.7984343176,35.2010227542,100
                135.7985874582,35.2011489961,100
                135.7987017128,35.2014956055,100
                135.7988548393,35.2016375506,100
                135.7993846203,35.2020370214,100
                135.7995952764,35.2021790589,100
                135.7996906658,35.2023996452,100
                135.7999392028,35.2027464705,100
                135.7999387461,35.2029354216,100
                135.7998034049,35.2033760637,100
                135.7998029484,35.2035650131,100
                135.8000130611,35.2039432537,100
                135.8002047376,35.2040065941,100
                135.8003774657,35.2039753229,100
                135.8005503831,35.2038653871,100
                135.8008380983,35.2038816264,100
                135.8010683186,35.2038662221,100
                135.8012604482,35.2037406115,100
                135.8015872908,35.2034419715,100
                135.8018559799,35.2033951475,100
                135.8022012066,35.2034271805,100
                135.8025268973,35.2036008763,100
                135.8026796604,35.2039002855,100
                135.8029663434,35.2043416736,100
                135.8032133547,35.2046437676,100
                135.8038457992,35.204896754,100
                135.804229222,35.2050075764,100
                135.8046699517,35.2052129291,100
                135.8050344377,35.2052135045,100
                135.805380154,35.2050408738,100
                135.8057448978,35.204931233,100
                135.806109331,35.2049632845,100
                135.8065115437,35.2052316004,100
                135.8068757934,35.2053423845,100
                135.8072019791,35.2053114136,100
                135.8076817145,35.2052491304,100
                135.8081232059,35.2051396018,100
                135.8084491717,35.2052031375,100
                135.8086404934,35.2054238632,100
                135.8089083987,35.2057076675,100
                135.8094640527,35.20600769,100
                135.8096234339,35.2062301965,100
                135.8099031619,35.206935581,100
                135.8099858271,35.2071440245,100
                135.8100615093,35.2076007763,100
                135.8111126634,35.2093344215,100
                135.8113616121,35.2095394576,100
                135.811491824,35.2097462135,100
                135.8115676794,35.2101399359,100
                135.8115662791,35.2107540406,100
                135.8117180241,35.2115100742,100
                135.8119857273,35.2119040894,100
                135.812176642,35.2123137611,100
                135.8122328015,35.2129279531,100
                135.8120008563,35.2136834003,100
                135.811538749,35.2144070146,100
                135.8112691184,35.2148631656,100
                135.8108827614,35.2160120476,100
                135.8107093645,35.2163267208,100
                135.8102388734,35.2165610732,100
                135.8113706662,35.2169064199,100
                135.8119362101,35.2172306787,100
                135.81235481,35.2172111071,100
                135.8128467924,35.2174139777,100
                135.8133637732,35.2174349766,100
                135.8135601193,35.2177182427,100
                135.8140715116,35.2182493899,100
                135.8140706921,35.218613204,100
                135.8137485974,35.219502043,100
                135.8136723586,35.2205528773,100
                135.8140407804,35.220957675,100
                135.8141136,35.2214226586,100
                135.8142362503,35.2216249639,100
                135.8146293109,35.222029796,100
                135.8150468926,35.2224750882,100
                135.8153906546,35.2229000565,100
                135.8158242985,35.2240929984,100
                135.8160455034,35.2242752374,100
                135.8164886543,35.2243163256,100
                135.8170792803,35.224458691,100
                135.8175226028,35.224418927,100
                135.8179899977,35.2246217409,100
                135.8183094224,35.2249253923,100
                135.8188012411,35.2252292982,100
                135.820301642,35.2259793452,100
                135.8210640987,35.2277774166,100
                135.8218391341,35.2271029609,100
                135.8219406233,35.2267586604,100
                135.8221471446,35.2253805373,100
                135.8224164291,35.2250915567,100
                135.8223668716,35.2247056268,100
                135.8221334031,35.2239611771,100
                135.8221677229,35.2236167087,100
                135.8225040651,35.2233691666,100
                135.8226555838,35.2231764946,100
                135.8226195702,35.2227680492,100
                135.8226709114,35.222313391,100
                135.8226385693,35.2217345928,100
                135.8225554584,35.2213486136,100
                135.8224892733,35.2208937838,100
                135.8225742001,35.2204391753,100
                135.8227767976,35.2199158638,100
                135.8230959711,35.2198336504,100
                135.8234152035,35.2197238294,100
                135.8235811162,35.2192936295,100
                135.8235991848,35.2187010946,100
                135.8237687033,35.21794342,100
                135.8240044728,35.21759924,100
                135.8244916371,35.2174621913,100
                135.8250791917,35.217490575,100
                135.8254312567,35.217725388,100
                135.8253293222,35.218290198,100
                135.8255975014,35.2184972834,100
                135.8262012969,35.2187875289,100
                135.8266699311,35.2194771763,100
                135.8269545374,35.2198634468,100
                135.8277422767,35.2205121966,100
                135.8280099621,35.2209673816,100
                135.8280591764,35.2215185964,100
                135.8281085742,35.2219872041,100
                135.8282423327,35.2222492331,100
                135.8285442629,35.2223874824,100
                135.8289138619,35.2222777195,100
                135.8292329518,35.2222368309,100
                135.8297406895,35.2222900116,100
                135.8302443107,35.2223320578,100
                135.8299321964,35.2219133661,100
                135.8298385335,35.2214995589,100
                135.8296503137,35.2211373799,100
                135.8294302694,35.2209302322,100
                135.8293680175,35.2205681608,100
                135.8293686595,35.2202579391,100
                135.8296528777,35.2198964254,100
                135.8299367318,35.2197158283,100
                135.8302522297,35.2194577359,100
                135.8305681324,35.2189927291,100
                135.8308210232,35.2185536211,100
                135.8307589015,35.2181398497,100
                135.8306652976,35.2177001879,100
                135.8309187503,35.2169766274,100
                135.8309825693,35.2165888781,100
                135.8308255635,35.2163559709,100
                135.83073177,35.2160197649,100
                135.8309546208,35.2155061726,100
                135.8317752363,35.2146540912,100
                135.8322479724,35.2144996631,100
                135.8327521345,35.2143710515,100
                135.8327212467,35.2140866262,100
                135.8323757114,35.2136466193,100
                135.8319052001,35.2127152142,100
                135.8317493246,35.2119393921,100
                135.8314357665,35.2112667326,100
                135.8310279182,35.2105163245,100
                135.8309654746,35.2102576974,100
                135.8312806189,35.2101547424,100
                135.8318789774,35.2101555637,100
                135.8326671132,35.209768793,100
                135.8333283226,35.2093315564,100
                135.833896235,35.2088152389,100
                135.8344960332,35.2081179582,100
                135.8352535803,35.2072657468,100
                135.8356957027,35.2066458736,100
                135.8357599721,35.2060254135,100
                135.8356660084,35.2057667423,100
                135.8356039756,35.2053012649,100
                135.835573327,35.2048875244,100
                135.8355115487,35.2042927407,100
                135.8357011591,35.2039569128,100
                135.8359220807,35.2037245172,100
                135.8359228666,35.2033366673,100
                135.8356403683,35.2028709138,100
                135.8352014124,35.2023791107,100
                135.8355866426,35.2019502633,100
                135.8357002173,35.2014878756,100
                135.8357011298,35.2010254049,100
                135.8360014181,35.2007796817,100
                135.8364912387,35.2003480837,100
                135.8369056982,35.1997010965,100
                135.8370200597,35.1988378536,100
                135.8372094907,35.1980055569,100
                135.8373235566,35.1972964707,100
                135.8374376587,35.1965565389,100
                135.8377016109,35.1960327249,100
                135.8380782263,35.1955089896,100
                135.8383048957,35.1948308957,100
                135.8387942773,35.1942456815,100
                135.8391340932,35.1933210334,100
                135.8399237014,35.1916840649,100
                135.8404504511,35.191191357,100
                135.8408268542,35.1907601431,100
                135.8413923064,35.1896508402,100
                135.8418076143,35.1885104236,100
                135.841808262,35.1881711881,100
                135.8416961264,35.1878935706,100
                135.841244594,35.1875512168,100
                135.8407577219,35.1868413403,100
                135.8407213541,35.1862245865,100
                135.8408733028,35.1853305367,100
                135.8411000921,35.1845599662,100
                135.8409885611,35.1839738932,100
                135.840689241,35.1833876479,100
                135.8404279697,35.1825547553,100
                135.8404669403,35.1818147888,100
                135.8405813129,35.18092069,100
                135.8408078781,35.1802734312,100
                135.8410415224,35.1799253442,100
                135.8415918554,35.1794999849,100
                135.8427829843,35.1792509377,100
                135.8433940443,35.1790010735,100
                135.8429372421,35.178398929,100
                135.8426940044,35.1778723431,100
                135.8426946181,35.1775464956,100
                135.842908804,35.1772961314,100
                135.8430922793,35.1771209395,100
                135.8431238136,35.1765947057,100
                135.8428809554,35.1758675572,100
                135.8424551745,35.1750148923,100
                135.8423045956,35.1739119394,100
                135.8424882867,35.1736364662,100
                135.843007772,35.1733614912,100
                135.8432527875,35.1729356699,100
                135.843650342,35.1725602539,100
                135.8438035498,35.1722597398,100
                135.8439261652,35.1719841872,100
                135.8439280848,35.1709566414,100
                135.8439903099,35.1703300929,100
                135.8441741383,35.169979475,100
                135.8442053058,35.1696286635,100
                135.8442064765,35.1690021044,100
                135.8442985762,35.168726512,100
                135.844721816,35.1684536605,100
                135.8449362305,35.1680529373,100
                135.8453339983,35.1675521601,100
                135.8457316101,35.1671265954,100
                135.8457932752,35.1668008923,100
                135.8453976873,35.166123694,100
                135.8453680606,35.1656474512,100
                135.8455827549,35.1650963736,100
                135.8459746059,35.1647355199,100
                135.8460719703,35.164645852,100
                135.8464693689,35.1643204975,100
                135.8466842933,35.1636440641,100
                135.8466855368,35.1629673641,100
                135.8467777032,35.1626416989,100
                135.8471755243,35.1620907769,100
                135.8479698445,35.1616907738,100
                135.8489519307,35.1610997263,100
                135.8490087413,35.1610655001,100
                135.8502307849,35.1604404443,100
                135.8506277505,35.1603406473,100
                135.8510244139,35.1604163446,100
                135.8514452972,35.1603207991,100
                135.8524527599,35.1601967379,100
                135.8533378417,35.1602228038,100
                135.8539482636,35.1602486066,100
                135.854406183,35.1601990826,100
                135.8549864465,35.1599992084,100
                135.8559026167,35.1596995873,100
                135.8563300475,35.1596248803,100
                135.8562964078,35.1588723031,100
                135.856389092,35.15822079,100
                135.8567565642,35.1575194613,100
                135.8570012792,35.1571939735,100
                135.85697177,35.1565923887,100
                135.8568503913,35.1561912587,100
                135.8565762272,35.1558902291,100
                135.856546474,35.1554390656,100
                135.8566089263,35.1546120242,100
                135.8566405593,35.1539604404,100
                135.8565190784,35.1536094498,100
                135.8561834611,35.1535589095,100
                135.8554169715,35.1531559457,100
                135.8549290226,35.1529548542,100
                135.8539541786,35.1519260771,100
                135.8537110965,35.1513241954,100
                135.8534474117,35.1507935592,100
                135.8535485714,35.1503539353,100
                135.8535157501,35.1499966195,100
                135.8532819563,35.1497489958,100
                135.8530816741,35.149473875,100
                135.8528486522,35.1487865048,100
                135.852882718,35.1484567363,100
                135.8529836246,35.1481545156,100
                135.8528837399,35.1478795881,100
                135.8525166012,35.1473569238,100
                135.8527191063,35.1463678109,100
                135.8526207091,35.1458785747,100
                135.8524099909,35.1455310411,100
                135.8516586227,35.1455108952,100
                135.8510252622,35.1451629111,100
                135.8507672321,35.1450082169,100
                135.8504398291,35.1442748005,100
                135.8505108675,35.1439469759,100
                135.8498780186,35.1433289627,100
                135.8494091371,35.1429232793,100
                135.8489853896,35.1426814659,100
                135.8487992908,35.1425753102,100
                135.8487002495,35.1422510078,100
                135.8488242926,35.1415925914,100
                135.8489876721,35.1414336991,100
                135.8492006514,35.1412265536,100
                135.8495298691,35.1409568717,100
                135.8497185447,35.1404941831,100
                135.8498600227,35.1401663756,100
                135.849602489,35.1397610257,100
                135.8495096238,35.1391822044,100
                135.849627751,35.1387772494,100
                135.8498865323,35.1384882522,100
                135.8504034112,35.1383152852,100
                135.8504980063,35.1379295966,100
                135.8501884151,35.137461151,100
                135.8499307472,35.1371329205,100
                135.8498608714,35.1368241485,100
                135.8500022723,35.1365350055,100
                135.8500732821,35.1362264772,100
                135.8500275194,35.135570525,100
                135.8500513987,35.1353390578,100
                135.8505916203,35.1352240112,100
                135.8512728761,35.135012648,100
                135.8519778492,35.1346663012,100
                135.8522129702,35.1344736856,100
                135.8522839942,35.1341458604,100
                135.8524026641,35.1334322904,100
                135.8519887725,35.1321771837,100
                135.8520366181,35.1316757263,100
                135.8518261288,35.1312317725,100
                135.8513574704,35.1307489773,100
                135.8512406646,35.1304209211,100
                135.8509367523,35.12970683,100
                135.850961033,35.1292631634,100
                135.8508205561,35.1290507908,100
                135.8510277007,35.1286834828,100
                135.8511031841,35.1285496221,100
                135.8506293972,35.127915407,100
                135.8501607392,35.1274325528,100
                135.8495276249,35.1270266785,100
                135.8496230355,35.1261973993,100
                135.8495719686,35.1259442267,100
                135.849392707,35.1255040573,100
                135.8496042583,35.1253499487,100
                135.8496046784,35.1251185318,100
                135.8495348475,35.1247905448,100
                135.8497466066,35.1245207267,100
                135.8498410205,35.124250763,100
                135.8502876947,35.1238848237,100
                135.8501942473,35.1236339939,100
                135.8502888102,35.1232676168,100
                135.8497736715,35.1225532887,100
                135.8496335567,35.1221480285,100
                135.8497513995,35.1218780936,100
                135.8498931549,35.1213960669,100
                135.849893749,35.1210681673,100
                135.8503876927,35.1205093885,100
                135.8492618897,35.1199872013,100
                135.8491451396,35.1196398612,100
                135.849122203,35.1193504565,100
                135.8490281501,35.1193006203,100
                135.8487938931,35.1191764517,100
                135.8483482744,35.1189637057,100
                135.8481844726,35.1186934924,100
                135.8482554236,35.1184042053,100
                135.8480241598,35.1178008685,100
                135.8478843655,35.1172413091,100
                135.8480494012,35.1168365022,100
                135.8478163445,35.1159296316,100
                135.8478170884,35.1155245488,100
                135.8475360853,35.1151577065,100
                135.847513759,35.1145404041,100
                135.8474441221,35.1141159371,100
                135.8473036534,35.1139228667,100
                135.8465763465,35.1137291442,100
                135.8459660202,35.1137476157,100
                135.8456136466,35.1139015501,100
                135.8451672601,35.1141131157,100
                135.8450029121,35.1141322068,100
                135.8447917977,35.1140548281,100
                135.8447398999,35.1135986916,100
                135.8446163904,35.1133502896,100
                135.8448047562,35.1130225552,100
                135.8447586168,35.1125981869,100
                135.8450410841,35.112174158,100
                135.8452061036,35.1117885762,100
                135.8452065363,35.1115570898,100
                135.8449954169,35.1114797122,100
                135.8445024927,35.1114983908,100
                135.8439324669,35.1109751262,100
                135.8436831489,35.110340006,100
                135.8433555708,35.109799505,100
                135.843544354,35.1092596583,100
                135.8435922067,35.1087775218,100
                135.8437805606,35.1084690898,100
                135.843899334,35.1077169645,100
                135.8437826309,35.1073696232,100
                135.843901502,35.1069290569,100
                135.8434326275,35.106639088,100
                135.8431984145,35.1063880785,100
                135.8431054322,35.105905692,100
                135.8432234784,35.1055393519,100
                135.8434352488,35.1052503178,100
                135.8436469557,35.1049998046,100
                135.8437653617,35.1044405732,100
                135.843296904,35.1039384818,100
                135.8432270513,35.1036490892,100
                135.8432513232,35.1032247405,100
                135.8431351693,35.1026073131,100
                135.842713955,35.1019509722,100
                135.841823428,35.1012746588,100
                135.841589744,35.1007536311,100
                135.8412382511,35.100463799,100
                135.8406282236,35.1003858212,100
                135.8401825439,35.1002695314,100
                135.8393153234,35.0996897121,100
                135.8393631229,35.0992460953,100
                135.8392696583,35.0990338509,100
                135.8390117857,35.0988985075,100
                135.8390089127,35.0987183561,100
                135.8390225422,35.0985119566,100
                135.8391287295,35.0982838467,100
                135.8391156481,35.098207841,100
                135.8389572455,35.0980881205,100
                135.8386802334,35.0977944349,100
                135.8371972182,35.0990636521,100
                135.8362699569,35.100040274,100
                135.8358995824,35.1001592904,100
                135.8352252122,35.1002562058,100
                135.8348020714,35.1003099346,100
                135.8340278205,35.1003708722,100
                135.8337890166,35.1004339344,100
                135.8334030922,35.1006024372,100
                135.833164209,35.1006987401,100
                135.8329142169,35.100849325,100
                135.8327265641,35.1010271073,100
                135.8325494349,35.101148774,100
                135.8322701647,35.1012359352,100
                135.8318660594,35.1013168699,100
                135.8314143657,35.1013223134,100
                135.83092245,35.1013112901,100
                135.8303200144,35.1014131476,100
                135.8299672701,35.1015152037,100
                135.829444822,35.101791751,100
                135.8292461511,35.1019726114,100
                135.8290584731,35.1021625022,100
                135.8287936464,35.1023734134,100
                135.8284239619,35.1026088278,100
                135.8280672284,35.1028589071,100
                135.8277658073,35.1030063125,100
                135.8274239574,35.1031597879,100
                135.8271924056,35.1032470033,100
                135.8269095446,35.1032979489,100
                135.8267731316,35.1032800122,100
                135.8261135106,35.1030130197,100
                135.8256503956,35.10288194,100
                135.8252761053,35.1027666189,100
                135.8248321607,35.1025834486,100
                135.8247186486,35.1022337652,100
                135.8245344992,35.1022491395,100
                135.8242868711,35.1022853394,100
                135.824109039,35.1023372015,100
                135.8239819157,35.102410053,100
                135.8238801119,35.1025247022,100
                135.8238260991,35.1026575892,100
                135.8236595073,35.1026065042,100
              </coordinates>
            </LinearRing>
          </outerBoundaryIs>
        </Polygon>
      </Placemark>
    </Document>
  </Document>
</kml>
