<?xml version="1.0" encoding="UTF-8"?>
<kml xmlns="http://www.opengis.net/kml/2.2">
  <Document id="root_doc">
    <Document id="_4_07______disv4326">
      <name>14_07久多disv4326</name>
      <Placemark id="_4_07______disv4326.1">
        <visibility>1</visibility>
        <Polygon>
          <extrude>0</extrude>
          <outerBoundaryIs>
            <LinearRing>
              <coordinates>
                135.8303069794,35.2764968696,100
                135.8307550984,35.2764449544,100
                135.831187362,35.2763143516,100
                135.8316198602,35.2760787447,100
                135.8320524984,35.2757775712,100
                135.8322931791,35.2754498645,100
                135.8326136956,35.275187902,100
                135.8332862906,35.2749001506,100
                135.8334625679,35.2747691898,100
                135.8337671628,35.2744677645,100
                135.8340715824,35.2742582426,100
                135.8344557942,35.2741538303,100
                135.8348757996,35.2741529902,100
                135.83548348,35.2743112826,100
                135.8361391671,35.2744696355,100
                135.8364749829,35.2745619206,100
                135.8369864286,35.2748381074,100
                135.8372421769,35.274969721,100
                135.8375944237,35.2748520892,100
                135.837818533,35.2747998511,100
                135.8379944207,35.274852622,100
                135.8380580817,35.2750363741,100
                135.8383763624,35.2754859659,100
                135.8386317978,35.2757749747,100
                135.8389036842,35.2758409001,100
                135.8391277846,35.2757887301,100
                135.8394961679,35.2755923793,100
                135.8398003077,35.275527215,100
                135.8401839239,35.2757245555,100
                135.8403435801,35.2759084325,100
                135.8403269535,35.2762364488,100
                135.8403099361,35.2767612316,100
                135.8403569051,35.2772993376,100
                135.840596257,35.2776407878,100
                135.8409639301,35.2778118373,100
                135.8414596547,35.2779699536,100
                135.8416993134,35.2781539331,100
                135.8418295988,35.278444392,100
                135.8426778103,35.278353658,100
                135.8433980561,35.2782364849,100
                135.8439421397,35.2782109155,100
                135.8444540498,35.278277206,100
                135.8452057292,35.2784749288,100
                135.8459255086,35.278620211,100
                135.8463890581,35.2788700973,100
                135.8467894088,35.2794081473,100
                135.8470615218,35.2793560233,100
                135.8474776042,35.2793302708,100
                135.8477975759,35.2793569331,100
                135.8482932041,35.2795936733,100
                135.8487354029,35.2797068227,100
                135.8491568759,35.2798309314,100
                135.8494605726,35.280001868,100
                135.8499127138,35.2807079241,100
                135.8499763743,35.2809048366,100
                135.8500556894,35.2812985314,100
                135.8502308518,35.2817710772,100
                135.8503736466,35.2824535871,100
                135.8505329202,35.2828736463,100
                135.8511079974,35.2834254069,100
                135.8513513028,35.2838299332,100
                135.8513821484,35.2844860385,100
                135.8514456416,35.2847747828,100
                135.8515729581,35.2851686045,100
                135.8516837177,35.2858772719,100
                135.8517793007,35.2861135882,100
                135.8520510067,35.2863106779,100
                135.8523548247,35.2864422407,100
                135.8529743981,35.2866454491,100
                135.8534062344,35.2867903313,100
                135.8537258428,35.287040012,100
                135.8540932238,35.2874340477,100
                135.8545724383,35.2879332868,100
                135.8550039298,35.2882749291,100
                135.8556434347,35.2886299102,100
                135.8566991313,35.2889329749,100
                135.8577229321,35.2891702877,100
                135.8582924251,35.2892329137,100
                135.8584213973,35.2886819918,100
                135.8585018857,35.2883934156,100
                135.858486391,35.2880916296,100
                135.8585033366,35.2875405091,100
                135.8585360896,35.2871075785,100
                135.8598985373,35.2857969931,100
                135.8599122654,35.285102206,100
                135.8599447422,35.2848266745,100
                135.8601212617,35.2845251114,100
                135.8601375654,35.284341394,100
                135.8601548159,35.2835935115,100
                135.8602511764,35.2833968577,100
                135.8608119099,35.2829907324,100
                135.860348273,35.2827408986,100
                135.8600925601,35.2825568681,100
                135.8597408314,35.2823727967,100
                135.8595010246,35.2822413231,100
                135.8592936074,35.2818867845,100
                135.8589744018,35.2817042351,100
                135.8587667216,35.281494064,100
                135.8586552184,35.2811920995,100
                135.8588323816,35.2805231333,100
                135.858816996,35.2801688824,100
                135.8586416564,35.2797619134,100
                135.8586259383,35.2795913285,100
                135.8587078614,35.2790773272,100
                135.8586769923,35.2784081223,100
                135.8582452224,35.278250161,100
                135.857813784,35.2778954389,100
                135.8569023989,35.2775007231,100
                135.8559434211,35.2768698145,100
                135.8553042972,35.2763442017,100
                135.8548090211,35.2759106562,100
                135.8546016849,35.2755167442,100
                135.8545751911,35.2753191045,100
                135.8547205291,35.2745451104,100
                135.8548180846,35.2736530308,100
                135.855028355,35.2729189028,100
                135.855104255,35.2726539192,100
                135.8550737304,35.2718009842,100
                135.8547542789,35.2714857407,100
                135.8542426466,35.2712751982,100
                135.8536513584,35.2708808225,100
                135.8531402053,35.2704078749,100
                135.8527572961,35.2697907092,100
                135.8523421951,35.2692915917,100
                135.8516765039,35.2689506953,100
                135.8507969615,35.2687265812,100
                135.8501737344,35.2683190355,100
                135.8487572448,35.2677042955,100
                135.8484152538,35.2675558344,100
                135.847281231,35.2665178161,100
                135.846990321,35.2658976339,100
                135.8466233243,35.2653722936,100
                135.8463531231,35.2644140954,100
                135.8461465733,35.2636527467,100
                135.8457156849,35.263088029,100
                135.8449597795,35.2623544477,100
                135.8447522862,35.2621048817,100
                135.8447209596,35.2617374326,100
                135.8448019671,35.2611995561,100
                135.8450590318,35.2606094345,100
                135.8452354314,35.2603734492,100
                135.8456522388,35.259901628,100
                135.8458287789,35.2596000052,100
                135.8460612106,35.2586425138,100
                135.8461102954,35.2580521317,100
                135.8460634151,35.2574484618,100
                135.8457761,35.2571200659,100
                135.8455203673,35.2570016465,100
                135.8453446362,35.2568702259,100
                135.8450734267,35.2564762833,100
                135.8447220757,35.2561740045,100
                135.844210622,35.2559372297,100
                135.8438269152,35.255831745,100
                135.843203541,35.2555685576,100
                135.8431240265,35.2553191536,100
                135.8430927879,35.2549254383,100
                135.842933355,35.2546365659,100
                135.8426780084,35.2543213735,100
                135.8425186207,35.2540324995,100
                135.8424181807,35.2538751135,100
                135.8424356767,35.253516884,100
                135.8427730318,35.2531169482,100
                135.8435977291,35.2522222841,100
                135.8441526923,35.2518647429,100
                135.8437840381,35.2514095624,100
                135.843381841,35.2509267327,100
                135.8428121936,35.2501819266,100
                135.8424103079,35.2495475418,100
                135.8422084768,35.2493906645,100
                135.8417384539,35.2492523169,100
                135.8413858478,35.2492105268,100
                135.8408823085,35.2490307238,100
                135.8406980423,35.2487824575,100
                135.8407152335,35.2485757879,100
                135.8405309956,35.2483137176,100
                135.8401284502,35.2480238292,100
                135.840028782,35.2474587666,100
                135.8399294785,35.246700745,100
                135.8398294553,35.2463147669,100
                135.8396620624,35.2460251798,100
                135.8396912432,35.2455476085,100
                135.8397253105,35.2452996228,100
                135.8400284853,35.2448590997,100
                135.8399451348,35.2445282879,100
                135.8398956327,35.2440735064,100
                135.8397113523,35.2438389701,100
                135.8393253249,35.2437144498,100
                135.8389730175,35.2435210993,100
                135.8388896478,35.2432040175,100
                135.8386718844,35.2429143642,100
                135.8382190005,35.2426382008,100
                135.8378669898,35.2422932245,100
                135.8375654381,35.2419070465,100
                135.837258825,35.2415871986,100
                135.8367554763,35.2413522268,100
                135.8361846138,35.2412825852,100
                135.8356471102,35.2413370012,100
                135.8351934583,35.2414466004,100
                135.8348409103,35.2413909806,100
                135.8346061362,35.2412115736,100
                135.8345563572,35.2409083327,100
                135.8345903046,35.240743024,100
                135.8348596382,35.2404126821,100
                135.8350450599,35.2400684232,100
                135.8353814734,35.2398070458,100
                135.8358859344,35.2394632905,100
                135.8361883818,35.2393810227,100
                135.836658984,35.2391886995,100
                135.8369450613,35.2388859142,100
                135.8370969021,35.238527877,100
                135.8374168003,35.2381011225,100
                135.8376832646,35.2373067594,100
                135.8378863802,35.2368403402,100
                135.8379531687,35.2366869794,100
                135.838038567,35.2359430021,100
                135.8380396169,35.2354056031,100
                135.8379229552,35.2349645254,100
                135.8374366613,35.2343887886,100
                135.8374369858,35.2342234342,100
                135.8376221882,35.2339756544,100
                135.8376395024,35.2337138436,100
                135.8375225161,35.2334243152,100
                135.8372042818,35.2330104953,100
                135.8371544432,35.2327348606,100
                135.837205582,35.2323490793,100
                135.8372062049,35.2320321743,100
                135.8370892348,35.2317426446,100
                135.8371904992,35.2314809478,100
                135.8373085519,35.2312192746,100
                135.8373156981,35.2308144905,100
                135.8375179137,35.2304426489,100
                135.8376863593,35.2301673123,100
                135.8379062599,35.2293408423,100
                135.8378744175,35.2284588854,100
                135.8379085507,35.2281695616,100
                135.8379595021,35.2278802504,100
                135.8377924647,35.2274390846,100
                135.8378772501,35.2270258006,100
                135.8379616034,35.2268192155,100
                135.8383600705,35.226158034,100
                135.8384109202,35.2259238662,100
                135.8381763271,35.2256755063,100
                135.8373542404,35.2253574712,100
                135.8367003437,35.2248880352,100
                135.8359625777,35.2243909481,100
                135.8355435235,35.2240458516,100
                135.835009431,35.2239095492,100
                135.834639769,35.2240467908,100
                135.8341527225,35.2241150708,100
                135.8338004575,35.2239492298,100
                135.8332465656,35.2238657893,100
                135.8327599008,35.2237410997,100
                135.8325420792,35.2235202985,100
                135.8322408398,35.223037611,100
                135.8318887336,35.2228028188,100
                135.8314020324,35.2227057305,100
                135.8308645602,35.222801393,100
                135.83059624,35.2226494635,100
                135.8302443107,35.2223320578,100
                135.8297406895,35.2222900116,100
                135.8292329518,35.2222368309,100
                135.8289138619,35.2222777195,100
                135.8285442629,35.2223874824,100
                135.8282423327,35.2222492331,100
                135.8281085742,35.2219872041,100
                135.8280591764,35.2215185964,100
                135.8280099621,35.2209673816,100
                135.8277422767,35.2205121966,100
                135.8269545374,35.2198634468,100
                135.8266699311,35.2194771763,100
                135.8262012969,35.2187875289,100
                135.8255975014,35.2184972834,100
                135.8253293222,35.218290198,100
                135.8254312567,35.217725388,100
                135.8250791917,35.217490575,100
                135.8244916371,35.2174621913,100
                135.8240044728,35.21759924,100
                135.8237687033,35.21794342,100
                135.8235991848,35.2187010946,100
                135.8235811162,35.2192936295,100
                135.8234152035,35.2197238294,100
                135.8230959711,35.2198336504,100
                135.8227767976,35.2199158638,100
                135.8225742001,35.2204391753,100
                135.8224892733,35.2208937838,100
                135.8225554584,35.2213486136,100
                135.8226385693,35.2217345928,100
                135.8226709114,35.222313391,100
                135.8226195702,35.2227680492,100
                135.8226555838,35.2231764946,100
                135.8225040651,35.2233691666,100
                135.8221677229,35.2236167087,100
                135.8221334031,35.2239611771,100
                135.8223668716,35.2247056268,100
                135.8224164291,35.2250915567,100
                135.8221471446,35.2253805373,100
                135.8219406233,35.2267586604,100
                135.8218391341,35.2271029609,100
                135.8210640987,35.2277774166,100
                135.8206939849,35.2281204788,100
                135.8205705191,35.2282819924,100
                135.8210126057,35.2288081405,100
                135.8210091562,35.2304047835,100
                135.8213283434,35.2308499046,100
                135.821450395,35.2313553729,100
                135.8218682072,35.231719789,100
                135.8220389551,35.2324880789,100
                135.8222599896,35.2327713638,100
                135.8232162827,35.2333815095,100
                135.8234373108,35.2336647959,100
                135.8245679583,35.2346770236,100
                135.824813402,35.2350614007,100
                135.8248370738,35.2355060203,100
                135.8246883101,35.2359908834,100
                135.8245397388,35.236374689,100
                135.8242783068,35.2368212901,100
                135.8242678291,35.2368391626,100
                135.823848196,35.2373034223,100
                135.8237492039,35.2375256081,100
                135.8239207308,35.2379300931,100
                135.8246306951,35.2389219945,100
                135.8247041133,35.2391444309,100
                135.824506259,35.2395281669,100
                135.8242097419,35.239992607,100
                135.8236174614,35.2405576756,100
                135.822679948,35.2413243536,100
                135.8222604783,35.2416875518,100
                135.8221611352,35.2420714296,100
                135.8221357971,35.2423947814,100
                135.8222133032,35.2429362469,100
                135.8223107619,35.2434214023,100
                135.8223092273,35.2441288131,100
                135.8224313473,35.2445938624,100
                135.8229221855,35.2454030526,100
                135.8229217485,35.2456051711,100
                135.8227479892,35.2462314853,100
                135.8225247891,35.2469385742,100
                135.8222778345,35.2472413919,100
                135.8217351914,35.2476044139,100
                135.8208213581,35.2479909767,100
                135.8199350706,35.247807767,100
                135.8193690571,35.2475846018,100
                135.8187780627,35.2475230921,100
                135.8181130313,35.2475221043,100
                135.8175464157,35.2475818945,100
                135.8170784871,35.2475609833,100
                135.8163700355,35.2473660428,100
                135.8157492659,35.2471951754,100
                135.8153554693,35.2470733101,100
                135.8150353604,35.2470324032,100
                135.8147642974,35.2470926274,100
                135.8144437774,35.2472336234,100
                135.8140991434,35.2471522527,100
                135.8137054666,35.2469697478,100
                135.8128872882,35.2465434892,100
                135.811435098,35.2461168118,100
                135.8114097632,35.2464199481,100
                135.8112365285,35.2467834911,100
                135.81081703,35.2471264411,100
                135.8099296853,35.247407957,100
                135.8088935644,35.2481137473,100
                135.8084248914,35.2484161858,100
                135.808177633,35.2488200292,100
                135.8080775419,35.2494868545,100
                135.8079533065,35.2499515254,100
                135.8075822759,35.2506179217,100
                135.807064166,35.2509809093,100
                135.8068424839,35.2509805574,100
                135.8062766879,35.2506764843,100
                135.8055138063,35.2503923063,100
                135.8045089189,35.2501738626,100
                135.803597392,35.2502532402,100
                135.8023406234,35.2504937427,100
                135.8013797664,35.2505932341,100
                135.8007637561,35.250693284,100
                135.8003937966,35.2508947904,100
                135.7998503274,35.2515406596,100
                135.7996036325,35.2517019436,100
                135.7990616349,35.2517414711,100
                135.7987414674,35.2517207299,100
                135.7984453666,35.2519425637,100
                135.7980748999,35.2523461733,100
                135.7976307349,35.2526688139,100
                135.7966202399,35.2529095925,100
                135.7962256731,35.2530909039,100
                135.7954609297,35.2535544195,100
                135.7944697873,35.2541174138,100
                135.7940754595,35.2541975949,100
                135.7945304712,35.2547573947,100
                135.7948414515,35.2549436984,100
                135.7952436121,35.2552904418,100
                135.7953843421,35.2556158282,100
                135.7951837651,35.256567631,100
                135.7948987941,35.2572870316,100
                135.7948980887,35.2575656998,100
                135.7951512649,35.2582164251,100
                135.795489812,35.258704612,100
                135.7963085003,35.2596813589,100
                135.7968455591,35.2600538127,100
                135.7974327955,35.2603096568,100
                135.7968342595,35.2618645488,100
                135.7966069767,35.2621660832,100
                135.7960115823,35.2624670022,100
                135.7951026158,35.2635801658,100
                135.7950449886,35.2639748713,100
                135.7951570265,35.2644627512,100
                135.7955796402,35.2673676431,100
                135.7955206383,35.2682965182,100
                135.7951228335,35.2688299488,100
                135.794781241,35.2695260127,100
                135.7947230219,35.2701529733,100
                135.7948069099,35.2705711529,100
                135.7946075622,35.2710120225,100
                135.7943508146,35.2717547019,100
                135.7944629024,35.2722193384,100
                135.7949999213,35.2726382852,100
                135.7952057172,35.2728331443,100
                135.7955649912,35.2731733355,100
                135.7956191116,35.2741720393,100
                135.7953621874,35.2749843696,100
                135.7944775333,35.2756299305,100
                135.7938193391,35.2762941803,100
                135.7928261521,35.2771479296,100
                135.7921965811,35.2785797725,100
                135.7904207213,35.2795177251,100
                135.789357554,35.2797088451,100
                135.7888108669,35.2793229584,100
                135.7871665897,35.2797905862,100
                135.7861476224,35.2804945107,100
                135.7852846624,35.28136983,100
                135.7847344168,35.2823312628,100
                135.7846811093,35.2827588505,100
                135.7850710907,35.283230043,100
                135.7852515706,35.2840216427,100
                135.7853261985,35.2853904575,100
                135.7849890226,35.2859026127,100
                135.7840992114,35.2870345052,100
                135.7828700477,35.2882513632,100
                135.7827552851,35.2883517248,100
                135.7825040218,35.2885714922,100
                135.7820339641,35.2887845277,100
                135.7818763225,35.2892119353,100
                135.7818750615,35.2896824429,100
                135.7816397206,35.2898958998,100
                135.7814556974,35.2904302351,100
                135.7814017011,35.2911144586,100
                135.7813722634,35.2913934297,100
                135.7807697961,35.2923333607,100
                135.7806904494,35.2927395699,100
                135.7805069912,35.2930600247,100
                135.7791757771,35.2933783933,100
                135.7784709646,35.2935695802,100
                135.7780788868,35.2938683106,100
                135.7776599933,35.2944235503,100
                135.7776593507,35.2946588402,100
                135.7778145186,35.2951509721,100
                135.7778136468,35.2954717544,100
                135.7777868213,35.2957497426,100
                135.7774987091,35.2961769741,100
                135.7774197556,35.2964334563,100
                135.7778621109,35.2968406181,100
                135.7779916796,35.2971616392,100
                135.7783301567,35.2973974766,100
                135.7783296927,35.2975686077,100
                135.7780420421,35.2978247099,100
                135.777728799,35.2985757789,100
                135.7776756454,35.2989392131,100
                135.7778051959,35.2992602347,100
                135.7780132577,35.2994959044,100
                135.7780904706,35.2998809868,100
                135.777958363,35.300500975,100
                135.7778534868,35.3006932541,100
                135.7782428103,35.3014211002,100
                135.7783722719,35.3017848692,100
                135.7782408955,35.3021268219,100
                135.7779267486,35.3025325974,100
                135.7775869706,35.3027671938,100
                135.7775080113,35.3030237462,100
                135.7774799217,35.3035987112,100
                135.7773745171,35.3039834584,100
                135.7772165355,35.3045178315,100
                135.7773457442,35.3049671659,100
                135.7777365594,35.3051603527,100
                135.778101745,35.3051824302,100
                135.7785193324,35.3051190364,100
                135.7787805078,35.3050126085,100
                135.7795888548,35.3051637317,100
                135.7801624141,35.3053144953,100
                135.7803969178,35.3054218243,100
                135.7806838996,35.3054223434,100
                135.7815454512,35.3051886791,100
                135.7819626579,35.3052749953,100
                135.7821188439,35.3054035899,100
                135.7824301591,35.3060671242,100
                135.7825591169,35.3066233568,100
                135.7827060851,35.3068435563,100
                135.7828449682,35.3070516276,100
                135.7832618254,35.3072662515,100
                135.7837314986,35.3072456804,100
                135.7843314376,35.3072894958,100
                135.7846961293,35.3075040234,100
                135.7851394258,35.3075903778,100
                135.7857136836,35.3074844222,100
                135.7862350229,35.3076564761,100
                135.7867824606,35.307828504,100
                135.7875906836,35.3080438066,100
                135.7880850821,35.3088365274,100
                135.788135835,35.3088783077,100
                135.7884495692,35.3091365411,100
                135.7885521672,35.3098211058,100
                135.7890724487,35.310420835,100
                135.7896187593,35.311041946,100
                135.7899301382,35.3117054632,100
                135.7900583655,35.3125825324,100
                135.7898744487,35.3130741231,100
                135.789768735,35.3136085969,100
                135.7901850384,35.3140201723,100
                135.7905496703,35.3142774285,100
                135.7906269094,35.3146839072,100
                135.7919548968,35.3157555112,100
                135.792370609,35.3164619409,100
                135.7927350251,35.3168047531,100
                135.7929947912,35.3172756975,100
                135.7932813133,35.3174686545,100
                135.793854832,35.3176835087,100
                135.7941929701,35.3181117657,100
                135.7946085061,35.3189037486,100
                135.7945031701,35.3192885049,100
                135.7940090799,35.320551636,100
                135.7940085398,35.3207654435,100
                135.7950942758,35.3212960991,100
                135.7970788278,35.3207434356,100
                135.7979941244,35.3199322602,100
                135.8002404362,35.3189949594,100
                135.8010760926,35.3187182922,100
                135.8019123095,35.3182064045,100
                135.8028787143,35.3178016242,100
                135.8034276848,35.3173747544,100
                135.8043411862,35.3172693182,100
                135.8048895692,35.3170777261,100
                135.8052025897,35.3171209729,100
                135.8058033184,35.3168653042,100
                135.8071073049,35.3171454035,100
                135.8086469712,35.3170622588,100
                135.8090388937,35.3168276557,100
                135.8093007104,35.3164431252,100
                135.8094582722,35.3160156142,100
                135.8092246212,35.3155019984,100
                135.8092771648,35.3153523584,100
                135.8102690503,35.3151828438,100
                135.8104520155,35.3150334061,100
                135.810505148,35.3146271419,100
                135.8106625284,35.3142638566,100
                135.8111328646,35.3139651434,100
                135.8113160435,35.3137302109,100
                135.8112384113,35.3134520564,100
                135.811187222,35.3130242217,100
                135.8112140826,35.3126821426,100
                135.8113452823,35.3123614941,100
                135.811554532,35.3121266022,100
                135.8115028005,35.3119340536,100
                135.8113991218,35.311634449,100
                135.8114268314,35.3109287803,100
                135.8113739687,35.310610315,100
                135.8111399769,35.3102463562,100
                135.810801301,35.3100320254,100
                135.8104363332,35.3099030756,100
                135.8103324828,35.3096891084,100
                135.8102811249,35.3093254336,100
                135.8104924236,35.3089151959,100
                135.8108314591,35.3082569849,100
                135.8114316565,35.3081937605,100
                135.8133381276,35.3073412663,100
                135.8143035192,35.3072999948,100
                135.8146953473,35.3070867148,100
                135.814748621,35.3065948878,100
                135.8151419312,35.3057187128,100
                135.8150414709,35.3051396082,100
                135.815513418,35.3040924204,100
                135.815593213,35.3034081647,100
                135.8156985746,35.3029592288,100
                135.8155693247,35.3024243694,100
                135.815543712,35.3022104515,100
                135.8153625582,35.3015686086,100
                135.8153380506,35.3008628458,100
                135.8154167905,35.3006490853,100
                135.815994705,35.300270506,100
                135.8164389997,35.2999075699,100
                135.8172999718,35.2998661081,100
                135.8178218884,35.2997813188,100
                135.8181870143,35.2998246794,100
                135.8185523986,35.2997609933,100
                135.8191006692,35.2995479937,100
                135.8197535652,35.2992281682,100
                135.8198581989,35.2990999369,100
                135.8198327154,35.2988219313,100
                135.8201469765,35.2982663149,100
                135.8209051105,35.2975188729,100
                135.821245079,35.2971344231,100
                135.8213240807,35.2967923418,100
                135.8214038848,35.2960867247,100
                135.8214311764,35.2955306856,100
                135.8213540403,35.2950173136,100
                135.8212244486,35.2946321847,100
                135.8211202077,35.2945892853,100
                135.8208332976,35.2945674593,100
                135.8206509058,35.2944816283,100
                135.8204427157,35.2942461085,100
                135.820469228,35.294053677,100
                135.8205481325,35.2937543479,100
                135.8205753988,35.2934169145,100
                135.8205237647,35.2931602131,100
                135.8203163569,35.2925825018,100
                135.8202647086,35.2923471388,100
                135.8203969279,35.2915132967,100
                135.820058582,35.2911706112,100
                135.8200330612,35.2909139471,100
                135.820137926,35.2906788133,100
                135.8204516712,35.2903371496,100
                135.8204782166,35.2901233102,100
                135.8208961673,35.2898458835,100
                135.821001167,35.2895466631,100
                135.8216283235,35.2890129127,100
                135.8218895274,35.2888421595,100
                135.822255803,35.2883294387,100
                135.822576,35.2876509453,100
                135.8231247355,35.2871812397,100
                135.8234643981,35.2869036969,100
                135.8236476056,35.2866045883,100
                135.8237786559,35.2863053339,100
                135.8240921546,35.2860705702,100
                135.8242494374,35.2857071973,100
                135.824432685,35.2853866784,100
                135.8249028347,35.2850665731,100
                135.82537375,35.2843829354,100
                135.825401557,35.2835702788,100
                135.8255075592,35.282779142,100
                135.8254818682,35.282586636,100
                135.8252492912,35.2822434764,100
                135.8251975347,35.2820509325,100
                135.8252500613,35.2818798771,100
                135.8253184555,35.2817127871,100
                135.8261613325,35.2811438357,100
                135.827086849,35.2804099907,100
                135.8273620741,35.2800428358,100
                135.8274726308,35.2796754463,100
                135.8277202668,35.2793681821,100
                135.828141893,35.2789786953,100
                135.8283713092,35.278633938,100
                135.8284177836,35.2782814588,100
                135.8288146746,35.2776607323,100
                135.8293743042,35.2768813553,100
                135.8298871862,35.2765969928,100
                135.8303069794,35.2764968696,100
              </coordinates>
            </LinearRing>
          </outerBoundaryIs>
        </Polygon>
      </Placemark>
    </Document>
  </Document>
</kml>
