<?xml version="1.0" encoding="UTF-8"?>
<kml xmlns="http://www.opengis.net/kml/2.2">
  <Document id="root_doc">
    <Document id="_4_16____________disv4326">
      <name>14_16錦林東山disv4326</name>
      <Placemark id="_4_16____________disv4326.1">
        <visibility>1</visibility>
        <Polygon>
          <extrude>0</extrude>
          <outerBoundaryIs>
            <LinearRing>
              <coordinates>
                135.792357203,35.006730553,100
                135.7922109854,35.0067042468,100
                135.792105698,35.0067311132,100
                135.7917502213,35.0068658745,100
                135.7913552832,35.0070004978,100
                135.7911682408,35.0070400427,100
                135.790677928,35.0070047653,100
                135.7906846095,35.006961392,100
                135.7905926108,35.0069287661,100
                135.7905331747,35.0070261391,100
                135.7905988983,35.0070478734,100
                135.7904927135,35.0074210396,100
                135.7907357661,35.007529707,100
                135.7908330452,35.0080709853,100
                135.7908657023,35.0081630213,100
                135.7909275044,35.0083063804,100
                135.7906775354,35.008332998,100
                135.7906383087,35.0082410195,100
                135.790493517,35.0082840166,100
                135.7905326093,35.0084302246,100
                135.7905453211,35.00859794,100
                135.7903871624,35.0087221887,100
                135.790229328,35.0087272713,100
                135.7901962866,35.0087867271,100
                135.7900715284,35.0087108006,100
                135.7900253456,35.0087702343,100
                135.7899793229,35.0087593097,100
                135.7899199381,35.0088349201,100
                135.7893525815,35.0093430086,100
                135.7890429871,35.0095373543,100
                135.7887205915,35.0095908873,100
                135.7883907519,35.0096104579,100
                135.7883383362,35.0095292323,100
                135.7880091207,35.009680226,100
                135.7880092877,35.0096152193,100
                135.7877337244,35.0097231325,100
                135.7877064537,35.0097337904,100
                135.7877062867,35.0097987277,100
                135.7876501583,35.0098060242,100
                135.7875418184,35.0098200615,100
                135.7873912095,35.0098100814,100
                135.7872919532,35.0098033581,100
                135.7871156796,35.0097719918,100
                135.7867397719,35.0097050623,100
                135.7867335659,35.0095643342,100
                135.7864441086,35.0095908736,100
                135.786437174,35.0097315787,100
                135.7862135546,35.0097366108,100
                135.7861997777,35.0099746378,100
                135.7861928713,35.0101045678,100
                135.7859955366,35.0101149979,100
                135.7859953963,35.0101690874,100
                135.7856995153,35.0101469475,100
                135.7856868879,35.0099412718,100
                135.7852420855,35.0098950637,100
                135.7848059383,35.0098935218,100
                135.784783368,35.0102277385,100
                135.7847713985,35.0103120217,100
                135.7847512915,35.0106451157,100
                135.7847475121,35.01070765,100
                135.784751717,35.0108675325,100
                135.7847548328,35.0109856473,100
                135.7848212076,35.0110052731,100
                135.7848173808,35.0112907176,100
                135.7848194737,35.0114146612,100
                135.7853747551,35.011396848,100
                135.7853760388,35.0113247308,100
                135.7853726659,35.0111618924,100
                135.7854749525,35.0112218666,100
                135.7856822621,35.0113433691,100
                135.7858501322,35.0118354688,100
                135.7869884813,35.0118598574,100
                135.7875404683,35.0120649222,100
                135.7883736792,35.0125209879,100
                135.7885706673,35.012655849,100
                135.7889366959,35.012976441,100
                135.7898422624,35.0138176583,100
                135.7899711389,35.0139862048,100
                135.7902907716,35.0146639994,100
                135.7902952346,35.0150663904,100
                135.7902953516,35.0150769318,100
                135.790351449,35.0151929538,100
                135.7904582764,35.0153137119,100
                135.7905597135,35.0155096088,100
                135.7906720199,35.0156814365,100
                135.7908351031,35.0158487042,100
                135.7911840258,35.0161045375,100
                135.7913697164,35.016243953,100
                135.7914708395,35.0163878717,100
                135.7916110632,35.016658559,100
                135.7916629304,35.0168576798,100
                135.7914862692,35.0175996276,100
                135.791502823,35.0177481207,100
                135.7916031246,35.0181331862,100
                135.7911969331,35.0182185542,100
                135.7913525776,35.0186811866,100
                135.7911180759,35.0189844029,100
                135.7910388625,35.019332679,100
                135.790963575,35.0196768059,100
                135.7909444718,35.0198756642,100
                135.7909539174,35.0200254092,100
                135.7909995434,35.0201626811,100
                135.7911351146,35.0204217349,100
                135.7918798125,35.0217592347,100
                135.7920475191,35.0220427102,100
                135.7921033647,35.0220237204,100
                135.7923165262,35.0223186826,100
                135.7924373271,35.0224119242,100
                135.7931862191,35.022328969,100
                135.7935955598,35.0222838171,100
                135.7937950242,35.0224868454,100
                135.793980658,35.0226401286,100
                135.7942313629,35.0228088755,100
                135.7943335268,35.0228665172,100
                135.7947337126,35.0227600735,100
                135.7951620054,35.0225732477,100
                135.7955149154,35.0227842786,100
                135.7957005609,35.0229261499,100
                135.7959047802,35.0230871385,100
                135.7960531729,35.0232595117,100
                135.7962056273,35.0234608377,100
                135.7963352688,35.0236867044,100
                135.7968058483,35.023599106,100
                135.7969822832,35.0242870535,100
                135.7970375706,35.024505189,100
                135.7973584244,35.0245095292,100
                135.7979626181,35.0246559707,100
                135.7980742567,35.0246484803,100
                135.7983391906,35.0247024465,100
                135.7984833671,35.0247026864,100
                135.7984947529,35.0248263058,100
                135.7995175932,35.0249714627,100
                135.7996629923,35.024952547,100
                135.7999724612,35.0248242478,100
                135.8002400757,35.0247434161,100
                135.80018222,35.024628525,100
                135.8000546698,35.0244800654,100
                135.7999505348,35.0242693862,100
                135.7999276023,35.0241402559,100
                135.800427559,35.0241458697,100
                135.8006659215,35.024141474,100
                135.8009429946,35.0240958701,100
                135.8008759534,35.0239915983,100
                135.8009679432,35.023769834,100
                135.8010598253,35.0235932138,100
                135.8010143668,35.0234765824,100
                135.8013210827,35.0233415844,100
                135.8016324694,35.0231503234,100
                135.801737703,35.0231354944,100
                135.8022497006,35.0231964074,100
                135.8024532627,35.0228135474,100
                135.8025636642,35.0225429358,100
                135.8028021056,35.0222612655,100
                135.8028661883,35.0222424957,100
                135.8029301334,35.0222727427,100
                135.8034098654,35.022435224,100
                135.8040050258,35.0224180205,100
                135.8041695928,35.0224370917,100
                135.8043066547,35.0224937255,100
                135.8043841771,35.0225841375,100
                135.8044892157,35.0226332545,100
                135.8048137495,35.0226901902,100
                135.805074345,35.0227131472,100
                135.8051932933,35.0226908024,100
                135.8052803117,35.0226307278,100
                135.8056927374,35.0225010325,100
                135.8061091952,35.0223587349,100
                135.8064660071,35.0222954306,100
                135.8067680509,35.0221943585,100
                135.8069375065,35.0220818062,100
                135.8070018233,35.0219539442,100
                135.8070240875,35.0218596083,100
                135.8070436083,35.021776889,100
                135.8077313678,35.0218541871,100
                135.8078592358,35.0218426288,100
                135.8079588108,35.0217844038,100
                135.8082366559,35.0214108111,100
                135.8082935536,35.0213699843,100
                135.8084000841,35.0213759982,100
                135.8088049873,35.0213298771,100
                135.8088902809,35.0213007853,100
                135.8089543336,35.0212483487,100
                135.8090611803,35.0211082287,100
                135.8091251832,35.0210674123,100
                135.8093098346,35.0210735501,100
                135.8095160632,35.0209571091,100
                135.8097432637,35.0209807756,100
                135.8100488068,35.0209052583,100
                135.8102689858,35.0208997536,100
                135.8109363187,35.0210000823,100
                135.810879026,35.0212045824,100
                135.8108291879,35.021257114,100
                135.8108846525,35.0213833328,100
                135.810932802,35.021357983,100
                135.8111452903,35.0213186603,100
                135.8117137104,35.0211910045,100
                135.8122112169,35.0210280944,100
                135.8129145621,35.0209064841,100
                135.8136462084,35.0208374507,100
                135.8140193687,35.02076604,100
                135.8141999511,35.0207040566,100
                135.8143224158,35.0205988837,100
                135.8143517715,35.0204594831,100
                135.8143060155,35.0201342552,100
                135.814760029,35.0201397294,100
                135.8148590467,35.0201158625,100
                135.8150164485,35.0200059524,100
                135.8152549531,35.0200734278,100
                135.8154180368,35.0200353606,100
                135.8155521726,35.0199447815,100
                135.815767976,35.0197487514,100
                135.8158846885,35.0196195487,100
                135.8158673944,35.0195428964,100
                135.8157921397,35.0193511473,100
                135.8156935697,35.019173731,100
                135.8157170031,35.0191067181,100
                135.8158916633,35.0190974016,100
                135.8160780073,35.0190593674,100
                135.8162528048,35.0189782129,100
                135.8163517555,35.0189831505,100
                135.816520151,35.01916546,100
                135.8166480302,35.0192518554,100
                135.8166826419,35.019386003,100
                135.8167521925,35.0195249912,100
                135.8168626083,35.0196114306,100
                135.8170313424,35.019640487,100
                135.817130316,35.0196357048,100
                135.8175025469,35.0197800021,100
                135.8176713234,35.0197899005,100
                135.8176016455,35.0197083116,100
                135.8178286109,35.0194842631,100
                135.81813689,35.0195900802,100
                135.8183289617,35.0196000127,100
                135.8185153384,35.0195475376,100
                135.818672753,35.0194328309,100
                135.8188301261,35.0193372804,100
                135.8189407102,35.0193421615,100
                135.8190220847,35.0194046108,100
                135.8191267838,35.0194287099,100
                135.8192490415,35.0194193818,100
                135.8193539185,35.0193715744,100
                135.8195288379,35.0192425257,100
                135.8196338496,35.0191276701,100
                135.8198590399,35.0194743657,100
                135.8199520571,35.0195319008,100
                135.8200917072,35.0195561217,100
                135.8201849518,35.019508367,100
                135.8202765894,35.0194313118,100
                135.8203930774,35.0193979576,100
                135.820497788,35.0194171965,100
                135.8205906816,35.0195324114,100
                135.8206662978,35.0195708345,100
                135.8207594388,35.0195661817,100
                135.8208468503,35.0195087694,100
                135.821185991,35.0192422707,100
                135.8213024583,35.019213635,100
                135.8215295086,35.0191996673,100
                135.8217158829,35.0191519764,100
                135.8218384256,35.0190036927,100
                135.8219258689,35.0189511388,100
                135.8220363496,35.0190039794,100
                135.8221639879,35.0191957982,100
                135.8222617663,35.0192643957,100
                135.8224537766,35.0192934093,100
                135.8227800044,35.0191741562,100
                135.8229255978,35.0191408431,100
                135.8231002264,35.019141096,100
                135.8234264311,35.0190314195,100
                135.8235603422,35.0190219643,100
                135.8236475694,35.0190556132,100
                135.823763781,35.0191468444,100
                135.8238801663,35.0191613085,100
                135.8240199688,35.0191184087,100
                135.8242876872,35.0191380207,100
                135.8245614905,35.0190330544,100
                135.8249574379,35.0189808714,100
                135.8250742052,35.0188846936,100
                135.8252548797,35.0186961358,100
                135.8253522201,35.0186577516,100
                135.8254527498,35.0186964186,100
                135.8255060708,35.0188912276,100
                135.8256572172,35.0190215935,100
                135.8258017899,35.019004897,100
                135.8259672963,35.0188635729,100
                135.8261098543,35.0188022222,100
                135.8262069487,35.0188769437,100
                135.8263355102,35.0189743863,100
                135.8264580749,35.0195779833,100
                135.8267696466,35.0201895918,100
                135.8269441153,35.0204778842,100
                135.8270294736,35.0206189288,100
                135.8274328908,35.0209412081,100
                135.8279410265,35.0210705941,100
                135.8285016223,35.0210391965,100
                135.8289839573,35.021029096,100
                135.8295704324,35.0210942851,100
                135.8300784429,35.0212772555,100
                135.8302868225,35.0213741003,100
                135.8306493391,35.0214365782,100
                135.8310727366,35.0213726522,100
                135.8313704605,35.0214504619,100
                135.831495491,35.0216311382,100
                135.8318874772,35.0216059008,100
                135.8321539455,35.0216191547,100
                135.832341865,35.0217225874,100
                135.8327494763,35.0217231453,100
                135.8332350813,35.0219043825,100
                135.833720204,35.0223434483,100
                135.8340651278,35.0223181399,100
                135.8342692588,35.0221508012,100
                135.8344424817,35.0217641125,100
                135.8344429954,35.0215062104,100
                135.8345376512,35.0212097726,100
                135.8345856722,35.0207067803,100
                135.8346259256,35.0204885117,100
                135.8346332062,35.0204489418,100
                135.8347904497,35.0202170293,100
                135.8348864468,35.0198035443,100
                135.8348555521,35.019571375,100
                135.8347621795,35.0192230572,100
                135.834746907,35.019029573,100
                135.8348724891,35.0189395267,100
                135.8351407265,35.0186975515,100
                135.8351253411,35.0185557617,100
                135.8350787285,35.0183493469,100
                135.8350007419,35.01814289,100
                135.8349855355,35.017910742,100
                135.8346726293,35.0175878322,100
                135.8346729359,35.0174330335,100
                135.8347828868,35.0173300779,100
                135.8350836317,35.0170754703,100
                135.835414202,35.0163794659,100
                135.8355875422,35.0159283339,100
                135.8357259366,35.0150891721,100
                135.8358204141,35.0148700606,100
                135.8358369487,35.0144444931,100
                135.8357443242,35.0137222087,100
                135.83551044,35.012998748,100
                135.8353865696,35.0122247977,100
                135.8351989054,35.0120053037,100
                135.8345119554,35.0123044601,100
                135.833525223,35.0119034398,100
                135.8332903173,35.0117998719,100
                135.8329767568,35.0118252187,100
                135.8322245461,35.0117339663,100
                135.8320054118,35.0115788643,100
                135.8312843109,35.0116036431,100
                135.8306102733,35.0116156648,100
                135.82996758,35.0116147681,100
                135.8291051558,35.0117682879,100
                135.8288767609,35.0117645863,100
                135.8285791655,35.0116480324,100
                135.8282026946,35.0117894126,100
                135.8279044463,35.0119953435,100
                135.8263678966,35.0121866253,100
                135.8257567494,35.0120954628,100
                135.8251454357,35.0120945858,100
                135.8246591954,35.0122357273,100
                135.8244078376,35.0125062298,100
                135.8243131699,35.0128026643,100
                135.8242655616,35.0130733902,100
                135.8240457212,35.0132536493,100
                135.8233402072,35.0133170696,100
                135.8229637703,35.0134197694,100
                135.8225092763,35.0133804428,100
                135.8219606279,35.0133925306,100
                135.8215685125,35.0134950641,100
                135.8211916406,35.0138041143,100
                135.8209714518,35.0141519171,100
                135.8207942284,35.0148215686,100
                135.8207620439,35.0152084524,100
                135.8207924823,35.0156340237,100
                135.8206821827,35.0158918399,100
                135.8202326398,35.0153319808,100
                135.8201861226,35.0150997814,100
                135.8203278252,35.0148034176,100
                135.8204073658,35.0142746895,100
                135.8202828818,35.0138360215,100
                135.8201741283,35.0133973758,100
                135.8202534481,35.0129461183,100
                135.8199240569,35.0130488099,100
                135.8196890434,35.0129968382,100
                135.8192972729,35.0129447046,100
                135.819014785,35.0130990869,100
                135.8185283256,35.013343384,100
                135.8182146803,35.0134073589,100
                135.8178699825,35.0133295142,100
                135.8175407731,35.0133419105,100
                135.817352403,35.0134705133,100
                135.8171956174,35.0134831668,100
                135.8170548568,35.0133411825,100
                135.8169299594,35.0131088625,100
                135.8165117806,35.0127169328,100
                135.8162561702,35.0129917119,100
                135.8160204764,35.0132492669,100
                135.8158946925,35.0134296558,100
                135.815988292,35.0136361532,100
                135.8160503196,35.0139329629,100
                135.8160807901,35.0143326917,100
                135.8159076535,35.0146549244,100
                135.8155777551,35.0149767787,100
                135.81501301,35.0151693932,100
                135.8143075583,35.0151941006,100
                135.8140878626,35.0152970155,100
                135.81377439,35.0152836499,100
                135.8131789,35.0151923808,100
                135.8127867471,35.0153079185,100
                135.8120809457,35.0154874167,100
                135.8114385173,35.0153702897,100
                135.8109209234,35.015498517,100
                135.810904856,35.0156661136,100
                135.8109826926,35.0159112578,100
                135.8109819328,35.0162466414,100
                135.8108828481,35.016519191,100
                135.8107391935,35.0166368679,100
                135.8101915828,35.0167003934,100
                135.8097093577,35.0166674587,100
                135.8094618709,35.0165920612,100
                135.8093057904,35.0164416587,100
                135.8090589243,35.015926428,100
                135.8089028456,35.0157759552,100
                135.8085251032,35.0156574567,100
                135.8081340826,35.0156461302,100
                135.8074559876,35.0157629496,100
                135.8072498945,35.0155302729,100
                135.8071439741,35.0154865084,100
                135.807111013,35.015404687,100
                135.8069586652,35.0153826096,100
                135.8068726049,35.0153388766,100
                135.8067866804,35.0152459129,100
                135.8063561278,35.0151634541,100
                135.8062565921,35.0152178772,100
                135.8060639776,35.0154030087,100
                135.8059577772,35.0154791126,100
                135.8057521806,35.0155497043,100
                135.8055931737,35.0155385322,100
                135.805268598,35.0153293962,100
                135.805129746,35.0151928909,100
                135.8050040724,35.0150945092,100
                135.80477237,35.0149905328,100
                135.8046532674,35.0149194885,100
                135.804415125,35.0147336614,100
                135.804329371,35.0145699851,100
                135.8042652958,35.0142701333,100
                135.8042258513,35.0141446349,100
                135.804199759,35.0139647151,100
                135.8041536571,35.0138392059,100
                135.8040412222,35.0137462673,100
                135.8039153857,35.0137188777,100
                135.803650561,35.0136148449,100
                135.8034387139,35.0133896892,100
                135.8032010775,35.0130021517,100
                135.8032216703,35.0127022964,100
                135.8030433495,35.0124457127,100
                135.8029509413,35.0122929413,100
                135.8029314225,35.0121401478,100
                135.8029913641,35.0120148806,100
                135.8032567935,35.0116436574,100
                135.8033764137,35.0115020071,100
                135.8034098258,35.0113820493,100
                135.8034434166,35.011185887,100
                135.803530063,35.010978824,100
                135.8034844114,35.0106737893,100
                135.8034852753,35.0103085419,100
                135.8034391253,35.0102047943,100
                135.8030688173,35.0098825379,100
                135.802625549,35.0095927697,100
                135.8024599913,35.0095434795,100
                135.8022677927,35.0095649273,100
                135.80190962,35.0097116081,100
                135.8018699639,35.0096678765,100
                135.8020429839,35.0093519314,100
                135.8020957642,35.0091776333,100
                135.8020894171,35.009057681,100
                135.801917651,35.0088392777,100
                135.8016335156,35.0085061708,100
                135.8011515296,35.0080639917,100
                135.8008871503,35.0077854279,100
                135.8007614036,35.0077252835,100
                135.8004568456,35.0076212478,100
                135.8003641865,35.0075774271,100
                135.8000531818,35.007396963,100
                135.799907426,35.0073912972,100
                135.7995693716,35.0074507418,100
                135.7989407692,35.0072160063,100
                135.7985569196,35.0070299926,100
                135.7984113734,35.0069479801,100
                135.798272754,35.0067187085,100
                135.7981208313,35.0065221649,100
                135.7979852624,35.0063593845,100
                135.7976754611,35.0067149591,100
                135.797320209,35.0067631695,100
                135.79723447,35.0068657828,100
                135.7971736079,35.0069889337,100
                135.797107708,35.0070375622,100
                135.7968775813,35.0070209809,100
                135.7965814023,35.0071232472,100
                135.7963825694,35.0077452381,100
                135.7963429368,35.007815462,100
                135.796231098,35.0078261215,100
                135.7959418457,35.0077823245,100
                135.7957446997,35.0077279054,100
                135.7952459126,35.0073104077,100
                135.7949312481,35.0069094165,100
                135.7945609721,35.006766949,100
                135.7943741974,35.0067683964,100
                135.794315359,35.0066275784,100
                135.7941511665,35.0065407446,100
                135.7939395412,35.0064594642,100
                135.7937811745,35.0065084993,100
                135.7936901159,35.0065366588,100
                135.7934207248,35.0065195123,100
                135.7932567274,35.0065609301,100
                135.7928617998,35.0067009818,100
                135.7926117334,35.0067600724,100
                135.792521233,35.0067531579,100
                135.7924541814,35.0067480437,100
                135.792357203,35.006730553,100
              </coordinates>
            </LinearRing>
          </outerBoundaryIs>
        </Polygon>
      </Placemark>
    </Document>
  </Document>
</kml>
