<?xml version="1.0" encoding="UTF-8"?>
<kml xmlns="http://www.opengis.net/kml/2.2">
  <Document id="root_doc">
    <Document id="_4_13_______________disv4326">
      <name>14_13修学院第二disv4326</name>
      <Placemark id="_4_13_______________disv4326.1">
        <visibility>1</visibility>
        <Polygon>
          <extrude>0</extrude>
          <outerBoundaryIs>
            <LinearRing>
              <coordinates>
                135.7869622991,35.0381086791,100
                135.7868930411,35.0381196854,100
                135.7864812376,35.0380354407,100
                135.7862962083,35.0380056779,100
                135.7861678181,35.0379941142,100
                135.7859618879,35.0379755824,100
                135.7856512692,35.0380193347,100
                135.7854899831,35.0380386301,100
                135.7853048786,35.0380383043,100
                135.7851139529,35.0379790912,100
                135.7850895205,35.0381902561,100
                135.7850649202,35.038475087,100
                135.7850338294,35.0390117493,100
                135.7848904962,35.0390164263,100
                135.7849748088,35.0391955284,100
                135.7850743008,35.0394069117,100
                135.7856031767,35.0405304345,100
                135.7849913401,35.040559711,100
                135.7840641328,35.0406108941,100
                135.7836953958,35.0406291151,100
                135.7834074771,35.0406443802,100
                135.7826718803,35.0406833573,100
                135.7828192965,35.0410929351,100
                135.7825422193,35.0412115328,100
                135.7825738521,35.0412553935,100
                135.7827781746,35.0415387296,100
                135.7821631313,35.0419173703,100
                135.7823430742,35.0421750978,100
                135.7827549554,35.0427502263,100
                135.7832193541,35.043292558,100
                135.7833076879,35.0432487691,100
                135.7834008638,35.0432025948,100
                135.7834893691,35.0431586653,100
                135.7835880495,35.043434769,100
                135.783640503,35.043606772,100
                135.7837817949,35.0440700738,100
                135.7841493434,35.0444760978,100
                135.7844266506,35.0446867398,100
                135.7845615057,35.0447917018,100
                135.7852388678,35.0453189102,100
                135.7848579569,35.0455942654,100
                135.7848654933,35.045600211,100
                135.7848734051,35.0456104836,100
                135.7848985909,35.0456431872,100
                135.7849573557,35.0457194927,100
                135.7850001281,35.0457105535,100
                135.7850116059,35.0457226029,100
                135.7850322797,35.0457443048,100
                135.785056028,35.0457692341,100
                135.7850760379,35.045790241,100
                135.7851050691,35.0458207164,100
                135.7851324979,35.0458108483,100
                135.785215548,35.0459092537,100
                135.7854149571,35.0460925723,100
                135.7852987746,35.046174133,100
                135.7855590485,35.0464267881,100
                135.7856265248,35.0463952143,100
                135.7859567442,35.0468216622,100
                135.7860433836,35.0469547087,100
                135.7860702079,35.0469389098,100
                135.7861421214,35.0470128426,100
                135.7860928489,35.0470501527,100
                135.7862084685,35.0471866302,100
                135.7862631191,35.0472055303,100
                135.7869242839,35.0477994648,100
                135.78696895,35.0477785529,100
                135.7869889644,35.0477982137,100
                135.7871471153,35.0479625521,100
                135.7872410274,35.0479125233,100
                135.7873503078,35.0480317694,100
                135.7874457544,35.0479639032,100
                135.7876026987,35.0481412985,100
                135.7873537472,35.0483009447,100
                135.7874360817,35.0483867264,100
                135.7878751402,35.0482466375,100
                135.787996343,35.0482365652,100
                135.7880463691,35.0482812319,100
                135.7881216288,35.0482538969,100
                135.7882210279,35.0482473084,100
                135.788372375,35.0482372176,100
                135.7883144665,35.0480102748,100
                135.788506824,35.0479452526,100
                135.7886374711,35.0478582208,100
                135.7886867964,35.0478253461,100
                135.7890838497,35.0477848334,100
                135.7891911806,35.0477817792,100
                135.789005051,35.047454046,100
                135.7886239451,35.0467766606,100
                135.7884863938,35.0464747166,100
                135.788306926,35.0460807222,100
                135.7881657313,35.0457982086,100
                135.7880562104,35.0455790627,100
                135.7893689516,35.045542813,100
                135.790400438,35.0455012773,100
                135.7911798883,35.0454736692,100
                135.7919251399,35.0454494476,100
                135.791913406,35.0451771584,100
                135.7918948361,35.0447463322,100
                135.7918953825,35.0445274485,100
                135.7918620544,35.0437966511,100
                135.791835086,35.0427395806,100
                135.7918259781,35.042263485,100
                135.7918097258,35.0417334307,100
                135.7918057754,35.0413950273,100
                135.791789246,35.0409757521,100
                135.7917787897,35.0407394548,100
                135.791772609,35.0405998598,100
                135.7917618452,35.0402041173,100
                135.7917442178,35.0395560269,100
                135.7917419245,35.0394719337,100
                135.7917230521,35.0388767306,100
                135.7916868551,35.0377359381,100
                135.7910670712,35.0377299838,100
                135.791021114,35.0377399088,100
                135.790812133,35.0377346916,100
                135.790513404,35.0377931249,100
                135.7900187039,35.0378055142,100
                135.7897788895,35.0378115098,100
                135.7895996955,35.0378357096,100
                135.7892723848,35.0378781742,100
                135.7888938091,35.0379272402,100
                135.7885713597,35.0379266815,100
                135.7883254057,35.0379306212,100
                135.788020662,35.0380135468,100
                135.7878952486,35.0380182586,100
                135.7876504524,35.0380129027,100
                135.787436648,35.038043659,100
                135.7873457856,35.0380565999,100
                135.7869622991,35.0381086791,100
              </coordinates>
            </LinearRing>
          </outerBoundaryIs>
        </Polygon>
      </Placemark>
    </Document>
  </Document>
</kml>
