<?xml version="1.0" encoding="UTF-8"?>
<kml xmlns="http://www.opengis.net/kml/2.2">
  <Document id="root_doc">
    <Document id="_4_19______disv4326">
      <name>14_19川東disv4326</name>
      <Placemark id="_4_19______disv4326.1">
        <visibility>1</visibility>
        <Polygon>
          <extrude>0</extrude>
          <outerBoundaryIs>
            <LinearRing>
              <coordinates>
                135.7744020103,35.0133125386,100
                135.7740575513,35.0133119047,100
                135.7740566075,35.0136572131,100
                135.7739438697,35.0136570054,100
                135.7739443205,35.0134921335,100
                135.7739303055,35.0134379907,100
                135.7735775116,35.0134301283,100
                135.7735327302,35.0134532117,100
                135.7735121695,35.0134964783,100
                135.773511732,35.0136562084,100
                135.7734491286,35.0136509515,100
                135.7729237935,35.0133767889,100
                135.7728420409,35.0134952393,100
                135.7728606592,35.0135571093,100
                135.7728603477,35.0136704988,100
                135.7726679155,35.0136701424,100
                135.7722027363,35.0136692795,100
                135.771705985,35.0136391305,100
                135.7716411284,35.0150230669,100
                135.77162703,35.0153236997,100
                135.771618973,35.0154436242,100
                135.7716091961,35.0158297639,100
                135.7715885834,35.0166442999,100
                135.7715996212,35.017575734,100
                135.7715990365,35.0177873704,100
                135.7715873956,35.01841416,100
                135.7715767891,35.0186665553,100
                135.7740489784,35.0186013359,100
                135.7740307357,35.0178370152,100
                135.7742815547,35.0178319134,100
                135.7742879268,35.0179825706,100
                135.7745794996,35.0179440898,100
                135.7745796976,35.0178714786,100
                135.7747153066,35.0178606001,100
                135.7747088866,35.0177267047,100
                135.7750071523,35.0177216181,100
                135.775026517,35.0180843588,100
                135.7753044676,35.0180736709,100
                135.7753048012,35.0179509854,100
                135.7757317817,35.0179358503,100
                135.7757321451,35.0178019662,100
                135.7761795801,35.0177803875,100
                135.7762063026,35.0179255192,100
                135.7766469607,35.0179095601,100
                135.7766475338,35.0176975725,100
                135.7769458437,35.0176757891,100
                135.7775017466,35.0176601075,100
                135.7774820564,35.0174146295,100
                135.7776583256,35.0174037508,100
                135.7776187436,35.0170020963,100
                135.7775931471,35.0167228635,100
                135.7775660603,35.0164273759,100
                135.7769872831,35.0164211836,100
                135.7769356863,35.0164206672,100
                135.7756342084,35.0164238571,100
                135.7753952626,35.0164326464,100
                135.7747877287,35.0164547731,100
                135.7742919211,35.0164728777,100
                135.7742520978,35.0161659478,100
                135.7736215415,35.0162261285,100
                135.7733910282,35.0162423948,100
                135.7733575577,35.0160861929,100
                135.773333979,35.0157952101,100
                135.7733313291,35.0157625969,100
                135.7733391852,35.0153720866,100
                135.772864716,35.0153600811,100
                135.772858076,35.0153154173,100
                135.7738139662,35.0152614046,100
                135.7740616734,35.0152570016,100
                135.7746488767,35.0152466725,100
                135.7750149092,35.0152417805,100
                135.7750085874,35.0150800655,100
                135.7753068117,35.0150861056,100
                135.7752550559,35.0144832851,100
                135.7757837876,35.0144730544,100
                135.7757640562,35.0142443381,100
                135.7760149013,35.0142335982,100
                135.7760153466,35.0141324633,100
                135.7760159323,35.0140032289,100
                135.7760165855,35.0138567391,100
                135.7760170766,35.0137468718,100
                135.7760175357,35.0136403849,100
                135.7754908269,35.0136483667,100
                135.7751173457,35.0136483864,100
                135.7749860036,35.0136432156,100
                135.7749512885,35.0136447718,100
                135.7748530476,35.0136491694,100
                135.7748243925,35.0136493991,100
                135.7744136219,35.0136527288,100
                135.7744020103,35.0133125386,100
              </coordinates>
            </LinearRing>
          </outerBoundaryIs>
        </Polygon>
      </Placemark>
    </Document>
  </Document>
</kml>
