<?xml version="1.0" encoding="UTF-8"?>
<kml xmlns="http://www.opengis.net/kml/2.2">
  <Document id="root_doc">
    <Document id="_4_17______disv4326">
      <name>14_17岡崎disv4326</name>
      <Placemark id="_4_17______disv4326.1">
        <visibility>1</visibility>
        <Polygon>
          <extrude>0</extrude>
          <outerBoundaryIs>
            <LinearRing>
              <coordinates>
                135.7856822621,35.0113433691,100
                135.7854749525,35.0112218666,100
                135.7853726659,35.0111618924,100
                135.7853760388,35.0113247308,100
                135.7853747551,35.011396848,100
                135.7848194737,35.0114146612,100
                135.7848173808,35.0112907176,100
                135.7848212076,35.0110052731,100
                135.7847548328,35.0109856473,100
                135.784751717,35.0108675325,100
                135.784205748,35.0107345182,100
                135.7840289802,35.0106390577,100
                135.7839424326,35.0105923523,100
                135.7839449879,35.010629895,100
                135.7837034134,35.0106517254,100
                135.783704089,35.0106146809,100
                135.7835540776,35.0106386442,100
                135.7834855783,35.0106463411,100
                135.7834041008,35.0106578188,100
                135.7827461559,35.0106779966,100
                135.7819982148,35.0106457527,100
                135.7817616729,35.0105522957,100
                135.7814553176,35.0104056111,100
                135.7813959869,35.0104586789,100
                135.7811762641,35.0104230015,100
                135.7806976167,35.0103115058,100
                135.7802672518,35.0102531239,100
                135.7801772955,35.0102903612,100
                135.7801055588,35.0103414358,100
                135.7800390598,35.0103372753,100
                135.7800093407,35.0103354173,100
                135.7797287655,35.0103761847,100
                135.779018406,35.0103837119,100
                135.7790805911,35.0109116892,100
                135.7791394293,35.0114112071,100
                135.7793001599,35.0116765906,100
                135.7792943175,35.0118448331,100
                135.7793255451,35.0122434443,100
                135.779370013,35.0124923474,100
                135.7793785532,35.0125401132,100
                135.7794301901,35.0130258148,100
                135.7794411382,35.0131287967,100
                135.779462286,35.0132273459,100
                135.7795098577,35.0134490289,100
                135.7795580704,35.0136737002,100
                135.7788400182,35.0136743096,100
                135.7786324458,35.0136779494,100
                135.7783260137,35.0136773962,100
                135.7781382032,35.0136770568,100
                135.7776676309,35.0136762051,100
                135.777520417,35.0136759382,100
                135.7770954279,35.013658898,100
                135.7771432282,35.0142649511,100
                135.7772122854,35.0143138124,100
                135.7772607554,35.0146637182,100
                135.7773790504,35.0147859154,100
                135.7775866148,35.014794461,100
                135.7778293616,35.0147875058,100
                135.7778444075,35.0152642628,100
                135.7779943478,35.0152621402,100
                135.7780056788,35.0153380825,100
                135.7778442035,35.0153401143,100
                135.7778457519,35.0153853316,100
                135.7778513244,35.0155888797,100
                135.7778938598,35.0162451384,100
                135.7778671326,35.0162998123,100
                135.7779247442,35.0162999166,100
                135.7779289684,35.0163764804,100
                135.7783880784,35.0163720991,100
                135.7785627167,35.0163703016,100
                135.7789750445,35.0163091382,100
                135.7797383545,35.0163351616,100
                135.7802753489,35.0163361246,100
                135.7803145984,35.0163361949,100
                135.780318883,35.0163908551,100
                135.780526529,35.016392128,100
                135.7805388617,35.0161422167,100
                135.7812217364,35.0161163467,100
                135.781235375,35.0163961546,100
                135.7811786179,35.0163961238,100
                135.7811706024,35.0169476146,100
                135.7811651905,35.0173199798,100
                135.7813658881,35.0173217468,100
                135.7816792613,35.0173245587,100
                135.7816879286,35.0173974681,100
                135.7818253148,35.0174013033,100
                135.78182644,35.0179717056,100
                135.781803422,35.0182997901,100
                135.7817229517,35.0185585423,100
                135.7827734148,35.0185166009,100
                135.7827729469,35.0189138164,100
                135.7828217101,35.0189103104,100
                135.7827905333,35.0189648372,100
                135.7828032957,35.01916544,100
                135.7828247874,35.019424303,100
                135.7828509839,35.0195702067,100
                135.7828593837,35.0197452356,100
                135.7828770633,35.0198587276,100
                135.782934658,35.0198661542,100
                135.7829345143,35.019920806,100
                135.7828458698,35.0199279026,100
                135.7828455436,35.0200518546,100
                135.7828012008,35.0200591005,100
                135.7828053425,35.0201684825,100
                135.782725578,35.0201683411,100
                135.7827253381,35.0202594735,100
                135.7828582873,35.020259709,100
                135.7828581242,35.020321685,100
                135.783004345,35.0203292683,100
                135.7830041392,35.020407513,100
                135.7830040861,35.0204277257,100
                135.7828534157,35.0204274589,100
                135.7828435672,35.020802891,100
                135.7828388301,35.0209195107,100
                135.7830469055,35.0210000967,100
                135.783458242,35.0210623066,100
                135.7834703295,35.0210641591,100
                135.7837291514,35.0211033511,100
                135.7842244357,35.0211878918,100
                135.784274758,35.0211939667,100
                135.7845301351,35.0212248406,100
                135.7853864096,35.021252412,100
                135.7857065274,35.0216246939,100
                135.7859659407,35.0219263705,100
                135.7860467522,35.0218955951,100
                135.7864814362,35.0223878028,100
                135.7867020775,35.0224059385,100
                135.787036618,35.0228752912,100
                135.7873065488,35.0227954054,100
                135.7872279606,35.0226193403,100
                135.787092989,35.022653543,100
                135.786917164,35.0223128584,100
                135.7873174744,35.0221605199,100
                135.7872388574,35.0219958634,100
                135.7876470441,35.0217849424,100
                135.7879636927,35.0216133004,100
                135.7877360042,35.0211323051,100
                135.7884672593,35.0206707296,100
                135.7887698121,35.0205603325,100
                135.7890397314,35.0204728373,100
                135.7892687928,35.0204185126,100
                135.7898260997,35.0202905953,100
                135.7900446509,35.0202871706,100
                135.7902831853,35.02026089,100
                135.7904507489,35.0201923009,100
                135.7905811556,35.020115971,100
                135.7907116677,35.0199976668,100
                135.7908143201,35.0198600862,100
                135.7909412334,35.0193209603,100
                135.7910388625,35.019332679,100
                135.7911180759,35.0189844029,100
                135.7913525776,35.0186811866,100
                135.7911969331,35.0182185542,100
                135.7916031246,35.0181331862,100
                135.791502823,35.0177481207,100
                135.7914862692,35.0175996276,100
                135.7916629304,35.0168576798,100
                135.7916110632,35.016658559,100
                135.7914708395,35.0163878717,100
                135.7913697164,35.016243953,100
                135.7911840258,35.0161045375,100
                135.7908351031,35.0158487042,100
                135.7906720199,35.0156814365,100
                135.7905597135,35.0155096088,100
                135.7904582764,35.0153137119,100
                135.790351449,35.0151929538,100
                135.7902953516,35.0150769318,100
                135.7902952346,35.0150663904,100
                135.7902907716,35.0146639994,100
                135.7899711389,35.0139862048,100
                135.7898422624,35.0138176583,100
                135.7889366959,35.012976441,100
                135.7885706673,35.012655849,100
                135.7883736792,35.0125209879,100
                135.7875404683,35.0120649222,100
                135.7869884813,35.0118598574,100
                135.7858501322,35.0118354688,100
                135.7856822621,35.0113433691,100
              </coordinates>
            </LinearRing>
          </outerBoundaryIs>
        </Polygon>
      </Placemark>
    </Document>
  </Document>
</kml>
