<?xml version="1.0" encoding="UTF-8"?>
<kml xmlns="http://www.opengis.net/kml/2.2">
  <Document id="root_doc">
    <Document id="_4_14_________disv4326">
      <name>14_14北白川disv4326</name>
      <Placemark id="_4_14_________disv4326.1">
        <visibility>1</visibility>
        <Polygon>
          <extrude>0</extrude>
          <outerBoundaryIs>
            <LinearRing>
              <coordinates>
                135.790341908,35.0281214067,100
                135.7902288748,35.0281444529,100
                135.7895636561,35.028279157,100
                135.7889641007,35.0284005192,100
                135.7887871587,35.0284382429,100
                135.7880354648,35.0285985638,100
                135.7869639519,35.0288198733,100
                135.7866742584,35.0288781712,100
                135.78643861,35.0288954347,100
                135.7862672934,35.0288834436,100
                135.7861406717,35.0287868778,100
                135.7858644181,35.0285763796,100
                135.7855646709,35.0285229613,100
                135.7854647473,35.0285169402,100
                135.785314746,35.0285401975,100
                135.7848516216,35.0286441738,100
                135.7844448114,35.0285847203,100
                135.7842846081,35.028574579,100
                135.7841592875,35.0285666117,100
                135.7834385709,35.0285606901,100
                135.7823530996,35.028551582,100
                135.7815791286,35.0285459062,100
                135.7816179778,35.0287272532,100
                135.7818140451,35.0296425831,100
                135.7819641395,35.0303431711,100
                135.7821226952,35.0310834239,100
                135.7820655725,35.0310891681,100
                135.7821154182,35.031505477,100
                135.7821628754,35.0319019913,100
                135.7821773954,35.0320233624,100
                135.782227327,35.032432276,100
                135.7822317703,35.0324686245,100
                135.7823798547,35.0331796307,100
                135.7826079659,35.0331644016,100
                135.783236762,35.0331224174,100
                135.7832014209,35.0329813606,100
                135.7833942549,35.0329581802,100
                135.7834269358,35.0330931036,100
                135.7838155689,35.0330756209,100
                135.7843266723,35.0330528597,100
                135.7846712906,35.0330374805,100
                135.7848303969,35.0330303669,100
                135.7850919425,35.0330186443,100
                135.7853106794,35.0330088502,100
                135.7855066299,35.0330000752,100
                135.7859726141,35.0329792069,100
                135.7859887512,35.0330896639,100
                135.7860572496,35.0330897842,100
                135.7860570494,35.0331686614,100
                135.7859885509,35.0331685411,100
                135.7859858658,35.033239667,100
                135.7858837967,35.0340677729,100
                135.7858828681,35.0340946736,100
                135.7857688522,35.0341007075,100
                135.7857751129,35.034137233,100
                135.7857814297,35.0342391087,100
                135.7857824071,35.0342609349,100
                135.7858047713,35.0342592642,100
                135.785825567,35.034508187,100
                135.7858452891,35.0350021922,100
                135.7858255633,35.0350021576,100
                135.7858310294,35.0351016268,100
                135.7859169286,35.0351003191,100
                135.7859374062,35.0352784254,100
                135.7859088711,35.0352783753,100
                135.7859296648,35.0355192705,100
                135.7859297254,35.0355230737,100
                135.7858518677,35.0355281457,100
                135.785871912,35.0357717186,100
                135.7859647438,35.0357660357,100
                135.7859792133,35.0357665255,100
                135.7859914273,35.0360298221,100
                135.7863561191,35.0360019749,100
                135.7863673389,35.0360011175,100
                135.7866751054,35.0359788264,100
                135.7867985114,35.0359698883,100
                135.7868737021,35.0359656495,100
                135.787108726,35.0359524013,100
                135.7871109432,35.0359424883,100
                135.7876565469,35.0359217492,100
                135.7882601688,35.0367438981,100
                135.7883672655,35.036744084,100
                135.7882092534,35.0368913524,100
                135.7878014521,35.0372137585,100
                135.7876295856,35.0374131179,100
                135.7875148449,35.0376067308,100
                135.7874572622,35.037782907,100
                135.787436648,35.038043659,100
                135.7876504524,35.0380129027,100
                135.7878952486,35.0380182586,100
                135.788020662,35.0380135468,100
                135.7883254057,35.0379306212,100
                135.7885713597,35.0379266815,100
                135.7888938091,35.0379272402,100
                135.7892723848,35.0378781742,100
                135.7895996955,35.0378357096,100
                135.7897788895,35.0378115098,100
                135.7900187039,35.0378055142,100
                135.790513404,35.0377931249,100
                135.790812133,35.0377346916,100
                135.791021114,35.0377399088,100
                135.7910670712,35.0377299838,100
                135.7916868551,35.0377359381,100
                135.7916824496,35.0375970905,100
                135.7918875251,35.0375974406,100
                135.7920336001,35.0377710784,100
                135.7920857961,35.0379832198,100
                135.7923429238,35.0382631791,100
                135.7924068751,35.0384656926,100
                135.7926942607,35.0383553313,100
                135.7928108398,35.0386061049,100
                135.7928577696,35.0385868879,100
                135.7931920227,35.0384814639,100
                135.7932561566,35.0386117201,100
                135.793367554,35.0385877527,100
                135.7934553576,35.0386168471,100
                135.7934961671,35.0387084696,100
                135.7936598719,35.038853332,100
                135.7937711022,35.0388969026,100
                135.7938355468,35.0389018,100
                135.7940818559,35.0388155216,100
                135.7941751931,35.0389794198,100
                135.7943333994,35.038984617,100
                135.7945797908,35.0388741112,100
                135.7947613689,35.038898573,100
                135.7950979639,35.0388414595,100
                135.795209679,35.0387613977,100
                135.7953797279,35.038639528,100
                135.7957019364,35.0385479514,100
                135.7961302437,35.0383221778,100
                135.7965934756,35.0381880848,100
                135.7970389203,35.0381405856,100
                135.797613361,35.0380595646,100
                135.7977191288,35.038448915,100
                135.7979299688,35.0384926472,100
                135.798116887,35.0384433067,100
                135.7983110895,35.0383920055,100
                135.7986866447,35.0381758556,100
                135.7987627875,35.0381856297,100
                135.7989909089,35.0383594653,100
                135.799195582,35.0385284733,100
                135.7995231642,35.0387555021,100
                135.7996852932,35.039097193,100
                135.8001877375,35.0397148767,100
                135.8004334102,35.0398935259,100
                135.8009136562,35.040005161,100
                135.801440961,35.0400348942,100
                135.8019624233,35.0400550382,100
                135.8020726012,35.0399592973,100
                135.802371645,35.0398682998,100
                135.8025713081,35.039690305,100
                135.8029345563,35.0397149784,100
                135.8030049824,35.03967171,100
                135.8033093999,35.0397879097,100
                135.803633279,35.0398318839,100
                135.8037910479,35.0400151029,100
                135.8039543568,35.0399462076,100
                135.8040973235,35.0401253881,100
                135.8043641336,35.0401949744,100
                135.8044926842,35.0401870809,100
                135.8047007384,35.0400165621,100
                135.8048343948,35.0399395194,100
                135.8049679395,35.0399193805,100
                135.8050767872,35.0398870174,100
                135.8052649518,35.0397530878,100
                135.8053836709,35.0397289101,100
                135.8054923273,35.0397778875,100
                135.8055763547,35.0397861209,100
                135.8057409543,35.0396494764,100
                135.8058498021,35.0396170428,100
                135.805983229,35.0396376778,100
                135.806190644,35.0397397015,100
                135.8062497023,35.0398617018,100
                135.80632377,35.039890341,100
                135.8065363008,35.0399191299,100
                135.8068473174,35.0401188558,100
                135.8068866778,35.0401961744,100
                135.8068122105,35.0403302863,100
                135.8067870693,35.0405091973,100
                135.8070133429,35.0404566659,100
                135.8071467529,35.0404853279,100
                135.8072751268,35.0405627869,100
                135.8074228846,35.0408029582,100
                135.8076154594,35.0409090401,100
                135.8077289802,35.040994574,100
                135.8078423663,35.041128983,100
                135.8079655434,35.0413162255,100
                135.8082463982,35.0413887817,100
                135.8085968806,35.0416252542,100
                135.8087707361,35.0419416643,100
                135.8088877432,35.0421979116,100
                135.8089510311,35.0426057007,100
                135.8100078869,35.0430286289,100
                135.8107874366,35.0429840644,100
                135.8114112365,35.0428750971,100
                135.8126789652,35.0426825369,100
                135.8130347217,35.0429303447,100
                135.8132677803,35.0432787414,100
                135.813478061,35.0438468294,100
                135.8136337701,35.0439295357,100
                135.8138226522,35.0441129997,100
                135.8138890162,35.0443145864,100
                135.814122122,35.0446353758,100
                135.8146901185,35.0447946969,100
                135.8149263486,35.0447428714,100
                135.8151124775,35.0446356147,100
                135.8152504409,35.0445169464,100
                135.8154160693,35.044347261,100
                135.8157951546,35.044160997,100
                135.8159331038,35.0440479617,100
                135.8160023293,35.0438782002,100
                135.8161748283,35.0437085955,100
                135.816278602,35.0434822646,100
                135.8160653848,35.0433913766,100
                135.8159072808,35.043277824,100
                135.8158513746,35.0430793521,100
                135.8157209861,35.0428923168,100
                135.8156597721,35.042558198,100
                135.8154744578,35.0422917116,100
                135.8153516753,35.0420353193,100
                135.8154073488,35.0417693375,100
                135.8154697676,35.0415599171,100
                135.8155595875,35.0414184978,100
                135.8156012067,35.0412826401,100
                135.8157874755,35.0411186904,100
                135.8161046713,35.0408870471,100
                135.8163239987,35.0407676538,100
                135.816413566,35.0407394776,100
                135.8164488605,35.0408683388,100
                135.8165201684,35.0409271101,100
                135.8166246336,35.0409092382,100
                135.8167631229,35.0404032996,100
                135.8172533731,35.0398797891,100
                135.8176768652,35.0397575297,100
                135.8178529923,35.0396312376,100
                135.8179741062,35.0395229636,100
                135.8182215218,35.0394736111,100
                135.8184246443,35.0392784828,100
                135.8185623402,35.039129527,100
                135.8188098918,35.0390170018,100
                135.8190573541,35.0389359572,100
                135.8192446771,35.0387147466,100
                135.819404824,35.0385621597,100
                135.8195315646,35.0383951575,100
                135.8196144648,35.0381828769,100
                135.8198458017,35.0379301795,100
                135.8200439092,35.0378084233,100
                135.8202194683,35.0375607142,100
                135.8204891637,35.0373622288,100
                135.820654496,35.0371409832,100
                135.8208690917,35.0370103057,100
                135.8209136963,35.0367166269,100
                135.8210237727,35.0366353756,100
                135.8211833091,35.0365542673,100
                135.8213546695,35.0362113328,100
                135.8214648544,35.036089445,100
                135.8216188392,35.0360309343,100
                135.8217782377,35.0360131374,100
                135.8224092241,35.0360625081,100
                135.8226510463,35.0360448303,100
                135.822821512,35.0359863429,100
                135.8230249337,35.0359323388,100
                135.8232171726,35.0359779015,100
                135.823638636,35.0361867594,100
                135.8238857681,35.036263951,100
                135.8240671105,35.036259705,100
                135.8242210737,35.0362102053,100
                135.8243257022,35.0361018999,100
                135.8244249174,35.0359619653,100
                135.8246521904,35.0358441879,100
                135.8247788234,35.035735913,100
                135.8247955064,35.035636496,100
                135.8247783791,35.035323498,100
                135.8247351302,35.0349936318,100
                135.824741032,35.0347992646,100
                135.8248790052,35.0345102224,100
                135.8248573279,35.034365537,100
                135.8247260876,35.0340670944,100
                135.8250384121,35.033868025,100
                135.8252034003,35.0338005112,100
                135.8254183233,35.0335116497,100
                135.8255945759,35.0333040036,100
                135.825760114,35.0329742932,100
                135.8257879879,35.0327844644,100
                135.8256522392,35.0324264365,100
                135.8256142304,35.0322139076,100
                135.825680634,35.0319880756,100
                135.8258456278,35.0319159121,100
                135.8260103659,35.0319704455,100
                135.8262498513,35.0317699303,100
                135.8265579785,35.0312337217,100
                135.8271148172,35.0310766849,100
                135.8274606355,35.0308720213,100
                135.8278645567,35.030414891,100
                135.8279419146,35.030130831,100
                135.8283654218,35.029468645,100
                135.8282124326,35.0292158824,100
                135.8279633549,35.0290419323,100
                135.8279647971,35.0283474625,100
                135.8285220497,35.0279694201,100
                135.8281963173,35.0277322602,100
                135.8275456899,35.0268791121,100
                135.8276622088,35.0262163506,100
                135.8275284789,35.0259321309,100
                135.8270299855,35.0257419798,100
                135.8267421275,35.0257573482,100
                135.8264167059,35.025393908,100
                135.8269885357,35.025208932,100
                135.8269506849,35.0249563284,100
                135.8271244639,35.0244357692,100
                135.8267220745,35.0241668738,100
                135.8268184315,35.0239618572,100
                135.8267424151,35.0236144761,100
                135.8268202747,35.0230780756,100
                135.8266867615,35.0226989902,100
                135.8265910869,35.0225726499,100
                135.8267450493,35.0223519395,100
                135.8264383887,35.0221936086,100
                135.8260219859,35.0221841427,100
                135.8258157775,35.0220535603,100
                135.8258434681,35.0219686646,100
                135.826009162,35.0217367738,100
                135.8263052393,35.0214992232,100
                135.8265553891,35.0211524442,100
                135.8266519515,35.0208526337,100
                135.8264989815,35.0205999368,100
                135.8262754888,35.0204769361,100
                135.8261540202,35.0204100699,100
                135.8260060979,35.0200527953,100
                135.825958241,35.0197978523,100
                135.8258699545,35.0193276926,100
                135.8260217405,35.0191466993,100
                135.826176502,35.019006487,100
                135.8262069487,35.0188769437,100
                135.8261098543,35.0188022222,100
                135.8259672963,35.0188635729,100
                135.8258017899,35.019004897,100
                135.8256572172,35.0190215935,100
                135.8255060708,35.0188912276,100
                135.8254527498,35.0186964186,100
                135.8253522201,35.0186577516,100
                135.8252548797,35.0186961358,100
                135.8250742052,35.0188846936,100
                135.8249574379,35.0189808714,100
                135.8245614905,35.0190330544,100
                135.8242876872,35.0191380207,100
                135.8240199688,35.0191184087,100
                135.8238801663,35.0191613085,100
                135.823763781,35.0191468444,100
                135.8236475694,35.0190556132,100
                135.8235603422,35.0190219643,100
                135.8234264311,35.0190314195,100
                135.8231002264,35.019141096,100
                135.8229255978,35.0191408431,100
                135.8227800044,35.0191741562,100
                135.8224537766,35.0192934093,100
                135.8222617663,35.0192643957,100
                135.8221639879,35.0191957982,100
                135.8220363496,35.0190039794,100
                135.8219258689,35.0189511388,100
                135.8218384256,35.0190036927,100
                135.8217158829,35.0191519764,100
                135.8215295086,35.0191996673,100
                135.8213024583,35.019213635,100
                135.821185991,35.0192422707,100
                135.8208468503,35.0195087694,100
                135.8207594388,35.0195661817,100
                135.8206662978,35.0195708345,100
                135.8205906816,35.0195324114,100
                135.820497788,35.0194171965,100
                135.8203930774,35.0193979576,100
                135.8202765894,35.0194313118,100
                135.8201849518,35.019508367,100
                135.8200917072,35.0195561217,100
                135.8199520571,35.0195319008,100
                135.8198590399,35.0194743657,100
                135.8196338496,35.0191276701,100
                135.8195288379,35.0192425257,100
                135.8193539185,35.0193715744,100
                135.8192490415,35.0194193818,100
                135.8191267838,35.0194287099,100
                135.8190220847,35.0194046108,100
                135.8189407102,35.0193421615,100
                135.8188301261,35.0193372804,100
                135.818672753,35.0194328309,100
                135.8185153384,35.0195475376,100
                135.8183289617,35.0196000127,100
                135.81813689,35.0195900802,100
                135.8178286109,35.0194842631,100
                135.8176016455,35.0197083116,100
                135.8176713234,35.0197899005,100
                135.8175025469,35.0197800021,100
                135.817130316,35.0196357048,100
                135.8170313424,35.019640487,100
                135.8168626083,35.0196114306,100
                135.8167521925,35.0195249912,100
                135.8166826419,35.019386003,100
                135.8166480302,35.0192518554,100
                135.816520151,35.01916546,100
                135.8163517555,35.0189831505,100
                135.8162528048,35.0189782129,100
                135.8160780073,35.0190593674,100
                135.8158916633,35.0190974016,100
                135.8157170031,35.0191067181,100
                135.8156935697,35.019173731,100
                135.8157921397,35.0193511473,100
                135.8158673944,35.0195428964,100
                135.8158846885,35.0196195487,100
                135.815767976,35.0197487514,100
                135.8155521726,35.0199447815,100
                135.8154180368,35.0200353606,100
                135.8152549531,35.0200734278,100
                135.8150164485,35.0200059524,100
                135.8148590467,35.0201158625,100
                135.814760029,35.0201397294,100
                135.8143060155,35.0201342552,100
                135.8143517715,35.0204594831,100
                135.8143224158,35.0205988837,100
                135.8141999511,35.0207040566,100
                135.8140193687,35.02076604,100
                135.8141520002,35.0214138119,100
                135.8141459736,35.0215048635,100
                135.814052367,35.0217107197,100
                135.8139995544,35.02189741,100
                135.8139684095,35.0222228736,100
                135.8139912971,35.022400172,100
                135.8140840651,35.0225679267,100
                135.814274504,35.0227599864,100
                135.8142274476,35.0229754194,100
                135.8142269851,35.0231814165,100
                135.8139996732,35.0233104451,100
                135.8139178475,35.0234539909,100
                135.8135751932,35.0231085933,100
                135.8135808201,35.0231852257,100
                135.8135515938,35.0232474388,100
                135.8134467185,35.0232855915,100
                135.8134230756,35.0234435917,100
                135.8133180037,35.0235775942,100
                135.8131663925,35.0236875109,100
                135.8129467595,35.0237604897,100
                135.8129813968,35.0238899161,100
                135.8131263108,35.0241583202,100
                135.8132423765,35.024321393,100
                135.8134752333,35.0243169575,100
                135.8138184219,35.0244372039,100
                135.8139697331,35.0244517294,100
                135.8144395691,35.0245516714,100
                135.8145325659,35.0246189283,100
                135.8146138562,35.0247051826,100
                135.8147750666,35.0249823431,100
                135.8148387626,35.0251261796,100
                135.8148897347,35.0257633336,100
                135.814836898,35.0259595316,100
                135.8146109517,35.0263547752,100
                135.8144422901,35.0262874742,100
                135.8142792787,35.0262872275,100
                135.813924893,35.0263070434,100
                135.8134593079,35.0262440797,100
                135.8132614851,35.0262006772,100
                135.812947355,35.0261092082,100
                135.8127959552,35.0261233435,100
                135.8125513617,35.0261660713,100
                135.8123707009,35.0262472776,100
                135.8122238095,35.0263871306,100
                135.8120430815,35.0265066492,100
                135.8118796872,35.0266835904,100
                135.8118735935,35.0268033062,100
                135.8119254992,35.02701896,100
                135.8120008899,35.0271388712,100
                135.8120355055,35.0272778042,100
                135.8120120572,35.0275369368,100
                135.8117963947,35.0276563308,100
                135.8116740026,35.0277231885,100
                135.8114990056,35.0278714477,100
                135.8113587201,35.0281250477,100
                135.8111890307,35.0285079736,100
                135.8111888445,35.0288436931,100
                135.8109494307,35.0291643251,100
                135.8109258694,35.029284012,100
                135.8104437656,35.0288090905,100
                135.8104032204,35.0287179667,100
                135.810060117,35.0285545408,100
                135.8096336777,35.0291957384,100
                135.8092017331,35.029229711,100
                135.8090967915,35.0292917316,100
                135.8086602635,35.0292527334,100
                135.8083343224,35.029218697,100
                135.8076647678,35.0290557301,100
                135.8075366367,35.029074683,100
                135.8074140275,35.0292230174,100
                135.807232896,35.0295100675,100
                135.8069764081,35.0296533291,100
                135.806767234,35.0294805942,100
                135.8065464039,35.0293126288,100
                135.8060821108,35.0292016729,100
                135.8061756913,35.0290102639,100
                135.8057218228,35.0289185483,100
                135.8055824376,35.0287793751,100
                135.8052561518,35.0288938585,100
                135.8049056657,35.0291318986,100
                135.8047783219,35.0288155523,100
                135.8040553845,35.0292646917,100
                135.8034548525,35.0296421207,100
                135.8033442985,35.0296227156,100
                135.8030535533,35.0294785759,100
                135.8029083278,35.0293489675,100
                135.8028042449,35.0290470946,100
                135.8026527107,35.0291139644,100
                135.8025244402,35.0291998869,100
                135.8022560757,35.0294389691,100
                135.8020947896,35.0294741307,100
                135.8019786204,35.0293590064,100
                135.8017733953,35.0292579626,100
                135.8012904866,35.0291375196,100
                135.8008543066,35.0289547544,100
                135.8003426127,35.0287001,100
                135.799993584,35.0285845908,100
                135.7995863599,35.0284593361,100
                135.7990318476,35.0283615139,100
                135.7990321018,35.028256157,100
                135.7989273627,35.0282319679,100
                135.7987818111,35.0282317269,100
                135.7986535851,35.02829856,100
                135.7986237478,35.028369007,100
                135.7986008855,35.0284229859,100
                135.7985088631,35.0284951608,100
                135.798217413,35.028593696,100
                135.7981007892,35.0286509699,100
                135.7976367072,35.0288733075,100
                135.7974347176,35.0289048744,100
                135.7971967901,35.0289098998,100
                135.7969596072,35.0288809117,100
                135.7966761938,35.0288328298,100
                135.7956570816,35.0291214898,100
                135.7956279183,35.0292213749,100
                135.7947310284,35.0292198652,100
                135.794695994,35.0293482633,100
                135.7945976405,35.0293386602,100
                135.7943603042,35.0293810784,100
                135.794227219,35.029376065,100
                135.7940020993,35.0293161735,100
                135.7939380843,35.0293041631,100
                135.7935851995,35.029270254,100
                135.7934059771,35.0292081151,100
                135.793255922,35.0290460214,100
                135.7930051078,35.0288602332,100
                135.792862955,35.028601597,100
                135.7927195641,35.0284369781,100
                135.7926556993,35.0282783398,100
                135.7925286569,35.0276906889,100
                135.7916142981,35.0278829421,100
                135.7914215053,35.0279002191,100
                135.7907937632,35.0280287275,100
                135.790341908,35.0281214067,100
              </coordinates>
            </LinearRing>
          </outerBoundaryIs>
        </Polygon>
      </Placemark>
    </Document>
  </Document>
</kml>
