<?xml version="1.0" encoding="UTF-8"?>
<kml xmlns="http://www.opengis.net/kml/2.2">
  <Document id="root_doc">
    <Document id="_4_11_________disv4326">
      <name>14_11上高野disv4326</name>
      <Placemark id="_4_11_________disv4326.1">
        <visibility>1</visibility>
        <Polygon>
          <extrude>0</extrude>
          <outerBoundaryIs>
            <LinearRing>
              <coordinates>
                135.7934675142,35.0564840477,100
                135.7934550122,35.0560657649,100
                135.7929590352,35.0561510576,100
                135.7926291628,35.0563660029,100
                135.7924505962,35.0564823261,100
                135.7923085746,35.0565748371,100
                135.7922247483,35.0565919486,100
                135.7916240934,35.0566483241,100
                135.7916309286,35.0567057333,100
                135.7915053148,35.0566768557,100
                135.791180037,35.0564801631,100
                135.7911148747,35.0564407539,100
                135.7911091435,35.056480042,100
                135.7910367121,35.0569746638,100
                135.790973717,35.0573455629,100
                135.7909587396,35.057433781,100
                135.7909478294,35.0574719335,100
                135.790556651,35.0573980911,100
                135.7904802033,35.0576106484,100
                135.7901261235,35.057531797,100
                135.7902611048,35.0578249325,100
                135.78959764,35.0578638649,100
                135.789447894,35.057802055,100
                135.7893179978,35.0579897988,100
                135.7892826983,35.0581446761,100
                135.7893240486,35.0583514488,100
                135.7894351575,35.0585927801,100
                135.7896021754,35.0588170945,100
                135.7896229699,35.0588745278,100
                135.7896088024,35.0589548593,100
                135.7896436527,35.0589836533,100
                135.7896362454,35.059150129,100
                135.7895382126,35.0592532753,100
                135.7895587546,35.0594083896,100
                135.7894287466,35.0595553575,100
                135.7889605486,35.0600022504,100
                135.788792953,35.0600019611,100
                135.788366371,35.0602424341,100
                135.7880147204,35.0603632401,100
                135.7880822751,35.0605875249,100
                135.7870644427,35.0608180227,100
                135.7871267238,35.0610931462,100
                135.7871657409,35.061265477,100
                135.7869125478,35.0613091231,100
                135.7871431401,35.0624783231,100
                135.7873183963,35.0624586263,100
                135.7874239031,35.063049829,100
                135.7884236237,35.0629214141,100
                135.7885703466,35.0641149039,100
                135.7898720104,35.0639462925,100
                135.7900333592,35.0646910473,100
                135.7899937661,35.0646991493,100
                135.789886262,35.0647181207,100
                135.7899199807,35.0648632566,100
                135.7900209124,35.0648520208,100
                135.7900427602,35.0649751638,100
                135.7900966725,35.0651786479,100
                135.7902896969,35.0651545409,100
                135.7905767903,35.0650981281,100
                135.7912548056,35.0650300576,100
                135.7914250075,35.0659294824,100
                135.792548858,35.0657842721,100
                135.7933753091,35.0657124974,100
                135.7934277716,35.0659943621,100
                135.7933318072,35.0660054683,100
                135.7933452287,35.0661181733,100
                135.7934534439,35.0661234267,100
                135.7935672499,35.066119534,100
                135.7935770008,35.0661765254,100
                135.7937749114,35.0661768591,100
                135.7937943636,35.0663192242,100
                135.7938142588,35.0665058872,100
                135.7938220005,35.0665785105,100
                135.793828194,35.0666366222,100
                135.7936450794,35.0666525826,100
                135.7936546769,35.0667706329,100
                135.7934468494,35.0667783819,100
                135.7934418315,35.0668068955,100
                135.7932983331,35.0668147528,100
                135.7933022835,35.0669213147,100
                135.7934210483,35.0669134156,100
                135.7936287524,35.0669544027,100
                135.7937821446,35.0669465617,100
                135.7938015133,35.0671214637,100
                135.7938602184,35.0672808666,100
                135.7934843953,35.0673040376,100
                135.7934938786,35.067458639,100
                135.7932117964,35.067486615,100
                135.7932213102,35.0676371329,100
                135.7932106998,35.0679218484,100
                135.7933244882,35.0679261253,100
                135.793319368,35.0679952055,100
                135.7932497718,35.0681212217,100
                135.7932385001,35.0683284676,100
                135.7934083089,35.0683417832,100
                135.7933867796,35.0684552033,100
                135.793593712,35.0684730182,100
                135.7935938876,35.0684031555,100
                135.7937583753,35.0684208985,100
                135.7937540707,35.0685406167,100
                135.7937924822,35.0685605417,100
                135.7939819739,35.0686588239,100
                135.7940397484,35.0689076667,100
                135.7944105493,35.0691832347,100
                135.7944685018,35.0693534118,100
                135.7945852369,35.0693623412,100
                135.7946862333,35.0693015208,100
                135.7949055556,35.0691014556,100
                135.795050866,35.0692358613,100
                135.7951907455,35.0692120795,100
                135.795313222,35.069159606,100
                135.7953891227,35.0690974754,100
                135.7953834893,35.0690207716,100
                135.7953311715,35.0689775832,100
                135.7952671114,35.0689631795,100
                135.7951155949,35.0689820115,100
                135.7950690569,35.0689484107,100
                135.79550668,35.0686809589,100
                135.7957513451,35.0686909454,100
                135.7959027049,35.0687438769,100
                135.7960015011,35.0688446104,100
                135.7960652296,35.0689835975,100
                135.7961988446,35.0691371382,100
                135.7963267539,35.0692427794,100
                135.796419631,35.0693818153,100
                135.7964542846,35.0695015972,100
                135.7964364896,35.0696309414,100
                135.796389641,35.0697313614,100
                135.7967033944,35.0700815511,100
                135.7969303538,35.070187286,100
                135.797191959,35.0704177325,100
                135.797779687,35.0704248335,100
                135.7980164793,35.071019978,100
                135.79832425,35.070753499,100
                135.7984131205,35.0706323001,100
                135.7985198965,35.0704479591,100
                135.7985200858,35.0703702085,100
                135.7984317983,35.0702438585,100
                135.7984143273,35.0701370625,100
                135.7982613243,35.0699134175,100
                135.798220399,35.0697385515,100
                135.7979967078,35.069437179,100
                135.7979794972,35.0692332661,100
                135.798021219,35.0690827634,100
                135.7980800346,35.0691750493,100
                135.7981211366,35.0692771645,100
                135.7982743937,35.0694036217,100
                135.7985222664,35.0694769219,100
                135.7985571635,35.0696905827,100
                135.7985806181,35.0697585829,100
                135.7986572229,35.0698363196,100
                135.7988102375,35.0700551051,100
                135.7988513069,35.0701717286,100
                135.7989039526,35.0703806294,100
                135.7989096266,35.0704776865,100
                135.7988322056,35.0707348273,100
                135.7988497838,35.0707980993,100
                135.7989500974,35.0708322104,100
                135.7992277546,35.07080358,100
                135.7993932297,35.0707601168,100
                135.7995274051,35.0707485053,100
                135.7996987324,35.070729349,100
                135.7998110782,35.0706761491,100
                135.8001009093,35.0704921066,100
                135.8002251814,35.070395191,100
                135.8003911017,35.0701672099,100
                135.8011048872,35.0705179709,100
                135.8020685548,35.0706455978,100
                135.8026478459,35.0704377206,100
                135.802730542,35.0704329941,100
                135.8029844259,35.0704674194,100
                135.8032323511,35.0705212723,100
                135.8034742754,35.0706138496,100
                135.8036276152,35.0707112139,100
                135.8037926158,35.0708668393,100
                135.8039224052,35.0709252901,100
                135.8042641272,35.071009152,100
                135.8047195278,35.0710736869,100
                135.8051355488,35.0710178681,100
                135.805446535,35.0708580031,100
                135.8056130312,35.0706978363,100
                135.8056852158,35.0705548449,100
                135.8056929624,35.0703292114,100
                135.8056574704,35.070067874,100
                135.8056152896,35.0695740461,100
                135.8055292546,35.0693067105,100
                135.8053709944,35.0690272879,100
                135.805133462,35.0686825227,100
                135.8051128639,35.068509522,100
                135.8049691113,35.0682004015,100
                135.8046018282,35.0677485917,100
                135.8044505013,35.067599891,100
                135.8038093911,35.0671227804,100
                135.8037419964,35.0653467942,100
                135.8037078916,35.0650027048,100
                135.8037016242,35.064604925,100
                135.8038323369,35.0643076523,100
                135.8038686368,35.0642250999,100
                135.8040995229,35.0643323068,100
                135.8042148306,35.0644334831,100
                135.8043010489,35.0646295479,100
                135.8044306838,35.0647842008,100
                135.8046038465,35.0648616649,100
                135.8048133101,35.0648560133,100
                135.8049722997,35.064814715,100
                135.8052615038,35.0646845343,100
                135.8054423116,35.064589815,100
                135.8058838048,35.0641985915,100
                135.8061442996,35.0639911748,100
                135.8063021046,35.0638793761,100
                135.8065840313,35.0637729127,100
                135.8067864151,35.0637078761,100
                135.8072051822,35.0637619899,100
                135.8075372425,35.0638457572,100
                135.8079438204,35.0639562772,100
                135.8080641556,35.063988987,100
                135.8085619009,35.0642451337,100
                135.8086566187,35.0643366721,100
                135.8088573681,35.0645306831,100
                135.8089721213,35.0648641214,100
                135.808993323,35.0650660687,100
                135.8089423237,35.0652560013,100
                135.8088335891,35.0654280246,100
                135.8086235701,35.0655889739,100
                135.8082692579,35.0657606125,100
                135.8080956338,35.0658791504,100
                135.807965254,35.0660392379,100
                135.8079286502,35.0662529956,100
                135.8079999669,35.0665798174,100
                135.8080932041,35.0668649808,100
                135.8082371801,35.0670731064,100
                135.8084317588,35.0672634227,100
                135.8087130728,35.0674242257,100
                135.8090305468,35.0675612782,100
                135.809283016,35.0677042158,100
                135.809687056,35.0678948569,100
                135.8102067148,35.0670740591,100
                135.8104357424,35.0670556091,100
                135.8106264587,35.0670935804,100
                135.8108323481,35.0671817896,100
                135.8110917332,35.0672322613,100
                135.8113664875,35.0672390214,100
                135.8116337628,35.0671830182,100
                135.8121852347,35.0670401195,100
                135.8135834539,35.0663960084,100
                135.8151673238,35.0653941809,100
                135.8155647878,35.0651375792,100
                135.8159470502,35.0648495426,100
                135.8160693143,35.0647869746,100
                135.8164512514,35.064643171,100
                135.8166256455,35.0644994776,100
                135.8169314925,35.0642615385,100
                135.8170461235,35.0641926913,100
                135.8172905137,35.0641176972,100
                135.8174203841,35.0640614792,100
                135.8179934654,35.0637674508,100
                135.8183983143,35.0636111376,100
                135.8191390916,35.0634177813,100
                135.8191917617,35.0634115902,100
                135.8189074145,35.063128127,100
                135.8186523121,35.0629985184,100
                135.8183968689,35.0630142701,100
                135.8182108483,35.0627394013,100
                135.8180148919,35.0625129017,100
                135.8176717364,35.0622216724,100
                135.817466028,35.0619628316,100
                135.8172898107,35.0616961447,100
                135.8172018457,35.0614941018,100
                135.8171917428,35.0613573201,100
                135.8172516302,35.0611954282,100
                135.8173502448,35.0610177497,100
                135.8174486802,35.0609209897,100
                135.8173508717,35.060735201,100
                135.8172236368,35.0605330307,100
                135.8170668981,35.0603389147,100
                135.8169788272,35.0601853951,100
                135.8165169203,35.0602977399,100
                135.8159565902,35.0604907146,100
                135.8157895231,35.0605308894,100
                135.8154855225,35.0606188886,100
                135.8152883181,35.0606350715,100
                135.8151310394,35.0606832883,100
                135.8150327829,35.060699339,100
                135.8145515587,35.0606581192,100
                135.8143159728,35.0605932519,100
                135.8140313355,35.0604878158,100
                135.8138350423,35.0604229376,100
                135.8135503527,35.0603417268,100
                135.8131282831,35.0602118535,100
                135.8129910468,35.0600905111,100
                135.8126258836,35.059918395,100
                135.8121419419,35.0595339013,100
                135.8117765181,35.0595422157,100
                135.8112916861,35.0595474569,100
                135.811099828,35.0595947713,100
                135.8107994035,35.0596538185,100
                135.8104192786,35.0597602806,100
                135.8100715761,35.0599203865,100
                135.8097053835,35.0602500507,100
                135.809477004,35.060449004,100
                135.8089733808,35.0607487321,100
                135.8086658979,35.0607273354,100
                135.8085392139,35.0607569986,100
                135.8084484882,35.0608757372,100
                135.8083211914,35.0611583016,100
                135.8082160522,35.0612503252,100
                135.8077142565,35.0615439234,100
                135.8070703335,35.0615013592,100
                135.8066872462,35.0613222944,100
                135.8063109421,35.0613276168,100
                135.8057215332,35.0607815813,100
                135.8052771895,35.0607469306,100
                135.8051424409,35.0609167269,100
                135.8048680226,35.0611287669,100
                135.804610703,35.061128357,100
                135.8046676954,35.0610689374,100
                135.8047452298,35.0610520881,100
                135.8047401806,35.0610053168,100
                135.8045748387,35.060992377,100
                135.8044092654,35.061085569,100
                135.804202484,35.0611107333,100
                135.804068117,35.0611105186,100
                135.8041836656,35.0608221656,100
                135.804225388,35.0606650401,100
                135.804287804,35.0604951998,100
                135.8044071727,35.0602829133,100
                135.8045367505,35.0601173363,100
                135.8045784323,35.0599771834,100
                135.8046013607,35.0596912169,100
                135.8046181587,35.0591472691,100
                135.8046712553,35.0589517079,100
                135.8045729991,35.058985568,100
                135.804304273,35.0589851396,100
                135.8041287258,35.0589254188,100
                135.8039793974,35.0586998856,100
                135.8039795395,35.0586403759,100
                135.8040572758,35.0585470434,100
                135.8042281296,35.0584198446,100
                135.8040732645,35.0583430436,100
                135.803907938,35.0583258067,100
                135.8037839079,35.0583299039,100
                135.8036700486,35.058406205,100
                135.8035922714,35.0585165094,100
                135.8034308199,35.058642596,100
                135.8029338518,35.0590114676,100
                135.8026802194,35.0591809991,100
                135.802410952,35.0594143112,100
                135.8020100545,35.0598454495,100
                135.8016581894,35.0600360893,100
                135.8015682368,35.060132921,100
                135.8014635133,35.0601213423,100
                135.8013937878,35.0600172793,100
                135.8012478086,35.0597994255,100
                135.8011156494,35.0595867345,100
                135.8010594415,35.0595249492,100
                135.8008850933,35.0594212807,100
                135.8008016121,35.0592948705,100
                135.8005995042,35.0591336874,100
                135.8000142044,35.0588294081,100
                135.7998609346,35.0586798541,100
                135.7996454277,35.0582891285,100
                135.7994993286,35.0580707087,100
                135.7993180614,35.0579440667,100
                135.7989971522,35.0578229713,100
                135.7986409353,35.0577547777,100
                135.7983476521,35.057754296,100
                135.7980474328,35.0577366186,100
                135.7973985191,35.0575344808,100
                135.7969032013,35.0573499886,100
                135.7964984608,35.0572517056,100
                135.796137101,35.0571018704,100
                135.7953189658,35.0575712333,100
                135.7945033615,35.0570244839,100
                135.7940673104,35.0574093354,100
                135.7935355046,35.0573750562,100
                135.7935569717,35.0571740961,100
                135.7934678903,35.0564965138,100
                135.7934675142,35.0564840477,100
              </coordinates>
            </LinearRing>
          </outerBoundaryIs>
        </Polygon>
      </Placemark>
    </Document>
  </Document>
</kml>
