<?xml version="1.0" encoding="UTF-8"?>
<kml xmlns="http://www.opengis.net/kml/2.2">
  <Document id="root_doc">
    <Document id="_4_18______disv4326">
      <name>14_18新洞disv4326</name>
      <Placemark id="_4_18______disv4326.1">
        <visibility>1</visibility>
        <Polygon>
          <extrude>0</extrude>
          <outerBoundaryIs>
            <LinearRing>
              <coordinates>
                135.7734490771,35.0095926529,100
                135.7732396973,35.0095869077,100
                135.7729829538,35.0095761501,100
                135.7729579803,35.0095451857,100
                135.7726066872,35.0095503217,100
                135.7726036831,35.0095503662,100
                135.772603403,35.0094635925,100
                135.7724850835,35.0094597677,100
                135.7724762477,35.0095522304,100
                135.772469082,35.0095523354,100
                135.771773648,35.0095624987,100
                135.7717767465,35.01019742,100
                135.7717625865,35.0107899821,100
                135.7717602108,35.0109215381,100
                135.7717420248,35.0119334933,100
                135.7717370662,35.0122798505,100
                135.7717358718,35.0123637988,100
                135.7717238096,35.0132060288,100
                135.771705985,35.0136391305,100
                135.7722027363,35.0136692795,100
                135.7726679155,35.0136701424,100
                135.7728603477,35.0136704988,100
                135.7728606592,35.0135571093,100
                135.7728420409,35.0134952393,100
                135.7729237935,35.0133767889,100
                135.7734491286,35.0136509515,100
                135.773511732,35.0136562084,100
                135.7735121695,35.0134964783,100
                135.7735327302,35.0134532117,100
                135.7735775116,35.0134301283,100
                135.7739303055,35.0134379907,100
                135.7739443205,35.0134921335,100
                135.7739438697,35.0136570054,100
                135.7740566075,35.0136572131,100
                135.7740575513,35.0133119047,100
                135.7744020103,35.0133125386,100
                135.7744136219,35.0136527288,100
                135.7748243925,35.0136493991,100
                135.7748530476,35.0136491694,100
                135.7749512885,35.0136447718,100
                135.7749860036,35.0136432156,100
                135.7751173457,35.0136483864,100
                135.7754908269,35.0136483667,100
                135.7760175357,35.0136403849,100
                135.7763989935,35.0136346007,100
                135.7766398967,35.0136353218,100
                135.7769236656,35.0136361192,100
                135.7770954279,35.013658898,100
                135.777520417,35.0136759382,100
                135.7776676309,35.0136762051,100
                135.7781382032,35.0136770568,100
                135.7783260137,35.0136773962,100
                135.7786324458,35.0136779494,100
                135.7788400182,35.0136743096,100
                135.7795580704,35.0136737002,100
                135.7795098577,35.0134490289,100
                135.779462286,35.0132273459,100
                135.7794411382,35.0131287967,100
                135.7794301901,35.0130258148,100
                135.7793785532,35.0125401132,100
                135.779370013,35.0124923474,100
                135.7793255451,35.0122434443,100
                135.7792943175,35.0118448331,100
                135.7793001599,35.0116765906,100
                135.7791394293,35.0114112071,100
                135.7790805911,35.0109116892,100
                135.779018406,35.0103837119,100
                135.7790132126,35.010333276,100
                135.7789731954,35.0101099434,100
                135.7789319251,35.0098430142,100
                135.7786686785,35.0098388067,100
                135.7781604539,35.0098418337,100
                135.7779560892,35.0098572405,100
                135.7776494942,35.0098511218,100
                135.7766096773,35.0098405019,100
                135.7766098311,35.0097837359,100
                135.776177728,35.0097778083,100
                135.7757393887,35.0097667963,100
                135.7757133219,35.0101377676,100
                135.7755505208,35.0101271175,100
                135.7752749877,35.0101163309,100
                135.7749745012,35.0100745791,100
                135.7747177861,35.0100534732,100
                135.7746789156,35.0100173423,100
                135.7747049182,35.0096720767,100
                135.7739167447,35.0096054813,100
                135.7736875385,35.0095991936,100
                135.773718074,35.0093196111,100
                135.7734584612,35.0092992995,100
                135.7734449565,35.0094290898,100
                135.7734493071,35.0095926594,100
                135.7734490771,35.0095926529,100
              </coordinates>
            </LinearRing>
          </outerBoundaryIs>
        </Polygon>
      </Placemark>
    </Document>
  </Document>
</kml>
