<?xml version="1.0" encoding="UTF-8"?>
<kml xmlns="http://www.opengis.net/kml/2.2">
  <Document id="root_doc">
    <Document id="_4_10______disv4326">
      <name>14_10八瀬disv4326</name>
      <Placemark id="_4_10______disv4326.1">
        <visibility>1</visibility>
        <Polygon>
          <extrude>0</extrude>
          <outerBoundaryIs>
            <LinearRing>
              <coordinates>
                135.8260622591,35.0660360441,100
                135.8255185603,35.0644618042,100
                135.8217650351,35.0637231061,100
                135.8216278599,35.0636288176,100
                135.8213072043,35.0636722295,100
                135.8207503061,35.0635522571,100
                135.8202851308,35.0633695966,100
                135.8197738441,35.0633437783,100
                135.8191917617,35.0634115902,100
                135.8191390916,35.0634177813,100
                135.8183983143,35.0636111376,100
                135.8179934654,35.0637674508,100
                135.8174203841,35.0640614792,100
                135.8172905137,35.0641176972,100
                135.8170461235,35.0641926913,100
                135.8169314925,35.0642615385,100
                135.8166256455,35.0644994776,100
                135.8164512514,35.064643171,100
                135.8160693143,35.0647869746,100
                135.8159470502,35.0648495426,100
                135.8155647878,35.0651375792,100
                135.8151673238,35.0653941809,100
                135.8135834539,35.0663960084,100
                135.8121852347,35.0670401195,100
                135.8116337628,35.0671830182,100
                135.8113664875,35.0672390214,100
                135.8110917332,35.0672322613,100
                135.8108323481,35.0671817896,100
                135.8106264587,35.0670935804,100
                135.8104357424,35.0670556091,100
                135.8102067148,35.0670740591,100
                135.809687056,35.0678948569,100
                135.809283016,35.0677042158,100
                135.8090305468,35.0675612782,100
                135.8087130728,35.0674242257,100
                135.8084317588,35.0672634227,100
                135.8082371801,35.0670731064,100
                135.8080932041,35.0668649808,100
                135.8079999669,35.0665798174,100
                135.8079286502,35.0662529956,100
                135.807965254,35.0660392379,100
                135.8080956338,35.0658791504,100
                135.8082692579,35.0657606125,100
                135.8086235701,35.0655889739,100
                135.8088335891,35.0654280246,100
                135.8089423237,35.0652560013,100
                135.808993323,35.0650660687,100
                135.8089721213,35.0648641214,100
                135.8088573681,35.0645306831,100
                135.8086566187,35.0643366721,100
                135.8085619009,35.0642451337,100
                135.8080641556,35.063988987,100
                135.8079438204,35.0639562772,100
                135.8075372425,35.0638457572,100
                135.8072051822,35.0637619899,100
                135.8067864151,35.0637078761,100
                135.8065840313,35.0637729127,100
                135.8063021046,35.0638793761,100
                135.8061442996,35.0639911748,100
                135.8058838048,35.0641985915,100
                135.8054423116,35.064589815,100
                135.8052615038,35.0646845343,100
                135.8049722997,35.064814715,100
                135.8048133101,35.0648560133,100
                135.8046038465,35.0648616649,100
                135.8044306838,35.0647842008,100
                135.8043010489,35.0646295479,100
                135.8042148306,35.0644334831,100
                135.8040995229,35.0643323068,100
                135.8038686368,35.0642250999,100
                135.8038323369,35.0643076523,100
                135.8037016242,35.064604925,100
                135.8037078916,35.0650027048,100
                135.8037419964,35.0653467942,100
                135.8038093911,35.0671227804,100
                135.8044505013,35.067599891,100
                135.8046018282,35.0677485917,100
                135.8049691113,35.0682004015,100
                135.8051128639,35.068509522,100
                135.805133462,35.0686825227,100
                135.8053709944,35.0690272879,100
                135.8055292546,35.0693067105,100
                135.8056152896,35.0695740461,100
                135.8056574704,35.070067874,100
                135.8056929624,35.0703292114,100
                135.8056852158,35.0705548449,100
                135.8056130312,35.0706978363,100
                135.805446535,35.0708580031,100
                135.8051355488,35.0710178681,100
                135.8047195278,35.0710736869,100
                135.8042641272,35.071009152,100
                135.8044047531,35.0714755293,100
                135.80438073,35.071645429,100
                135.8043682302,35.0719414818,100
                135.8044086221,35.0723397367,100
                135.8044260385,35.0724006833,100
                135.8045667766,35.0728934692,100
                135.8047492882,35.0733187127,100
                135.8050755984,35.0737854553,100
                135.8053266928,35.0740364309,100
                135.8056043787,35.0742546301,100
                135.8056835855,35.0743691281,100
                135.8057027182,35.074685091,100
                135.8057563293,35.0750568147,100
                135.8058948717,35.0752858491,100
                135.8061326738,35.0755638459,100
                135.8064104304,35.0757549294,100
                135.8064631484,35.0758694552,100
                135.8064297573,35.0759891969,100
                135.8062898277,35.0763428673,100
                135.806117073,35.0765917624,100
                135.805904701,35.0767656601,100
                135.8056327755,35.0769177023,100
                135.8055461929,35.0771244772,100
                135.8055524786,35.0772661137,100
                135.8055985653,35.0773859823,100
                135.8058630698,35.0775769743,100
                135.8061539657,35.0778116726,100
                135.8065371819,35.0782261015,100
                135.8069144231,35.0783574074,100
                135.8075948715,35.078415311,100
                135.8077331764,35.0785213081,100
                135.8078513519,35.0787737607,100
                135.8081511611,35.0791415029,100
                135.8085269338,35.0793833703,100
                135.808645284,35.0794595448,100
                135.8089416347,35.0797041034,100
                135.8090229354,35.0799283267,100
                135.8090891666,35.0801111147,100
                135.8093453597,35.0805997073,100
                135.809879091,35.0809096381,100
                135.809977503,35.0811539591,100
                135.8099968274,35.0813573096,100
                135.8099071348,35.0816256348,100
                135.8099264402,35.0818372245,100
                135.8097875144,35.0819997625,100
                135.8093035859,35.0822714192,100
                135.8090510058,35.0826304114,100
                135.8088907651,35.083163922,100
                135.8089027687,35.0837085461,100
                135.8087690958,35.0842092793,100
                135.8084704209,35.0847137697,100
                135.8084161761,35.085247374,100
                135.808533226,35.0862059857,100
                135.8081337625,35.0870439292,100
                135.8077750057,35.0874681806,100
                135.8075350342,35.0880886134,100
                135.8074623201,35.0884544342,100
                135.8075675699,35.0887812369,100
                135.8079510359,35.0891412926,100
                135.8084274816,35.0894034585,100
                135.8085055892,35.0900025561,100
                135.8091401415,35.0906679443,100
                135.8095103375,35.0910388201,100
                135.8095617278,35.0917468955,100
                135.8098345823,35.0921400178,100
                135.8101290308,35.0920088509,100
                135.8108514673,35.0920337103,100
                135.8113581045,35.0925712148,100
                135.8114568941,35.0926760213,100
                135.8119737848,35.0933715054,100
                135.8122897516,35.0937745493,100
                135.8123525888,35.0940067005,100
                135.8124863189,35.0942820623,100
                135.8126011689,35.094447952,100
                135.8127790929,35.09475134,100
                135.8128129161,35.09507345,100
                135.8130207237,35.0953199786,100
                135.8134094366,35.0955379094,100
                135.8139155063,35.0957332004,100
                135.8140215843,35.095914498,100
                135.8142120454,35.0961230389,100
                135.8143403634,35.0962076748,100
                135.8145895245,35.0964434884,100
                135.8147326679,35.0964708912,100
                135.8149309595,35.096465136,100
                135.8151222253,35.0965076116,100
                135.8153569704,35.0966196638,100
                135.8155624892,35.0966682868,100
                135.8157975606,35.0966444864,100
                135.8160619122,35.0966509425,100
                135.8163297741,35.0967357869,100
                135.8164067299,35.0967992873,100
                135.8167663885,35.0971240688,100
                135.8171181642,35.097459684,100
                135.8175324321,35.0977560237,100
                135.8176496966,35.0978678947,100
                135.8176935451,35.0979615564,100
                135.817685837,35.098124511,100
                135.817703962,35.0982301764,100
                135.8177812833,35.0983039587,100
                135.8180122221,35.0984762828,100
                135.8185990745,35.0987880883,100
                135.8191636902,35.0991076052,100
                135.8195377859,35.0993103524,100
                135.8198640321,35.0995644387,100
                135.8200125473,35.0997543849,100
                135.8201222333,35.0999748389,100
                135.8202651462,35.1001169578,100
                135.8203859685,35.1002801019,100
                135.8204076934,35.1004220415,100
                135.8204568525,35.100528457,100
                135.8205222947,35.1006341222,100
                135.8206667462,35.1007489183,100
                135.8211056733,35.1010094335,100
                135.8215070892,35.1012655274,100
                135.8217370077,35.1015256647,100
                135.8218276934,35.1017239755,100
                135.8219458448,35.1019213404,100
                135.8220904323,35.1019700044,100
                135.8224279785,35.1020321829,100
                135.8228458815,35.1021164479,100
                135.8229957822,35.1021871585,100
                135.8233651025,35.10242988,100
                135.8236595073,35.1026065042,100
                135.8238260991,35.1026575892,100
                135.8238801119,35.1025247022,100
                135.8239819157,35.102410053,100
                135.824109039,35.1023372015,100
                135.8242868711,35.1022853394,100
                135.8245344992,35.1022491395,100
                135.8247186486,35.1022337652,100
                135.8248321607,35.1025834486,100
                135.8252761053,35.1027666189,100
                135.8256503956,35.10288194,100
                135.8261135106,35.1030130197,100
                135.8267731316,35.1032800122,100
                135.8269095446,35.1032979489,100
                135.8271924056,35.1032470033,100
                135.8274239574,35.1031597879,100
                135.8277658073,35.1030063125,100
                135.8280672284,35.1028589071,100
                135.8284239619,35.1026088278,100
                135.8287936464,35.1023734134,100
                135.8290584731,35.1021625022,100
                135.8292461511,35.1019726114,100
                135.829444822,35.101791751,100
                135.8299672701,35.1015152037,100
                135.8303200144,35.1014131476,100
                135.83092245,35.1013112901,100
                135.8314143657,35.1013223134,100
                135.8318660594,35.1013168699,100
                135.8322701647,35.1012359352,100
                135.8325494349,35.101148774,100
                135.8327265641,35.1010271073,100
                135.8329142169,35.100849325,100
                135.833164209,35.1006987401,100
                135.8334030922,35.1006024372,100
                135.8337890166,35.1004339344,100
                135.8340278205,35.1003708722,100
                135.8348020714,35.1003099346,100
                135.8352252122,35.1002562058,100
                135.8358995824,35.1001592904,100
                135.8362699569,35.100040274,100
                135.8371972182,35.0990636521,100
                135.8386802334,35.0977944349,100
                135.83814098,35.0974444139,100
                135.8380002342,35.097165554,100
                135.838029342,35.0967243772,100
                135.8375786346,35.0960037511,100
                135.8377498067,35.0951680278,100
                135.8376659404,35.0947034626,100
                135.8371596587,35.0934951376,100
                135.8372732946,35.0931933761,100
                135.8369909657,35.0930537693,100
                135.8367374871,35.0926353167,100
                135.8367038453,35.0926075947,100
                135.8364835535,35.0924260259,100
                135.8361447966,35.0922629614,100
                135.8358348744,35.0917980903,100
                135.8355528521,35.0915191095,100
                135.8352462037,35.0910961441,100
                135.8358679203,35.0910738105,100
                135.8364337816,35.0907261738,100
                135.837112737,35.0903323467,100
                135.8373961322,35.0899147492,100
                135.8378494356,35.0893114546,100
                135.8385002205,35.0888711725,100
                135.8388685132,35.0883839639,100
                135.8390958295,35.087733957,100
                135.8395776897,35.0869682941,100
                135.8396631364,35.0866200134,100
                135.8397768289,35.0862718341,100
                135.8398060187,35.0857841698,100
                135.8396935335,35.085505344,100
                135.8393269697,35.0851100506,100
                135.8391867391,35.084575751,100
                135.8392437148,35.0843203188,100
                135.8391028926,35.0840879372,100
                135.8387811625,35.0834092331,100
                135.8385668614,35.0823118443,100
                135.8384960936,35.0816000186,100
                135.8384259135,35.080591698,100
                135.8382823581,35.0802060625,100
                135.8382832802,35.0797315291,100
                135.8384644457,35.0793166758,100
                135.838284778,35.0789606405,100
                135.8374188164,35.0790780821,100
                135.8370219384,35.079136778,100
                135.8365894168,35.0789583686,100
                135.8364867461,35.0785640521,100
                135.8364416303,35.0781996729,100
                135.8364423204,35.0778478221,100
                135.8365192684,35.0775715001,100
                135.8363810885,35.0773184111,100
                135.8358769809,35.0772046945,100
                135.8355561982,35.0771162262,100
                135.8353580719,35.0768270664,100
                135.8351601894,35.0764372665,100
                135.8348703451,35.0761605175,100
                135.834519152,35.0760092568,100
                135.8340333165,35.0759485985,100
                135.8341108453,35.075383316,100
                135.8341116956,35.0749561785,100
                135.8338220299,35.0746165408,100
                135.8334716051,35.0740758214,100
                135.8333197247,35.0735982615,100
                135.8329992613,35.0733716142,100
                135.832770466,35.0731576278,100
                135.8326995706,35.0725443228,100
                135.8325168711,35.0722048267,100
                135.8323187533,35.0719408069,100
                135.8321665702,35.0716138877,100
                135.832106086,35.0712996304,100
                135.8322594119,35.071048627,100
                135.8324388901,35.0708585779,100
                135.8324089784,35.070531826,100
                135.8324248902,35.0702177437,100
                135.8326547615,35.0698914166,100
                135.8330526276,35.0696280739,100
                135.8333304171,35.0694501333,100
                135.833468641,35.0691111503,100
                135.8336679442,35.0687847156,100
                135.8340661926,35.0683329811,100
                135.8343266442,35.0679940222,100
                135.8344038867,35.0675796003,100
                135.8343739865,35.0672529254,100
                135.8342071394,35.0666370363,100
                135.8342230007,35.0663481005,100
                135.8344379596,35.0658458329,100
                135.8335817139,35.0660959501,100
                135.833260395,35.0663091141,100
                135.8328012509,35.0666602653,100
                135.832173947,35.0670489316,100
                135.8321427477,35.0673629181,100
                135.8321878506,35.0677273638,100
                135.8322944052,35.067928506,100
                135.8321865166,35.0683806336,100
                135.8310100249,35.0683036595,100
                135.8304445958,35.068315413,100
                135.8286567473,35.0675850695,100
                135.8283969824,35.0675847054,100
                135.8271281448,35.0678342001,100
                135.8261520683,35.066928192,100
                135.8262901938,35.0666519656,100
                135.8260622591,35.0660360441,100
              </coordinates>
            </LinearRing>
          </outerBoundaryIs>
        </Polygon>
      </Placemark>
    </Document>
  </Document>
</kml>
