<?xml version="1.0" encoding="UTF-8"?>
<kml xmlns="http://www.opengis.net/kml/2.2">
  <Document id="root_doc">
    <Document id="_4_15______disv4326">
      <name>14_15浄楽disv4326</name>
      <Placemark id="_4_15______disv4326.1">
        <visibility>1</visibility>
        <Polygon>
          <extrude>0</extrude>
          <outerBoundaryIs>
            <LinearRing>
              <coordinates>
                135.7909539174,35.0200254092,100
                135.7909444718,35.0198756642,100
                135.790963575,35.0196768059,100
                135.7910388625,35.019332679,100
                135.7909412334,35.0193209603,100
                135.7908143201,35.0198600862,100
                135.7907116677,35.0199976668,100
                135.7905811556,35.020115971,100
                135.7904507489,35.0201923009,100
                135.7902831853,35.02026089,100
                135.7900446509,35.0202871706,100
                135.7898260997,35.0202905953,100
                135.7892687928,35.0204185126,100
                135.7890397314,35.0204728373,100
                135.7887698121,35.0205603325,100
                135.7884672593,35.0206707296,100
                135.7877360042,35.0211323051,100
                135.7879636927,35.0216133004,100
                135.7876470441,35.0217849424,100
                135.7872388574,35.0219958634,100
                135.7873174744,35.0221605199,100
                135.786917164,35.0223128584,100
                135.787092989,35.022653543,100
                135.7872279606,35.0226193403,100
                135.7873065488,35.0227954054,100
                135.787036618,35.0228752912,100
                135.7860948956,35.0233193738,100
                135.7859040861,35.0233764363,100
                135.7856993996,35.0234028376,100
                135.7854808696,35.0233947755,100
                135.7852483937,35.0233752796,100
                135.7850253469,35.0233098801,100
                135.7848860504,35.0232292764,100
                135.7847897135,35.0230979696,100
                135.7846497185,35.0232928058,100
                135.7844584521,35.0235181201,100
                135.7843277889,35.0236976919,100
                135.7841661494,35.0237896669,100
                135.7840996037,35.0238158191,100
                135.7840744375,35.0239206415,100
                135.7840955426,35.0242390818,100
                135.7841680964,35.0243211174,100
                135.7842717237,35.0244382796,100
                135.7843733374,35.0247023512,100
                135.7844007581,35.0248319158,100
                135.7836049184,35.025047993,100
                135.7836156841,35.0251130161,100
                135.7836309665,35.0252024866,100
                135.7839038028,35.0251742338,100
                135.7841058116,35.0255964506,100
                135.784175344,35.0256807347,100
                135.7842449873,35.0257229021,100
                135.7843286849,35.025726923,100
                135.7844264055,35.025696459,100
                135.7846016726,35.0259271365,100
                135.7846060377,35.026034264,100
                135.7846541906,35.0261503435,100
                135.7847077063,35.0262793206,100
                135.7849303418,35.0265052936,100
                135.7849639244,35.0265960637,100
                135.7850564663,35.0268462457,100
                135.7850745777,35.0270336849,100
                135.7851530464,35.0272633475,100
                135.7851770846,35.0273040267,100
                135.7852919069,35.0274983273,100
                135.7854401634,35.0277089566,100
                135.7854685001,35.0277679539,100
                135.7855835679,35.02800754,100
                135.7857596405,35.028256459,100
                135.785899399,35.0283978397,100
                135.7858644181,35.0285763796,100
                135.7861406717,35.0287868778,100
                135.7862672934,35.0288834436,100
                135.78643861,35.0288954347,100
                135.7866742584,35.0288781712,100
                135.7869639519,35.0288198733,100
                135.7880354648,35.0285985638,100
                135.7887871587,35.0284382429,100
                135.7889641007,35.0284005192,100
                135.7895636561,35.028279157,100
                135.7902288748,35.0281444529,100
                135.790341908,35.0281214067,100
                135.7907937632,35.0280287275,100
                135.7914215053,35.0279002191,100
                135.7916142981,35.0278829421,100
                135.7925286569,35.0276906889,100
                135.7926556993,35.0282783398,100
                135.7927195641,35.0284369781,100
                135.792862955,35.028601597,100
                135.7930051078,35.0288602332,100
                135.793255922,35.0290460214,100
                135.7934059771,35.0292081151,100
                135.7935851995,35.029270254,100
                135.7939380843,35.0293041631,100
                135.7940020993,35.0293161735,100
                135.794227219,35.029376065,100
                135.7943603042,35.0293810784,100
                135.7945976405,35.0293386602,100
                135.794695994,35.0293482633,100
                135.7947310284,35.0292198652,100
                135.7956279183,35.0292213749,100
                135.7956570816,35.0291214898,100
                135.7966761938,35.0288328298,100
                135.7969596072,35.0288809117,100
                135.7971967901,35.0289098998,100
                135.7974347176,35.0289048744,100
                135.7976367072,35.0288733075,100
                135.7981007892,35.0286509699,100
                135.798217413,35.028593696,100
                135.7985088631,35.0284951608,100
                135.7986008855,35.0284229859,100
                135.7986237478,35.028369007,100
                135.7986535851,35.02829856,100
                135.7987818111,35.0282317269,100
                135.7989273627,35.0282319679,100
                135.7990321018,35.028256157,100
                135.7990318476,35.0283615139,100
                135.7995863599,35.0284593361,100
                135.799993584,35.0285845908,100
                135.8003426127,35.0287001,100
                135.8008543066,35.0289547544,100
                135.8012904866,35.0291375196,100
                135.8017733953,35.0292579626,100
                135.8019786204,35.0293590064,100
                135.8020947896,35.0294741307,100
                135.8022560757,35.0294389691,100
                135.8025244402,35.0291998869,100
                135.8026527107,35.0291139644,100
                135.8028042449,35.0290470946,100
                135.8029083278,35.0293489675,100
                135.8030535533,35.0294785759,100
                135.8033442985,35.0296227156,100
                135.8034548525,35.0296421207,100
                135.8040553845,35.0292646917,100
                135.8047783219,35.0288155523,100
                135.8049056657,35.0291318986,100
                135.8052561518,35.0288938585,100
                135.8055824376,35.0287793751,100
                135.8057218228,35.0289185483,100
                135.8061756913,35.0290102639,100
                135.8060821108,35.0292016729,100
                135.8065464039,35.0293126288,100
                135.806767234,35.0294805942,100
                135.8069764081,35.0296533291,100
                135.807232896,35.0295100675,100
                135.8074140275,35.0292230174,100
                135.8075366367,35.029074683,100
                135.8076647678,35.0290557301,100
                135.8083343224,35.029218697,100
                135.8086602635,35.0292527334,100
                135.8090967915,35.0292917316,100
                135.8092017331,35.029229711,100
                135.8096336777,35.0291957384,100
                135.810060117,35.0285545408,100
                135.8104032204,35.0287179667,100
                135.8104437656,35.0288090905,100
                135.8109258694,35.029284012,100
                135.8109494307,35.0291643251,100
                135.8111888445,35.0288436931,100
                135.8111890307,35.0285079736,100
                135.8113587201,35.0281250477,100
                135.8114990056,35.0278714477,100
                135.8116740026,35.0277231885,100
                135.8117963947,35.0276563308,100
                135.8120120572,35.0275369368,100
                135.8120355055,35.0272778042,100
                135.8120008899,35.0271388712,100
                135.8119254992,35.02701896,100
                135.8118735935,35.0268033062,100
                135.8118796872,35.0266835904,100
                135.8120430815,35.0265066492,100
                135.8122238095,35.0263871306,100
                135.8123707009,35.0262472776,100
                135.8125513617,35.0261660713,100
                135.8127959552,35.0261233435,100
                135.812947355,35.0261092082,100
                135.8132614851,35.0262006772,100
                135.8134593079,35.0262440797,100
                135.813924893,35.0263070434,100
                135.8142792787,35.0262872275,100
                135.8144422901,35.0262874742,100
                135.8146109517,35.0263547752,100
                135.814836898,35.0259595316,100
                135.8148897347,35.0257633336,100
                135.8148387626,35.0251261796,100
                135.8147750666,35.0249823431,100
                135.8146138562,35.0247051826,100
                135.8145325659,35.0246189283,100
                135.8144395691,35.0245516714,100
                135.8139697331,35.0244517294,100
                135.8138184219,35.0244372039,100
                135.8134752333,35.0243169575,100
                135.8132423765,35.024321393,100
                135.8131263108,35.0241583202,100
                135.8129813968,35.0238899161,100
                135.8129467595,35.0237604897,100
                135.8131663925,35.0236875109,100
                135.8133180037,35.0235775942,100
                135.8134230756,35.0234435917,100
                135.8134467185,35.0232855915,100
                135.8135515938,35.0232474388,100
                135.8135808201,35.0231852257,100
                135.8135751932,35.0231085933,100
                135.8139178475,35.0234539909,100
                135.8139996732,35.0233104451,100
                135.8142269851,35.0231814165,100
                135.8142274476,35.0229754194,100
                135.814274504,35.0227599864,100
                135.8140840651,35.0225679267,100
                135.8139912971,35.022400172,100
                135.8139684095,35.0222228736,100
                135.8139995544,35.02189741,100
                135.814052367,35.0217107197,100
                135.8141459736,35.0215048635,100
                135.8141520002,35.0214138119,100
                135.8140193687,35.02076604,100
                135.8136462084,35.0208374507,100
                135.8129145621,35.0209064841,100
                135.8122112169,35.0210280944,100
                135.8117137104,35.0211910045,100
                135.8111452903,35.0213186603,100
                135.810932802,35.021357983,100
                135.8108846525,35.0213833328,100
                135.8108291879,35.021257114,100
                135.810879026,35.0212045824,100
                135.8109363187,35.0210000823,100
                135.8102689858,35.0208997536,100
                135.8100488068,35.0209052583,100
                135.8097432637,35.0209807756,100
                135.8095160632,35.0209571091,100
                135.8093098346,35.0210735501,100
                135.8091251832,35.0210674123,100
                135.8090611803,35.0211082287,100
                135.8089543336,35.0212483487,100
                135.8088902809,35.0213007853,100
                135.8088049873,35.0213298771,100
                135.8084000841,35.0213759982,100
                135.8082935536,35.0213699843,100
                135.8082366559,35.0214108111,100
                135.8079588108,35.0217844038,100
                135.8078592358,35.0218426288,100
                135.8077313678,35.0218541871,100
                135.8070436083,35.021776889,100
                135.8070240875,35.0218596083,100
                135.8070018233,35.0219539442,100
                135.8069375065,35.0220818062,100
                135.8067680509,35.0221943585,100
                135.8064660071,35.0222954306,100
                135.8061091952,35.0223587349,100
                135.8056927374,35.0225010325,100
                135.8052803117,35.0226307278,100
                135.8051932933,35.0226908024,100
                135.805074345,35.0227131472,100
                135.8048137495,35.0226901902,100
                135.8044892157,35.0226332545,100
                135.8043841771,35.0225841375,100
                135.8043066547,35.0224937255,100
                135.8041695928,35.0224370917,100
                135.8040050258,35.0224180205,100
                135.8034098654,35.022435224,100
                135.8029301334,35.0222727427,100
                135.8028661883,35.0222424957,100
                135.8028021056,35.0222612655,100
                135.8025636642,35.0225429358,100
                135.8024532627,35.0228135474,100
                135.8022497006,35.0231964074,100
                135.801737703,35.0231354944,100
                135.8016324694,35.0231503234,100
                135.8013210827,35.0233415844,100
                135.8010143668,35.0234765824,100
                135.8010598253,35.0235932138,100
                135.8009679432,35.023769834,100
                135.8008759534,35.0239915983,100
                135.8009429946,35.0240958701,100
                135.8006659215,35.024141474,100
                135.800427559,35.0241458697,100
                135.7999276023,35.0241402559,100
                135.7999505348,35.0242693862,100
                135.8000546698,35.0244800654,100
                135.80018222,35.024628525,100
                135.8002400757,35.0247434161,100
                135.7999724612,35.0248242478,100
                135.7996629923,35.024952547,100
                135.7995175932,35.0249714627,100
                135.7984947529,35.0248263058,100
                135.7984833671,35.0247026864,100
                135.7983391906,35.0247024465,100
                135.7980742567,35.0246484803,100
                135.7979626181,35.0246559707,100
                135.7973584244,35.0245095292,100
                135.7970375706,35.024505189,100
                135.7969822832,35.0242870535,100
                135.7968058483,35.023599106,100
                135.7963352688,35.0236867044,100
                135.7962056273,35.0234608377,100
                135.7960531729,35.0232595117,100
                135.7959047802,35.0230871385,100
                135.7957005609,35.0229261499,100
                135.7955149154,35.0227842786,100
                135.7951620054,35.0225732477,100
                135.7947337126,35.0227600735,100
                135.7943335268,35.0228665172,100
                135.7942313629,35.0228088755,100
                135.793980658,35.0226401286,100
                135.7937950242,35.0224868454,100
                135.7935955598,35.0222838171,100
                135.7931862191,35.022328969,100
                135.7924373271,35.0224119242,100
                135.7923165262,35.0223186826,100
                135.7921033647,35.0220237204,100
                135.7920475191,35.0220427102,100
                135.7918798125,35.0217592347,100
                135.7911351146,35.0204217349,100
                135.7909995434,35.0201626811,100
                135.7909539174,35.0200254092,100
              </coordinates>
            </LinearRing>
          </outerBoundaryIs>
        </Polygon>
      </Placemark>
    </Document>
  </Document>
</kml>
