<?xml version="1.0" encoding="UTF-8"?>
<kml xmlns="http://www.opengis.net/kml/2.2">
  <Document id="root_doc">
    <Document id="_4_12_______________disv4326">
      <name>14_12修学院第一disv4326</name>
      <Placemark id="_4_12_______________disv4326.1">
        <visibility>1</visibility>
        <Polygon>
          <extrude>0</extrude>
          <outerBoundaryIs>
            <LinearRing>
              <coordinates>
                135.7934553576,35.0386168471,100
                135.793367554,35.0385877527,100
                135.7932561566,35.0386117201,100
                135.7931920227,35.0384814639,100
                135.7928577696,35.0385868879,100
                135.7928108398,35.0386061049,100
                135.7926942607,35.0383553313,100
                135.7924068751,35.0384656926,100
                135.7923429238,35.0382631791,100
                135.7920857961,35.0379832198,100
                135.7920336001,35.0377710784,100
                135.7918875251,35.0375974406,100
                135.7916824496,35.0375970905,100
                135.7916868551,35.0377359381,100
                135.7917230521,35.0388767306,100
                135.7917419245,35.0394719337,100
                135.7917442178,35.0395560269,100
                135.7917618452,35.0402041173,100
                135.791772609,35.0405998598,100
                135.7917787897,35.0407394548,100
                135.791789246,35.0409757521,100
                135.7918057754,35.0413950273,100
                135.7918097258,35.0417334307,100
                135.7918259781,35.042263485,100
                135.791835086,35.0427395806,100
                135.7918620544,35.0437966511,100
                135.7918953825,35.0445274485,100
                135.7918948361,35.0447463322,100
                135.791913406,35.0451771584,100
                135.7919251399,35.0454494476,100
                135.7911798883,35.0454736692,100
                135.790400438,35.0455012773,100
                135.7893689516,35.045542813,100
                135.7880562104,35.0455790627,100
                135.7881657313,35.0457982086,100
                135.788306926,35.0460807222,100
                135.7884863938,35.0464747166,100
                135.7886239451,35.0467766606,100
                135.789005051,35.047454046,100
                135.7891911806,35.0477817792,100
                135.7890838497,35.0477848334,100
                135.7886867964,35.0478253461,100
                135.7886374711,35.0478582208,100
                135.788506824,35.0479452526,100
                135.7883144665,35.0480102748,100
                135.788372375,35.0482372176,100
                135.7882210279,35.0482473084,100
                135.7881216288,35.0482538969,100
                135.7880463691,35.0482812319,100
                135.787996343,35.0482365652,100
                135.7878751402,35.0482466375,100
                135.7874360817,35.0483867264,100
                135.7875568659,35.0485312401,100
                135.7869348384,35.0489537704,100
                135.7867571027,35.0487937327,100
                135.7861750205,35.0492907697,100
                135.7863853865,35.0494414984,100
                135.786948043,35.0498445453,100
                135.7873067225,35.0501015221,100
                135.7877819899,35.0503970827,100
                135.787973265,35.0505146041,100
                135.7882844595,35.0507399444,100
                135.7886617545,35.0510131796,100
                135.7888688559,35.0511631604,100
                135.7890510601,35.0513463725,100
                135.7892439146,35.0515677021,100
                135.7894936903,35.0518772338,100
                135.7896379726,35.0521810889,100
                135.7899281444,35.0528223962,100
                135.7902035862,35.0534138159,100
                135.7906760505,35.0543146046,100
                135.7907333579,35.0544357658,100
                135.7910302082,35.0550634208,100
                135.7911059115,35.0553773702,100
                135.7911487014,35.0556092876,100
                135.7911641349,35.0559304584,100
                135.7911468972,35.0563184075,100
                135.7911148747,35.0564407539,100
                135.791180037,35.0564801631,100
                135.7915053148,35.0566768557,100
                135.7916309286,35.0567057333,100
                135.7916240934,35.0566483241,100
                135.7922247483,35.0565919486,100
                135.7923085746,35.0565748371,100
                135.7924505962,35.0564823261,100
                135.7926291628,35.0563660029,100
                135.7929590352,35.0561510576,100
                135.7934550122,35.0560657649,100
                135.7934675142,35.0564840477,100
                135.7934678903,35.0564965138,100
                135.7935569717,35.0571740961,100
                135.7935355046,35.0573750562,100
                135.7940673104,35.0574093354,100
                135.7945033615,35.0570244839,100
                135.7953189658,35.0575712333,100
                135.796137101,35.0571018704,100
                135.7964984608,35.0572517056,100
                135.7969032013,35.0573499886,100
                135.7973985191,35.0575344808,100
                135.7980474328,35.0577366186,100
                135.7983476521,35.057754296,100
                135.7986409353,35.0577547777,100
                135.7989971522,35.0578229713,100
                135.7993180614,35.0579440667,100
                135.7994993286,35.0580707087,100
                135.7996454277,35.0582891285,100
                135.7998609346,35.0586798541,100
                135.8000142044,35.0588294081,100
                135.8005995042,35.0591336874,100
                135.8008016121,35.0592948705,100
                135.8008850933,35.0594212807,100
                135.8010594415,35.0595249492,100
                135.8011156494,35.0595867345,100
                135.8012478086,35.0597994255,100
                135.8013937878,35.0600172793,100
                135.8014635133,35.0601213423,100
                135.8015682368,35.060132921,100
                135.8016581894,35.0600360893,100
                135.8020100545,35.0598454495,100
                135.802410952,35.0594143112,100
                135.8026802194,35.0591809991,100
                135.8029338518,35.0590114676,100
                135.8034308199,35.058642596,100
                135.8035922714,35.0585165094,100
                135.8036700486,35.058406205,100
                135.8037839079,35.0583299039,100
                135.803907938,35.0583258067,100
                135.8040732645,35.0583430436,100
                135.8042281296,35.0584198446,100
                135.8040572758,35.0585470434,100
                135.8039795395,35.0586403759,100
                135.8039793974,35.0586998856,100
                135.8041287258,35.0589254188,100
                135.804304273,35.0589851396,100
                135.8045729991,35.058985568,100
                135.8046712553,35.0589517079,100
                135.8046181587,35.0591472691,100
                135.8046013607,35.0596912169,100
                135.8045784323,35.0599771834,100
                135.8045367505,35.0601173363,100
                135.8044071727,35.0602829133,100
                135.804287804,35.0604951998,100
                135.804225388,35.0606650401,100
                135.8041836656,35.0608221656,100
                135.804068117,35.0611105186,100
                135.804202484,35.0611107333,100
                135.8044092654,35.061085569,100
                135.8045748387,35.060992377,100
                135.8047401806,35.0610053168,100
                135.8047452298,35.0610520881,100
                135.8046676954,35.0610689374,100
                135.804610703,35.061128357,100
                135.8048680226,35.0611287669,100
                135.8051424409,35.0609167269,100
                135.8052771895,35.0607469306,100
                135.8057215332,35.0607815813,100
                135.8063109421,35.0613276168,100
                135.8066872462,35.0613222944,100
                135.8070703335,35.0615013592,100
                135.8077142565,35.0615439234,100
                135.8082160522,35.0612503252,100
                135.8083211914,35.0611583016,100
                135.8084484882,35.0608757372,100
                135.8085392139,35.0607569986,100
                135.8086658979,35.0607273354,100
                135.8089733808,35.0607487321,100
                135.809477004,35.060449004,100
                135.8097053835,35.0602500507,100
                135.8100715761,35.0599203865,100
                135.8104192786,35.0597602806,100
                135.8107994035,35.0596538185,100
                135.811099828,35.0595947713,100
                135.8112916861,35.0595474569,100
                135.8117765181,35.0595422157,100
                135.8121419419,35.0595339013,100
                135.8126258836,35.059918395,100
                135.8129910468,35.0600905111,100
                135.8131282831,35.0602118535,100
                135.8135503527,35.0603417268,100
                135.8138350423,35.0604229376,100
                135.8140313355,35.0604878158,100
                135.8143159728,35.0605932519,100
                135.8145515587,35.0606581192,100
                135.8150327829,35.060699339,100
                135.8151310394,35.0606832883,100
                135.8152883181,35.0606350715,100
                135.8154855225,35.0606188886,100
                135.8157895231,35.0605308894,100
                135.8159565902,35.0604907146,100
                135.8165169203,35.0602977399,100
                135.8169788272,35.0601853951,100
                135.8170668981,35.0603389147,100
                135.8172236368,35.0605330307,100
                135.8173508717,35.060735201,100
                135.8174486802,35.0609209897,100
                135.8173502448,35.0610177497,100
                135.8172516302,35.0611954282,100
                135.8171917428,35.0613573201,100
                135.8172018457,35.0614941018,100
                135.8172898107,35.0616961447,100
                135.817466028,35.0619628316,100
                135.8176717364,35.0622216724,100
                135.8180148919,35.0625129017,100
                135.8182108483,35.0627394013,100
                135.8183968689,35.0630142701,100
                135.8186523121,35.0629985184,100
                135.8189074145,35.063128127,100
                135.8191917617,35.0634115902,100
                135.8197738441,35.0633437783,100
                135.8202851308,35.0633695966,100
                135.8207503061,35.0635522571,100
                135.8213072043,35.0636722295,100
                135.8216278599,35.0636288176,100
                135.8217650351,35.0637231061,100
                135.8255185603,35.0644618042,100
                135.8260622591,35.0660360441,100
                135.8262901938,35.0666519656,100
                135.8261520683,35.066928192,100
                135.8271281448,35.0678342001,100
                135.8283969824,35.0675847054,100
                135.8286567473,35.0675850695,100
                135.8304445958,35.068315413,100
                135.8310100249,35.0683036595,100
                135.8321865166,35.0683806336,100
                135.8322944052,35.067928506,100
                135.8321878506,35.0677273638,100
                135.8321427477,35.0673629181,100
                135.832173947,35.0670489316,100
                135.8328012509,35.0666602653,100
                135.833260395,35.0663091141,100
                135.8335817139,35.0660959501,100
                135.8344379596,35.0658458329,100
                135.8342448481,35.0656449985,100
                135.8341672135,35.0654800263,100
                135.8346247932,35.0650227379,100
                135.8349823807,35.0644372119,100
                135.8353850556,35.0635860296,100
                135.8356762032,35.0627988518,100
                135.8358997102,35.0624144886,100
                135.8357481974,35.0616606565,100
                135.8357487639,35.061376701,100
                135.8358830605,35.0610564468,100
                135.8358722363,35.0609006503,100
                135.8356976013,35.060526947,100
                135.8355426155,35.0600505192,100
                135.8357223506,35.0592723499,100
                135.8357007061,35.058970124,100
                135.8356591287,35.0588552739,100
                135.835470059,35.0587267025,100
                135.8353925919,35.0584793332,100
                135.8353598116,35.0581679367,100
                135.8352154092,35.0579754786,100
                135.8349150067,35.0577481585,100
                135.8351050291,35.0574095299,100
                135.8351946252,35.0571532323,100
                135.8348113953,35.0565468387,100
                135.8347396478,35.0563375769,100
                135.8347317307,35.0561059369,100
                135.8347543941,35.0559137059,100
                135.8346322101,35.0557486027,100
                135.8341650058,35.055482464,100
                135.8338875491,35.055015024,100
                135.833531628,35.05479474,100
                135.8334098101,35.0544557562,100
                135.8333688978,35.0539194093,100
                135.8334696761,35.0536448172,100
                135.8337154264,35.0532696424,100
                135.8335932124,35.0531321464,100
                135.8333257605,35.0532233346,100
                135.8329140575,35.0530579759,100
                135.832440353,35.0530869054,100
                135.8320620727,35.0529124344,100
                135.8315833855,35.0528384619,100
                135.8310152881,35.0529017638,100
                135.8304856874,35.0528553231,100
                135.8297948934,35.0530283814,100
                135.8290148747,35.0532562438,100
                135.8286585163,35.0532557438,100
                135.8284243633,35.053392815,100
                135.8281236933,35.0533923917,100
                135.8279674178,35.053566122,100
                135.827922597,35.0537034591,100
                135.8277887794,35.0537856688,100
                135.8273151801,35.0537416875,100
                135.8270812257,35.0537871321,100
                135.8266251042,35.0535666166,100
                135.8256011324,35.0532996518,100
                135.8254961755,35.0527223663,100
                135.8254075584,35.0524932874,100
                135.8252519789,35.0523465096,100
                135.8249514965,35.0522544548,100
                135.8243834569,35.0522903298,100
                135.8243781657,35.0521000331,100
                135.824056165,35.0516417346,100
                135.8239563727,35.0514401033,100
                135.8235000748,35.0513111992,100
                135.8232748559,35.0510932588,100
                135.8229188028,35.0509553425,100
                135.8223285447,35.0509819498,100
                135.8219834367,35.0509265154,100
                135.8218222344,35.0506262676,100
                135.8218009928,35.0501499506,100
                135.8216012326,35.049820068,100
                135.82150145,35.0496275194,100
                135.8210899354,35.0493888793,100
                135.8206190388,35.0494291043,100
                135.8199845761,35.0492999254,100
                135.8195282461,35.0491893875,100
                135.8192163582,35.0492347015,100
                135.8186933516,35.0490690593,100
                135.817939656,35.0484862233,100
                135.8177396331,35.0482936631,100
                135.8173724373,35.0481740238,100
                135.8169046481,35.0482099436,100
                135.816715611,35.0480906406,100
                135.816265358,35.0476043797,100
                135.8159318395,35.047356613,100
                135.8155100139,35.0467606698,100
                135.8153438999,35.0463574434,100
                135.81536686,35.0460461278,100
                135.8153006963,35.0457529873,100
                135.8150113278,35.0455645126,100
                135.8147560531,35.0451794605,100
                135.8146901185,35.0447946969,100
                135.814122122,35.0446353758,100
                135.8138890162,35.0443145864,100
                135.8138226522,35.0441129997,100
                135.8136337701,35.0439295357,100
                135.813478061,35.0438468294,100
                135.8132677803,35.0432787414,100
                135.8130347217,35.0429303447,100
                135.8126789652,35.0426825369,100
                135.8114112365,35.0428750971,100
                135.8107874366,35.0429840644,100
                135.8100078869,35.0430286289,100
                135.8089510311,35.0426057007,100
                135.8088877432,35.0421979116,100
                135.8087707361,35.0419416643,100
                135.8085968806,35.0416252542,100
                135.8082463982,35.0413887817,100
                135.8079655434,35.0413162255,100
                135.8078423663,35.041128983,100
                135.8077289802,35.040994574,100
                135.8076154594,35.0409090401,100
                135.8074228846,35.0408029582,100
                135.8072751268,35.0405627869,100
                135.8071467529,35.0404853279,100
                135.8070133429,35.0404566659,100
                135.8067870693,35.0405091973,100
                135.8068122105,35.0403302863,100
                135.8068866778,35.0401961744,100
                135.8068473174,35.0401188558,100
                135.8065363008,35.0399191299,100
                135.80632377,35.039890341,100
                135.8062497023,35.0398617018,100
                135.806190644,35.0397397015,100
                135.805983229,35.0396376778,100
                135.8058498021,35.0396170428,100
                135.8057409543,35.0396494764,100
                135.8055763547,35.0397861209,100
                135.8054923273,35.0397778875,100
                135.8053836709,35.0397289101,100
                135.8052649518,35.0397530878,100
                135.8050767872,35.0398870174,100
                135.8049679395,35.0399193805,100
                135.8048343948,35.0399395194,100
                135.8047007384,35.0400165621,100
                135.8044926842,35.0401870809,100
                135.8043641336,35.0401949744,100
                135.8040973235,35.0401253881,100
                135.8039543568,35.0399462076,100
                135.8037910479,35.0400151029,100
                135.803633279,35.0398318839,100
                135.8033093999,35.0397879097,100
                135.8030049824,35.03967171,100
                135.8029345563,35.0397149784,100
                135.8025713081,35.039690305,100
                135.802371645,35.0398682998,100
                135.8020726012,35.0399592973,100
                135.8019624233,35.0400550382,100
                135.801440961,35.0400348942,100
                135.8009136562,35.040005161,100
                135.8004334102,35.0398935259,100
                135.8001877375,35.0397148767,100
                135.7996852932,35.039097193,100
                135.7995231642,35.0387555021,100
                135.799195582,35.0385284733,100
                135.7989909089,35.0383594653,100
                135.7987627875,35.0381856297,100
                135.7986866447,35.0381758556,100
                135.7983110895,35.0383920055,100
                135.798116887,35.0384433067,100
                135.7979299688,35.0384926472,100
                135.7977191288,35.038448915,100
                135.797613361,35.0380595646,100
                135.7970389203,35.0381405856,100
                135.7965934756,35.0381880848,100
                135.7961302437,35.0383221778,100
                135.7957019364,35.0385479514,100
                135.7953797279,35.038639528,100
                135.795209679,35.0387613977,100
                135.7950979639,35.0388414595,100
                135.7947613689,35.038898573,100
                135.7945797908,35.0388741112,100
                135.7943333994,35.038984617,100
                135.7941751931,35.0389794198,100
                135.7940818559,35.0388155216,100
                135.7938355468,35.0389018,100
                135.7937711022,35.0388969026,100
                135.7936598719,35.038853332,100
                135.7934961671,35.0387084696,100
                135.7934553576,35.0386168471,100
              </coordinates>
            </LinearRing>
          </outerBoundaryIs>
        </Polygon>
      </Placemark>
    </Document>
  </Document>
</kml>
