<?xml version="1.0" encoding="UTF-8"?>
<kml xmlns="http://www.opengis.net/kml/2.2">
  <Document id="root_doc">
    <Document id="_4_22______disv4326">
      <name>14_22養正disv4326</name>
      <Placemark id="_4_22______disv4326.1">
        <visibility>1</visibility>
        <Polygon>
          <extrude>0</extrude>
          <outerBoundaryIs>
            <LinearRing>
              <coordinates>
                135.7774548594,35.0282483903,100
                135.7773135625,35.0282284139,100
                135.7772617871,35.0282283197,100
                135.7770963403,35.0281470276,100
                135.7770047572,35.0281139002,100
                135.7769308786,35.0280871452,100
                135.7766669336,35.0280611685,100
                135.7764548099,35.0280182426,100
                135.7757645162,35.0279402147,100
                135.7757186093,35.0279625263,100
                135.7752426346,35.0278593921,100
                135.7750589939,35.0278032763,100
                135.7748081781,35.0277266127,100
                135.7744771152,35.0276366308,100
                135.7741717667,35.0276147993,100
                135.7736437859,35.0276053016,100
                135.7735261438,35.0276260889,100
                135.7735246602,35.0276263503,100
                135.7735245553,35.027625566,100
                135.7733144809,35.0276903207,100
                135.773211771,35.027734937,100
                135.7731515874,35.0277483717,100
                135.7731198078,35.0277483127,100
                135.7729403052,35.0276677494,100
                135.773000941,35.0274350123,100
                135.7730376897,35.0273199627,100
                135.7730346558,35.027218138,100
                135.7723845852,35.0272466054,100
                135.7716111249,35.0272570724,100
                135.7716185276,35.0274533668,100
                135.7716534721,35.028497653,100
                135.7716591705,35.0290396644,100
                135.7716621799,35.0293265862,100
                135.7719386333,35.029329775,100
                135.772036397,35.0297530067,100
                135.7720819346,35.0299864132,100
                135.7721407109,35.0301925892,100
                135.7722565253,35.0304470435,100
                135.7728500258,35.0314375663,100
                135.7734341508,35.0323700361,100
                135.7736861429,35.0327788348,100
                135.7737831126,35.0329361352,100
                135.7742566029,35.0337217701,100
                135.7746022375,35.0342952544,100
                135.7757422833,35.033847608,100
                135.7758235204,35.0338216997,100
                135.7764135223,35.033633333,100
                135.7775648131,35.0339529135,100
                135.7777106172,35.0339970546,100
                135.7783871276,35.0342018844,100
                135.7793399923,35.0344370711,100
                135.7795927851,35.0345048539,100
                135.7797547959,35.0345482472,100
                135.7801234859,35.0346375768,100
                135.7802594833,35.0346754294,100
                135.7808588102,35.0348422178,100
                135.7809175053,35.0348585212,100
                135.7815632382,35.0350269387,100
                135.7818930698,35.0351207009,100
                135.7819432285,35.035134946,100
                135.7819323671,35.0349482269,100
                135.7820061511,35.0349483584,100
                135.7823806411,35.0349817031,100
                135.7831540526,35.0348046159,100
                135.7834224746,35.034830656,100
                135.7837376853,35.0348611636,100
                135.7837441629,35.0348617908,100
                135.7837714957,35.034859197,100
                135.7837636186,35.0347378026,100
                135.7837560785,35.0346641926,100
                135.7839149696,35.0346565884,100
                135.7839259365,35.0346563425,100
                135.7839290728,35.0347280394,100
                135.7839371808,35.0348434683,100
                135.7842266947,35.0348251755,100
                135.7842102411,35.0345964015,100
                135.7846019336,35.0345737108,100
                135.7847102803,35.0345692532,100
                135.7849254769,35.0345603375,100
                135.7849310192,35.0346116887,100
                135.7851524261,35.0345934157,100
                135.7851568896,35.0345053196,100
                135.7852567612,35.0345087352,100
                135.7852616384,35.0346025524,100
                135.7852645155,35.0346579824,100
                135.7854231529,35.0346512902,100
                135.7854200501,35.0345917046,100
                135.7854172544,35.0345378928,100
                135.7854591087,35.0345192331,100
                135.7856767611,35.034512574,100
                135.785825567,35.034508187,100
                135.7858047713,35.0342592642,100
                135.7857824071,35.0342609349,100
                135.7857814297,35.0342391087,100
                135.7857751129,35.034137233,100
                135.7857688522,35.0341007075,100
                135.7858828681,35.0340946736,100
                135.7858837967,35.0340677729,100
                135.7859858658,35.033239667,100
                135.7859885509,35.0331685411,100
                135.7860570494,35.0331686614,100
                135.7860572496,35.0330897842,100
                135.7859887512,35.0330896639,100
                135.7859726141,35.0329792069,100
                135.7855066299,35.0330000752,100
                135.7853106794,35.0330088502,100
                135.7850919425,35.0330186443,100
                135.7848303969,35.0330303669,100
                135.7846712906,35.0330374805,100
                135.7843266723,35.0330528597,100
                135.7838155689,35.0330756209,100
                135.7834269358,35.0330931036,100
                135.7833942549,35.0329581802,100
                135.7832014209,35.0329813606,100
                135.783236762,35.0331224174,100
                135.7826079659,35.0331644016,100
                135.7823798547,35.0331796307,100
                135.7822317703,35.0324686245,100
                135.782227327,35.032432276,100
                135.7821773954,35.0320233624,100
                135.7821628754,35.0319019913,100
                135.7821154182,35.031505477,100
                135.7820655725,35.0310891681,100
                135.7821226952,35.0310834239,100
                135.7819641395,35.0303431711,100
                135.7818140451,35.0296425831,100
                135.7816179778,35.0287272532,100
                135.7815791286,35.0285459062,100
                135.7812089571,35.0286006008,100
                135.7801888981,35.0287052579,100
                135.7792464892,35.0288099051,100
                135.7787718776,35.0290139185,100
                135.7786624452,35.0290609773,100
                135.7784707944,35.0290849975,100
                135.7779216652,35.0291537249,100
                135.7778908761,35.0291575424,100
                135.7777205578,35.0289656734,100
                135.7776641175,35.0287781658,100
                135.7774548594,35.0282483903,100
              </coordinates>
            </LinearRing>
          </outerBoundaryIs>
        </Polygon>
      </Placemark>
    </Document>
  </Document>
</kml>
