<?xml version="1.0" encoding="UTF-8"?>
<kml xmlns="http://www.opengis.net/kml/2.2">
  <Document id="root_doc">
    <Document id="_4_25___disv4326">
      <name>14_25葵disv4326</name>
      <Placemark id="_4_25___disv4326.1">
        <visibility>1</visibility>
        <Polygon>
          <extrude>0</extrude>
          <outerBoundaryIs>
            <LinearRing>
              <coordinates>
                135.7709018331,35.041666767,100
                135.7702312037,35.0416860167,100
                135.770026994,35.0416918344,100
                135.7698583603,35.0416601807,100
                135.7697706374,35.0416098743,100
                135.7697330395,35.0415883244,100
                135.7691187394,35.0413410408,100
                135.7688469375,35.0412241191,100
                135.7688088439,35.0412195406,100
                135.7684627718,35.0418678655,100
                135.7683219483,35.042131698,100
                135.7679515952,35.0428012455,100
                135.7678063353,35.0430730273,100
                135.7677054066,35.0432618599,100
                135.7674859909,35.0438791516,100
                135.7672247238,35.0438830971,100
                135.7667030685,35.0435822414,100
                135.7658799456,35.0432628543,100
                135.7658252751,35.0433522626,100
                135.7656784987,35.043289376,100
                135.7656641591,35.04349471,100
                135.7657454963,35.0435008508,100
                135.7657280377,35.0437886481,100
                135.7656505697,35.0437918818,100
                135.7655960221,35.0438365687,100
                135.7651758993,35.0442072686,100
                135.7648980194,35.0443096324,100
                135.7649142416,35.0443499474,100
                135.7646255315,35.0444434874,100
                135.7646526039,35.0444926956,100
                135.7643899181,35.0449979257,100
                135.7637920388,35.0447104321,100
                135.763335476,35.0444856754,100
                135.7633046262,35.044530689,100
                135.7625414206,35.0441778709,100
                135.7619603186,35.0450286985,100
                135.7615554663,35.0456056982,100
                135.7614931358,35.0456967106,100
                135.7610721509,35.0463127638,100
                135.7605518154,35.0470625027,100
                135.7602987424,35.0474190747,100
                135.7597865593,35.0481602329,100
                135.75884291,35.0495042366,100
                135.7582850339,35.0503203686,100
                135.7586675515,35.0504747197,100
                135.7590114666,35.0505999783,100
                135.7593313087,35.0506840598,100
                135.759702454,35.0507230268,100
                135.7597167308,35.0508277088,100
                135.7598137744,35.0508388134,100
                135.7599757437,35.0508541301,100
                135.7609353902,35.0509447144,100
                135.7621810629,35.0510622871,100
                135.7629632456,35.0511266129,100
                135.7633392207,35.0511628299,100
                135.7644951638,35.05127512,100
                135.767269953,35.0515395574,100
                135.767263168,35.05172695,100
                135.7672475441,35.0523428035,100
                135.7672394969,35.0525302646,100
                135.7672273415,35.0527163094,100
                135.7672226202,35.052923849,100
                135.7672052629,35.0533282064,100
                135.7671880887,35.0537283389,100
                135.7671793167,35.0539369256,100
                135.7671631163,35.0543105084,100
                135.7671538293,35.0547079795,100
                135.7690393835,35.054747516,100
                135.769034676,35.0551480239,100
                135.7698919625,35.0551525155,100
                135.7701782854,35.0550353673,100
                135.7704644966,35.0549654031,100
                135.7707275107,35.0549672314,100
                135.7712191553,35.055000541,100
                135.7714552395,35.0549847814,100
                135.7717897938,35.0549314545,100
                135.7721505786,35.0548621179,100
                135.7722490912,35.0548082837,100
                135.7723213973,35.0547383429,100
                135.7723742147,35.0546090676,100
                135.772446566,35.0545229997,100
                135.7725908999,35.054490871,100
                135.7727219202,35.0545342161,100
                135.7728464276,35.0545559972,100
                135.7729710541,35.0545346783,100
                135.7730302266,35.0544754881,100
                135.773051787,35.053851265,100
                135.7730617988,35.0535616181,100
                135.7730934914,35.0526434502,100
                135.7731314716,35.0515430962,100
                135.7733989198,35.0515368311,100
                135.7734124847,35.0510621076,100
                135.7734370997,35.0502008289,100
                135.7734433133,35.0499834319,100
                135.7734547671,35.0495823002,100
                135.7734675021,35.0491365201,100
                135.7734815398,35.0486451061,100
                135.7734849059,35.0485276393,100
                135.7743699005,35.0485454761,100
                135.7743878274,35.0483026766,100
                135.7744080883,35.0480284006,100
                135.7744380003,35.0476235705,100
                135.774527844,35.0476343006,100
                135.7747135989,35.0476292917,100
                135.7748344986,35.0476118371,100
                135.7748388673,35.0476890332,100
                135.7751256362,35.0476733642,100
                135.7751628362,35.0475284229,100
                135.7752028581,35.0475019457,100
                135.7757437196,35.0475113919,100
                135.7757550291,35.0469936334,100
                135.7761979427,35.0468231682,100
                135.7765520159,35.0466741599,100
                135.7770620082,35.0464128936,100
                135.7770622411,35.0463273253,100
                135.7772446674,35.0461908191,100
                135.7769874628,35.0457531386,100
                135.7770864085,35.045714796,100
                135.7769828412,35.0455477658,100
                135.777045338,35.0455137225,100
                135.7769089573,35.0453219821,100
                135.7767862885,35.0451495642,100
                135.7771094316,35.0449952867,100
                135.7770077704,35.044850867,100
                135.7771681726,35.0447802412,100
                135.7770894683,35.0446786842,100
                135.7769116964,35.044461378,100
                135.7771692313,35.0443071936,100
                135.7770871541,35.0442102792,100
                135.7777651904,35.043831359,100
                135.7784176236,35.0434667548,100
                135.77872032,35.0432975777,100
                135.7787515936,35.0433395384,100
                135.779374351,35.0429660011,100
                135.7791380141,35.0426888704,100
                135.7784998348,35.0418377438,100
                135.7783534749,35.0416425395,100
                135.7782438713,35.0414963482,100
                135.778159971,35.0413606256,100
                135.7780015694,35.0411211017,100
                135.7779663218,35.0410689924,100
                135.7777497147,35.0407487953,100
                135.7776165468,35.0405607267,100
                135.7775105716,35.0404110905,100
                135.7774202425,35.0402707782,100
                135.7773348596,35.0401381517,100
                135.7768361982,35.0392858645,100
                135.7761059587,35.0395509491,100
                135.7751317114,35.0396028933,100
                135.7748921034,35.0396606944,100
                135.7749007339,35.0398439579,100
                135.774862556,35.0398797336,100
                135.7748562371,35.0402019897,100
                135.7748338816,35.0404212544,100
                135.7748337321,35.0404773097,100
                135.7748333441,35.0406227406,100
                135.7748395614,35.0409164276,100
                135.774847851,35.0413075164,100
                135.77475993,35.0416296218,100
                135.7744116503,35.0416245416,100
                135.7744116027,35.0416423586,100
                135.7739381356,35.0416371166,100
                135.7738567148,35.0415608357,100
                135.7737142301,35.0415606419,100
                135.773300577,35.0415867057,100
                135.7732025108,35.0416268075,100
                135.7727782372,35.0415498881,100
                135.7726950415,35.0415526206,100
                135.7725224424,35.041558426,100
                135.7722620172,35.0415618841,100
                135.7722230981,35.0415623044,100
                135.771664031,35.0415743004,100
                135.7711306531,35.0415776799,100
                135.7710052472,35.0416625927,100
                135.770918876,35.0416660943,100
                135.7709018331,35.041666767,100
              </coordinates>
            </LinearRing>
          </outerBoundaryIs>
        </Polygon>
      </Placemark>
    </Document>
  </Document>
</kml>
