<?xml version="1.0" encoding="UTF-8"?>
<kml xmlns="http://www.opengis.net/kml/2.2">
  <Document id="root_doc">
    <Document id="_4_24______disv4326">
      <name>14_24下鴨disv4326</name>
      <Placemark id="_4_24______disv4326.1">
        <visibility>1</visibility>
        <Polygon>
          <extrude>0</extrude>
          <outerBoundaryIs>
            <LinearRing>
              <coordinates>
                135.7700482556,35.0321767662,100
                135.7699697363,35.0323107818,100
                135.7694199136,35.033214874,100
                135.7687733373,35.0342842832,100
                135.76859939,35.0345719301,100
                135.7683192436,35.0349917787,100
                135.7681233201,35.0353374149,100
                135.7680166943,35.035500111,100
                135.767788348,35.0358954061,100
                135.7672005364,35.0368942794,100
                135.7669478219,35.0372974825,100
                135.7666107104,35.037842575,100
                135.766309405,35.0383268873,100
                135.7658210897,35.0391372677,100
                135.7654440521,35.0397367213,100
                135.7653140697,35.0399485965,100
                135.7651414468,35.0402126477,100
                135.7648167794,35.0407293081,100
                135.7645879687,35.0410875509,100
                135.7643897485,35.0414000055,100
                135.7641546671,35.0417708425,100
                135.7637762205,35.0423658521,100
                135.7633241318,35.043024456,100
                135.7629090257,35.0436391137,100
                135.7628295667,35.0437560093,100
                135.7625414206,35.0441778709,100
                135.7633046262,35.044530689,100
                135.763335476,35.0444856754,100
                135.7637920388,35.0447104321,100
                135.7643899181,35.0449979257,100
                135.7646526039,35.0444926956,100
                135.7646255315,35.0444434874,100
                135.7649142416,35.0443499474,100
                135.7648980194,35.0443096324,100
                135.7651758993,35.0442072686,100
                135.7655960221,35.0438365687,100
                135.7656505697,35.0437918818,100
                135.7657280377,35.0437886481,100
                135.7657454963,35.0435008508,100
                135.7656641591,35.04349471,100
                135.7656784987,35.043289376,100
                135.7658252751,35.0433522626,100
                135.7658799456,35.0432628543,100
                135.7667030685,35.0435822414,100
                135.7672247238,35.0438830971,100
                135.7674859909,35.0438791516,100
                135.7677054066,35.0432618599,100
                135.7678063353,35.0430730273,100
                135.7679515952,35.0428012455,100
                135.7683219483,35.042131698,100
                135.7684627718,35.0418678655,100
                135.7688088439,35.0412195406,100
                135.7688469375,35.0412241191,100
                135.7691187394,35.0413410408,100
                135.7697330395,35.0415883244,100
                135.7697706374,35.0416098743,100
                135.7698583603,35.0416601807,100
                135.770026994,35.0416918344,100
                135.7702312037,35.0416860167,100
                135.7709018331,35.041666767,100
                135.770918876,35.0416660943,100
                135.7710052472,35.0416625927,100
                135.7711306531,35.0415776799,100
                135.771664031,35.0415743004,100
                135.7722230981,35.0415623044,100
                135.7722620172,35.0415618841,100
                135.7725224424,35.041558426,100
                135.7726950415,35.0415526206,100
                135.7727782372,35.0415498881,100
                135.7732025108,35.0416268075,100
                135.773300577,35.0415867057,100
                135.7737142301,35.0415606419,100
                135.7738567148,35.0415608357,100
                135.7739381356,35.0416371166,100
                135.7744116027,35.0416423586,100
                135.7744116503,35.0416245416,100
                135.77475993,35.0416296218,100
                135.774847851,35.0413075164,100
                135.7748395614,35.0409164276,100
                135.7748333441,35.0406227406,100
                135.7748337321,35.0404773097,100
                135.7748338816,35.0404212544,100
                135.7748562371,35.0402019897,100
                135.774862556,35.0398797336,100
                135.7749007339,35.0398439579,100
                135.7748921034,35.0396606944,100
                135.7751317114,35.0396028933,100
                135.7761059587,35.0395509491,100
                135.7768361982,35.0392858645,100
                135.7766605601,35.0389856712,100
                135.7764683196,35.0386342473,100
                135.7762032545,35.0380495101,100
                135.7760888816,35.0377752736,100
                135.7759479413,35.0374373943,100
                135.7757452213,35.0369150271,100
                135.7756566202,35.0366742903,100
                135.7755318603,35.0363613316,100
                135.7755253576,35.0363450188,100
                135.7754405775,35.0361171046,100
                135.7753282566,35.035830052,100
                135.7752166884,35.0355660307,100
                135.7751370449,35.0353635496,100
                135.7749882488,35.0350290323,100
                135.7746022375,35.0342952544,100
                135.7742566029,35.0337217701,100
                135.7737831126,35.0329361352,100
                135.7736861429,35.0327788348,100
                135.7734341508,35.0323700361,100
                135.7728500258,35.0314375663,100
                135.7722565253,35.0304470435,100
                135.7721407109,35.0301925892,100
                135.7720819346,35.0299864132,100
                135.772036397,35.0297530067,100
                135.7719386333,35.029329775,100
                135.7716621799,35.0293265862,100
                135.7714441408,35.0293304081,100
                135.7713842057,35.0295279125,100
                135.7711578317,35.0302738703,100
                135.7711232518,35.0303878973,100
                135.7701341108,35.0320365667,100
                135.7700482556,35.0321767662,100
              </coordinates>
            </LinearRing>
          </outerBoundaryIs>
        </Polygon>
      </Placemark>
    </Document>
  </Document>
</kml>
