<?xml version="1.0" encoding="UTF-8"?>
<kml xmlns="http://www.opengis.net/kml/2.2">
  <Document id="root_doc">
    <Document id="_4_23______disv4326">
      <name>14_23養徳disv4326</name>
      <Placemark id="_4_23______disv4326.1">
        <visibility>1</visibility>
        <Polygon>
          <extrude>0</extrude>
          <outerBoundaryIs>
            <LinearRing>
              <coordinates>
                135.7757422833,35.033847608,100
                135.7746022375,35.0342952544,100
                135.7749882488,35.0350290323,100
                135.7751370449,35.0353635496,100
                135.7752166884,35.0355660307,100
                135.7753282566,35.035830052,100
                135.7754405775,35.0361171046,100
                135.7755253576,35.0363450188,100
                135.7755318603,35.0363613316,100
                135.7756566202,35.0366742903,100
                135.7757452213,35.0369150271,100
                135.7759479413,35.0374373943,100
                135.7760888816,35.0377752736,100
                135.7762032545,35.0380495101,100
                135.7764683196,35.0386342473,100
                135.7766605601,35.0389856712,100
                135.7768361982,35.0392858645,100
                135.7773348596,35.0401381517,100
                135.7774202425,35.0402707782,100
                135.7775105716,35.0404110905,100
                135.7776165468,35.0405607267,100
                135.7777497147,35.0407487953,100
                135.7779663218,35.0410689924,100
                135.7780015694,35.0411211017,100
                135.778159971,35.0413606256,100
                135.7782438713,35.0414963482,100
                135.7783534749,35.0416425395,100
                135.7784998348,35.0418377438,100
                135.7791380141,35.0426888704,100
                135.779374351,35.0429660011,100
                135.7796976783,35.0433451244,100
                135.7804624421,35.0442032337,100
                135.7807449632,35.0445291806,100
                135.7810619362,35.0448775128,100
                135.7811860173,35.0450138707,100
                135.7815919187,35.0454377219,100
                135.7819164642,35.0457766316,100
                135.782508958,35.0463417899,100
                135.7826883585,35.0465129111,100
                135.7831577673,35.0469403196,100
                135.783390557,35.0471539839,100
                135.7834457863,35.0472046481,100
                135.7837157405,35.0474359148,100
                135.7846596684,35.0482229788,100
                135.7850582,35.0484877795,100
                135.7861750205,35.0492907697,100
                135.7867571027,35.0487937327,100
                135.7869348384,35.0489537704,100
                135.7875568659,35.0485312401,100
                135.7874360817,35.0483867264,100
                135.7873537472,35.0483009447,100
                135.7876026987,35.0481412985,100
                135.7874457544,35.0479639032,100
                135.7873503078,35.0480317694,100
                135.7872410274,35.0479125233,100
                135.7871471153,35.0479625521,100
                135.7869889644,35.0477982137,100
                135.78696895,35.0477785529,100
                135.7869242839,35.0477994648,100
                135.7862631191,35.0472055303,100
                135.7862084685,35.0471866302,100
                135.7860928489,35.0470501527,100
                135.7861421214,35.0470128426,100
                135.7860702079,35.0469389098,100
                135.7860433836,35.0469547087,100
                135.7859567442,35.0468216622,100
                135.7856265248,35.0463952143,100
                135.7855590485,35.0464267881,100
                135.7852987746,35.046174133,100
                135.7854149571,35.0460925723,100
                135.785215548,35.0459092537,100
                135.7851324979,35.0458108483,100
                135.7851050691,35.0458207164,100
                135.7850760379,35.045790241,100
                135.785056028,35.0457692341,100
                135.7850322797,35.0457443048,100
                135.7850116059,35.0457226029,100
                135.7850001281,35.0457105535,100
                135.7849573557,35.0457194927,100
                135.7848985909,35.0456431872,100
                135.7848734051,35.0456104836,100
                135.7848654933,35.045600211,100
                135.7848579569,35.0455942654,100
                135.7852388678,35.0453189102,100
                135.7845615057,35.0447917018,100
                135.7844266506,35.0446867398,100
                135.7841493434,35.0444760978,100
                135.7837817949,35.0440700738,100
                135.783640503,35.043606772,100
                135.7835880495,35.043434769,100
                135.7834893691,35.0431586653,100
                135.7834008638,35.0432025948,100
                135.7833076879,35.0432487691,100
                135.7832193541,35.043292558,100
                135.7827549554,35.0427502263,100
                135.7823430742,35.0421750978,100
                135.7821631313,35.0419173703,100
                135.7827781746,35.0415387296,100
                135.7825738521,35.0412553935,100
                135.7825422193,35.0412115328,100
                135.7828192965,35.0410929351,100
                135.7826718803,35.0406833573,100
                135.7834074771,35.0406443802,100
                135.7836953958,35.0406291151,100
                135.7840641328,35.0406108941,100
                135.7849913401,35.040559711,100
                135.7856031767,35.0405304345,100
                135.7850743008,35.0394069117,100
                135.7849748088,35.0391955284,100
                135.7848904962,35.0390164263,100
                135.7850338294,35.0390117493,100
                135.7850649202,35.038475087,100
                135.7850895205,35.0381902561,100
                135.7851139529,35.0379790912,100
                135.7853048786,35.0380383043,100
                135.7854899831,35.0380386301,100
                135.7856512692,35.0380193347,100
                135.7859618879,35.0379755824,100
                135.7861678181,35.0379941142,100
                135.7862962083,35.0380056779,100
                135.7864812376,35.0380354407,100
                135.7868930411,35.0381196854,100
                135.7869622991,35.0381086791,100
                135.7873457856,35.0380565999,100
                135.787436648,35.038043659,100
                135.7874572622,35.037782907,100
                135.7875148449,35.0376067308,100
                135.7876295856,35.0374131179,100
                135.7878014521,35.0372137585,100
                135.7882092534,35.0368913524,100
                135.7883672655,35.036744084,100
                135.7882601688,35.0367438981,100
                135.7876565469,35.0359217492,100
                135.7871109432,35.0359424883,100
                135.787108726,35.0359524013,100
                135.7868737021,35.0359656495,100
                135.7867985114,35.0359698883,100
                135.7866751054,35.0359788264,100
                135.7863673389,35.0360011175,100
                135.7863561191,35.0360019749,100
                135.7859914273,35.0360298221,100
                135.7859792133,35.0357665255,100
                135.7859647438,35.0357660357,100
                135.785871912,35.0357717186,100
                135.7858518677,35.0355281457,100
                135.7859297254,35.0355230737,100
                135.7859296648,35.0355192705,100
                135.7859088711,35.0352783753,100
                135.7859374062,35.0352784254,100
                135.7859169286,35.0351003191,100
                135.7858310294,35.0351016268,100
                135.7858255633,35.0350021576,100
                135.7858452891,35.0350021922,100
                135.785825567,35.034508187,100
                135.7856767611,35.034512574,100
                135.7854591087,35.0345192331,100
                135.7854172544,35.0345378928,100
                135.7854200501,35.0345917046,100
                135.7854231529,35.0346512902,100
                135.7852645155,35.0346579824,100
                135.7852616384,35.0346025524,100
                135.7852567612,35.0345087352,100
                135.7851568896,35.0345053196,100
                135.7851524261,35.0345934157,100
                135.7849310192,35.0346116887,100
                135.7849254769,35.0345603375,100
                135.7847102803,35.0345692532,100
                135.7846019336,35.0345737108,100
                135.7842102411,35.0345964015,100
                135.7842266947,35.0348251755,100
                135.7839371808,35.0348434683,100
                135.7839290728,35.0347280394,100
                135.7839259365,35.0346563425,100
                135.7839149696,35.0346565884,100
                135.7837560785,35.0346641926,100
                135.7837636186,35.0347378026,100
                135.7837714957,35.034859197,100
                135.7837441629,35.0348617908,100
                135.7837376853,35.0348611636,100
                135.7834224746,35.034830656,100
                135.7831540526,35.0348046159,100
                135.7823806411,35.0349817031,100
                135.7820061511,35.0349483584,100
                135.7819323671,35.0349482269,100
                135.7819432285,35.035134946,100
                135.7818930698,35.0351207009,100
                135.7815632382,35.0350269387,100
                135.7809175053,35.0348585212,100
                135.7808588102,35.0348422178,100
                135.7802594833,35.0346754294,100
                135.7801234859,35.0346375768,100
                135.7797547959,35.0345482472,100
                135.7795927851,35.0345048539,100
                135.7793399923,35.0344370711,100
                135.7783871276,35.0342018844,100
                135.7777106172,35.0339970546,100
                135.7775648131,35.0339529135,100
                135.7764135223,35.033633333,100
                135.7758235204,35.0338216997,100
                135.7757422833,35.033847608,100
              </coordinates>
            </LinearRing>
          </outerBoundaryIs>
        </Polygon>
      </Placemark>
    </Document>
  </Document>
</kml>
