<?xml version="1.0" encoding="UTF-8"?>
<kml xmlns="http://www.opengis.net/kml/2.2">
  <Document id="root_doc">
    <Document id="_4_21______disv4326">
      <name>14_21吉田disv4326</name>
      <Placemark id="_4_21______disv4326.1">
        <visibility>1</visibility>
        <Polygon>
          <extrude>0</extrude>
          <outerBoundaryIs>
            <LinearRing>
              <coordinates>
                135.7749237611,35.0205187981,100
                135.7737426547,35.0204977483,100
                135.771534724,35.0204635178,100
                135.7715098033,35.0214261417,100
                135.7715040119,35.0217353772,100
                135.7715011426,35.0223286513,100
                135.7714977483,35.0225439412,100
                135.7715462604,35.0239286317,100
                135.771550902,35.0241245684,100
                135.7715562575,35.0243104359,100
                135.771598678,35.0258641401,100
                135.7716111249,35.0272570724,100
                135.7723845852,35.0272466054,100
                135.7730346558,35.027218138,100
                135.7730376897,35.0273199627,100
                135.773000941,35.0274350123,100
                135.7729403052,35.0276677494,100
                135.7731198078,35.0277483127,100
                135.7731515874,35.0277483717,100
                135.773211771,35.027734937,100
                135.7733144809,35.0276903207,100
                135.7735245553,35.027625566,100
                135.7735246602,35.0276263503,100
                135.7735261438,35.0276260889,100
                135.7736437859,35.0276053016,100
                135.7741717667,35.0276147993,100
                135.7744771152,35.0276366308,100
                135.7748081781,35.0277266127,100
                135.7750589939,35.0278032763,100
                135.7752426346,35.0278593921,100
                135.7757186093,35.0279625263,100
                135.7757645162,35.0279402147,100
                135.7764548099,35.0280182426,100
                135.7766669336,35.0280611685,100
                135.7769308786,35.0280871452,100
                135.7770047572,35.0281139002,100
                135.7770963403,35.0281470276,100
                135.7772617871,35.0282283197,100
                135.7773135625,35.0282284139,100
                135.7774548594,35.0282483903,100
                135.7776641175,35.0287781658,100
                135.7777205578,35.0289656734,100
                135.7778908761,35.0291575424,100
                135.7779216652,35.0291537249,100
                135.7784707944,35.0290849975,100
                135.7786624452,35.0290609773,100
                135.7787718776,35.0290139185,100
                135.7792464892,35.0288099051,100
                135.7801888981,35.0287052579,100
                135.7812089571,35.0286006008,100
                135.7815791286,35.0285459062,100
                135.7823530996,35.028551582,100
                135.7834385709,35.0285606901,100
                135.7841592875,35.0285666117,100
                135.7842846081,35.028574579,100
                135.7844448114,35.0285847203,100
                135.7848516216,35.0286441738,100
                135.785314746,35.0285401975,100
                135.7854647473,35.0285169402,100
                135.7855646709,35.0285229613,100
                135.7858644181,35.0285763796,100
                135.785899399,35.0283978397,100
                135.7857596405,35.028256459,100
                135.7855835679,35.02800754,100
                135.7854685001,35.0277679539,100
                135.7854401634,35.0277089566,100
                135.7852919069,35.0274983273,100
                135.7851770846,35.0273040267,100
                135.7851530464,35.0272633475,100
                135.7850745777,35.0270336849,100
                135.7850564663,35.0268462457,100
                135.7849639244,35.0265960637,100
                135.7849303418,35.0265052936,100
                135.7847077063,35.0262793206,100
                135.7846541906,35.0261503435,100
                135.7846060377,35.026034264,100
                135.7846016726,35.0259271365,100
                135.7844264055,35.025696459,100
                135.7843286849,35.025726923,100
                135.7842449873,35.0257229021,100
                135.784175344,35.0256807347,100
                135.7841058116,35.0255964506,100
                135.7839038028,35.0251742338,100
                135.7836309665,35.0252024866,100
                135.7836156841,35.0251130161,100
                135.7836049184,35.025047993,100
                135.7844007581,35.0248319158,100
                135.7843733374,35.0247023512,100
                135.7842717237,35.0244382796,100
                135.7841680964,35.0243211174,100
                135.7840955426,35.0242390818,100
                135.7840744375,35.0239206415,100
                135.7840996037,35.0238158191,100
                135.7841661494,35.0237896669,100
                135.7843277889,35.0236976919,100
                135.7844584521,35.0235181201,100
                135.7846497185,35.0232928058,100
                135.7847897135,35.0230979696,100
                135.7848860504,35.0232292764,100
                135.7850253469,35.0233098801,100
                135.7852483937,35.0233752796,100
                135.7854808696,35.0233947755,100
                135.7856993996,35.0234028376,100
                135.7859040861,35.0233764363,100
                135.7860948956,35.0233193738,100
                135.787036618,35.0228752912,100
                135.7867020775,35.0224059385,100
                135.7864814362,35.0223878028,100
                135.7860467522,35.0218955951,100
                135.7859659407,35.0219263705,100
                135.7857065274,35.0216246939,100
                135.7853864096,35.021252412,100
                135.7845301351,35.0212248406,100
                135.784274758,35.0211939667,100
                135.7842244357,35.0211878918,100
                135.7837291514,35.0211033511,100
                135.7834703295,35.0210641591,100
                135.783458242,35.0210623066,100
                135.7830469055,35.0210000967,100
                135.7828388301,35.0209195107,100
                135.7825965059,35.0208087922,100
                135.7824632372,35.0207099572,100
                135.781911137,35.0204056442,100
                135.7819105379,35.0204055727,100
                135.7816940619,35.0203787771,100
                135.7814278739,35.0203824586,100
                135.7811845224,35.0203778688,100
                135.7808215531,35.0203013705,100
                135.7807763616,35.0203052337,100
                135.7801331039,35.0203604942,100
                135.7800192299,35.0203736002,100
                135.7794327595,35.02040114,100
                135.7792737011,35.0204086008,100
                135.7791030191,35.0204166043,100
                135.7790271363,35.0204209045,100
                135.7790270529,35.0204521736,100
                135.7785024439,35.0204680594,100
                135.7785110705,35.0207879568,100
                135.778516671,35.0209953956,100
                135.7785283352,35.0214274964,100
                135.7785403592,35.021872874,100
                135.7763830449,35.0218219818,100
                135.7759183416,35.0218109914,100
                135.7758730722,35.02053575,100
                135.7749237611,35.0205187981,100
              </coordinates>
            </LinearRing>
          </outerBoundaryIs>
        </Polygon>
      </Placemark>
    </Document>
  </Document>
</kml>
