<?xml version="1.0" encoding="UTF-8"?>
<kml xmlns="http://www.opengis.net/kml/2.2">
  <Document id="root_doc">
    <Document id="_4_26_________disv4326">
      <name>14_26松ヶ崎disv4326</name>
      <Placemark id="_4_26_________disv4326.1">
        <visibility>1</visibility>
        <Polygon>
          <extrude>0</extrude>
          <outerBoundaryIs>
            <LinearRing>
              <coordinates>
                135.7771692313,35.0443071936,100
                135.7769116964,35.044461378,100
                135.7770894683,35.0446786842,100
                135.7771681726,35.0447802412,100
                135.7770077704,35.044850867,100
                135.7771094316,35.0449952867,100
                135.7767862885,35.0451495642,100
                135.7769089573,35.0453219821,100
                135.777045338,35.0455137225,100
                135.7769828412,35.0455477658,100
                135.7770864085,35.045714796,100
                135.7769874628,35.0457531386,100
                135.7772446674,35.0461908191,100
                135.7770622411,35.0463273253,100
                135.7770620082,35.0464128936,100
                135.7765520159,35.0466741599,100
                135.7761979427,35.0468231682,100
                135.7757550291,35.0469936334,100
                135.7757437196,35.0475113919,100
                135.7752028581,35.0475019457,100
                135.7751628362,35.0475284229,100
                135.7751256362,35.0476733642,100
                135.7748388673,35.0476890332,100
                135.7748344986,35.0476118371,100
                135.7747135989,35.0476292917,100
                135.774527844,35.0476343006,100
                135.7744380003,35.0476235705,100
                135.7744080883,35.0480284006,100
                135.7743878274,35.0483026766,100
                135.7743699005,35.0485454761,100
                135.7734849059,35.0485276393,100
                135.7734815398,35.0486451061,100
                135.7734675021,35.0491365201,100
                135.7734547671,35.0495823002,100
                135.7734433133,35.0499834319,100
                135.7734370997,35.0502008289,100
                135.7734124847,35.0510621076,100
                135.7733989198,35.0515368311,100
                135.7731314716,35.0515430962,100
                135.7730934914,35.0526434502,100
                135.7730617988,35.0535616181,100
                135.773051787,35.053851265,100
                135.7730302266,35.0544754881,100
                135.7729710541,35.0545346783,100
                135.7728464276,35.0545559972,100
                135.7727219202,35.0545342161,100
                135.7725908999,35.054490871,100
                135.772446566,35.0545229997,100
                135.7723742147,35.0546090676,100
                135.7723213973,35.0547383429,100
                135.7722490912,35.0548082837,100
                135.7721505786,35.0548621179,100
                135.7717897938,35.0549314545,100
                135.7714552395,35.0549847814,100
                135.7712191553,35.055000541,100
                135.7707275107,35.0549672314,100
                135.7704644966,35.0549654031,100
                135.7701782854,35.0550353673,100
                135.7698919625,35.0551525155,100
                135.7694834375,35.0553774695,100
                135.769375178,35.0555377694,100
                135.7691371559,35.0557232501,100
                135.7689747316,35.0558885892,100
                135.7688007449,35.0560989794,100
                135.7687789127,35.0561225209,100
                135.7687625369,35.0561401777,100
                135.7686986324,35.0563031665,100
                135.7686451237,35.0564396932,100
                135.7686327878,35.0564711508,100
                135.7684905498,35.0570685248,100
                135.7685195957,35.0571480906,100
                135.7686844287,35.0573138331,100
                135.7688328593,35.0574265123,100
                135.7689530143,35.0574524441,100
                135.7690528315,35.0575152407,100
                135.7693967712,35.057600115,100
                135.7700140273,35.0577797307,100
                135.7701133468,35.0577762545,100
                135.7702115899,35.0577519288,100
                135.7704654478,35.0576621158,100
                135.7707868616,35.0576406005,100
                135.7710410785,35.0575749421,100
                135.7712597141,35.0575073871,100
                135.7713976014,35.0574872893,100
                135.7717674299,35.0574796654,100
                135.7720766335,35.0573983311,100
                135.7721737869,35.0574037231,100
                135.7723437638,35.0573379782,100
                135.7725244641,35.0573424696,100
                135.7725604972,35.0573510582,100
                135.7726191052,35.0574344819,100
                135.772510968,35.0576375322,100
                135.7724032672,35.0576527562,100
                135.7723867718,35.0580169018,100
                135.7722311753,35.0580311205,100
                135.7721204988,35.0581149343,100
                135.771951116,35.0581347633,100
                135.7718325394,35.0581942655,100
                135.771673695,35.0582967936,100
                135.7715240954,35.0584240595,100
                135.7714419827,35.0585227857,100
                135.7713199447,35.0587397558,100
                135.7713314725,35.0588516847,100
                135.7714803935,35.0589290785,100
                135.7716815502,35.058941706,100
                135.7723889817,35.0588832959,100
                135.7724667863,35.0589009767,100
                135.7728901921,35.0589452154,100
                135.772826271,35.0592711029,100
                135.7727465603,35.059414766,100
                135.7727767795,35.05952011,100
                135.7728497759,35.059588771,100
                135.7728553377,35.0596674475,100
                135.773453117,35.0599635015,100
                135.7743610766,35.0607950139,100
                135.7748000398,35.0604042487,100
                135.7757224279,35.0617125653,100
                135.7754214957,35.0616804634,100
                135.7755853414,35.0618068266,100
                135.7755633094,35.061860874,100
                135.7764063182,35.0618263555,100
                135.7765980349,35.0617681808,100
                135.77673481,35.0617954738,100
                135.7773313842,35.061805573,100
                135.777462852,35.0617607386,100
                135.7777357113,35.0617622188,100
                135.7777908701,35.0616047748,100
                135.7778510572,35.0616138985,100
                135.7782789224,35.0612680325,100
                135.7791819161,35.0613146643,100
                135.7788576581,35.0618002349,100
                135.7791035909,35.0619401938,100
                135.7796773123,35.0621433502,100
                135.7804717857,35.0618432073,100
                135.7805645201,35.0619649295,100
                135.7809320173,35.0616729644,100
                135.7810031473,35.061682106,100
                135.7810252241,35.061610099,100
                135.7814310599,35.0613136928,100
                135.7815790766,35.0612285297,100
                135.7816997555,35.0611251472,100
                135.7817494343,35.0609722688,100
                135.7817224064,35.0608460874,100
                135.7816569758,35.0607470217,100
                135.7813631325,35.060530641,100
                135.7822959646,35.0596455605,100
                135.7826948813,35.0598848023,100
                135.7828699124,35.0599301852,100
                135.783012217,35.0599304371,100
                135.7833570121,35.059876255,100
                135.7836638065,35.0598279911,100
                135.7839813569,35.0597926339,100
                135.7841674143,35.059806342,100
                135.7842986354,35.0598605899,100
                135.7843804449,35.0599688384,100
                135.7844997318,35.0603921699,100
                135.7847402968,35.0604915424,100
                135.7851724722,35.0602952488,100
                135.7854258715,35.060179631,100
                135.785605972,35.0601719188,100
                135.7857034495,35.060120044,100
                135.7858497238,35.0600202248,100
                135.7860933479,35.0599165605,100
                135.786259065,35.0598248034,100
                135.7864588465,35.0597411338,100
                135.7866486892,35.059733436,100
                135.7868140907,35.0597617541,100
                135.7870037358,35.0598300466,100
                135.7871300849,35.0599063975,100
                135.7872466093,35.0600147048,100
                135.7873436391,35.0601348801,100
                135.7874504117,35.0602551427,100
                135.787576764,35.0603314926,100
                135.7877372534,35.0603717735,100
                135.787888117,35.0603840077,100
                135.7880147204,35.0603632401,100
                135.788366371,35.0602424341,100
                135.788792953,35.0600019611,100
                135.7889605486,35.0600022504,100
                135.7894287466,35.0595553575,100
                135.7895587546,35.0594083896,100
                135.7895382126,35.0592532753,100
                135.7896362454,35.059150129,100
                135.7896436527,35.0589836533,100
                135.7896088024,35.0589548593,100
                135.7896229699,35.0588745278,100
                135.7896021754,35.0588170945,100
                135.7894351575,35.0585927801,100
                135.7893240486,35.0583514488,100
                135.7892826983,35.0581446761,100
                135.7893179978,35.0579897988,100
                135.789447894,35.057802055,100
                135.78959764,35.0578638649,100
                135.7902611048,35.0578249325,100
                135.7901261235,35.057531797,100
                135.7904802033,35.0576106484,100
                135.790556651,35.0573980911,100
                135.7909478294,35.0574719335,100
                135.7909587396,35.057433781,100
                135.790973717,35.0573455629,100
                135.7910367121,35.0569746638,100
                135.7911091435,35.056480042,100
                135.7911148747,35.0564407539,100
                135.7911468972,35.0563184075,100
                135.7911641349,35.0559304584,100
                135.7911487014,35.0556092876,100
                135.7911059115,35.0553773702,100
                135.7910302082,35.0550634208,100
                135.7907333579,35.0544357658,100
                135.7906760505,35.0543146046,100
                135.7902035862,35.0534138159,100
                135.7899281444,35.0528223962,100
                135.7896379726,35.0521810889,100
                135.7894936903,35.0518772338,100
                135.7892439146,35.0515677021,100
                135.7890510601,35.0513463725,100
                135.7888688559,35.0511631604,100
                135.7886617545,35.0510131796,100
                135.7882844595,35.0507399444,100
                135.787973265,35.0505146041,100
                135.7877819899,35.0503970827,100
                135.7873067225,35.0501015221,100
                135.786948043,35.0498445453,100
                135.7863853865,35.0494414984,100
                135.7861750205,35.0492907697,100
                135.7850582,35.0484877795,100
                135.7846596684,35.0482229788,100
                135.7837157405,35.0474359148,100
                135.7834457863,35.0472046481,100
                135.783390557,35.0471539839,100
                135.7831577673,35.0469403196,100
                135.7826883585,35.0465129111,100
                135.782508958,35.0463417899,100
                135.7819164642,35.0457766316,100
                135.7815919187,35.0454377219,100
                135.7811860173,35.0450138707,100
                135.7810619362,35.0448775128,100
                135.7807449632,35.0445291806,100
                135.7804624421,35.0442032337,100
                135.7796976783,35.0433451244,100
                135.779374351,35.0429660011,100
                135.7787515936,35.0433395384,100
                135.77872032,35.0432975777,100
                135.7784176236,35.0434667548,100
                135.7777651904,35.043831359,100
                135.7770871541,35.0442102792,100
                135.7771692313,35.0443071936,100
              </coordinates>
            </LinearRing>
          </outerBoundaryIs>
        </Polygon>
      </Placemark>
    </Document>
  </Document>
</kml>
