<?xml version="1.0" encoding="UTF-8"?>
<kml xmlns="http://www.opengis.net/kml/2.2">
  <Document id="root_doc">
    <Document id="_4_20_________disv4326">
      <name>14_20聖護院disv4326</name>
      <Placemark id="_4_20_________disv4326.1">
        <visibility>1</visibility>
        <Polygon>
          <extrude>0</extrude>
          <outerBoundaryIs>
            <LinearRing>
              <coordinates>
                135.7753952626,35.0164326464,100
                135.7756342084,35.0164238571,100
                135.7769356863,35.0164206672,100
                135.7769872831,35.0164211836,100
                135.7775660603,35.0164273759,100
                135.7775931471,35.0167228635,100
                135.7776187436,35.0170020963,100
                135.7776583256,35.0174037508,100
                135.7774820564,35.0174146295,100
                135.7775017466,35.0176601075,100
                135.7769458437,35.0176757891,100
                135.7766475338,35.0176975725,100
                135.7766469607,35.0179095601,100
                135.7762063026,35.0179255192,100
                135.7761795801,35.0177803875,100
                135.7757321451,35.0178019662,100
                135.7757317817,35.0179358503,100
                135.7753048012,35.0179509854,100
                135.7753044676,35.0180736709,100
                135.775026517,35.0180843588,100
                135.7750071523,35.0177216181,100
                135.7747088866,35.0177267047,100
                135.7747153066,35.0178606001,100
                135.7745796976,35.0178714786,100
                135.7745794996,35.0179440898,100
                135.7742879268,35.0179825706,100
                135.7742815547,35.0178319134,100
                135.7740307357,35.0178370152,100
                135.7740489784,35.0186013359,100
                135.7715767891,35.0186665553,100
                135.7715695996,35.019029742,100
                135.7715548781,35.0198804873,100
                135.7715349304,35.0203882314,100
                135.771534724,35.0204635178,100
                135.7737426547,35.0204977483,100
                135.7749237611,35.0205187981,100
                135.7758730722,35.02053575,100
                135.7759183416,35.0218109914,100
                135.7763830449,35.0218219818,100
                135.7785403592,35.021872874,100
                135.7785283352,35.0214274964,100
                135.778516671,35.0209953956,100
                135.7785110705,35.0207879568,100
                135.7785024439,35.0204680594,100
                135.7790270529,35.0204521736,100
                135.7790271363,35.0204209045,100
                135.7791030191,35.0204166043,100
                135.7792737011,35.0204086008,100
                135.7794327595,35.02040114,100
                135.7800192299,35.0203736002,100
                135.7801331039,35.0203604942,100
                135.7807763616,35.0203052337,100
                135.7808215531,35.0203013705,100
                135.7811845224,35.0203778688,100
                135.7814278739,35.0203824586,100
                135.7816940619,35.0203787771,100
                135.7819105379,35.0204055727,100
                135.781911137,35.0204056442,100
                135.7824632372,35.0207099572,100
                135.7825965059,35.0208087922,100
                135.7828388301,35.0209195107,100
                135.7828435672,35.020802891,100
                135.7828534157,35.0204274589,100
                135.7830040861,35.0204277257,100
                135.7830041392,35.020407513,100
                135.783004345,35.0203292683,100
                135.7828581242,35.020321685,100
                135.7828582873,35.020259709,100
                135.7827253381,35.0202594735,100
                135.782725578,35.0201683411,100
                135.7828053425,35.0201684825,100
                135.7828012008,35.0200591005,100
                135.7828455436,35.0200518546,100
                135.7828458698,35.0199279026,100
                135.7829345143,35.019920806,100
                135.782934658,35.0198661542,100
                135.7828770633,35.0198587276,100
                135.7828593837,35.0197452356,100
                135.7828509839,35.0195702067,100
                135.7828247874,35.019424303,100
                135.7828032957,35.01916544,100
                135.7827905333,35.0189648372,100
                135.7828217101,35.0189103104,100
                135.7827729469,35.0189138164,100
                135.7827734148,35.0185166009,100
                135.7817229517,35.0185585423,100
                135.781803422,35.0182997901,100
                135.78182644,35.0179717056,100
                135.7818253148,35.0174013033,100
                135.7816879286,35.0173974681,100
                135.7816792613,35.0173245587,100
                135.7813658881,35.0173217468,100
                135.7811651905,35.0173199798,100
                135.7811706024,35.0169476146,100
                135.7811786179,35.0163961238,100
                135.781235375,35.0163961546,100
                135.7812217364,35.0161163467,100
                135.7805388617,35.0161422167,100
                135.780526529,35.016392128,100
                135.780318883,35.0163908551,100
                135.7803145984,35.0163361949,100
                135.7802753489,35.0163361246,100
                135.7797383545,35.0163351616,100
                135.7789750445,35.0163091382,100
                135.7785627167,35.0163703016,100
                135.7783880784,35.0163720991,100
                135.7779289684,35.0163764804,100
                135.7779247442,35.0162999166,100
                135.7778671326,35.0162998123,100
                135.7778938598,35.0162451384,100
                135.7778513244,35.0155888797,100
                135.7778457519,35.0153853316,100
                135.7778442035,35.0153401143,100
                135.7780056788,35.0153380825,100
                135.7779943478,35.0152621402,100
                135.7778444075,35.0152642628,100
                135.7778293616,35.0147875058,100
                135.7775866148,35.014794461,100
                135.7773790504,35.0147859154,100
                135.7772607554,35.0146637182,100
                135.7772122854,35.0143138124,100
                135.7771432282,35.0142649511,100
                135.7770954279,35.013658898,100
                135.7769236656,35.0136361192,100
                135.7766398967,35.0136353218,100
                135.7763989935,35.0136346007,100
                135.7760175357,35.0136403849,100
                135.7760170766,35.0137468718,100
                135.7760165855,35.0138567391,100
                135.7760159323,35.0140032289,100
                135.7760153466,35.0141324633,100
                135.7760149013,35.0142335982,100
                135.7757640562,35.0142443381,100
                135.7757837876,35.0144730544,100
                135.7752550559,35.0144832851,100
                135.7753068117,35.0150861056,100
                135.7750085874,35.0150800655,100
                135.7750149092,35.0152417805,100
                135.7746488767,35.0152466725,100
                135.7740616734,35.0152570016,100
                135.7738139662,35.0152614046,100
                135.772858076,35.0153154173,100
                135.772864716,35.0153600811,100
                135.7733391852,35.0153720866,100
                135.7733313291,35.0157625969,100
                135.773333979,35.0157952101,100
                135.7733575577,35.0160861929,100
                135.7733910282,35.0162423948,100
                135.7736215415,35.0162261285,100
                135.7742520978,35.0161659478,100
                135.7742919211,35.0164728777,100
                135.7747877287,35.0164547731,100
                135.7753952626,35.0164326464,100
              </coordinates>
            </LinearRing>
          </outerBoundaryIs>
        </Polygon>
      </Placemark>
    </Document>
  </Document>
</kml>
