<?xml version="1.0" encoding="UTF-8"?>
<kml xmlns="http://www.opengis.net/kml/2.2">
  <Document id="root_doc">
    <Document id="_6_07____________disv4326">
      <name>16_07朱雀第一disv4326</name>
      <Placemark id="_6_07____________disv4326.1">
        <visibility>1</visibility>
        <Polygon>
          <extrude>0</extrude>
          <outerBoundaryIs>
            <LinearRing>
              <coordinates>
                135.7443912071,35.0035676726,100
                135.7439636963,35.0035679023,100
                135.7431511506,35.003568095,100
                135.7426290079,35.0035786139,100
                135.7422059214,35.003587087,100
                135.741524156,35.0035955742,100
                135.7415498681,35.0041582863,100
                135.7415647921,35.00454434,100
                135.7415893319,35.0052628394,100
                135.7416221923,35.0061396809,100
                135.7416261607,35.0062458958,100
                135.7417225952,35.0084904634,100
                135.741727581,35.0085451977,100
                135.7419155497,35.0106108565,100
                135.741931886,35.0109911374,100
                135.7419396039,35.0111710999,100
                135.7419769088,35.0121278831,100
                135.7425855541,35.012399077,100
                135.7425790695,35.0127161789,100
                135.7425758808,35.0131074035,100
                135.7432127046,35.0130681806,100
                135.7438055419,35.0130316791,100
                135.7452721691,35.0129412956,100
                135.7452312683,35.0122493895,100
                135.7452329798,35.0122493226,100
                135.7458183367,35.0122008219,100
                135.7473008385,35.0120782601,100
                135.7473643341,35.0120143019,100
                135.7473475927,35.0119747568,100
                135.7473172047,35.010976364,100
                135.7470290536,35.0109847818,100
                135.7470235195,35.0103687268,100
                135.7470184352,35.0098017622,100
                135.7470040148,35.009041451,100
                135.7469971254,35.0086785861,100
                135.7469966089,35.0086516806,100
                135.7469933146,35.0084771505,100
                135.7461790386,35.0084894024,100
                135.7461706329,35.008175483,100
                135.7461504398,35.0073951566,100
                135.7463864678,35.0073957888,100
                135.7463808264,35.0072680897,100
                135.7463757841,35.0071543362,100
                135.7463740639,35.0071155262,100
                135.7463608465,35.0068627985,100
                135.7468524994,35.0068645255,100
                135.7468834081,35.0068686041,100
                135.7469441839,35.0068677438,100
                135.7469390379,35.006669123,100
                135.7468833985,35.0066699935,100
                135.7468833891,35.0061157164,100
                135.7480360842,35.0061013389,100
                135.7480065963,35.0054863609,100
                135.7479743446,35.0049491313,100
                135.7482623064,35.0049401466,100
                135.748266219,35.0044023583,100
                135.7482688319,35.0040231021,100
                135.7481529587,35.0040242021,100
                135.7480046672,35.0040256571,100
                135.7478604625,35.0040269795,100
                135.7477104153,35.0040285709,100
                135.7477043504,35.0040942693,100
                135.7475255215,35.004096294,100
                135.7475231525,35.0040105069,100
                135.7475117976,35.0035964305,100
                135.7469539833,35.0035938665,100
                135.7467401013,35.0035899009,100
                135.7449457421,35.0035729196,100
                135.7443956151,35.0035676819,100
                135.7443912071,35.0035676726,100
              </coordinates>
            </LinearRing>
          </outerBoundaryIs>
        </Polygon>
      </Placemark>
    </Document>
  </Document>
</kml>
