<?xml version="1.0" encoding="UTF-8"?>
<kml xmlns="http://www.opengis.net/kml/2.2">
  <Document id="root_doc">
    <Document id="_6_03______disv4326">
      <name>16_03龍池disv4326</name>
      <Placemark id="_6_03______disv4326.1">
        <visibility>1</visibility>
        <Polygon>
          <extrude>0</extrude>
          <outerBoundaryIs>
            <LinearRing>
              <coordinates>
                135.7568817226,35.0088064163,100
                135.7568436223,35.0087954949,100
                135.7568467817,35.0087182403,100
                135.7567924931,35.0087181323,100
                135.7567943218,35.0085913633,100
                135.7567567253,35.0085910062,100
                135.7564964984,35.0085883045,100
                135.7564813842,35.0085760197,100
                135.7564766312,35.0086852459,100
                135.7564745885,35.0087321482,100
                135.756305408,35.0087318109,100
                135.7563052605,35.0087816035,100
                135.7561902203,35.0087810922,100
                135.7561895605,35.0089098355,100
                135.7562190132,35.0089722951,100
                135.7562215882,35.0091359772,100
                135.7562241964,35.0093028996,100
                135.7562253098,35.0093746698,100
                135.7562326348,35.009842052,100
                135.7564352478,35.0098478793,100
                135.7564361468,35.0098983794,100
                135.7563384189,35.0098977624,100
                135.7563369681,35.0099391708,100
                135.7562416135,35.0099389805,100
                135.7562305948,35.0100105146,100
                135.7560831059,35.0100116299,100
                135.7560860952,35.0101293225,100
                135.7560837795,35.0104123018,100
                135.7561446853,35.010411367,100
                135.756145433,35.0108376769,100
                135.7561447661,35.0108535222,100
                135.7562950986,35.01085354,100
                135.756291336,35.0109603735,100
                135.7564454214,35.0109943466,100
                135.7564459923,35.0110542824,100
                135.7564466251,35.011122178,100
                135.7562132634,35.0111214301,100
                135.7562000389,35.0112875462,100
                135.7561998505,35.011322197,100
                135.7561994372,35.0113987021,100
                135.7561985224,35.011568133,100
                135.7561979629,35.0116701836,100
                135.7561956268,35.0120983876,100
                135.7561890305,35.0131985471,100
                135.7563579135,35.0132013487,100
                135.756351748,35.0132816965,100
                135.7562791552,35.0132827489,100
                135.7562769401,35.0133585256,100
                135.7562751026,35.0134300778,100
                135.756452414,35.0134264877,100
                135.756460074,35.0135576418,100
                135.7566175427,35.013577183,100
                135.7566454741,35.0135760414,100
                135.7566441583,35.0137606339,100
                135.7567452349,35.0137597085,100
                135.7567422415,35.0138237924,100
                135.7568952204,35.0138207876,100
                135.7568947729,35.0138636076,100
                135.7572339623,35.0138661837,100
                135.757234077,35.0138052634,100
                135.7572553709,35.0138053057,100
                135.7572942651,35.0138017906,100
                135.7572944185,35.0137497439,100
                135.7574312096,35.0137500158,100
                135.7574286498,35.0138050868,100
                135.757425588,35.0138710023,100
                135.7576364875,35.0138787459,100
                135.7576305283,35.0137878096,100
                135.7576279425,35.0137647747,100
                135.7577700152,35.013766254,100
                135.7578849109,35.0137674674,100
                135.7578852943,35.0136371039,100
                135.757902632,35.0136284056,100
                135.7579169469,35.0136288561,100
                135.7582312262,35.0136384234,100
                135.7582292128,35.0137991387,100
                135.7583560465,35.013801292,100
                135.7583553383,35.0138238279,100
                135.7584735113,35.0138240618,100
                135.758466343,35.014057168,100
                135.7585343604,35.0140546262,100
                135.758559019,35.013921493,100
                135.7586415852,35.0139203181,100
                135.758641679,35.0138883435,100
                135.7589622317,35.0138823572,100
                135.7589976391,35.0139516584,100
                135.7591368565,35.0139492574,100
                135.7591370241,35.0138919983,100
                135.7591888335,35.0138921005,100
                135.7591957348,35.0137495656,100
                135.7593946608,35.0137536207,100
                135.7593964826,35.0136869977,100
                135.7594613474,35.0136431778,100
                135.7596473154,35.0136430511,100
                135.7597853712,35.0136428287,100
                135.7597857444,35.0135149301,100
                135.7598974541,35.0135151484,100
                135.7598960639,35.0134339403,100
                135.7600466352,35.0134275442,100
                135.760044288,35.0131606831,100
                135.7598953236,35.0131670834,100
                135.75989772,35.0130791925,100
                135.7598048505,35.0130762637,100
                135.7598090076,35.012986616,100
                135.7599002841,35.012985174,100
                135.7599144223,35.0124665613,100
                135.7599163399,35.0123960655,100
                135.7597395347,35.0123951564,100
                135.7597366259,35.0122846473,100
                135.7597361262,35.0122505591,100
                135.7598129979,35.0122496531,100
                135.7598121921,35.0120564637,100
                135.7598959266,35.0120577543,100
                135.7598946024,35.0120204248,100
                135.7598921102,35.0119504128,100
                135.7598564117,35.0119515409,100
                135.759859419,35.0118667495,100
                135.7598923541,35.0118668139,100
                135.7598873596,35.0116419942,100
                135.7599834726,35.0116399284,100
                135.7599823302,35.011562032,100
                135.7598862207,35.0115629005,100
                135.7598886344,35.0114105663,100
                135.7598353537,35.0113725007,100
                135.7598382908,35.0113047541,100
                135.7598712491,35.0113036213,100
                135.7598743345,35.0111850944,100
                135.7597562629,35.0111881736,100
                135.759762703,35.0109764759,100
                135.7596245142,35.0109652885,100
                135.7596229517,35.0107753383,100
                135.7596156014,35.0098860131,100
                135.759627234,35.0089153101,100
                135.7596292136,35.0087505794,100
                135.7595151899,35.008746411,100
                135.7595154873,35.0086447123,100
                135.7592617237,35.0086494237,100
                135.7592628385,35.0085904766,100
                135.7591241129,35.0085886543,100
                135.7590172284,35.0085871048,100
                135.7590170632,35.0086434479,100
                135.7590159073,35.0090378495,100
                135.759015274,35.009122716,100
                135.758775928,35.0091212571,100
                135.7587778721,35.0090348448,100
                135.7587866449,35.0087798372,100
                135.7584493828,35.008776565,100
                135.7584458423,35.0088888932,100
                135.75840569,35.0088914192,100
                135.758314296,35.0088910271,100
                135.7583185487,35.0088636385,100
                135.7582067658,35.008861727,100
                135.7582085105,35.0088141908,100
                135.7581330318,35.0088153091,100
                135.7581400149,35.0086237554,100
                135.7580420544,35.0086222232,100
                135.7580379547,35.0089248496,100
                135.7575722232,35.0089173763,100
                135.757575126,35.0090217588,100
                135.7572975917,35.0090170518,100
                135.7572964152,35.0089156314,100
                135.7572694272,35.0089168461,100
                135.7570933491,35.0089188203,100
                135.7570900856,35.0090311478,100
                135.7569368049,35.0090305618,100
                135.7568311803,35.0090297172,100
                135.75682852,35.0089379432,100
                135.7568817226,35.0088064163,100
              </coordinates>
            </LinearRing>
          </outerBoundaryIs>
        </Polygon>
      </Placemark>
    </Document>
  </Document>
</kml>
