<?xml version="1.0" encoding="UTF-8"?>
<kml xmlns="http://www.opengis.net/kml/2.2">
  <Document id="root_doc">
    <Document id="_6_06___disv4326">
      <name>16_06乾disv4326</name>
      <Placemark id="_6_06___disv4326.1">
        <visibility>1</visibility>
        <Polygon>
          <extrude>0</extrude>
          <outerBoundaryIs>
            <LinearRing>
              <coordinates>
                135.7493583803,35.0039781547,100
                135.74938024,35.0036155603,100
                135.7493086221,35.003615272,100
                135.7489008642,35.0036085183,100
                135.7478435489,35.0035964112,100
                135.7475117976,35.0035964305,100
                135.7475231525,35.0040105069,100
                135.7475255215,35.004096294,100
                135.7477043504,35.0040942693,100
                135.7477104153,35.0040285709,100
                135.7478604625,35.0040269795,100
                135.7480046672,35.0040256571,100
                135.7481529587,35.0040242021,100
                135.7482688319,35.0040231021,100
                135.748266219,35.0044023583,100
                135.7482623064,35.0049401466,100
                135.7479743446,35.0049491313,100
                135.7480065963,35.0054863609,100
                135.7480360842,35.0061013389,100
                135.7468833891,35.0061157164,100
                135.7468833985,35.0066699935,100
                135.7469390379,35.006669123,100
                135.7469441839,35.0068677438,100
                135.7468834081,35.0068686041,100
                135.7468524994,35.0068645255,100
                135.7463608465,35.0068627985,100
                135.7463740639,35.0071155262,100
                135.7463757841,35.0071543362,100
                135.7463808264,35.0072680897,100
                135.7463864678,35.0073957888,100
                135.7461504398,35.0073951566,100
                135.7461706329,35.008175483,100
                135.7461790386,35.0084894024,100
                135.7469933146,35.0084771505,100
                135.7473743288,35.0084761088,100
                135.7475073464,35.0084757505,100
                135.7475115564,35.0090220066,100
                135.7480007359,35.0090169606,100
                135.7480006298,35.0088768065,100
                135.7483541637,35.0088702806,100
                135.748367575,35.0088514333,100
                135.7483781882,35.0084802943,100
                135.7488760252,35.008491249,100
                135.749140875,35.0085003152,100
                135.7491426842,35.0087001965,100
                135.7491608376,35.0087262222,100
                135.7492774034,35.0087244196,100
                135.7492798221,35.0088296451,100
                135.7494118539,35.008829916,100
                135.7494100609,35.0087513135,100
                135.7496649438,35.0087517663,100
                135.7496645053,35.0087838106,100
                135.7499567195,35.0087803947,100
                135.7499572924,35.0088244845,100
                135.7500598194,35.0088512456,100
                135.7504480289,35.0088487292,100
                135.7507888604,35.0088465374,100
                135.7508137368,35.0088357426,100
                135.7508078396,35.0087550183,100
                135.7509794011,35.0087534666,100
                135.7511094427,35.0087537316,100
                135.7511092587,35.008814582,100
                135.7515793386,35.0088129331,100
                135.7518543186,35.0088129996,100
                135.7518803406,35.0088127701,100
                135.7518671103,35.0085444786,100
                135.7518618869,35.0084388953,100
                135.7518583569,35.0083820518,100
                135.7517642498,35.0083796773,100
                135.7517597662,35.0082133145,100
                135.7517358639,35.0073265634,100
                135.7517663355,35.0064392177,100
                135.7517760595,35.0061556979,100
                135.7517770338,35.0061273075,100
                135.7517821452,35.0059370893,100
                135.7517850836,35.0058281407,100
                135.7518029364,35.0051657201,100
                135.7518086931,35.004952613,100
                135.7517080009,35.004957409,100
                135.7517027843,35.0047286443,100
                135.7515746532,35.0047283839,100
                135.7515768482,35.0046538044,100
                135.7513896438,35.0046371546,100
                135.7513756918,35.0041904637,100
                135.7513711453,35.0040450182,100
                135.7510893886,35.004013174,100
                135.7510857476,35.0039154109,100
                135.7509847534,35.0039070354,100
                135.7509923407,35.0040227665,100
                135.7509937046,35.004047805,100
                135.7509906414,35.0040477987,100
                135.7509905658,35.0040477982,100
                135.7509890299,35.0040477771,100
                135.750987369,35.0040477598,100
                135.7507811336,35.0040453178,100
                135.7507112949,35.0040444913,100
                135.7507111711,35.0040431546,100
                135.7507110108,35.0040413514,100
                135.7507108928,35.0040400504,100
                135.7507106127,35.0040369548,100
                135.7507104974,35.0040356753,100
                135.7507103347,35.004033879,100
                135.7507102734,35.0040332021,100
                135.7507102341,35.0040327695,100
                135.7507092493,35.0040261973,100
                135.7507079542,35.0040175566,100
                135.7507071807,35.004012395,100
                135.7507053605,35.0039635139,100
                135.7506300781,35.0039649802,100
                135.7505687717,35.0039371759,100
                135.7505670254,35.0038637851,100
                135.7504311828,35.0038596342,100
                135.7504169405,35.0039271467,100
                135.7502345244,35.0039267745,100
                135.7502331978,35.0039267682,100
                135.7502310085,35.0039267442,100
                135.7502210676,35.0039266134,100
                135.750207102,35.0039264287,100
                135.7501929612,35.0039262425,100
                135.7501832537,35.0039261142,100
                135.7501724582,35.003925972,100
                135.750168645,35.0040040927,100
                135.7501017258,35.0040053832,100
                135.7500444953,35.0040097032,100
                135.7500450285,35.0040314108,100
                135.7500003064,35.0040313193,100
                135.7500008011,35.0040617617,100
                135.7497175949,35.0040618961,100
                135.7497175405,35.004079785,100
                135.7496988774,35.0040793826,100
                135.7493866596,35.0040724332,100
                135.7493598082,35.0040716595,100
                135.7493583803,35.0039781547,100
              </coordinates>
            </LinearRing>
          </outerBoundaryIs>
        </Polygon>
      </Placemark>
    </Document>
  </Document>
</kml>
