<?xml version="1.0" encoding="UTF-8"?>
<kml xmlns="http://www.opengis.net/kml/2.2">
  <Document id="root_doc">
    <Document id="_6_08____________disv4326">
      <name>16_08朱雀第三disv4326</name>
      <Placemark id="_6_08____________disv4326.1">
        <visibility>1</visibility>
        <Polygon>
          <extrude>0</extrude>
          <outerBoundaryIs>
            <LinearRing>
              <coordinates>
                135.7415735467,34.9987718428,100
                135.7412027201,34.9987642952,100
                135.7411373356,34.9987629594,100
                135.7410248156,34.9987613116,100
                135.7407510127,34.9987572083,100
                135.7407531848,34.9980297073,100
                135.7407532013,34.9980243651,100
                135.7407111386,34.9980242091,100
                135.7405023686,34.9980251648,100
                135.7401559968,34.9980267498,100
                135.7401449333,34.9980268,100
                135.7399361626,34.9980277541,100
                135.7395702346,34.9980294256,100
                135.7395098605,34.9980297011,100
                135.739497826,34.9980297447,100
                135.7394978465,34.9980335402,100
                135.7394984343,34.9981381849,100
                135.7394990071,34.9982397792,100
                135.739499191,34.9982726139,100
                135.7394997791,34.9983771678,100
                135.7395006265,34.9985278556,100
                135.7395008641,34.9985700564,100
                135.7395016983,34.9987184861,100
                135.7395006877,34.9987314412,100
                135.7393407347,34.9987281438,100
                135.7390560254,34.9987222525,100
                135.7390483092,34.9989498631,100
                135.73904595,34.9990193012,100
                135.7390441221,34.9994961022,100
                135.739042799,34.9998404276,100
                135.7390448007,34.9999513578,100
                135.73904609,35.0004307021,100
                135.739046311,35.0005160621,100
                135.7390471813,35.0008432074,100
                135.7390479234,35.001123095,100
                135.7390496886,35.001153383,100
                135.7390551898,35.0012474881,100
                135.7390694631,35.0015111351,100
                135.7390036759,35.0015147267,100
                135.7390028392,35.0015289516,100
                135.7388856514,35.0015272222,100
                135.7388825611,35.0016719472,100
                135.7389553217,35.0016758355,100
                135.7390679825,35.0016819223,100
                135.7391000393,35.001687414,100
                135.7390876489,35.0018909277,100
                135.7390816446,35.0019897979,100
                135.7391030885,35.0020972477,100
                135.7391688704,35.0024270678,100
                135.7391669541,35.0024917875,100
                135.7391467365,35.0031746962,100
                135.7391401738,35.0035992282,100
                135.7393553468,35.0036010268,100
                135.7403287801,35.0036090204,100
                135.7406971787,35.0036120584,100
                135.741524156,35.0035955742,100
                135.7422059214,35.003587087,100
                135.7426290079,35.0035786139,100
                135.7431511506,35.003568095,100
                135.7439636963,35.0035679023,100
                135.7443912071,35.0035676726,100
                135.7443956151,35.0035676819,100
                135.7449457421,35.0035729196,100
                135.7467401013,35.0035899009,100
                135.7469539833,35.0035938665,100
                135.7475117976,35.0035964305,100
                135.7478435489,35.0035964112,100
                135.7478584422,35.0030370934,100
                135.7476101984,35.0030401019,100
                135.7476295333,35.0024426911,100
                135.7463970614,35.0024461218,100
                135.7464023635,35.0022875267,100
                135.7465208319,35.0022913644,100
                135.7465213425,35.0021254348,100
                135.7465055808,35.0021068626,100
                135.7464091971,35.0019932876,100
                135.7464115082,35.0018679982,100
                135.7464108764,35.0018229222,100
                135.7462191555,35.0018225233,100
                135.746219225,35.001799986,100
                135.7462193291,35.0017661802,100
                135.7464110499,35.0017665791,100
                135.7464135272,35.0016319335,100
                135.7464136115,35.0016273472,100
                135.7464143154,35.0015891042,100
                135.7464239766,35.0015884567,100
                135.7464252654,35.0015883699,100
                135.7464249952,35.0015060656,100
                135.7464249546,35.001493741,100
                135.7464248899,35.0014740063,100
                135.7464247703,35.0014376327,100
                135.746424648,35.0014003753,100
                135.7464245203,35.0013613485,100
                135.7464243681,35.0013149798,100
                135.7464241518,35.0012482471,100
                135.7464241537,35.0012477657,100
                135.7464242866,35.0012357875,100
                135.7464233752,35.0012357758,100
                135.7464105874,35.0012356129,100
                135.7455413013,35.0012341533,100
                135.7455338077,35.0009583369,100
                135.7461700314,35.0009568505,100
                135.7464577525,35.000956177,100
                135.746476911,35.0010230537,100
                135.7473848906,35.0010200869,100
                135.7474129881,35.0010199954,100
                135.74751178,35.0010196361,100
                135.7475063621,35.0002813143,100
                135.7475047766,35.0000658685,100
                135.7482375879,35.0000630837,100
                135.7482350312,34.9987928165,100
                135.7480529568,34.9988034276,100
                135.7464272385,34.9988083026,100
                135.7460651795,34.9988024079,100
                135.7444299813,34.9987849062,100
                135.7438249115,34.9988088497,100
                135.7436353315,34.9988241571,100
                135.7431477883,34.998829188,100
                135.7426788839,34.998806296,100
                135.7419344456,34.9987791577,100
                135.7415735467,34.9987718428,100
              </coordinates>
            </LinearRing>
          </outerBoundaryIs>
        </Polygon>
      </Placemark>
    </Document>
  </Document>
</kml>
