<?xml version="1.0" encoding="UTF-8"?>
<kml xmlns="http://www.opengis.net/kml/2.2">
  <Document id="root_doc">
    <Document id="_6_05______disv4326">
      <name>16_05本能disv4326</name>
      <Placemark id="_6_05______disv4326.1">
        <visibility>1</visibility>
        <Polygon>
          <extrude>0</extrude>
          <outerBoundaryIs>
            <LinearRing>
              <coordinates>
                135.7523633758,35.0038079965,100
                135.7522963571,35.0038078607,100
                135.7523006237,35.0036490515,100
                135.7523030059,35.0035611607,100
                135.7520338979,35.0035641359,100
                135.7519104502,35.0035655063,100
                135.7518924508,35.0036591395,100
                135.7518163197,35.0040553611,100
                135.7515077188,35.0040481835,100
                135.7513711453,35.0040450182,100
                135.7513756918,35.0041904637,100
                135.7513896438,35.0046371546,100
                135.7515768482,35.0046538044,100
                135.7515746532,35.0047283839,100
                135.7517027843,35.0047286443,100
                135.7517080009,35.004957409,100
                135.7518086931,35.004952613,100
                135.7518029364,35.0051657201,100
                135.7517850836,35.0058281407,100
                135.7517821452,35.0059370893,100
                135.7517770338,35.0061273075,100
                135.7517760595,35.0061556979,100
                135.7517663355,35.0064392177,100
                135.7517358639,35.0073265634,100
                135.7517597662,35.0082133145,100
                135.7517642498,35.0083796773,100
                135.7518583569,35.0083820518,100
                135.7518618869,35.0084388953,100
                135.7518671103,35.0085444786,100
                135.7518803406,35.0088127701,100
                135.7518543186,35.0088129996,100
                135.7518553559,35.0088730772,100
                135.7518832842,35.0088722893,100
                135.7529344124,35.0088431488,100
                135.7532189928,35.0088454143,100
                135.7532172875,35.0087223717,100
                135.7533728175,35.0087214887,100
                135.7534478653,35.0087211473,100
                135.7534545537,35.008567413,100
                135.7537152388,35.008566812,100
                135.7538006863,35.0085665617,100
                135.7538003512,35.0086785434,100
                135.7538364292,35.0086786161,100
                135.7538363711,35.0086980547,100
                135.7539714046,35.008696566,100
                135.7539712104,35.0087615016,100
                135.754021044,35.0087632923,100
                135.7540184708,35.0089436564,100
                135.7541221678,35.0089451322,100
                135.7541265676,35.0088046354,100
                135.7542835034,35.0088065707,100
                135.7543211625,35.0088360157,100
                135.7543209428,35.0089096132,100
                135.7544937886,35.0089083411,100
                135.7547920478,35.0089159837,100
                135.7548125126,35.0089283499,100
                135.7549683191,35.0089286628,100
                135.7549685452,35.0088527394,100
                135.7551154176,35.0088493722,100
                135.755114457,35.0088054224,100
                135.7551917661,35.0088000135,100
                135.7551727424,35.0087997635,100
                135.7551687983,35.0085143772,100
                135.7551676921,35.0084335216,100
                135.7552988923,35.0084321645,100
                135.7553168464,35.0082738052,100
                135.7556060107,35.008274384,100
                135.7556176627,35.0081770747,100
                135.7558101646,35.0081563303,100
                135.7558102641,35.0081225949,100
                135.7561034218,35.0081181096,100
                135.756103026,35.0080783873,100
                135.7561020766,35.0079799952,100
                135.7561007946,35.0078494169,100
                135.7560993966,35.0077079218,100
                135.7556390138,35.0077028471,100
                135.7555553912,35.0077019045,100
                135.7555566673,35.0076754967,100
                135.7553863001,35.0076721971,100
                135.755389107,35.0075270487,100
                135.7553271321,35.00752791,100
                135.7553261684,35.0074562112,100
                135.7552737363,35.0074581492,100
                135.7552704319,35.0073678523,100
                135.7552560045,35.0073404264,100
                135.7553042364,35.007340523,100
                135.7553086858,35.0072043213,100
                135.7553290139,35.0072045733,100
                135.755340321,35.0070073941,100
                135.7554868833,35.007006702,100
                135.7554854839,35.0067069524,100
                135.7554849644,35.0065939824,100
                135.7554844177,35.0064753086,100
                135.7552953434,35.0064597878,100
                135.7552863602,35.0061634036,100
                135.7551976754,35.0061450547,100
                135.7551988195,35.0060697687,100
                135.7552777128,35.0060709127,100
                135.7552778488,35.0060252039,100
                135.7553901304,35.0059878904,100
                135.7553918505,35.00582654,100
                135.7554597127,35.005809491,100
                135.7554611197,35.0057464597,100
                135.7557356493,35.005743347,100
                135.7557282697,35.005461333,100
                135.7556227126,35.0054683063,100
                135.7556154656,35.0052855983,100
                135.7555707046,35.0052844524,100
                135.7554733922,35.0052821443,100
                135.7554560545,35.0052260479,100
                135.7553684726,35.0052258726,100
                135.755368673,35.0051584728,100
                135.7552985844,35.0051616426,100
                135.7552907726,35.004953508,100
                135.7552895628,35.0049211786,100
                135.7553771615,35.0049229744,100
                135.75547204,35.0049235158,100
                135.7554774464,35.0047097739,100
                135.7555010704,35.0047098211,100
                135.7555982166,35.0047100155,100
                135.7555996234,35.0046542383,100
                135.7556011736,35.0045933905,100
                135.755610461,35.0045934091,100
                135.7556589487,35.004593506,100
                135.7556565023,35.0045308197,100
                135.7555916244,35.0045306899,100
                135.7555782331,35.0044861519,100
                135.7555780064,35.0042239427,100
                135.7556101667,35.0042240071,100
                135.7558070484,35.0042244006,100
                135.7558074845,35.0040774866,100
                135.7556289559,35.004079313,100
                135.7556288982,35.0040987509,100
                135.7555779063,35.0040989312,100
                135.7555778934,35.0040848315,100
                135.7555778827,35.0040747106,100
                135.7554736816,35.0040703391,100
                135.7554735939,35.0040651932,100
                135.7554735546,35.004062907,100
                135.7554735151,35.0040605403,100
                135.7554731655,35.0040401652,100
                135.7554718138,35.0039612548,100
                135.7554236086,35.0039611583,100
                135.755423555,35.0039791881,100
                135.7553195364,35.0039783549,100
                135.7552734649,35.0039779859,100
                135.7552757927,35.0039254228,100
                135.7552737534,35.0036824372,100
                135.7552375914,35.0036824358,100
                135.7551264295,35.0036825647,100
                135.7551112463,35.0038090962,100
                135.7548393675,35.0038008739,100
                135.7548414024,35.003900395,100
                135.7547032113,35.0038946941,100
                135.7547126271,35.0040440951,100
                135.7547550628,35.0040436576,100
                135.7547570583,35.0041094706,100
                135.7547580261,35.0041273538,100
                135.7546281467,35.0041317492,100
                135.7544422298,35.0041352494,100
                135.7544423121,35.0044389261,100
                135.7542591765,35.0044408063,100
                135.7541642582,35.0044417813,100
                135.7541226423,35.0044413278,100
                135.7541142553,35.0043312284,100
                135.7540979292,35.0041165272,100
                135.7540307867,35.0041134209,100
                135.7539403628,35.0041132389,100
                135.7539409262,35.0040688404,100
                135.7539409914,35.004063658,100
                135.7539401456,35.0039228853,100
                135.7539394737,35.0038382814,100
                135.7538725165,35.0038374571,100
                135.7538108056,35.0038366979,100
                135.7537953041,35.0038365072,100
                135.7536765462,35.0038350455,100
                135.7536757277,35.0038350341,100
                135.7536356339,35.0038344086,100
                135.7536202545,35.0038830079,100
                135.7534427175,35.0038826499,100
                135.7534407452,35.0039194809,100
                135.7532666192,35.0039165231,100
                135.7532633172,35.0041324526,100
                135.7530827888,35.0041347386,100
                135.7530829263,35.0040888974,100
                135.7530843148,35.0040237451,100
                135.7530609888,35.0040238959,100
                135.7529419491,35.0040228773,100
                135.7529362329,35.0040223149,100
                135.7529362153,35.0039435343,100
                135.7528819311,35.0039434246,100
                135.7528818972,35.0039546932,100
                135.7526888476,35.0039534669,100
                135.7526705126,35.0039533505,100
                135.7525587118,35.0039517855,100
                135.7525609719,35.0040260929,100
                135.7525653581,35.0043321167,100
                135.7524626689,35.0043319088,100
                135.7524158613,35.0043285038,100
                135.7524203634,35.0038632581,100
                135.7523651792,35.0038631463,100
                135.7523633758,35.0038079965,100
              </coordinates>
            </LinearRing>
          </outerBoundaryIs>
        </Polygon>
      </Placemark>
    </Document>
  </Document>
</kml>
