<?xml version="1.0" encoding="UTF-8"?>
<kml xmlns="http://www.opengis.net/kml/2.2">
  <Document id="root_doc">
    <Document id="_6_01______disv4326">
      <name>16_01教業disv4326</name>
      <Placemark id="_6_01______disv4326.1">
        <visibility>1</visibility>
        <Polygon>
          <extrude>0</extrude>
          <outerBoundaryIs>
            <LinearRing>
              <coordinates>
                135.7480006298,35.0088768065,100
                135.7480007359,35.0090169606,100
                135.7475115564,35.0090220066,100
                135.7475073464,35.0084757505,100
                135.7473743288,35.0084761088,100
                135.7469933146,35.0084771505,100
                135.7469966089,35.0086516806,100
                135.7469971254,35.0086785861,100
                135.7470040148,35.009041451,100
                135.7470184352,35.0098017622,100
                135.7470235195,35.0103687268,100
                135.7470290536,35.0109847818,100
                135.7473172047,35.010976364,100
                135.7473475927,35.0119747568,100
                135.7473643341,35.0120143019,100
                135.7473008385,35.0120782601,100
                135.7458183367,35.0122008219,100
                135.7452329798,35.0122493226,100
                135.7452312683,35.0122493895,100
                135.7452721691,35.0129412956,100
                135.7452886404,35.0132481871,100
                135.7453726186,35.0146760216,100
                135.7454628229,35.0160428078,100
                135.747353775,35.0159524409,100
                135.7477199331,35.0159351691,100
                135.7488990049,35.0158892887,100
                135.750512558,35.0158218184,100
                135.7512953962,35.0157953864,100
                135.7519812568,35.0157653012,100
                135.7519625181,35.015044142,100
                135.7519601209,35.0148946871,100
                135.7519573658,35.0147225539,100
                135.7519450427,35.0139530226,100
                135.751944124,35.0138954104,100
                135.7519370264,35.0134520462,100
                135.7519177108,35.0122474613,100
                135.7519093856,35.0117283135,100
                135.7519001877,35.0111019687,100
                135.7518972561,35.0109031413,100
                135.7518709435,35.009771574,100
                135.7518553559,35.0088730772,100
                135.7518543186,35.0088129996,100
                135.7515793386,35.0088129331,100
                135.7511092587,35.008814582,100
                135.7511094427,35.0087537316,100
                135.7509794011,35.0087534666,100
                135.7508078396,35.0087550183,100
                135.7508137368,35.0088357426,100
                135.7507888604,35.0088465374,100
                135.7504480289,35.0088487292,100
                135.7500598194,35.0088512456,100
                135.7499572924,35.0088244845,100
                135.7499567195,35.0087803947,100
                135.7496645053,35.0087838106,100
                135.7496649438,35.0087517663,100
                135.7494100609,35.0087513135,100
                135.7494118539,35.008829916,100
                135.7492798221,35.0088296451,100
                135.7492774034,35.0087244196,100
                135.7491608376,35.0087262222,100
                135.7491426842,35.0087001965,100
                135.749140875,35.0085003152,100
                135.7488760252,35.008491249,100
                135.7483781882,35.0084802943,100
                135.748367575,35.0088514333,100
                135.7483541637,35.0088702806,100
                135.7480006298,35.0088768065,100
              </coordinates>
            </LinearRing>
          </outerBoundaryIs>
        </Polygon>
      </Placemark>
    </Document>
  </Document>
</kml>
