<?xml version="1.0" encoding="UTF-8"?>
<kml xmlns="http://www.opengis.net/kml/2.2">
  <Document id="root_doc">
    <Document id="_6_09____________disv4326">
      <name>16_09朱雀第七disv4326</name>
      <Placemark id="_6_09____________disv4326.1">
        <visibility>1</visibility>
        <Polygon>
          <extrude>0</extrude>
          <outerBoundaryIs>
            <LinearRing>
              <coordinates>
                135.7360466957,34.9976963128,100
                135.7360922633,34.9975913317,100
                135.7362473926,34.9972486069,100
                135.7362759007,34.9962401228,100
                135.7358268453,34.9962510535,100
                135.7358269623,34.9962611954,100
                135.7347062981,34.9962593265,100
                135.7338846881,34.9962579638,100
                135.7334453192,34.9962572882,100
                135.7331315297,34.9962616748,100
                135.7330392547,34.9962597832,100
                135.7330147495,34.9967124485,100
                135.7330086515,34.9968249099,100
                135.7330019617,34.9969485693,100
                135.7329933599,34.9971077198,100
                135.732971754,34.9971065457,100
                135.7329502421,34.9978843182,100
                135.7330163351,34.9978844625,100
                135.7330152173,34.997918556,100
                135.733001076,34.9983498603,100
                135.7330008131,34.9983578793,100
                135.7329921048,34.9986234924,100
                135.7330478968,34.9986263604,100
                135.7330417333,34.9988587629,100
                135.7328514101,34.998857995,100
                135.7328515885,34.9990218838,100
                135.7328519176,34.9993698047,100
                135.7328075244,34.9993682985,100
                135.7328037541,34.9995548569,100
                135.7328830004,34.9995576359,100
                135.7328812616,34.9999234407,100
                135.7329252349,34.9999229734,100
                135.7329922306,34.9999223456,100
                135.7329889702,34.9999513547,100
                135.7329547787,34.9999509988,100
                135.732943123,35.0005851864,100
                135.7330434482,35.0005806164,100
                135.7330552932,35.0008818679,100
                135.7330585365,35.0009642066,100
                135.7330584686,35.0012037356,100
                135.7330761503,35.0012014501,100
                135.7330794998,35.0013105515,100
                135.7331014049,35.0013589841,100
                135.7330914065,35.001552783,100
                135.733054851,35.0020924009,100
                135.733053997,35.0021050768,100
                135.733037236,35.0022862535,100
                135.7330266414,35.0024125801,100
                135.733025595,35.0024251851,100
                135.7329985334,35.0027478318,100
                135.732959996,35.0032249746,100
                135.7329121989,35.003362418,100
                135.7328894874,35.0035631609,100
                135.7336296524,35.0035677355,100
                135.7353087242,35.0035834324,100
                135.7361069621,35.0035878391,100
                135.7365872947,35.003590498,100
                135.7374552277,35.0035808907,100
                135.7376076937,35.0035791766,100
                135.7384116028,35.0035897082,100
                135.7391401738,35.0035992282,100
                135.7391467365,35.0031746962,100
                135.7391669541,35.0024917875,100
                135.7391688704,35.0024270678,100
                135.7391030885,35.0020972477,100
                135.7390816446,35.0019897979,100
                135.7390876489,35.0018909277,100
                135.7391000393,35.001687414,100
                135.7390679825,35.0016819223,100
                135.7389553217,35.0016758355,100
                135.7388825611,35.0016719472,100
                135.7388856514,35.0015272222,100
                135.7390028392,35.0015289516,100
                135.7390036759,35.0015147267,100
                135.7390694631,35.0015111351,100
                135.7390551898,35.0012474881,100
                135.7390496886,35.001153383,100
                135.7390479234,35.001123095,100
                135.7390471813,35.0008432074,100
                135.739046311,35.0005160621,100
                135.73904609,35.0004307021,100
                135.7390448007,34.9999513578,100
                135.739042799,34.9998404276,100
                135.7390441221,34.9994961022,100
                135.73904595,34.9990193012,100
                135.7390483092,34.9989498631,100
                135.7390560254,34.9987222525,100
                135.7382451722,34.9987155141,100
                135.7378079605,34.9987118979,100
                135.7374509144,34.9987111296,100
                135.7371633434,34.9987105101,100
                135.7368483846,34.9987098311,100
                135.7363303295,34.998708712,100
                135.7361348448,34.9982539508,100
                135.7360466957,34.9976963128,100
              </coordinates>
            </LinearRing>
          </outerBoundaryIs>
        </Polygon>
      </Placemark>
    </Document>
  </Document>
</kml>
