<?xml version="1.0" encoding="UTF-8"?>
<kml xmlns="http://www.opengis.net/kml/2.2">
  <Document id="root_doc">
    <Document id="_6_04______disv4326">
      <name>16_04明倫disv4326</name>
      <Placemark id="_6_04______disv4326.1">
        <visibility>1</visibility>
        <Polygon>
          <extrude>0</extrude>
          <outerBoundaryIs>
            <LinearRing>
              <coordinates>
                135.7573869956,35.0041573295,100
                135.7573359674,35.004155763,100
                135.757336831,35.0042137841,100
                135.7572842355,35.004216384,100
                135.7572808365,35.0042542402,100
                135.7572304378,35.0042550419,100
                135.7572297401,35.0041525004,100
                135.7571515965,35.0041501008,100
                135.7570621487,35.0041517537,100
                135.757002659,35.0041529031,100
                135.7569742504,35.0041210132,100
                135.7568440078,35.0041190638,100
                135.7568277379,35.003940282,100
                135.7567463748,35.0039216676,100
                135.7567446957,35.0038094,100
                135.7566619742,35.0038080375,100
                135.7564977354,35.0038041895,100
                135.7564711386,35.0038043847,100
                135.7564694325,35.0038492078,100
                135.7564679455,35.0038748984,100
                135.7563906905,35.0038751125,100
                135.7563901274,35.0038861781,100
                135.756360947,35.0038858702,100
                135.7563456727,35.0038857082,100
                135.7563455538,35.0038915002,100
                135.7563448583,35.0039253976,100
                135.7563398043,35.0039254302,100
                135.7562888957,35.0039257612,100
                135.7562890896,35.0039320776,100
                135.7562848154,35.0039320738,100
                135.756284798,35.0039379455,100
                135.7562847939,35.003939326,100
                135.7562846928,35.0039736959,100
                135.7562846931,35.0039737294,100
                135.7562851758,35.0039968807,100
                135.7562243705,35.003996114,100
                135.756224175,35.0040032391,100
                135.7562219141,35.0040853562,100
                135.7562130617,35.004085228,100
                135.7562072007,35.0040852225,100
                135.7561995556,35.0040852147,100
                135.7561931664,35.0040852088,100
                135.7561922997,35.004085208,100
                135.7561907451,35.0040852065,100
                135.7561906742,35.004085206,100
                135.7561902529,35.0040851993,100
                135.756186465,35.0040851298,100
                135.7561837175,35.004085079,100
                135.7561817149,35.0040850424,100
                135.7561815912,35.0040850398,100
                135.7561785529,35.0040849843,100
                135.756178496,35.0040849832,100
                135.7561784646,35.0040849825,100
                135.7561724095,35.0040848272,100
                135.7561695109,35.004084753,100
                135.756164565,35.0040846262,100
                135.7561613168,35.0040845431,100
                135.7561573478,35.0040844413,100
                135.7561548565,35.0040843778,100
                135.7561101147,35.0040832321,100
                135.7561075518,35.0040831665,100
                135.7561075681,35.0040851339,100
                135.7560455244,35.0040859056,100
                135.7560446526,35.0040684159,100
                135.7560444906,35.0040651692,100
                135.7560446153,35.0040231073,100
                135.7557664223,35.0040234689,100
                135.7556807681,35.0040235807,100
                135.7556281564,35.0040236486,100
                135.7555866639,35.0040236997,100
                135.7555865366,35.0040664624,100
                135.7555778789,35.0040723787,100
                135.7555778827,35.0040747106,100
                135.7555778934,35.0040848315,100
                135.7555779063,35.0040989312,100
                135.7556288982,35.0040987509,100
                135.7556289559,35.004079313,100
                135.7558074845,35.0040774866,100
                135.7558070484,35.0042244006,100
                135.7556101667,35.0042240071,100
                135.7555780064,35.0042239427,100
                135.7555782331,35.0044861519,100
                135.7555916244,35.0045306899,100
                135.7556565023,35.0045308197,100
                135.7556589487,35.004593506,100
                135.755610461,35.0045934091,100
                135.7556011736,35.0045933905,100
                135.7555996234,35.0046542383,100
                135.7555982166,35.0047100155,100
                135.7555010704,35.0047098211,100
                135.7554774464,35.0047097739,100
                135.75547204,35.0049235158,100
                135.7553771615,35.0049229744,100
                135.7552895628,35.0049211786,100
                135.7552907726,35.004953508,100
                135.7552985844,35.0051616426,100
                135.755368673,35.0051584728,100
                135.7553684726,35.0052258726,100
                135.7554560545,35.0052260479,100
                135.7554733922,35.0052821443,100
                135.7555707046,35.0052844524,100
                135.7556154656,35.0052855983,100
                135.7556227126,35.0054683063,100
                135.7557282697,35.005461333,100
                135.7557356493,35.005743347,100
                135.7554611197,35.0057464597,100
                135.7554597127,35.005809491,100
                135.7553918505,35.00582654,100
                135.7553901304,35.0059878904,100
                135.7552778488,35.0060252039,100
                135.7552777128,35.0060709127,100
                135.7551988195,35.0060697687,100
                135.7551976754,35.0061450547,100
                135.7552863602,35.0061634036,100
                135.7552953434,35.0064597878,100
                135.7554844177,35.0064753086,100
                135.7554849644,35.0065939824,100
                135.7554854839,35.0067069524,100
                135.7554868833,35.007006702,100
                135.755340321,35.0070073941,100
                135.7553290139,35.0072045733,100
                135.7553086858,35.0072043213,100
                135.7553042364,35.007340523,100
                135.7552560045,35.0073404264,100
                135.7552704319,35.0073678523,100
                135.7552737363,35.0074581492,100
                135.7553261684,35.0074562112,100
                135.7553271321,35.00752791,100
                135.755389107,35.0075270487,100
                135.7553863001,35.0076721971,100
                135.7555566673,35.0076754967,100
                135.7555553912,35.0077019045,100
                135.7556390138,35.0077028471,100
                135.7560993966,35.0077079218,100
                135.7561007946,35.0078494169,100
                135.7561020766,35.0079799952,100
                135.756103026,35.0080783873,100
                135.7561034218,35.0081181096,100
                135.7558102641,35.0081225949,100
                135.7558101646,35.0081563303,100
                135.7556176627,35.0081770747,100
                135.7556060107,35.008274384,100
                135.7553168464,35.0082738052,100
                135.7552988923,35.0084321645,100
                135.7551676921,35.0084335216,100
                135.7551687983,35.0085143772,100
                135.7551727424,35.0087997635,100
                135.7551917661,35.0088000135,100
                135.7551901853,35.0087845153,100
                135.755345971,35.0087848274,100
                135.7553533209,35.0089322513,100
                135.7554801779,35.0089314488,100
                135.7555136506,35.0089084847,100
                135.7558951169,35.0089138254,100
                135.7558934857,35.0088361387,100
                135.7559474539,35.0088367396,100
                135.7559932672,35.0089094436,100
                135.7561895605,35.0089098355,100
                135.7561902203,35.0087810922,100
                135.7563052605,35.0087816035,100
                135.756305408,35.0087318109,100
                135.7564745885,35.0087321482,100
                135.7564766312,35.0086852459,100
                135.7564813842,35.0085760197,100
                135.7564964984,35.0085883045,100
                135.7567567253,35.0085910062,100
                135.7567943218,35.0085913633,100
                135.7567924931,35.0087181323,100
                135.7568467817,35.0087182403,100
                135.7568436223,35.0087954949,100
                135.7568817226,35.0088064163,100
                135.75682852,35.0089379432,100
                135.7568311803,35.0090297172,100
                135.7569368049,35.0090305618,100
                135.7570900856,35.0090311478,100
                135.7570933491,35.0089188203,100
                135.7572694272,35.0089168461,100
                135.7572964152,35.0089156314,100
                135.7572975917,35.0090170518,100
                135.757575126,35.0090217588,100
                135.7575722232,35.0089173763,100
                135.7580379547,35.0089248496,100
                135.7580420544,35.0086222232,100
                135.7581400149,35.0086237554,100
                135.7581330318,35.0088153091,100
                135.7582085105,35.0088141908,100
                135.7582067658,35.008861727,100
                135.7583185487,35.0088636385,100
                135.758314296,35.0088910271,100
                135.75840569,35.0088914192,100
                135.7584458423,35.0088888932,100
                135.7584493828,35.008776565,100
                135.7587866449,35.0087798372,100
                135.7587778721,35.0090348448,100
                135.758775928,35.0091212571,100
                135.759015274,35.009122716,100
                135.7590159073,35.0090378495,100
                135.7590170632,35.0086434479,100
                135.7590172284,35.0085871048,100
                135.7591241129,35.0085886543,100
                135.7592628385,35.0085904766,100
                135.7596151495,35.0085912407,100
                135.7596154487,35.0084889082,100
                135.7597480793,35.0084891684,100
                135.7597442789,35.0083766144,100
                135.7598872708,35.0083751336,100
                135.7598894674,35.0083342185,100
                135.7600718323,35.008332885,100
                135.7600716601,35.0082085776,100
                135.7604094368,35.0082109281,100
                135.7604058629,35.0080198466,100
                135.7602234807,35.0080195607,100
                135.7602264753,35.007873214,100
                135.7599798759,35.0078727317,100
                135.7599803291,35.0077175064,100
                135.7597429216,35.00769873,100
                135.7597435896,35.0074701179,100
                135.7597539702,35.0071103156,100
                135.7599959587,35.0071134652,100
                135.760011421,35.0067797311,100
                135.7603470172,35.0067785569,100
                135.7603476435,35.0065638897,100
                135.7600299199,35.0065632683,100
                135.7600207553,35.0061476466,100
                135.7599171879,35.0061470922,100
                135.7599176677,35.0059974315,100
                135.7601121414,35.0059956278,100
                135.7601084307,35.005822365,100
                135.7602362645,35.0058225447,100
                135.7602366732,35.005711971,100
                135.7602376143,35.005447441,100
                135.7602378403,35.005384618,100
                135.7597674665,35.005391585,100
                135.7597726317,35.0049859224,100
                135.759866053,35.0049866689,100
                135.7598745324,35.0045892535,100
                135.7603202198,35.0045929432,100
                135.7603588422,35.0045932999,100
                135.7603517826,35.0043797445,100
                135.7596678683,35.00437749,100
                135.7589331683,35.0043628724,100
                135.7589314572,35.0044716823,100
                135.758744589,35.0044713136,100
                135.7587446926,35.0044360293,100
                135.7587450496,35.0043143282,100
                135.7586614859,35.0043158535,100
                135.7586625604,35.0041830254,100
                135.758663332,35.0040880178,100
                135.7583190949,35.0040905774,100
                135.7583174224,35.0039825355,100
                135.7582338592,35.0039839902,100
                135.7582379642,35.0039414595,100
                135.758099003,35.0039425926,100
                135.7580962847,35.0040738675,100
                135.7576843741,35.0040665726,100
                135.757385343,35.0040647112,100
                135.7573869956,35.0041573295,100
              </coordinates>
            </LinearRing>
          </outerBoundaryIs>
        </Polygon>
      </Placemark>
    </Document>
  </Document>
</kml>
