<?xml version="1.0" encoding="UTF-8"?>
<kml xmlns="http://www.opengis.net/kml/2.2">
  <Document id="root_doc">
    <Document id="_6_02______disv4326">
      <name>16_02城巽disv4326</name>
      <Placemark id="_6_02______disv4326.1">
        <visibility>1</visibility>
        <Polygon>
          <extrude>0</extrude>
          <outerBoundaryIs>
            <LinearRing>
              <coordinates>
                135.754021044,35.0087632923,100
                135.7539712104,35.0087615016,100
                135.7539714046,35.008696566,100
                135.7538363711,35.0086980547,100
                135.7538364292,35.0086786161,100
                135.7538003512,35.0086785434,100
                135.7538006863,35.0085665617,100
                135.7537152388,35.008566812,100
                135.7534545537,35.008567413,100
                135.7534478653,35.0087211473,100
                135.7533728175,35.0087214887,100
                135.7532172875,35.0087223717,100
                135.7532189928,35.0088454143,100
                135.7529344124,35.0088431488,100
                135.7518832842,35.0088722893,100
                135.7518553559,35.0088730772,100
                135.7518709435,35.009771574,100
                135.7518972561,35.0109031413,100
                135.7519001877,35.0111019687,100
                135.7519093856,35.0117283135,100
                135.7519177108,35.0122474613,100
                135.7519370264,35.0134520462,100
                135.751944124,35.0138954104,100
                135.7523196951,35.0138902566,100
                135.752322959,35.0139435785,100
                135.7524589993,35.0139371632,100
                135.7524764585,35.0142020112,100
                135.7528055399,35.0141999315,100
                135.7528077859,35.0140290057,100
                135.7530014164,35.0140296789,100
                135.7530041009,35.013940381,100
                135.7529443476,35.0139417386,100
                135.7529446657,35.0138356028,100
                135.7530265935,35.013836364,100
                135.7530264878,35.0138240772,100
                135.7530649413,35.01382376,100
                135.7530832325,35.0137641872,100
                135.753156912,35.0137648292,100
                135.7531561783,35.0137170769,100
                135.7532713751,35.0137173099,100
                135.7532733202,35.0136466026,100
                135.7534393884,35.0136463043,100
                135.7536269161,35.0136472464,100
                135.7536318143,35.0138986172,100
                135.7538079008,35.0138974941,100
                135.7538697493,35.0138970554,100
                135.7538693707,35.0138590225,100
                135.7541516748,35.0138549431,100
                135.7542097879,35.0138371008,100
                135.7542110148,35.0138060441,100
                135.7543971709,35.013807757,100
                135.7544009376,35.0139443269,100
                135.7545679144,35.0139407188,100
                135.7545745824,35.0138644571,100
                135.7546745877,35.0138640242,100
                135.7546763901,35.013804938,100
                135.754697599,35.0138047693,100
                135.7549178552,35.0138033812,100
                135.7549170697,35.0136002619,100
                135.7551221037,35.0135934896,100
                135.7551826802,35.0136393201,100
                135.7551898289,35.0139414748,100
                135.7553912989,35.0139392724,100
                135.7553913303,35.0139142707,100
                135.7555283182,35.0139132064,100
                135.755530263,35.0138131313,100
                135.7557607082,35.0138109158,100
                135.7558281325,35.013900566,100
                135.7559586658,35.0139034335,100
                135.7559863587,35.013802071,100
                135.7560973868,35.0137796143,100
                135.7562959258,35.0137767717,100
                135.7563138517,35.0137144772,100
                135.7563605717,35.0137132329,100
                135.7563696602,35.0136144385,100
                135.756460074,35.0135576418,100
                135.756452414,35.0134264877,100
                135.7562751026,35.0134300778,100
                135.7562769401,35.0133585256,100
                135.7562791552,35.0132827489,100
                135.756351748,35.0132816965,100
                135.7563579135,35.0132013487,100
                135.7561890305,35.0131985471,100
                135.7561956268,35.0120983876,100
                135.7561979629,35.0116701836,100
                135.7561985224,35.011568133,100
                135.7561994372,35.0113987021,100
                135.7561998505,35.011322197,100
                135.7562000389,35.0112875462,100
                135.7562132634,35.0111214301,100
                135.7564466251,35.011122178,100
                135.7564459923,35.0110542824,100
                135.7564454214,35.0109943466,100
                135.756291336,35.0109603735,100
                135.7562950986,35.01085354,100
                135.7561447661,35.0108535222,100
                135.756145433,35.0108376769,100
                135.7561446853,35.010411367,100
                135.7560837795,35.0104123018,100
                135.7560860952,35.0101293225,100
                135.7560831059,35.0100116299,100
                135.7562305948,35.0100105146,100
                135.7562416135,35.0099389805,100
                135.7563369681,35.0099391708,100
                135.7563384189,35.0098977624,100
                135.7564361468,35.0098983794,100
                135.7564352478,35.0098478793,100
                135.7562326348,35.009842052,100
                135.7562253098,35.0093746698,100
                135.7562241964,35.0093028996,100
                135.7562215882,35.0091359772,100
                135.7562190132,35.0089722951,100
                135.7561895605,35.0089098355,100
                135.7559932672,35.0089094436,100
                135.7559474539,35.0088367396,100
                135.7558934857,35.0088361387,100
                135.7558951169,35.0089138254,100
                135.7555136506,35.0089084847,100
                135.7554801779,35.0089314488,100
                135.7553533209,35.0089322513,100
                135.755345971,35.0087848274,100
                135.7551901853,35.0087845153,100
                135.7551917661,35.0088000135,100
                135.755114457,35.0088054224,100
                135.7551154176,35.0088493722,100
                135.7549685452,35.0088527394,100
                135.7549683191,35.0089286628,100
                135.7548125126,35.0089283499,100
                135.7547920478,35.0089159837,100
                135.7544937886,35.0089083411,100
                135.7543209428,35.0089096132,100
                135.7543211625,35.0088360157,100
                135.7542835034,35.0088065707,100
                135.7541265676,35.0088046354,100
                135.7541221678,35.0089451322,100
                135.7540184708,35.0089436564,100
                135.754021044,35.0087632923,100
              </coordinates>
            </LinearRing>
          </outerBoundaryIs>
        </Polygon>
      </Placemark>
    </Document>
  </Document>
</kml>
