<?xml version="1.0" encoding="UTF-8"?>
<kml xmlns="http://www.opengis.net/kml/2.2">
  <Document id="root_doc">
    <Document id="_6_19______disv4326">
      <name>16_19柳池disv4326</name>
      <Placemark id="_6_19______disv4326.1">
        <visibility>1</visibility>
        <Polygon>
          <extrude>0</extrude>
          <outerBoundaryIs>
            <LinearRing>
              <coordinates>
                135.7654223597,35.0089174401,100
                135.7653325935,35.0089164937,100
                135.7652874174,35.0088948566,100
                135.7649901942,35.0088981614,100
                135.7649888372,35.0088413225,100
                135.7647770723,35.0088409168,100
                135.7647768434,35.0089209937,100
                135.764617523,35.0089222382,100
                135.7646147713,35.009076472,100
                135.7644944116,35.0090724385,100
                135.7644857335,35.0089792436,100
                135.7643667256,35.0089816914,100
                135.7643694087,35.008859714,100
                135.7642176046,35.0088587175,100
                135.7641065278,35.0088490671,100
                135.7639908232,35.0088488446,100
                135.7639949701,35.0090145723,100
                135.7636008802,35.0090006429,100
                135.7636030201,35.0092389792,100
                135.763274169,35.0092345427,100
                135.7632704753,35.0094177921,100
                135.763604654,35.0094223099,100
                135.7636068387,35.0096674074,100
                135.7636815797,35.0096700862,100
                135.7636811267,35.0098277761,100
                135.7636558727,35.0098285022,100
                135.7636573116,35.0099905623,100
                135.7636002567,35.009992425,100
                135.7636048209,35.0106305209,100
                135.7637478847,35.0106277684,100
                135.763745728,35.010753057,100
                135.7637463463,35.0108060209,100
                135.7637507224,35.0111821919,100
                135.7636686332,35.0111820339,100
                135.7636682012,35.0113323989,100
                135.7634761211,35.011330973,100
                135.7634742643,35.0114480926,100
                135.7635336315,35.0114469392,100
                135.7635342639,35.0114765664,100
                135.7635402509,35.0117569424,100
                135.76354546,35.0120008855,100
                135.7636014951,35.0120045153,100
                135.7636234962,35.0122204918,100
                135.7636652564,35.0122249397,100
                135.7636736324,35.0123336979,100
                135.7637310699,35.0123338084,100
                135.7637342788,35.0124238222,100
                135.7635637426,35.0124307483,100
                135.763562098,35.0124895537,100
                135.7635536629,35.0130576867,100
                135.7635522852,35.0131498056,100
                135.7635491528,35.0133615084,100
                135.7635420718,35.0134948165,100
                135.7636156417,35.0134967188,100
                135.7636118397,35.0136583458,100
                135.7637928044,35.013657356,100
                135.7637927683,35.0136699621,100
                135.7639132773,35.0136692076,100
                135.7641143388,35.0136678328,100
                135.7641149344,35.0138801429,100
                135.7641959641,35.0138802108,100
                135.7641958077,35.0139072695,100
                135.7642923203,35.0139074898,100
                135.7642922096,35.0139815246,100
                135.7644375967,35.0139809463,100
                135.7649815632,35.0139711405,100
                135.7649796727,35.014018958,100
                135.7652888701,35.0140127352,100
                135.7652880487,35.0139834168,100
                135.7654204835,35.0139838786,100
                135.7654200349,35.013938833,100
                135.7655839121,35.0139425828,100
                135.7655877396,35.0138036909,100
                135.7655892694,35.0136421305,100
                135.7656384284,35.0136411681,100
                135.7657877054,35.0136381424,100
                135.7657867231,35.0138936554,100
                135.7661183604,35.0138963995,100
                135.7664777673,35.01390159,100
                135.7664743555,35.0136479704,100
                135.7665778879,35.013649082,100
                135.7665784694,35.0138974146,100
                135.7668523676,35.0138998363,100
                135.7669512843,35.013898897,100
                135.7669696334,35.0137669479,100
                135.766961643,35.0136409364,100
                135.7672198599,35.0136414256,100
                135.767215511,35.0135441548,100
                135.7672099342,35.0133215194,100
                135.7672536801,35.0133048402,100
                135.7672344532,35.0121468864,100
                135.7672308142,35.0119274244,100
                135.7675279151,35.0119255214,100
                135.7675448317,35.0121195848,100
                135.7685134639,35.0120808468,100
                135.7689355724,35.0120603015,100
                135.7689338353,35.0110385883,100
                135.7689328546,35.0108539929,100
                135.7686354682,35.010851883,100
                135.7685635877,35.0108514658,100
                135.7685551545,35.0104031,100
                135.7686282173,35.010401477,100
                135.7686324647,35.0100398326,100
                135.7684983024,35.0100275358,100
                135.7685002156,35.0098874568,100
                135.7685028881,35.0096906125,100
                135.7685645807,35.0096757984,100
                135.7685684123,35.0095997424,100
                135.7685575898,35.0094983043,100
                135.7685154951,35.0094990696,100
                135.7685114833,35.0093430619,100
                135.7681006556,35.0093366522,100
                135.7681053774,35.0089745865,100
                135.7675499054,35.0089792399,100
                135.7675238476,35.0089617946,100
                135.7675124052,35.0088156334,100
                135.7673023705,35.0088014307,100
                135.7673022391,35.0088479141,100
                135.7671778183,35.0088498615,100
                135.7671767825,35.0088302098,100
                135.767176901,35.0087883042,100
                135.7670801107,35.0086452911,100
                135.7670356394,35.0086466852,100
                135.7669088184,35.0086506701,100
                135.7668986574,35.0089668066,100
                135.7667945122,35.0089647077,100
                135.7667951538,35.0089950638,100
                135.7666797913,35.0089948445,100
                135.7666757626,35.0088684867,100
                135.7664133222,35.0088766508,100
                135.7664085912,35.0089147433,100
                135.7660765136,35.008924323,100
                135.7654223597,35.0089174401,100
              </coordinates>
            </LinearRing>
          </outerBoundaryIs>
        </Polygon>
      </Placemark>
    </Document>
  </Document>
</kml>
