<?xml version="1.0" encoding="UTF-8"?>
<kml xmlns="http://www.opengis.net/kml/2.2">
  <Document id="root_doc">
    <Document id="_6_12____________disv4326">
      <name>16_12朱雀第八disv4326</name>
      <Placemark id="_6_12____________disv4326.1">
        <visibility>1</visibility>
        <Polygon>
          <extrude>0</extrude>
          <outerBoundaryIs>
            <LinearRing>
              <coordinates>
                135.7241707621,35.0086185899,100
                135.7241165893,35.0089552578,100
                135.7241192407,35.0092959266,100
                135.7241302826,35.0095274505,100
                135.724136692,35.0096613906,100
                135.7241369628,35.0096670552,100
                135.7241247983,35.0096675234,100
                135.7240578298,35.0096701015,100
                135.7241002326,35.0097684603,100
                135.724116505,35.009817177,100
                135.724135671,35.0098362221,100
                135.7241438565,35.0099296287,100
                135.7241102278,35.010080129,100
                135.7241056088,35.0102070315,100
                135.7241787078,35.0102205778,100
                135.7242044578,35.0102253553,100
                135.7241968486,35.0105304344,100
                135.7241921822,35.0106142339,100
                135.7241371671,35.0106261527,100
                135.7241552728,35.0106768319,100
                135.7241685176,35.0108120848,100
                135.7241729802,35.0108794252,100
                135.7242168977,35.0110060842,100
                135.7242291066,35.0115098174,100
                135.7242170053,35.0117889674,100
                135.7242170687,35.0119814466,100
                135.7241903104,35.0122342224,100
                135.7241839225,35.0125905034,100
                135.7242059814,35.0129315654,100
                135.7241487859,35.0130382746,100
                135.7241729385,35.0131817205,100
                135.7242553372,35.0133720624,100
                135.7242056348,35.0135355545,100
                135.7241792149,35.013596767,100
                135.7242074943,35.0136392985,100
                135.7242530405,35.0137077167,100
                135.7242541519,35.0150234536,100
                135.7242209574,35.0150239419,100
                135.7241249906,35.0150254858,100
                135.7241239141,35.0150656972,100
                135.7241580149,35.0153905175,100
                135.7241886691,35.0159071052,100
                135.7250155275,35.0159160985,100
                135.7251085776,35.0159171101,100
                135.7255294446,35.0159216852,100
                135.7255528366,35.0161535157,100
                135.7255641974,35.0165282884,100
                135.7255786839,35.0170058935,100
                135.7255854699,35.0173020578,100
                135.7255954601,35.0176900678,100
                135.725598949,35.0178252973,100
                135.725599251,35.0178372707,100
                135.7255999632,35.0180806008,100
                135.725597772,35.0181408822,100
                135.7255844241,35.0185062327,100
                135.7255761096,35.0188705371,100
                135.7255950359,35.0192033522,100
                135.7255858647,35.0195740641,100
                135.7255628027,35.0198100866,100
                135.7255331974,35.0200887727,100
                135.7255379812,35.0202919667,100
                135.7255411902,35.0204276177,100
                135.7255514924,35.0205994147,100
                135.7255769232,35.0210754221,100
                135.7258119065,35.0210801771,100
                135.726487187,35.0210893747,100
                135.7269162726,35.0210930855,100
                135.7269707903,35.0215257039,100
                135.7269578739,35.0216715307,100
                135.7269437166,35.0223035176,100
                135.7273556702,35.022305428,100
                135.7274775611,35.0223372528,100
                135.7276229675,35.0223387055,100
                135.7281982138,35.0223440775,100
                135.7290064009,35.0223516558,100
                135.7291343205,35.0223529273,100
                135.7293567125,35.0223479286,100
                135.7296066969,35.0224132079,100
                135.7298640226,35.0224200479,100
                135.7298626977,35.0224652596,100
                135.7306491384,35.0224869358,100
                135.7316771282,35.0225291411,100
                135.7316870273,35.0224200697,100
                135.7320948837,35.0224254066,100
                135.7320857445,35.0223529155,100
                135.7320576824,35.0223535582,100
                135.7320614841,35.0222636307,100
                135.7323454569,35.0222568611,100
                135.7323547572,35.022378721,100
                135.7324204242,35.0223713303,100
                135.732944509,35.0223398743,100
                135.732914745,35.0222117006,100
                135.7328723773,35.0219573622,100
                135.732846286,35.0216127017,100
                135.7328446532,35.0214688838,100
                135.7328244243,35.0211257146,100
                135.7328178801,35.0210711893,100
                135.7327288035,35.0208459058,100
                135.7327211308,35.0207497551,100
                135.7328165263,35.0205893183,100
                135.7328761277,35.0204579611,100
                135.7329102763,35.0203083759,100
                135.7329189552,35.0202720548,100
                135.7330347683,35.0196472595,100
                135.733077401,35.0192566179,100
                135.7330880959,35.0191988897,100
                135.7331002288,35.0191337003,100
                135.7331997181,35.0185994381,100
                135.7332279213,35.018415049,100
                135.7332131898,35.0182648632,100
                135.7329402753,35.0178147918,100
                135.7329383799,35.0178116893,100
                135.7326036442,35.0172740098,100
                135.7325611146,35.0171038317,100
                135.7323833889,35.0163928915,100
                135.7323063542,35.0162841917,100
                135.7321785782,35.0161486182,100
                135.7320503218,35.0162277087,100
                135.731842272,35.0162301383,100
                135.731846553,35.0158804717,100
                135.7318505073,35.0155591165,100
                135.7318524253,35.0154822843,100
                135.7318625796,35.015077133,100
                135.7318937244,35.0135122154,100
                135.7319151468,35.0122653311,100
                135.7319220865,35.0118613699,100
                135.7319177698,35.0109557886,100
                135.7319095447,35.0098233443,100
                135.731908887,35.0096832592,100
                135.7319029176,35.008423203,100
                135.7308461315,35.0084116495,100
                135.7300256277,35.0084026535,100
                135.7292988371,35.0083862524,100
                135.7288099846,35.0083752369,100
                135.7285726636,35.0083568196,100
                135.7282442265,35.0083312976,100
                135.7278746106,35.008333714,100
                135.7271212957,35.0083396371,100
                135.7256832678,35.0083397223,100
                135.7254602886,35.0083397137,100
                135.7247656874,35.008334275,100
                135.7244061713,35.0083312096,100
                135.7241063949,35.008329053,100
                135.7241707621,35.0086185899,100
              </coordinates>
            </LinearRing>
          </outerBoundaryIs>
        </Polygon>
      </Placemark>
    </Document>
  </Document>
</kml>
