<?xml version="1.0" encoding="UTF-8"?>
<kml xmlns="http://www.opengis.net/kml/2.2">
  <Document id="root_doc">
    <Document id="_6_10____________disv4326">
      <name>16_10朱雀第五disv4326</name>
      <Placemark id="_6_10____________disv4326.1">
        <visibility>1</visibility>
        <Polygon>
          <extrude>0</extrude>
          <outerBoundaryIs>
            <LinearRing>
              <coordinates>
                135.7353087242,35.0035834324,100
                135.7336296524,35.0035677355,100
                135.7328894874,35.0035631609,100
                135.7328267454,35.0036768369,100
                135.7328152134,35.0038418269,100
                135.7328509437,35.0038432434,100
                135.7328506364,35.0038454258,100
                135.7329362129,35.0038635723,100
                135.7329551806,35.0038676283,100
                135.7329511565,35.0041197561,100
                135.7329378866,35.004120501,100
                135.7329379443,35.0041292349,100
                135.732877488,35.0041313564,100
                135.7328689271,35.0042308533,100
                135.732838108,35.0042326172,100
                135.7328340416,35.004305643,100
                135.7328322915,35.0043373325,100
                135.7328311565,35.004357684,100
                135.7328577428,35.0044077465,100
                135.7328398055,35.0049397003,100
                135.732833673,35.0051215621,100
                135.7328333181,35.005132056,100
                135.7328382906,35.005337535,100
                135.7328403396,35.0054222388,100
                135.7328404716,35.0054281545,100
                135.7328522503,35.0059874566,100
                135.7328522895,35.0059885836,100
                135.7328581232,35.0061300882,100
                135.7328593734,35.0061603759,100
                135.7328629896,35.006160665,100
                135.7328841047,35.0061621203,100
                135.7328882023,35.0063045367,100
                135.7328925303,35.006455334,100
                135.7328952026,35.0065487991,100
                135.7328952072,35.0065606312,100
                135.732896357,35.006833617,100
                135.7328731181,35.0068335661,100
                135.7328716202,35.0068335628,100
                135.7328717023,35.0068611002,100
                135.7328725947,35.007167609,100
                135.7328559671,35.0071677844,100
                135.7328196099,35.0071681274,100
                135.7328228002,35.0073857599,100
                135.7329810867,35.0073796967,100
                135.7329822154,35.0074277323,100
                135.7330481673,35.0074278766,100
                135.7331273424,35.0074280498,100
                135.73313205,35.0077728803,100
                135.7333183971,35.0077780763,100
                135.7333118463,35.0079049046,100
                135.7332102365,35.0079072184,100
                135.7331953445,35.0080124772,100
                135.7335068674,35.0080142848,100
                135.7334989516,35.0084582518,100
                135.7336239531,35.0084624688,100
                135.7344697699,35.0084654393,100
                135.7345828843,35.0084729396,100
                135.7352273282,35.0084773692,100
                135.7358669904,35.0084774198,100
                135.7360692345,35.0084774354,100
                135.7363082691,35.008475769,100
                135.7370972971,35.0084828265,100
                135.7371756928,35.0090509352,100
                135.7371956474,35.009195569,100
                135.7372478248,35.0096776982,100
                135.7373873901,35.0096787034,100
                135.737577669,35.0096800993,100
                135.7376032445,35.010325425,100
                135.737605818,35.0104450889,100
                135.7376152311,35.0108831781,100
                135.737617132,35.0109718517,100
                135.7383659098,35.0109857868,100
                135.7388576908,35.0109878283,100
                135.7392787992,35.0108105441,100
                135.7392885315,35.0110042068,100
                135.7405608121,35.0115594763,100
                135.7414528583,35.0119247836,100
                135.7419769088,35.0121278831,100
                135.7419396039,35.0111710999,100
                135.741931886,35.0109911374,100
                135.7419155497,35.0106108565,100
                135.741727581,35.0085451977,100
                135.7417225952,35.0084904634,100
                135.7416261607,35.0062458958,100
                135.7416221923,35.0061396809,100
                135.7415893319,35.0052628394,100
                135.7415647921,35.00454434,100
                135.7415498681,35.0041582863,100
                135.741524156,35.0035955742,100
                135.7406971787,35.0036120584,100
                135.7403287801,35.0036090204,100
                135.7393553468,35.0036010268,100
                135.7391401738,35.0035992282,100
                135.7384116028,35.0035897082,100
                135.7376076937,35.0035791766,100
                135.7374552277,35.0035808907,100
                135.7365872947,35.003590498,100
                135.7361069621,35.0035878391,100
                135.7353087242,35.0035834324,100
              </coordinates>
            </LinearRing>
          </outerBoundaryIs>
        </Polygon>
      </Placemark>
    </Document>
  </Document>
</kml>
