<?xml version="1.0" encoding="UTF-8"?>
<kml xmlns="http://www.opengis.net/kml/2.2">
  <Document id="root_doc">
    <Document id="_6_16______disv4326">
      <name>16_16竹間disv4326</name>
      <Placemark id="_6_16______disv4326.1">
        <visibility>1</visibility>
        <Polygon>
          <extrude>0</extrude>
          <outerBoundaryIs>
            <LinearRing>
              <coordinates>
                135.7582292128,35.0137991387,100
                135.7582312262,35.0136384234,100
                135.7579169469,35.0136288561,100
                135.757902632,35.0136284056,100
                135.7578852943,35.0136371039,100
                135.7578849109,35.0137674674,100
                135.7577700152,35.013766254,100
                135.757772663,35.0139280349,100
                135.7577939382,35.0139269502,100
                135.7577677598,35.0140382461,100
                135.7577644165,35.01419262,100
                135.7575232327,35.0141927755,100
                135.7575096227,35.0141925366,100
                135.7574963263,35.0143762597,100
                135.7576196353,35.0143765046,100
                135.7576126942,35.0147718093,100
                135.7577072552,35.0147743916,100
                135.7577068867,35.014899614,100
                135.7576901935,35.0148998624,100
                135.7576029541,35.0148960978,100
                135.7575928987,35.0150186943,100
                135.7575903765,35.0153990277,100
                135.7575897947,35.0154867047,100
                135.7575858568,35.0160802579,100
                135.7576915052,35.0160830037,100
                135.7576920901,35.0162333708,100
                135.757664649,35.0162350064,100
                135.7576542838,35.0163685193,100
                135.7576479864,35.0164428799,100
                135.7575788858,35.0164419673,100
                135.7575787115,35.0164502776,100
                135.7575751007,35.0166297242,100
                135.7572357259,35.0166358104,100
                135.7572353345,35.0167685678,100
                135.757417203,35.0167681555,100
                135.7575840729,35.0167660927,100
                135.757585662,35.0168442011,100
                135.7575852574,35.0169454773,100
                135.7575850792,35.0169912558,100
                135.7577580645,35.0169915995,100
                135.7579575218,35.0169921364,100
                135.7579565515,35.0172345519,100
                135.7576297794,35.017233691,100
                135.7575886724,35.0172318486,100
                135.7575859215,35.0173884069,100
                135.7575917854,35.0173884185,100
                135.7576291552,35.0173875772,100
                135.758331913,35.0173712239,100
                135.7583446783,35.0176158493,100
                135.7584151969,35.0176152149,100
                135.758431165,35.0177163821,100
                135.7584571794,35.0177123488,100
                135.7590719204,35.0177022963,100
                135.759069748,35.0173548653,100
                135.7593854,35.0173824629,100
                135.7596351481,35.0173842941,100
                135.7605939798,35.0173913038,100
                135.7610733435,35.0173947696,100
                135.7621143352,35.0174024191,100
                135.7626484846,35.0174062668,100
                135.762646477,35.0173305524,100
                135.7626907358,35.0173306377,100
                135.76269283,35.0172351396,100
                135.7627492441,35.0172277828,100
                135.7627402053,35.0164946708,100
                135.7626658569,35.0164945275,100
                135.7626660675,35.0164362838,100
                135.7626663055,35.016368531,100
                135.7626214705,35.0163683037,100
                135.76261715,35.0162263107,100
                135.7625730206,35.0162265783,100
                135.7625734322,35.0160986097,100
                135.7626524491,35.0160450947,100
                135.7627557958,35.0160374763,100
                135.7627641183,35.0153102439,100
                135.7627687415,35.0150942467,100
                135.7626342121,35.015065957,100
                135.7626361232,35.0149077069,100
                135.762640441,35.014671567,100
                135.762769594,35.0146718162,100
                135.7627709074,35.0139554854,100
                135.7627342685,35.0139263985,100
                135.7625466373,35.0139304733,100
                135.7625468566,35.0138544105,100
                135.7623864053,35.0138586079,100
                135.7623835417,35.0139088886,100
                135.7621932315,35.0139073938,100
                135.7621930704,35.0139555664,100
                135.7620258473,35.0139552428,100
                135.7620260824,35.0139775693,100
                135.7619696968,35.0139909126,100
                135.7619009353,35.0139914127,100
                135.7619011018,35.0139338027,100
                135.7618434237,35.0139348178,100
                135.7615750495,35.0139386637,100
                135.7615765172,35.013897607,100
                135.7614093256,35.0138936197,100
                135.7613373125,35.0138936912,100
                135.7613342324,35.0140189087,100
                135.7612664178,35.0140249747,100
                135.7612623382,35.0138746008,100
                135.7609295516,35.0138774045,100
                135.7609280987,35.0138913472,100
                135.7607151677,35.0138898061,100
                135.7606530435,35.0139187014,100
                135.7606499191,35.0140288469,100
                135.760549975,35.0140228766,100
                135.7605575606,35.0138944287,100
                135.7604292497,35.0138918545,100
                135.760416674,35.0138523897,100
                135.7599513204,35.0138595817,100
                135.7599498165,35.0138909192,100
                135.7598571143,35.0138889774,100
                135.7596461826,35.0138846209,100
                135.7596473154,35.0136430511,100
                135.7594613474,35.0136431778,100
                135.7593964826,35.0136869977,100
                135.7593946608,35.0137536207,100
                135.7591957348,35.0137495656,100
                135.7591888335,35.0138921005,100
                135.7591370241,35.0138919983,100
                135.7591368565,35.0139492574,100
                135.7589976391,35.0139516584,100
                135.7589622317,35.0138823572,100
                135.758641679,35.0138883435,100
                135.7586415852,35.0139203181,100
                135.758559019,35.013921493,100
                135.7585343604,35.0140546262,100
                135.758466343,35.014057168,100
                135.7584735113,35.0138240618,100
                135.7583553383,35.0138238279,100
                135.7583560465,35.013801292,100
                135.7582292128,35.0137991387,100
              </coordinates>
            </LinearRing>
          </outerBoundaryIs>
        </Polygon>
      </Placemark>
    </Document>
  </Document>
</kml>
