<?xml version="1.0" encoding="UTF-8"?>
<kml xmlns="http://www.opengis.net/kml/2.2">
  <Document id="root_doc">
    <Document id="_6_15______disv4326">
      <name>16_15梅屋disv4326</name>
      <Placemark id="_6_15______disv4326.1">
        <visibility>1</visibility>
        <Polygon>
          <extrude>0</extrude>
          <outerBoundaryIs>
            <LinearRing>
              <coordinates>
                135.7546763901,35.013804938,100
                135.7546745877,35.0138640242,100
                135.7545745824,35.0138644571,100
                135.7545679144,35.0139407188,100
                135.7544009376,35.0139443269,100
                135.7543971709,35.013807757,100
                135.7542110148,35.0138060441,100
                135.7542097879,35.0138371008,100
                135.7541516748,35.0138549431,100
                135.7538693707,35.0138590225,100
                135.7538697493,35.0138970554,100
                135.7538079008,35.0138974941,100
                135.7536318143,35.0138986172,100
                135.7536269161,35.0136472464,100
                135.7534393884,35.0136463043,100
                135.7532733202,35.0136466026,100
                135.7532713751,35.0137173099,100
                135.7531561783,35.0137170769,100
                135.753156912,35.0137648292,100
                135.7530832325,35.0137641872,100
                135.7530649413,35.01382376,100
                135.7530264878,35.0138240772,100
                135.7530265935,35.013836364,100
                135.7529446657,35.0138356028,100
                135.7529443476,35.0139417386,100
                135.7530041009,35.013940381,100
                135.7530014164,35.0140296789,100
                135.7528077859,35.0140290057,100
                135.7528055399,35.0141999315,100
                135.7524764585,35.0142020112,100
                135.7524589993,35.0139371632,100
                135.752322959,35.0139435785,100
                135.7523196951,35.0138902566,100
                135.751944124,35.0138954104,100
                135.7519450427,35.0139530226,100
                135.7519573658,35.0147225539,100
                135.7519601209,35.0148946871,100
                135.7519625181,35.015044142,100
                135.7519812568,35.0157653012,100
                135.751984558,35.0160337832,100
                135.7519917401,35.0163707294,100
                135.752003964,35.016789101,100
                135.7520029653,35.0171210301,100
                135.7520026453,35.017227377,100
                135.7520022669,35.0173531621,100
                135.7520044909,35.0178232092,100
                135.7521820879,35.0178275144,100
                135.7524124568,35.0178331237,100
                135.7524110444,35.0178117105,100
                135.7525666589,35.0178099834,100
                135.7525856219,35.0178097407,100
                135.7525841016,35.0179098165,100
                135.7529395846,35.0179147637,100
                135.7529332741,35.0177495952,100
                135.7529454588,35.0176900365,100
                135.7530166447,35.0176814476,100
                135.7530164913,35.0176112303,100
                135.7530897173,35.0175998277,100
                135.7530969715,35.0173643987,100
                135.7534031691,35.017368258,100
                135.7537943493,35.0173732044,100
                135.7537889657,35.0177278729,100
                135.7538827489,35.0177339788,100
                135.7538792673,35.0177030535,100
                135.7540661599,35.0176976549,100
                135.7540651547,35.0175542596,100
                135.7543533522,35.0175447693,100
                135.7543582414,35.0175841489,100
                135.7544670664,35.0175771843,100
                135.7544830878,35.0177020172,100
                135.7545132066,35.0176996123,100
                135.7546206678,35.0176983501,100
                135.7546265824,35.0175803226,100
                135.7547703375,35.017579485,100
                135.7547796662,35.0174580144,100
                135.7548433206,35.0174556768,100
                135.7548402354,35.0173635501,100
                135.7550119549,35.0173647398,100
                135.7550087383,35.017654971,100
                135.7556091326,35.0176544856,100
                135.7556104338,35.0182182721,100
                135.7561792812,35.0182194815,100
                135.7561739815,35.0179929713,100
                135.7565300023,35.0179974161,100
                135.7565188128,35.0173809992,100
                135.7567675461,35.0173853692,100
                135.756781658,35.0175709073,100
                135.7568336806,35.0175724896,100
                135.756840018,35.0176438468,100
                135.7568680689,35.0176386915,100
                135.7570522381,35.0176422984,100
                135.7570385275,35.0173858384,100
                135.7572132153,35.0173897084,100
                135.7575859215,35.0173884069,100
                135.7575886724,35.0172318486,100
                135.7576297794,35.017233691,100
                135.7579565515,35.0172345519,100
                135.7579575218,35.0169921364,100
                135.7577580645,35.0169915995,100
                135.7575850792,35.0169912558,100
                135.7575852574,35.0169454773,100
                135.757585662,35.0168442011,100
                135.7575840729,35.0167660927,100
                135.757417203,35.0167681555,100
                135.7572353345,35.0167685678,100
                135.7572357259,35.0166358104,100
                135.7575751007,35.0166297242,100
                135.7575787115,35.0164502776,100
                135.7575788858,35.0164419673,100
                135.7576479864,35.0164428799,100
                135.7576542838,35.0163685193,100
                135.757664649,35.0162350064,100
                135.7576920901,35.0162333708,100
                135.7576915052,35.0160830037,100
                135.7575858568,35.0160802579,100
                135.7575897947,35.0154867047,100
                135.7575903765,35.0153990277,100
                135.7575928987,35.0150186943,100
                135.7576029541,35.0148960978,100
                135.7576901935,35.0148998624,100
                135.7577068867,35.014899614,100
                135.7577072552,35.0147743916,100
                135.7576126942,35.0147718093,100
                135.7576196353,35.0143765046,100
                135.7574963263,35.0143762597,100
                135.7575096227,35.0141925366,100
                135.7575232327,35.0141927755,100
                135.7577644165,35.01419262,100
                135.7577677598,35.0140382461,100
                135.7577939382,35.0139269502,100
                135.757772663,35.0139280349,100
                135.7577700152,35.013766254,100
                135.7576279425,35.0137647747,100
                135.7576305283,35.0137878096,100
                135.7576364875,35.0138787459,100
                135.757425588,35.0138710023,100
                135.7574286498,35.0138050868,100
                135.7574312096,35.0137500158,100
                135.7572944185,35.0137497439,100
                135.7572942651,35.0138017906,100
                135.7572553709,35.0138053057,100
                135.757234077,35.0138052634,100
                135.7572339623,35.0138661837,100
                135.7568947729,35.0138636076,100
                135.7568952204,35.0138207876,100
                135.7567422415,35.0138237924,100
                135.7567452349,35.0137597085,100
                135.7566441583,35.0137606339,100
                135.7566454741,35.0135760414,100
                135.7566175427,35.013577183,100
                135.756460074,35.0135576418,100
                135.7563696602,35.0136144385,100
                135.7563605717,35.0137132329,100
                135.7563138517,35.0137144772,100
                135.7562959258,35.0137767717,100
                135.7560973868,35.0137796143,100
                135.7559863587,35.013802071,100
                135.7559586658,35.0139034335,100
                135.7558281325,35.013900566,100
                135.7557607082,35.0138109158,100
                135.755530263,35.0138131313,100
                135.7555283182,35.0139132064,100
                135.7553913303,35.0139142707,100
                135.7553912989,35.0139392724,100
                135.7551898289,35.0139414748,100
                135.7551826802,35.0136393201,100
                135.7551221037,35.0135934896,100
                135.7549170697,35.0136002619,100
                135.7549178552,35.0138033812,100
                135.754697599,35.0138047693,100
                135.7546763901,35.013804938,100
              </coordinates>
            </LinearRing>
          </outerBoundaryIs>
        </Polygon>
      </Placemark>
    </Document>
  </Document>
</kml>
