<?xml version="1.0" encoding="UTF-8"?>
<kml xmlns="http://www.opengis.net/kml/2.2">
  <Document id="root_doc">
    <Document id="_6_17______disv4326">
      <name>16_17富有disv4326</name>
      <Placemark id="_6_17______disv4326.1">
        <visibility>1</visibility>
        <Polygon>
          <extrude>0</extrude>
          <outerBoundaryIs>
            <LinearRing>
              <coordinates>
                135.7652880487,35.0139834168,100
                135.7652888701,35.0140127352,100
                135.7649796727,35.014018958,100
                135.7649815632,35.0139711405,100
                135.7644375967,35.0139809463,100
                135.7642922096,35.0139815246,100
                135.7642923203,35.0139074898,100
                135.7641958077,35.0139072695,100
                135.7641959641,35.0138802108,100
                135.7641149344,35.0138801429,100
                135.7641143388,35.0136678328,100
                135.7639132773,35.0136692076,100
                135.7637927683,35.0136699621,100
                135.7637832233,35.0136700847,100
                135.7637790715,35.0138946048,100
                135.7635106406,35.0138955672,100
                135.7635041686,35.0139510532,100
                135.7631419126,35.0139538061,100
                135.7631415097,35.0139152813,100
                135.7628196769,35.013919379,100
                135.7627709074,35.0139554854,100
                135.762769594,35.0146718162,100
                135.762640441,35.014671567,100
                135.7626361232,35.0149077069,100
                135.7626342121,35.015065957,100
                135.7627687415,35.0150942467,100
                135.7627641183,35.0153102439,100
                135.7627557958,35.0160374763,100
                135.7626524491,35.0160450947,100
                135.7625734322,35.0160986097,100
                135.7625730206,35.0162265783,100
                135.76261715,35.0162263107,100
                135.7626214705,35.0163683037,100
                135.7626663055,35.016368531,100
                135.7626660675,35.0164362838,100
                135.7626658569,35.0164945275,100
                135.7627402053,35.0164946708,100
                135.7627492441,35.0172277828,100
                135.76269283,35.0172351396,100
                135.7626907358,35.0173306377,100
                135.762646477,35.0173305524,100
                135.7626484846,35.0174062668,100
                135.7633164135,35.0174111445,100
                135.7636483018,35.0174133307,100
                135.7643286654,35.0174178741,100
                135.7645660211,35.0174210048,100
                135.7651824268,35.0174293651,100
                135.7657260914,35.0174365979,100
                135.766127486,35.0174411632,100
                135.7665860432,35.017446329,100
                135.7667436981,35.0174497974,100
                135.7670040968,35.0174555019,100
                135.7673053091,35.0174602259,100
                135.7673183661,35.017740345,100
                135.767520592,35.0177169218,100
                135.76752446,35.0174606396,100
                135.7676307786,35.0174621788,100
                135.7676433447,35.0169896269,100
                135.7680461494,35.0169866528,100
                135.7680142028,35.0166419153,100
                135.7672977164,35.0167071192,100
                135.7672870444,35.0161886735,100
                135.7672831668,35.0160228773,100
                135.7672580844,35.0149529488,100
                135.7672566173,35.0148812497,100
                135.7672313733,35.0136414474,100
                135.7672198599,35.0136414256,100
                135.766961643,35.0136409364,100
                135.7669696334,35.0137669479,100
                135.7669512843,35.013898897,100
                135.7668523676,35.0138998363,100
                135.7665784694,35.0138974146,100
                135.7665778879,35.013649082,100
                135.7664743555,35.0136479704,100
                135.7664777673,35.01390159,100
                135.7661183604,35.0138963995,100
                135.7657867231,35.0138936554,100
                135.7657877054,35.0136381424,100
                135.7656384284,35.0136411681,100
                135.7655892694,35.0136421305,100
                135.7655877396,35.0138036909,100
                135.7655839121,35.0139425828,100
                135.7654200349,35.013938833,100
                135.7654204835,35.0139838786,100
                135.7652880487,35.0139834168,100
              </coordinates>
            </LinearRing>
          </outerBoundaryIs>
        </Polygon>
      </Placemark>
    </Document>
  </Document>
</kml>
