<?xml version="1.0" encoding="UTF-8"?>
<kml xmlns="http://www.opengis.net/kml/2.2">
  <Document id="root_doc">
    <Document id="_6_13____________disv4326">
      <name>16_13朱雀第二disv4326</name>
      <Placemark id="_6_13____________disv4326.1">
        <visibility>1</visibility>
        <Polygon>
          <extrude>0</extrude>
          <outerBoundaryIs>
            <LinearRing>
              <coordinates>
                135.7354881154,35.0161030307,100
                135.734483137,35.0161111967,100
                135.734466829,35.0161113015,100
                135.7344691563,35.0162261757,100
                135.7344706919,35.0167741106,100
                135.7344730636,35.0176203117,100
                135.7338135262,35.0176951458,100
                135.7332689931,35.0177720583,100
                135.7329402753,35.0178147918,100
                135.7332131898,35.0182648632,100
                135.7332279213,35.018415049,100
                135.7331997181,35.0185994381,100
                135.7331002288,35.0191337003,100
                135.7330880959,35.0191988897,100
                135.733077401,35.0192566179,100
                135.7330347683,35.0196472595,100
                135.7334318124,35.0196232688,100
                135.7336133811,35.0196122571,100
                135.7343926155,35.0195633931,100
                135.7350054239,35.0195284593,100
                135.7355231872,35.0194792291,100
                135.7355323503,35.0193112071,100
                135.7355140734,35.0191641131,100
                135.7355133439,35.0191581961,100
                135.7355303375,35.0190575904,100
                135.7355395108,35.0187664598,100
                135.735557502,35.0186214171,100
                135.736100277,35.0186059738,100
                135.7367766959,35.0185868039,100
                135.7367696495,35.0188637123,100
                135.7367264861,35.0188691828,100
                135.7367300212,35.0189753969,100
                135.7367261507,35.01943775,100
                135.7367238642,35.0197118527,100
                135.736774815,35.0197812644,100
                135.7370233229,35.019778139,100
                135.7376402274,35.0197472147,100
                135.738508483,35.0197273843,100
                135.738616613,35.0197249151,100
                135.7386828576,35.0197234009,100
                135.7386852466,35.0197870026,100
                135.7390687171,35.0197695841,100
                135.7393507503,35.019756737,100
                135.7393495075,35.0198995637,100
                135.7395340293,35.0198948177,100
                135.7398067991,35.0198877943,100
                135.7403859844,35.019872904,100
                135.7404241045,35.0198719289,100
                135.7404208245,35.0198466381,100
                135.7407227569,35.0198353091,100
                135.7407395848,35.0198877437,100
                135.7409511241,35.0198805875,100
                135.7412044937,35.0198629567,100
                135.741145047,35.01925961,100
                135.741680159,35.0192320828,100
                135.74174095,35.0192289727,100
                135.7419249495,35.0192194321,100
                135.7419208078,35.019127162,100
                135.7421780867,35.0191110869,100
                135.7421758515,35.0187509813,100
                135.7423797454,35.0187373978,100
                135.7423805711,35.0184525157,100
                135.7426276452,35.0184550815,100
                135.7426265984,35.0182140723,100
                135.7426257732,35.0180190546,100
                135.7426179957,35.0178022586,100
                135.7426087035,35.017550035,100
                135.7426031228,35.0174105043,100
                135.742600245,35.0173382386,100
                135.7425955318,35.0171615933,100
                135.7425779621,35.0164545242,100
                135.7425774738,35.0164189567,100
                135.7425679475,35.0157197221,100
                135.7423127391,35.015693335,100
                135.7420199324,35.0156995465,100
                135.7414139199,35.0157136854,100
                135.7414159396,35.015710943,100
                135.7410064663,35.0157207074,100
                135.7406142201,35.015723675,100
                135.7404956538,35.0157252541,100
                135.7405103196,35.0160569325,100
                135.74101674,35.0160409671,100
                135.7410222571,35.0162131066,100
                135.740518025,35.0162266111,100
                135.7405332221,35.0165731516,100
                135.7404144407,35.0166427634,100
                135.7398809012,35.016869531,100
                135.7396974204,35.0169263267,100
                135.7394180175,35.0169769304,100
                135.739118084,35.0170291797,100
                135.7384903531,35.0171130511,100
                135.7375183636,35.0172428009,100
                135.7375296409,35.016906741,100
                135.7375546272,35.0161623674,100
                135.7377452276,35.0160607274,100
                135.7377269762,35.0159989218,100
                135.7376748835,35.0152248014,100
                135.7376891443,35.0148991712,100
                135.7377017401,35.0147940492,100
                135.7377067749,35.0147520589,100
                135.7377650737,35.0142658322,100
                135.7377436056,35.0135929827,100
                135.7371849251,35.0135729031,100
                135.7361406837,35.0135354318,100
                135.7361602932,35.0139484663,100
                135.7362131803,35.0147840017,100
                135.7362209633,35.0149067752,100
                135.7362749754,35.015873099,100
                135.7362389401,35.0160860667,100
                135.7360038559,35.0160840787,100
                135.735880957,35.0161018418,100
                135.7354881154,35.0161030307,100
              </coordinates>
            </LinearRing>
          </outerBoundaryIs>
        </Polygon>
      </Placemark>
    </Document>
  </Document>
</kml>
