<?xml version="1.0" encoding="UTF-8"?>
<kml xmlns="http://www.opengis.net/kml/2.2">
  <Document id="root_doc">
    <Document id="_6_18______disv4326">
      <name>16_18初音disv4326</name>
      <Placemark id="_6_18______disv4326.1">
        <visibility>1</visibility>
        <Polygon>
          <extrude>0</extrude>
          <outerBoundaryIs>
            <LinearRing>
              <coordinates>
                135.7617632767,35.0092260548,100
                135.7617803353,35.0089517663,100
                135.7617111833,35.0089482514,100
                135.7617243609,35.0086171184,100
                135.7614842651,35.0086166519,100
                135.7614660517,35.009289004,100
                135.7610306425,35.0092881568,100
                135.7610352236,35.0091108256,100
                135.7601457355,35.0091135271,100
                135.7601300364,35.0089127725,100
                135.759627234,35.0089153101,100
                135.7596156014,35.0098860131,100
                135.7596229517,35.0107753383,100
                135.7596245142,35.0109652885,100
                135.759762703,35.0109764759,100
                135.7597562629,35.0111881736,100
                135.7598743345,35.0111850944,100
                135.7598712491,35.0113036213,100
                135.7598382908,35.0113047541,100
                135.7598353537,35.0113725007,100
                135.7598886344,35.0114105663,100
                135.7598862207,35.0115629005,100
                135.7599823302,35.011562032,100
                135.7599834726,35.0116399284,100
                135.7598873596,35.0116419942,100
                135.7598923541,35.0118668139,100
                135.759859419,35.0118667495,100
                135.7598564117,35.0119515409,100
                135.7598921102,35.0119504128,100
                135.7598946024,35.0120204248,100
                135.7598959266,35.0120577543,100
                135.7598121921,35.0120564637,100
                135.7598129979,35.0122496531,100
                135.7597361262,35.0122505591,100
                135.7597366259,35.0122846473,100
                135.7597395347,35.0123951564,100
                135.7599163399,35.0123960655,100
                135.7599144223,35.0124665613,100
                135.7599002841,35.012985174,100
                135.7598090076,35.012986616,100
                135.7598048505,35.0130762637,100
                135.75989772,35.0130791925,100
                135.7598953236,35.0131670834,100
                135.760044288,35.0131606831,100
                135.7600466352,35.0134275442,100
                135.7598960639,35.0134339403,100
                135.7598974541,35.0135151484,100
                135.7597857444,35.0135149301,100
                135.7597853712,35.0136428287,100
                135.7596473154,35.0136430511,100
                135.7596461826,35.0138846209,100
                135.7598571143,35.0138889774,100
                135.7599498165,35.0138909192,100
                135.7599513204,35.0138595817,100
                135.760416674,35.0138523897,100
                135.7604292497,35.0138918545,100
                135.7605575606,35.0138944287,100
                135.760549975,35.0140228766,100
                135.7606499191,35.0140288469,100
                135.7606530435,35.0139187014,100
                135.7607151677,35.0138898061,100
                135.7609280987,35.0138913472,100
                135.7609295516,35.0138774045,100
                135.7612623382,35.0138746008,100
                135.7612664178,35.0140249747,100
                135.7613342324,35.0140189087,100
                135.7613373125,35.0138936912,100
                135.7614093256,35.0138936197,100
                135.7615765172,35.013897607,100
                135.7615750495,35.0139386637,100
                135.7618434237,35.0139348178,100
                135.7619011018,35.0139338027,100
                135.7619009353,35.0139914127,100
                135.7619696968,35.0139909126,100
                135.7620260824,35.0139775693,100
                135.7620258473,35.0139552428,100
                135.7621930704,35.0139555664,100
                135.7621932315,35.0139073938,100
                135.7623835417,35.0139088886,100
                135.7623864053,35.0138586079,100
                135.7625468566,35.0138544105,100
                135.7625466373,35.0139304733,100
                135.7627342685,35.0139263985,100
                135.7627709074,35.0139554854,100
                135.7628196769,35.013919379,100
                135.7631415097,35.0139152813,100
                135.7631419126,35.0139538061,100
                135.7635041686,35.0139510532,100
                135.7635106406,35.0138955672,100
                135.7637790715,35.0138946048,100
                135.7637832233,35.0136700847,100
                135.7637927683,35.0136699621,100
                135.7637928044,35.013657356,100
                135.7636118397,35.0136583458,100
                135.7636156417,35.0134967188,100
                135.7635420718,35.0134948165,100
                135.7635491528,35.0133615084,100
                135.7635522852,35.0131498056,100
                135.7635536629,35.0130576867,100
                135.763562098,35.0124895537,100
                135.7635637426,35.0124307483,100
                135.7637342788,35.0124238222,100
                135.7637310699,35.0123338084,100
                135.7636736324,35.0123336979,100
                135.7636652564,35.0122249397,100
                135.7636234962,35.0122204918,100
                135.7636014951,35.0120045153,100
                135.76354546,35.0120008855,100
                135.7635402509,35.0117569424,100
                135.7635342639,35.0114765664,100
                135.7635336315,35.0114469392,100
                135.7634742643,35.0114480926,100
                135.7634761211,35.011330973,100
                135.7636682012,35.0113323989,100
                135.7636686332,35.0111820339,100
                135.7637507224,35.0111821919,100
                135.7637463463,35.0108060209,100
                135.763745728,35.010753057,100
                135.7637478847,35.0106277684,100
                135.7636048209,35.0106305209,100
                135.7636002567,35.009992425,100
                135.7636573116,35.0099905623,100
                135.7636558727,35.0098285022,100
                135.7636811267,35.0098277761,100
                135.7636815797,35.0096700862,100
                135.7636068387,35.0096674074,100
                135.763604654,35.0094223099,100
                135.7632704753,35.0094177921,100
                135.763274169,35.0092345427,100
                135.7636030201,35.0092389792,100
                135.7636008802,35.0090006429,100
                135.7635454552,35.0090010292,100
                135.7634116643,35.0090018982,100
                135.7634178829,35.008893238,100
                135.76323461,35.0088896453,100
                135.7632246057,35.008938292,100
                135.7630078205,35.0089346338,100
                135.7630073766,35.0089696362,100
                135.7629032897,35.008970069,100
                135.7628235302,35.0089795642,100
                135.762509891,35.0089760694,100
                135.7623289672,35.0089740998,100
                135.7623169704,35.0089861194,100
                135.7620154344,35.0089860984,100
                135.7620147593,35.0092194289,100
                135.7617632767,35.0092260548,100
              </coordinates>
            </LinearRing>
          </outerBoundaryIs>
        </Polygon>
      </Placemark>
    </Document>
  </Document>
</kml>
