<?xml version="1.0" encoding="UTF-8"?>
<kml xmlns="http://www.opengis.net/kml/2.2">
  <Document id="root_doc">
    <Document id="_6_11____________disv4326">
      <name>16_11朱雀第四disv4326</name>
      <Placemark id="_6_11____________disv4326.1">
        <visibility>1</visibility>
        <Polygon>
          <extrude>0</extrude>
          <outerBoundaryIs>
            <LinearRing>
              <coordinates>
                135.7332102365,35.0079072184,100
                135.7333118463,35.0079049046,100
                135.7333183971,35.0077780763,100
                135.73313205,35.0077728803,100
                135.7331273424,35.0074280498,100
                135.7330481673,35.0074278766,100
                135.7329822154,35.0074277323,100
                135.7329810867,35.0073796967,100
                135.7328228002,35.0073857599,100
                135.7328193867,35.0075747128,100
                135.7328226873,35.0082482326,100
                135.7326373435,35.0082430369,100
                135.732636069,35.0084385449,100
                135.7319029176,35.008423203,100
                135.731908887,35.0096832592,100
                135.7319095447,35.0098233443,100
                135.7319177698,35.0109557886,100
                135.7319220865,35.0118613699,100
                135.7319151468,35.0122653311,100
                135.7318937244,35.0135122154,100
                135.7318625796,35.015077133,100
                135.7318524253,35.0154822843,100
                135.7318505073,35.0155591165,100
                135.731846553,35.0158804717,100
                135.731842272,35.0162301383,100
                135.7320503218,35.0162277087,100
                135.7321785782,35.0161486182,100
                135.7323063542,35.0162841917,100
                135.7323833889,35.0163928915,100
                135.7325611146,35.0171038317,100
                135.7326036442,35.0172740098,100
                135.7329383799,35.0178116893,100
                135.7329402753,35.0178147918,100
                135.7332689931,35.0177720583,100
                135.7338135262,35.0176951458,100
                135.7344730636,35.0176203117,100
                135.7344706919,35.0167741106,100
                135.7344691563,35.0162261757,100
                135.734466829,35.0161113015,100
                135.734483137,35.0161111967,100
                135.7354881154,35.0161030307,100
                135.735880957,35.0161018418,100
                135.7360038559,35.0160840787,100
                135.7362389401,35.0160860667,100
                135.7362749754,35.015873099,100
                135.7362209633,35.0149067752,100
                135.7362131803,35.0147840017,100
                135.7361602932,35.0139484663,100
                135.7361406837,35.0135354318,100
                135.7371849251,35.0135729031,100
                135.7377436056,35.0135929827,100
                135.7377491469,35.0135932054,100
                135.7377566273,35.0127336424,100
                135.7376216368,35.0127399721,100
                135.7376082162,35.0121546124,100
                135.7376045365,35.011837677,100
                135.737599376,35.0113945988,100
                135.737617132,35.0109718517,100
                135.7376152311,35.0108831781,100
                135.737605818,35.0104450889,100
                135.7376032445,35.010325425,100
                135.737577669,35.0096800993,100
                135.7373873901,35.0096787034,100
                135.7372478248,35.0096776982,100
                135.7371956474,35.009195569,100
                135.7371756928,35.0090509352,100
                135.7370972971,35.0084828265,100
                135.7363082691,35.008475769,100
                135.7360692345,35.0084774354,100
                135.7358669904,35.0084774198,100
                135.7352273282,35.0084773692,100
                135.7345828843,35.0084729396,100
                135.7344697699,35.0084654393,100
                135.7336239531,35.0084624688,100
                135.7334989516,35.0084582518,100
                135.7335068674,35.0080142848,100
                135.7331953445,35.0080124772,100
                135.7332102365,35.0079072184,100
              </coordinates>
            </LinearRing>
          </outerBoundaryIs>
        </Polygon>
      </Placemark>
    </Document>
  </Document>
</kml>
