<?xml version="1.0" encoding="UTF-8"?>
<kml xmlns="http://www.opengis.net/kml/2.2">
  <Document id="root_doc">
    <Document id="_6_14____________disv4326">
      <name>16_14朱雀第六disv4326</name>
      <Placemark id="_6_14____________disv4326.1">
        <visibility>1</visibility>
        <Polygon>
          <extrude>0</extrude>
          <outerBoundaryIs>
            <LinearRing>
              <coordinates>
                135.7383659098,35.0109857868,100
                135.737617132,35.0109718517,100
                135.737599376,35.0113945988,100
                135.7376045365,35.011837677,100
                135.7376082162,35.0121546124,100
                135.7376216368,35.0127399721,100
                135.7377566273,35.0127336424,100
                135.7377491469,35.0135932054,100
                135.7377436056,35.0135929827,100
                135.7377650737,35.0142658322,100
                135.7377067749,35.0147520589,100
                135.7377017401,35.0147940492,100
                135.7376891443,35.0148991712,100
                135.7376748835,35.0152248014,100
                135.7377269762,35.0159989218,100
                135.7377452276,35.0160607274,100
                135.7375546272,35.0161623674,100
                135.7375296409,35.016906741,100
                135.7375183636,35.0172428009,100
                135.7384903531,35.0171130511,100
                135.739118084,35.0170291797,100
                135.7394180175,35.0169769304,100
                135.7396974204,35.0169263267,100
                135.7398809012,35.016869531,100
                135.7404144407,35.0166427634,100
                135.7405332221,35.0165731516,100
                135.740518025,35.0162266111,100
                135.7410222571,35.0162131066,100
                135.74101674,35.0160409671,100
                135.7405103196,35.0160569325,100
                135.7404956538,35.0157252541,100
                135.7406142201,35.015723675,100
                135.7410064663,35.0157207074,100
                135.7414159396,35.015710943,100
                135.7414139199,35.0157136854,100
                135.7420199324,35.0156995465,100
                135.7423127391,35.015693335,100
                135.7423007137,35.0155620307,100
                135.7421774452,35.0155617698,100
                135.7421777267,35.0154716219,100
                135.7420270654,35.0154713028,100
                135.7420274879,35.0153360809,100
                135.7425663241,35.0153415179,100
                135.7425431261,35.0149637601,100
                135.7426543173,35.0149592059,100
                135.7431578203,35.0149225896,100
                135.7431580914,35.0148287799,100
                135.7435082078,35.0148080365,100
                135.7436828479,35.0147976991,100
                135.7453726186,35.0146760216,100
                135.7452886404,35.0132481871,100
                135.7452721691,35.0129412956,100
                135.7438055419,35.0130316791,100
                135.7432127046,35.0130681806,100
                135.7425758808,35.0131074035,100
                135.7425790695,35.0127161789,100
                135.7425855541,35.012399077,100
                135.7419769088,35.0121278831,100
                135.7414528583,35.0119247836,100
                135.7405608121,35.0115594763,100
                135.7392885315,35.0110042068,100
                135.7392787992,35.0108105441,100
                135.7388576908,35.0109878283,100
                135.7383659098,35.0109857868,100
              </coordinates>
            </LinearRing>
          </outerBoundaryIs>
        </Polygon>
      </Placemark>
    </Document>
  </Document>
</kml>
