<?xml version="1.0" encoding="UTF-8"?>
<kml xmlns="http://www.opengis.net/kml/2.2">
  <Document id="root_doc">
    <Document id="_6_21______disv4326">
      <name>16_21立誠disv4326</name>
      <Placemark id="_6_21______disv4326.1">
        <visibility>1</visibility>
        <Polygon>
          <extrude>0</extrude>
          <outerBoundaryIs>
            <LinearRing>
              <coordinates>
                135.7699850944,35.0043948212,100
                135.7699793383,35.0043948104,100
                135.7699722094,35.0044726915,100
                135.7698947392,35.004468673,100
                135.7698929206,35.0044685986,100
                135.7698936806,35.0044569798,100
                135.7698977285,35.0043945885,100
                135.7698879704,35.0043945685,100
                135.7699030942,35.0041201354,100
                135.7699256475,35.0041201777,100
                135.7699285393,35.0040352459,100
                135.7699046981,35.0040361871,100
                135.7696186318,35.004020578,100
                135.7696170635,35.0039309894,100
                135.7693323432,35.0039234116,100
                135.7691987438,35.0039203429,100
                135.7691966271,35.0040266861,100
                135.7690280359,35.003896075,100
                135.7690244678,35.0038932186,100
                135.7690237503,35.0038932037,100
                135.7690236714,35.0038932016,100
                135.7690088724,35.0038928838,100
                135.7689861925,35.003908082,100
                135.7689847244,35.0039090653,100
                135.7689870752,35.0040045101,100
                135.7689875561,35.0040240385,100
                135.7689836908,35.004105588,100
                135.7689420868,35.0041380481,100
                135.768698671,35.0041433638,100
                135.7686936011,35.0040745452,100
                135.7681648048,35.0040634748,100
                135.7680415856,35.004051973,100
                135.767936195,35.0040545202,100
                135.7678296905,35.0040571357,100
                135.7678298437,35.0039571273,100
                135.7677182694,35.0039595917,100
                135.7677198482,35.003915436,100
                135.7677092566,35.0039152753,100
                135.7677091991,35.0039356292,100
                135.7673852534,35.0039368454,100
                135.7673720741,35.0039215373,100
                135.7672794214,35.0039213614,100
                135.7672795076,35.0038908663,100
                135.7672159745,35.0038994783,100
                135.7672159068,35.0039234246,100
                135.7671927301,35.003924437,100
                135.7671926445,35.003856332,100
                135.7670287306,35.0038584849,100
                135.7670289538,35.0037796048,100
                135.7668646197,35.0037792923,100
                135.7668744242,35.0050174541,100
                135.7668752006,35.0050984484,100
                135.7669041997,35.0061850128,100
                135.7669078189,35.0063200315,100
                135.7669094296,35.0063633484,100
                135.7669328953,35.0069937327,100
                135.766934407,35.0070344436,100
                135.7669443562,35.0072992051,100
                135.7669467653,35.0073630893,100
                135.7669909169,35.0085329284,100
                135.7669939213,35.0086128711,100
                135.7670356394,35.0086466852,100
                135.7670801107,35.0086452911,100
                135.767176901,35.0087883042,100
                135.7671767825,35.0088302098,100
                135.7671778183,35.0088498615,100
                135.7673022391,35.0088479141,100
                135.7673023705,35.0088014307,100
                135.7675124052,35.0088156334,100
                135.7675238476,35.0089617946,100
                135.7675499054,35.0089792399,100
                135.7681053774,35.0089745865,100
                135.7681006556,35.0093366522,100
                135.7685114833,35.0093430619,100
                135.7685662011,35.0093428834,100
                135.7685877886,35.00918453,100
                135.7687085434,35.0091851802,100
                135.7686782851,35.0091546269,100
                135.7686772998,35.0090099646,100
                135.7687140667,35.0090091177,100
                135.768727304,35.0087910243,100
                135.768742003,35.0087918267,100
                135.7689842887,35.0088054537,100
                135.7689854875,35.0088055264,100
                135.7693216539,35.0088105957,100
                135.7692938228,35.009097611,100
                135.7695160302,35.009121341,100
                135.769496819,35.0092874461,100
                135.769563529,35.0092922906,100
                135.7695834569,35.0091221718,100
                135.7696199428,35.0091294945,100
                135.7696495856,35.0091353952,100
                135.7696547951,35.0091702673,100
                135.7697293098,35.0091770279,100
                135.7697261981,35.0091954739,100
                135.7698714671,35.0092071563,100
                135.7699726708,35.0091815685,100
                135.7701051885,35.0091769572,100
                135.7701725425,35.0092038468,100
                135.7701591644,35.0093582717,100
                135.7702986443,35.0093585328,100
                135.7703228649,35.0092220875,100
                135.7707370384,35.0092638507,100
                135.7707373504,35.0093127289,100
                135.7710111595,35.0093419045,100
                135.7710145598,35.0093039502,100
                135.7711134225,35.0093123742,100
                135.7711133624,35.0093339963,100
                135.7717676485,35.0093409889,100
                135.7717785129,35.0090494339,100
                135.7717728515,35.0088683509,100
                135.7717825577,35.0087788539,100
                135.7718016234,35.0081689764,100
                135.7717916705,35.007976405,100
                135.7718014132,35.0077737301,100
                135.7718397234,35.007523637,100
                135.7718187716,35.0069939029,100
                135.7718161859,35.0069286117,100
                135.7718197425,35.0066792293,100
                135.7717699849,35.0058313842,100
                135.771713732,35.0052046746,100
                135.7717027483,35.0051758488,100
                135.7716449489,35.0043971501,100
                135.7716289662,35.0042728129,100
                135.7715632798,35.0038077191,100
                135.770992006,35.0037907367,100
                135.7709151485,35.0037897474,100
                135.7709330284,35.0038929591,100
                135.77080885,35.003918504,100
                135.7708222598,35.0040745291,100
                135.77047398,35.0040851461,100
                135.7704773705,35.0042967918,100
                135.7704047973,35.0042936974,100
                135.7703899657,35.004410159,100
                135.770324668,35.0043995428,100
                135.770026713,35.0043949698,100
                135.7699850944,35.0043948212,100
              </coordinates>
            </LinearRing>
          </outerBoundaryIs>
        </Polygon>
      </Placemark>
    </Document>
  </Document>
</kml>
