<?xml version="1.0" encoding="UTF-8"?>
<kml xmlns="http://www.opengis.net/kml/2.2">
  <Document id="root_doc">
    <Document id="_6_23______disv4326">
      <name>16_23日彰disv4326</name>
      <Placemark id="_6_23______disv4326.1">
        <visibility>1</visibility>
        <Polygon>
          <extrude>0</extrude>
          <outerBoundaryIs>
            <LinearRing>
              <coordinates>
                135.7621909254,35.0042130295,100
                135.7614668235,35.0042120452,100
                135.7614675073,35.0041563359,100
                135.7610847636,35.0041588014,100
                135.7610845252,35.0041174881,100
                135.7610850921,35.0039223303,100
                135.7609070571,35.0039241058,100
                135.760906986,35.0039485622,100
                135.760855497,35.0039475604,100
                135.7608542287,35.0040070564,100
                135.7608224571,35.0040069944,100
                135.7608212072,35.0040601803,100
                135.7607850604,35.0040603486,100
                135.7607861667,35.0041790956,100
                135.7604058776,35.0042031437,100
                135.7603502713,35.0041863427,100
                135.7603517826,35.0043797445,100
                135.7603588422,35.0045932999,100
                135.7603202198,35.0045929432,100
                135.7598745324,35.0045892535,100
                135.759866053,35.0049866689,100
                135.7597726317,35.0049859224,100
                135.7597674665,35.005391585,100
                135.7602378403,35.005384618,100
                135.7602376143,35.005447441,100
                135.7602366732,35.005711971,100
                135.7602362645,35.0058225447,100
                135.7601084307,35.005822365,100
                135.7601121414,35.0059956278,100
                135.7599176677,35.0059974315,100
                135.7599171879,35.0061470922,100
                135.7600207553,35.0061476466,100
                135.7600299199,35.0065632683,100
                135.7603476435,35.0065638897,100
                135.7603470172,35.0067785569,100
                135.760011421,35.0067797311,100
                135.7599959587,35.0071134652,100
                135.7597539702,35.0071103156,100
                135.7597435896,35.0074701179,100
                135.7597429216,35.00769873,100
                135.7599803291,35.0077175064,100
                135.7599798759,35.0078727317,100
                135.7602264753,35.007873214,100
                135.7602234807,35.0080195607,100
                135.7604058629,35.0080198466,100
                135.7604094368,35.0082109281,100
                135.7600716601,35.0082085776,100
                135.7600718323,35.008332885,100
                135.7598894674,35.0083342185,100
                135.7598872708,35.0083751336,100
                135.7597442789,35.0083766144,100
                135.7597480793,35.0084891684,100
                135.7596154487,35.0084889082,100
                135.7596151495,35.0085912407,100
                135.7592628385,35.0085904766,100
                135.7592617237,35.0086494237,100
                135.7595154873,35.0086447123,100
                135.7595151899,35.008746411,100
                135.7596292136,35.0087505794,100
                135.759627234,35.0089153101,100
                135.7601300364,35.0089127725,100
                135.7601457355,35.0091135271,100
                135.7610352236,35.0091108256,100
                135.7610306425,35.0092881568,100
                135.7614660517,35.009289004,100
                135.7614842651,35.0086166519,100
                135.7617243609,35.0086171184,100
                135.7617111833,35.0089482514,100
                135.7617803353,35.0089517663,100
                135.7617632767,35.0092260548,100
                135.7620147593,35.0092194289,100
                135.7620154344,35.0089860984,100
                135.7623169704,35.0089861194,100
                135.7623289672,35.0089740998,100
                135.762509891,35.0089760694,100
                135.7628235302,35.0089795642,100
                135.7629032897,35.008970069,100
                135.7630073766,35.0089696362,100
                135.7630078205,35.0089346338,100
                135.7632246057,35.008938292,100
                135.76323461,35.0088896453,100
                135.7634178829,35.008893238,100
                135.7634116643,35.0090018982,100
                135.7635454552,35.0090010292,100
                135.7636008802,35.0090006429,100
                135.7639949701,35.0090145723,100
                135.7639908232,35.0088488446,100
                135.7639959909,35.0084425485,100
                135.7639969563,35.0083668391,100
                135.7639953422,35.0083402143,100
                135.7639921967,35.0082732297,100
                135.7641601797,35.0082801736,100
                135.7644146899,35.0082685482,100
                135.7644107777,35.0077664516,100
                135.7640227822,35.0077636634,100
                135.7640285548,35.0075937995,100
                135.7642044093,35.0075941377,100
                135.7642045562,35.0075428656,100
                135.7641689882,35.0075439945,100
                135.7641744011,35.0073649037,100
                135.7642276618,35.0073654286,100
                135.7642893937,35.0073663924,100
                135.764286958,35.0071634111,100
                135.7644044237,35.007153495,100
                135.7644102978,35.0071044171,100
                135.7644659126,35.007104524,100
                135.7644684993,35.007053327,100
                135.7644469686,35.0070394116,100
                135.7644418175,35.0064394866,100
                135.7643625555,35.0064401789,100
                135.764362714,35.0063848219,100
                135.7642952229,35.0063846922,100
                135.7642948269,35.0063214467,100
                135.7642307588,35.0063216047,100
                135.7642298398,35.006261457,100
                135.7642287505,35.0061863065,100
                135.7641607464,35.0061860348,100
                135.7641258663,35.0061713185,100
                135.764128548,35.0060718777,100
                135.7642282635,35.0060498139,100
                135.7642290429,35.0058753624,100
                135.7643503889,35.0058765113,100
                135.7643490227,35.005793191,100
                135.7644534245,35.0057933916,100
                135.7644506366,35.0056906307,100
                135.7644452536,35.005493207,100
                135.764460744,35.0054864052,100
                135.7644613552,35.005445065,100
                135.7644633679,35.0053095627,100
                135.7644386301,35.0053100786,100
                135.7643394959,35.0053090434,100
                135.7643397619,35.0052161474,100
                135.7641911684,35.0052177632,100
                135.7641914154,35.0051910711,100
                135.7641264672,35.0051929891,100
                135.7641278735,35.0050007197,100
                135.7639624242,35.0050004012,100
                135.7639634201,35.0047874958,100
                135.7641889336,35.0047879299,100
                135.7641902335,35.0047596903,100
                135.7643262822,35.004759952,100
                135.7643288829,35.0047034024,100
                135.7644334038,35.0047063506,100
                135.7644389703,35.0041749734,100
                135.7639787976,35.0041783837,100
                135.7636274296,35.0041762985,100
                135.7631432314,35.0041709964,100
                135.7631429678,35.0042625544,100
                135.7629333408,35.0042675715,100
                135.7629331609,35.0041661532,100
                135.7628920772,35.0041660737,100
                135.7628924344,35.004042119,100
                135.7625778789,35.0040448201,100
                135.762575214,35.004211944,100
                135.7621909254,35.0042130295,100
              </coordinates>
            </LinearRing>
          </outerBoundaryIs>
        </Polygon>
      </Placemark>
    </Document>
  </Document>
</kml>
