<?xml version="1.0" encoding="UTF-8"?>
<kml xmlns="http://www.opengis.net/kml/2.2">
  <Document id="root_doc">
    <Document id="_6_20______disv4326">
      <name>16_20銅駝disv4326</name>
      <Placemark id="_6_20______disv4326.1">
        <visibility>1</visibility>
        <Polygon>
          <extrude>0</extrude>
          <outerBoundaryIs>
            <LinearRing>
              <coordinates>
                135.7675448317,35.0121195848,100
                135.7675279151,35.0119255214,100
                135.7672308142,35.0119274244,100
                135.7672344532,35.0121468864,100
                135.7672536801,35.0133048402,100
                135.7672099342,35.0133215194,100
                135.767215511,35.0135441548,100
                135.7672198599,35.0136414256,100
                135.7672313733,35.0136414474,100
                135.7672566173,35.0148812497,100
                135.7672580844,35.0149529488,100
                135.7672831668,35.0160228773,100
                135.7672870444,35.0161886735,100
                135.7672977164,35.0167071192,100
                135.7680142028,35.0166419153,100
                135.7680461494,35.0169866528,100
                135.7681158463,35.0174769666,100
                135.7683583053,35.0174843956,100
                135.7683374624,35.0172547589,100
                135.7682616052,35.0166182246,100
                135.7685588249,35.0165883584,100
                135.7687124771,35.0165611095,100
                135.7688162832,35.0165499654,100
                135.7689448146,35.0165361914,100
                135.7693796551,35.0165255964,100
                135.7696362658,35.0165223445,100
                135.7699116672,35.0165189153,100
                135.7699253118,35.0166529661,100
                135.7715885834,35.0166442999,100
                135.7716091961,35.0158297639,100
                135.771618973,35.0154436242,100
                135.77162703,35.0153236997,100
                135.7716411284,35.0150230669,100
                135.771705985,35.0136391305,100
                135.7717238096,35.0132060288,100
                135.7717358718,35.0123637988,100
                135.7717370662,35.0122798505,100
                135.7717420248,35.0119334933,100
                135.7717602108,35.0109215381,100
                135.7717625865,35.0107899821,100
                135.7717767465,35.01019742,100
                135.771773648,35.0095624987,100
                135.7717676485,35.0093409889,100
                135.7711133624,35.0093339963,100
                135.7711134225,35.0093123742,100
                135.7710145598,35.0093039502,100
                135.7710111595,35.0093419045,100
                135.7707373504,35.0093127289,100
                135.7707370384,35.0092638507,100
                135.7703228649,35.0092220875,100
                135.7702986443,35.0093585328,100
                135.7701591644,35.0093582717,100
                135.7701725425,35.0092038468,100
                135.7701051885,35.0091769572,100
                135.7699726708,35.0091815685,100
                135.7698714671,35.0092071563,100
                135.7697261981,35.0091954739,100
                135.7697293098,35.0091770279,100
                135.7696547951,35.0091702673,100
                135.7696495856,35.0091353952,100
                135.7696199428,35.0091294945,100
                135.7695834569,35.0091221718,100
                135.769563529,35.0092922906,100
                135.769496819,35.0092874461,100
                135.7695160302,35.009121341,100
                135.7692938228,35.009097611,100
                135.7693216539,35.0088105957,100
                135.7689854875,35.0088055264,100
                135.7689842887,35.0088054537,100
                135.768742003,35.0087918267,100
                135.768727304,35.0087910243,100
                135.7687140667,35.0090091177,100
                135.7686772998,35.0090099646,100
                135.7686782851,35.0091546269,100
                135.7687085434,35.0091851802,100
                135.7685877886,35.00918453,100
                135.7685662011,35.0093428834,100
                135.7685114833,35.0093430619,100
                135.7685154951,35.0094990696,100
                135.7685575898,35.0094983043,100
                135.7685684123,35.0095997424,100
                135.7685645807,35.0096757984,100
                135.7685028881,35.0096906125,100
                135.7685002156,35.0098874568,100
                135.7684983024,35.0100275358,100
                135.7686324647,35.0100398326,100
                135.7686282173,35.010401477,100
                135.7685551545,35.0104031,100
                135.7685635877,35.0108514658,100
                135.7686354682,35.010851883,100
                135.7689328546,35.0108539929,100
                135.7689338353,35.0110385883,100
                135.7689355724,35.0120603015,100
                135.7685134639,35.0120808468,100
                135.7675448317,35.0121195848,100
              </coordinates>
            </LinearRing>
          </outerBoundaryIs>
        </Polygon>
      </Placemark>
    </Document>
  </Document>
</kml>
