<?xml version="1.0" encoding="UTF-8"?>
<kml xmlns="http://www.opengis.net/kml/2.2">
  <Document id="root_doc">
    <Document id="_6_22______disv4326">
      <name>16_22生祥disv4326</name>
      <Placemark id="_6_22______disv4326.1">
        <visibility>1</visibility>
        <Polygon>
          <extrude>0</extrude>
          <outerBoundaryIs>
            <LinearRing>
              <coordinates>
                135.7643288829,35.0047034024,100
                135.7643262822,35.004759952,100
                135.7641902335,35.0047596903,100
                135.7641889336,35.0047879299,100
                135.7639634201,35.0047874958,100
                135.7639624242,35.0050004012,100
                135.7641278735,35.0050007197,100
                135.7641264672,35.0051929891,100
                135.7641914154,35.0051910711,100
                135.7641911684,35.0052177632,100
                135.7643397619,35.0052161474,100
                135.7643394959,35.0053090434,100
                135.7644386301,35.0053100786,100
                135.7644633679,35.0053095627,100
                135.7644613552,35.005445065,100
                135.764460744,35.0054864052,100
                135.7644452536,35.005493207,100
                135.7644506366,35.0056906307,100
                135.7644534245,35.0057933916,100
                135.7643490227,35.005793191,100
                135.7643503889,35.0058765113,100
                135.7642290429,35.0058753624,100
                135.7642282635,35.0060498139,100
                135.764128548,35.0060718777,100
                135.7641258663,35.0061713185,100
                135.7641607464,35.0061860348,100
                135.7642287505,35.0061863065,100
                135.7642298398,35.006261457,100
                135.7642307588,35.0063216047,100
                135.7642948269,35.0063214467,100
                135.7642952229,35.0063846922,100
                135.764362714,35.0063848219,100
                135.7643625555,35.0064401789,100
                135.7644418175,35.0064394866,100
                135.7644469686,35.0070394116,100
                135.7644684993,35.007053327,100
                135.7644659126,35.007104524,100
                135.7644102978,35.0071044171,100
                135.7644044237,35.007153495,100
                135.764286958,35.0071634111,100
                135.7642893937,35.0073663924,100
                135.7642276618,35.0073654286,100
                135.7641744011,35.0073649037,100
                135.7641689882,35.0075439945,100
                135.7642045562,35.0075428656,100
                135.7642044093,35.0075941377,100
                135.7640285548,35.0075937995,100
                135.7640227822,35.0077636634,100
                135.7644107777,35.0077664516,100
                135.7644146899,35.0082685482,100
                135.7641601797,35.0082801736,100
                135.7639921967,35.0082732297,100
                135.7639953422,35.0083402143,100
                135.7639969563,35.0083668391,100
                135.7639959909,35.0084425485,100
                135.7639908232,35.0088488446,100
                135.7641065278,35.0088490671,100
                135.7642176046,35.0088587175,100
                135.7643694087,35.008859714,100
                135.7643667256,35.0089816914,100
                135.7644857335,35.0089792436,100
                135.7644944116,35.0090724385,100
                135.7646147713,35.009076472,100
                135.764617523,35.0089222382,100
                135.7647768434,35.0089209937,100
                135.7647770723,35.0088409168,100
                135.7649888372,35.0088413225,100
                135.7649901942,35.0088981614,100
                135.7652874174,35.0088948566,100
                135.7653325935,35.0089164937,100
                135.7654223597,35.0089174401,100
                135.7660765136,35.008924323,100
                135.7664085912,35.0089147433,100
                135.7664133222,35.0088766508,100
                135.7666757626,35.0088684867,100
                135.7666797913,35.0089948445,100
                135.7667951538,35.0089950638,100
                135.7667945122,35.0089647077,100
                135.7668986574,35.0089668066,100
                135.7669088184,35.0086506701,100
                135.7670356394,35.0086466852,100
                135.7669939213,35.0086128711,100
                135.7669909169,35.0085329284,100
                135.7669467653,35.0073630893,100
                135.7669443562,35.0072992051,100
                135.766934407,35.0070344436,100
                135.7669328953,35.0069937327,100
                135.7669094296,35.0063633484,100
                135.7669078189,35.0063200315,100
                135.7669041997,35.0061850128,100
                135.7668752006,35.0050984484,100
                135.7668744242,35.0050174541,100
                135.7668646197,35.0037792923,100
                135.7668689534,35.0036926024,100
                135.7667659485,35.0036907865,100
                135.7667630384,35.003690781,100
                135.7667644666,35.0037833281,100
                135.7667639727,35.0038146675,100
                135.7666784162,35.0038170406,100
                135.7666783137,35.0038232382,100
                135.7666760376,35.0039622058,100
                135.7666006175,35.0039622432,100
                135.7666024904,35.0040445883,100
                135.7665942346,35.0040444366,100
                135.7665504521,35.0040453387,100
                135.7663496012,35.0040493226,100
                135.7661183196,35.0040538819,100
                135.7661194571,35.0041807268,100
                135.7659604534,35.0041792964,100
                135.7652449261,35.0041804639,100
                135.7648990677,35.0041747301,100
                135.7644389703,35.0041749734,100
                135.7644334038,35.0047063506,100
                135.7643288829,35.0047034024,100
              </coordinates>
            </LinearRing>
          </outerBoundaryIs>
        </Polygon>
      </Placemark>
    </Document>
  </Document>
</kml>
