<?xml version="1.0" encoding="UTF-8"?>
<kml xmlns="http://www.opengis.net/kml/2.2">
  <Document id="root_doc">
    <Document id="_0_07______disv4326">
      <name>20_07貞教disv4326</name>
      <Placemark id="_0_07______disv4326.1">
        <visibility>1</visibility>
        <Polygon>
          <extrude>0</extrude>
          <outerBoundaryIs>
            <LinearRing>
              <coordinates>
                135.7685857163,34.9888364421,100
                135.7685595432,34.9884517109,100
                135.7680554864,34.9884600482,100
                135.7672463147,34.988407936,100
                135.7672335599,34.9888707701,100
                135.7672299475,34.9890516242,100
                135.7672163279,34.989282675,100
                135.767200816,34.9894799862,100
                135.7671840785,34.9899133728,100
                135.7671663955,34.9903635197,100
                135.7671543362,34.9904670985,100
                135.7671835596,34.9914956952,100
                135.7672096281,34.9917341463,100
                135.7672221872,34.9918243896,100
                135.7673069025,34.9924327026,100
                135.7673577947,34.9927980446,100
                135.7675143438,34.9939695001,100
                135.7675586232,34.9942377064,100
                135.7676121461,34.9945965725,100
                135.7676265295,34.9946691551,100
                135.7677236315,34.9951591586,100
                135.7678991911,34.9956795394,100
                135.767933927,34.9956745695,100
                135.7679433977,34.9956732134,100
                135.7687906741,34.995551993,100
                135.7688859413,34.9959739712,100
                135.7689184922,34.9960623489,100
                135.7690929388,34.9960366914,100
                135.7692854295,34.9960083198,100
                135.7693829288,34.9959939949,100
                135.7695927983,34.995963331,100
                135.7699121509,34.9959164646,100
                135.7702288063,34.995870154,100
                135.7702481153,34.9958820944,100
                135.7703338728,34.995865844,100
                135.770221408,34.9953630526,100
                135.7702195042,34.9953545271,100
                135.7707438345,34.9952809981,100
                135.7707116599,34.9950803565,100
                135.7706637582,34.9947943971,100
                135.7706112072,34.9944806801,100
                135.7703457447,34.9944085554,100
                135.7703133156,34.9941993226,100
                135.7702658734,34.9938345542,100
                135.7702363349,34.9936091989,100
                135.7701343785,34.9928310534,100
                135.7701225833,34.9927410324,100
                135.7701174961,34.9927022084,100
                135.7700627976,34.992186145,100
                135.77033791,34.9921325037,100
                135.7703123564,34.992043013,100
                135.7706895217,34.991981603,100
                135.7707676294,34.9922058531,100
                135.7709538968,34.9921647927,100
                135.7709036614,34.9920113035,100
                135.7710036545,34.9919823356,100
                135.7710240371,34.9920385047,100
                135.7713726027,34.9919599964,100
                135.771466329,34.9926935424,100
                135.7719062344,34.9926602785,100
                135.7725356885,34.9926127139,100
                135.7728712482,34.9925872781,100
                135.7731697728,34.9925700851,100
                135.7733908273,34.9925526741,100
                135.7733542806,34.9921113037,100
                135.7733550765,34.9920708782,100
                135.7733465944,34.9916314611,100
                135.7733482993,34.9915012418,100
                135.7733427701,34.9912483242,100
                135.7733402945,34.9910437251,100
                135.7733387994,34.9909192049,100
                135.7739692507,34.9908693816,100
                135.773920435,34.9904153819,100
                135.7740573445,34.9904038029,100
                135.7739383925,34.989062841,100
                135.7712412303,34.9891906435,100
                135.7712406792,34.9891808551,100
                135.7711969749,34.9883709849,100
                135.7710106627,34.9883769742,100
                135.7707278368,34.98838602,100
                135.7707193299,34.9882984604,100
                135.7706014012,34.9883090842,100
                135.770634684,34.9886336815,100
                135.7704835714,34.9886214944,100
                135.7702878095,34.988617815,100
                135.7702986071,34.9887426348,100
                135.7701935785,34.9887606075,100
                135.7701245079,34.9887723792,100
                135.7701502797,34.9892577515,100
                135.7700152081,34.9892782741,100
                135.7695754518,34.9893028665,100
                135.7695726065,34.9893029316,100
                135.7691929887,34.9892973527,100
                135.7691907151,34.9892920668,100
                135.7691954998,34.9889282411,100
                135.7688266471,34.988929936,100
                135.768830449,34.9888176093,100
                135.7685857163,34.9888364421,100
              </coordinates>
            </LinearRing>
          </outerBoundaryIs>
        </Polygon>
      </Placemark>
    </Document>
  </Document>
</kml>
