<?xml version="1.0" encoding="UTF-8"?>
<kml xmlns="http://www.opengis.net/kml/2.2">
  <Document id="root_doc">
    <Document id="_0_05______disv4326">
      <name>20_05月輪disv4326</name>
      <Placemark id="_0_05______disv4326.1">
        <visibility>1</visibility>
        <Polygon>
          <extrude>0</extrude>
          <outerBoundaryIs>
            <LinearRing>
              <coordinates>
                135.7711244093,34.972888822,100
                135.7711479134,34.9725235585,100
                135.7712036651,34.9724571101,100
                135.7713868502,34.9724310467,100
                135.7714395725,34.9717847627,100
                135.7714669586,34.9717735461,100
                135.7714986723,34.9715654229,100
                135.7714439546,34.9715277809,100
                135.771447537,34.9713835522,100
                135.7719967565,34.9713867734,100
                135.7720016761,34.9711988116,100
                135.7717440815,34.971201354,100
                135.7717420829,34.9711425427,100
                135.7714888664,34.9711395291,100
                135.7714854837,34.9711019138,100
                135.7713082268,34.9711040433,100
                135.7712919571,34.9709537207,100
                135.7713501355,34.9709452381,100
                135.7713550558,34.9708437614,100
                135.7713228741,34.9708403904,100
                135.7713354306,34.9706371608,100
                135.7716817024,34.9706110528,100
                135.771690424,34.9701992091,100
                135.7716902642,34.970182392,100
                135.771677369,34.9701808187,100
                135.7715747867,34.9701758902,100
                135.7715451441,34.9701748032,100
                135.7712102752,34.9701625242,100
                135.7711940508,34.9701619287,100
                135.7711946942,34.969976399,100
                135.7705469154,34.9700204106,100
                135.7702684674,34.9700393892,100
                135.7702886555,34.9702657113,100
                135.7702761124,34.9704868299,100
                135.7702579241,34.970869992,100
                135.7702411737,34.9711819536,100
                135.7702219023,34.971942746,100
                135.7702200281,34.9719864069,100
                135.770212072,34.9721728134,100
                135.7701993825,34.9725318287,100
                135.770190895,34.973073893,100
                135.7699688648,34.9730770627,100
                135.7696280641,34.9730779626,100
                135.7688848549,34.9730902057,100
                135.767540066,34.9731262892,100
                135.7669850796,34.9731247274,100
                135.7661432842,34.973145003,100
                135.7647266734,34.9731790862,100
                135.7650650875,34.9735708985,100
                135.7653761675,34.9739099077,100
                135.7656892943,34.9742439906,100
                135.7657846283,34.9743314709,100
                135.7658565992,34.9744174544,100
                135.7663075951,34.9749650628,100
                135.7664448372,34.975132462,100
                135.7665252165,34.9752305027,100
                135.7665310648,34.9752376338,100
                135.7667742949,34.9755343068,100
                135.7668156553,34.9755847555,100
                135.7670126086,34.9758358463,100
                135.7671485,34.9760090892,100
                135.7675719178,34.9766944976,100
                135.7676227497,34.9768429767,100
                135.7676342855,34.9768923118,100
                135.7676820447,34.9770965591,100
                135.7677240838,34.9775016682,100
                135.7677578913,34.9779285933,100
                135.7677075434,34.9783403578,100
                135.7676861076,34.9785540676,100
                135.7676637614,34.9787565764,100
                135.7676334131,34.9789898477,100
                135.7675681914,34.979491385,100
                135.7675391752,34.9797679014,100
                135.7675217957,34.9800445821,100
                135.7675167251,34.9803412871,100
                135.7675156685,34.9807160351,100
                135.7676650054,34.9812227731,100
                135.7677313816,34.9814362288,100
                135.7678273092,34.9817446775,100
                135.7679263454,34.9820439774,100
                135.7680107879,34.9822992309,100
                135.768138902,34.982710285,100
                135.7681642161,34.9827914669,100
                135.7685720117,34.9827380157,100
                135.7688510438,34.9827165745,100
                135.768902459,34.9827125888,100
                135.7693145003,34.9822031907,100
                135.7694634301,34.9820271923,100
                135.7695227303,34.9819568064,100
                135.7698109945,34.9813081467,100
                135.769876845,34.9811058611,100
                135.7699218935,34.9809606534,100
                135.7699861757,34.9806456093,100
                135.7699887201,34.980645755,100
                135.7701750874,34.9806588572,100
                135.7706156521,34.9807013866,100
                135.7707459675,34.9807090274,100
                135.770985084,34.9807231449,100
                135.7715624562,34.9807619141,100
                135.7715875416,34.9807807658,100
                135.7716300409,34.9808126795,100
                135.7720651178,34.9811395114,100
                135.7724717002,34.9814449449,100
                135.7726191906,34.9815557224,100
                135.7729904481,34.9818346066,100
                135.7731835413,34.9817836957,100
                135.7733168936,34.9817385191,100
                135.7735954381,34.9816591028,100
                135.7736947799,34.9815347011,100
                135.7738919661,34.9814180871,100
                135.7739186636,34.9813705987,100
                135.773916207,34.9813305201,100
                135.7744080309,34.9812407951,100
                135.7745402408,34.9811034238,100
                135.7746010339,34.9810805068,100
                135.7746230698,34.9810721684,100
                135.774818842,34.9809863975,100
                135.7756041221,34.9808476167,100
                135.77561745,34.9808452609,100
                135.7761498686,34.9807558131,100
                135.7761665122,34.9808424701,100
                135.7763256123,34.9808223404,100
                135.7763737945,34.9810649796,100
                135.776235032,34.9811736753,100
                135.7762509319,34.9812590621,100
                135.7767036585,34.981252853,100
                135.7770634065,34.9811956934,100
                135.7770909825,34.9811913753,100
                135.7770908256,34.9811905459,100
                135.7769976283,34.9806240089,100
                135.7769970738,34.9806206444,100
                135.7769862477,34.9805737491,100
                135.7772905281,34.980512977,100
                135.7772880342,34.9804987428,100
                135.7772520709,34.9802935175,100
                135.7772332973,34.9801863983,100
                135.7772432798,34.9801246821,100
                135.7771670305,34.9798344518,100
                135.7768474916,34.9798492182,100
                135.7766072604,34.9799158229,100
                135.7764026676,34.9799335459,100
                135.7763500082,34.9799316188,100
                135.7762459957,34.9799277632,100
                135.7755637265,34.9800280595,100
                135.7755691552,34.9795252173,100
                135.7753871515,34.9795200214,100
                135.7750465381,34.979426002,100
                135.7750477025,34.9790454837,100
                135.7750492108,34.9789304781,100
                135.7750522461,34.9786796211,100
                135.7756535262,34.9782598606,100
                135.7757709007,34.978219088,100
                135.776116282,34.9780896484,100
                135.7761841432,34.9779819504,100
                135.776313717,34.9777867544,100
                135.7764480409,34.9776072723,100
                135.7764802871,34.9775557093,100
                135.7772912269,34.9774509296,100
                135.777435784,34.9773230879,100
                135.7776667689,34.9770139848,100
                135.7780582764,34.9769340642,100
                135.7787480454,34.9769048332,100
                135.7790507789,34.9766890345,100
                135.7794682427,34.976636623,100
                135.7796661683,34.976612826,100
                135.7805244904,34.9764934632,100
                135.7805734314,34.9764855948,100
                135.7808614235,34.976154405,100
                135.780842963,34.9761465531,100
                135.7811949486,34.975955348,100
                135.7815686731,34.9759813066,100
                135.7822671268,34.9760139761,100
                135.7830824873,34.9757552845,100
                135.7832449804,34.975683302,100
                135.7835272951,34.9755925446,100
                135.7835772003,34.9755978939,100
                135.7836428589,34.9756178436,100
                135.7840534579,34.9756528328,100
                135.7839898456,34.9753254388,100
                135.7839450637,34.9752190355,100
                135.7834082332,34.9752956017,100
                135.78314218,34.9754588565,100
                135.7829493936,34.9755575521,100
                135.7826564966,34.9756386838,100
                135.7825514575,34.9754310865,100
                135.7824625993,34.9751298363,100
                135.782403898,34.9749652462,100
                135.7823633629,34.9749018849,100
                135.7823131386,34.9748474112,100
                135.7820357331,34.9747576575,100
                135.7814644737,34.9745823149,100
                135.7810340413,34.9744674626,100
                135.7809758947,34.9744447298,100
                135.7810413949,34.974399394,100
                135.7811033905,34.9743687655,100
                135.7812336568,34.9742973728,100
                135.7813652661,34.9742245921,100
                135.7814315329,34.9741423626,100
                135.7815060593,34.9739904661,100
                135.7815412792,34.9738585603,100
                135.7815434848,34.9737633995,100
                135.7815073388,34.973787753,100
                135.7813163219,34.9738555091,100
                135.7811394274,34.9740849918,100
                135.7809920981,34.9742308606,100
                135.7809338712,34.9742728704,100
                135.7808530876,34.9742952606,100
                135.7802226804,34.9744042653,100
                135.7801658454,34.9744295156,100
                135.780017879,34.9745400275,100
                135.779921321,34.9745820364,100
                135.779660513,34.9746559321,100
                135.7795681364,34.9746779482,100
                135.7795015747,34.9747815675,100
                135.7794392628,34.9748072988,100
                135.7791695562,34.9748806861,100
                135.7790941327,34.9749872436,100
                135.7790480439,34.9751707631,100
                135.7788542643,34.9752536548,100
                135.7786330853,34.9753697348,100
                135.7784830936,34.9754593955,100
                135.7781716746,34.9755169986,100
                135.7779020995,34.975482487,100
                135.777768357,34.9757282426,100
                135.7776922002,34.975867408,100
                135.7775154076,34.9760687169,100
                135.7772949498,34.9761612031,100
                135.7771278376,34.9762771711,100
                135.776999167,34.9762967235,100
                135.7768096181,34.9763084171,100
                135.7762872073,34.9765380327,100
                135.7762585007,34.9765138924,100
                135.7753899778,34.9766781403,100
                135.7752950655,34.9765119676,100
                135.7752607819,34.9760107419,100
                135.7750164714,34.9760312752,100
                135.7749835739,34.9758720099,100
                135.7749810205,34.975859649,100
                135.7749443664,34.9756821743,100
                135.7751032083,34.9756347207,100
                135.7750350645,34.9755219103,100
                135.7752915389,34.9754793555,100
                135.7752504072,34.9753997667,100
                135.7752198505,34.9753406918,100
                135.7752472752,34.9753002466,100
                135.7752337188,34.9752571149,100
                135.7752022917,34.9751571263,100
                135.7754459412,34.975119195,100
                135.7754078138,34.9749558738,100
                135.7759851061,34.9746224169,100
                135.7762499583,34.9745962149,100
                135.7765980903,34.9746233394,100
                135.7767893499,34.9747701812,100
                135.7772468109,34.9747478532,100
                135.7771095079,34.974556391,100
                135.7770870133,34.9738902489,100
                135.7769576156,34.9738539515,100
                135.7768380953,34.9738204188,100
                135.7768079972,34.973820997,100
                135.7764786979,34.9739273673,100
                135.7762301951,34.9739906441,100
                135.776016866,34.9739541197,100
                135.7753186296,34.9740309281,100
                135.7747669279,34.9741411054,100
                135.7744145083,34.9741351665,100
                135.7744109491,34.9731026241,100
                135.7743546995,34.9726267123,100
                135.773797654,34.9726122886,100
                135.7737838969,34.9726847331,100
                135.7737099415,34.9727048777,100
                135.7736982085,34.9727963404,100
                135.7733747022,34.9728717954,100
                135.7733209716,34.9729585317,100
                135.7733303969,34.9731185605,100
                135.7733674023,34.9737474764,100
                135.7733826938,34.9740075929,100
                135.7723638495,34.9738956717,100
                135.7722196754,34.9738900471,100
                135.7717657725,34.9738722876,100
                135.7716460149,34.9738710752,100
                135.7712990439,34.9738904201,100
                135.7711190683,34.9738841633,100
                135.7711084625,34.9735632056,100
                135.7711545163,34.9733909562,100
                135.7711103341,34.9731076131,100
                135.7711244093,34.972888822,100
              </coordinates>
            </LinearRing>
          </outerBoundaryIs>
        </Polygon>
      </Placemark>
    </Document>
  </Document>
</kml>
