<?xml version="1.0" encoding="UTF-8"?>
<kml xmlns="http://www.opengis.net/kml/2.2">
  <Document id="root_doc">
    <Document id="_0_09______disv4326">
      <name>20_09弥栄disv4326</name>
      <Placemark id="_0_09______disv4326.1">
        <visibility>1</visibility>
        <Polygon>
          <extrude>0</extrude>
          <outerBoundaryIs>
            <LinearRing>
              <coordinates>
                135.7730297034,35.0035179476,100
                135.7730243312,35.0035184307,100
                135.7727263628,35.0035430229,100
                135.772722101,35.0035139988,100
                135.7725422859,35.0035240893,100
                135.7725354177,35.0034701297,100
                135.7725980631,35.0034412988,100
                135.7725654987,35.0033939103,100
                135.7725455912,35.0032883001,100
                135.7722662397,35.0033203223,100
                135.772274299,35.0033693557,100
                135.7722531933,35.0033726972,100
                135.7720422054,35.0034058995,100
                135.7714994433,35.0035171514,100
                135.7715632798,35.0038077191,100
                135.7716289662,35.0042728129,100
                135.7716449489,35.0043971501,100
                135.7717027483,35.0051758488,100
                135.771713732,35.0052046746,100
                135.7717699849,35.0058313842,100
                135.7718197425,35.0066792293,100
                135.7718161859,35.0069286117,100
                135.7718187716,35.0069939029,100
                135.7725875767,35.0069884509,100
                135.7727782245,35.006988572,100
                135.7727790798,35.0069769501,100
                135.7727909808,35.0069444334,100
                135.7727995277,35.0068323265,100
                135.772822509,35.0065303701,100
                135.7728493749,35.0061775719,100
                135.7739341254,35.0060849856,100
                135.7747369501,35.006016454,100
                135.7747425786,35.0060159713,100
                135.7760460846,35.0059153154,100
                135.7764332868,35.0058853842,100
                135.7764465773,35.0058843519,100
                135.7775555535,35.0057964958,100
                135.7775641512,35.0058618695,100
                135.7776868787,35.0058509637,100
                135.7777125164,35.0058500951,100
                135.7777015027,35.0057849289,100
                135.7776790846,35.0055353572,100
                135.7783769365,35.0054130847,100
                135.7790562967,35.0052993672,100
                135.7790713386,35.0053477091,100
                135.7791459824,35.0053370676,100
                135.7791743765,35.0054497358,100
                135.7794281519,35.0054211019,100
                135.7794518803,35.0055655257,100
                135.7791779575,35.0055985577,100
                135.7792025036,35.005741361,100
                135.7791086703,35.0057497847,100
                135.7791298249,35.0058650452,100
                135.7794799203,35.0058753214,100
                135.7795392326,35.0059642411,100
                135.7794829905,35.0060630925,100
                135.7785147518,35.0061742501,100
                135.7783660939,35.0061912367,100
                135.7783803413,35.0063599405,100
                135.7780345225,35.0063900934,100
                135.7780581372,35.0064176727,100
                135.778354029,35.0067630271,100
                135.7786626396,35.0071138274,100
                135.7788262732,35.0070438327,100
                135.7790868811,35.0069983118,100
                135.7790870309,35.0069423915,100
                135.7791735564,35.0069383922,100
                135.7792083727,35.0070102214,100
                135.7794036023,35.0069907115,100
                135.7800465297,35.0069263659,100
                135.7801142381,35.0073180727,100
                135.780421911,35.0072865765,100
                135.7804486845,35.0074216363,100
                135.7801385835,35.0074579873,100
                135.7801393179,35.0074631998,100
                135.7801569341,35.0075650723,100
                135.7799083859,35.0075892066,100
                135.7799274091,35.0077735552,100
                135.780091746,35.0077601845,100
                135.7801071682,35.0078191607,100
                135.7802341135,35.0078085428,100
                135.7802757498,35.0079710966,100
                135.7804127102,35.0079447198,100
                135.7804332191,35.0080065222,100
                135.780631118,35.0079572232,100
                135.7806694579,35.0080482865,100
                135.7810625164,35.0079516539,100
                135.7810748928,35.0078517377,100
                135.7815115974,35.0077327859,100
                135.7814955882,35.0075162567,100
                135.7816284269,35.0075017038,100
                135.7816223062,35.0074612655,100
                135.7815889756,35.0072076614,100
                135.7818807787,35.0070745766,100
                135.7819704856,35.0070493109,100
                135.7824233358,35.0069405261,100
                135.7825225981,35.0069107682,100
                135.783110155,35.0067346081,100
                135.7834959195,35.0067066927,100
                135.7841954984,35.0066850338,100
                135.7842909063,35.0064180621,100
                135.7844409584,35.0064166349,100
                135.7847874101,35.007070967,100
                135.7849013183,35.007061377,100
                135.7849148532,35.0071147179,100
                135.7854121147,35.0069963517,100
                135.7857249469,35.0069218936,100
                135.7858369333,35.0065570532,100
                135.786021789,35.0065690687,100
                135.786119774,35.0063874612,100
                135.7859557008,35.0062417374,100
                135.7859879989,35.0061322063,100
                135.7859024589,35.0060619087,100
                135.7858306895,35.0059528312,100
                135.7857487166,35.005736329,100
                135.7857235179,35.0056092287,100
                135.7857072437,35.0054327742,100
                135.7851336748,35.0051525182,100
                135.7851424612,35.0050409736,100
                135.7853186985,35.0050333944,100
                135.7853174497,35.0048962658,100
                135.7851551735,35.0049006314,100
                135.7850921189,35.0049393979,100
                135.7848686307,35.0045047378,100
                135.7848284515,35.0042725324,100
                135.7845551698,35.0043157188,100
                135.7845203338,35.004209451,100
                135.7849359948,35.0041183401,100
                135.7849941583,35.004101539,100
                135.7859886318,35.0036599271,100
                135.7848900423,35.0030147988,100
                135.7848770514,35.0030071709,100
                135.7847705259,35.0027666884,100
                135.7847140861,35.002742968,100
                135.7845680666,35.0026815949,100
                135.7844706461,35.002722545,100
                135.7844463266,35.0027327651,100
                135.7844130467,35.00268969,100
                135.7844644429,35.0024835666,100
                135.7844734206,35.0024245074,100
                135.7842507246,35.0022923972,100
                135.7839986249,35.0021404089,100
                135.7838663251,35.0020646522,100
                135.783911818,35.001887109,100
                135.7839697949,35.0017333435,100
                135.7840575641,35.0015005533,100
                135.7840569167,35.0013761452,100
                135.7835097198,35.0014363847,100
                135.7834164647,35.0014466433,100
                135.7830367911,35.0016759942,100
                135.7829873793,35.0016210429,100
                135.782589395,35.0016272408,100
                135.7822319979,35.0016263262,100
                135.7821826864,35.0021931877,100
                135.7822285776,35.0023753953,100
                135.781777153,35.0024328399,100
                135.7811961626,35.0025235759,100
                135.7806868325,35.0026221834,100
                135.780674051,35.0026246262,100
                135.7806534481,35.0024547863,100
                135.7806206518,35.0018855264,100
                135.7799893543,35.0018907371,100
                135.7799778053,35.0018637424,100
                135.7796546007,35.0018708404,100
                135.7794307155,35.0018967093,100
                135.7792325829,35.001934455,100
                135.7788436051,35.0019565753,100
                135.7785462961,35.0019934372,100
                135.7785867032,35.0016305925,100
                135.7782347806,35.0016308743,100
                135.7782197091,35.0015383037,100
                135.7779673785,35.0015515119,100
                135.777933079,35.001925706,100
                135.7777718656,35.0019280211,100
                135.7777761903,35.0021259328,100
                135.7774290883,35.0021155859,100
                135.7774294778,35.0021060083,100
                135.777432862,35.0020250218,100
                135.7770618299,35.0020016716,100
                135.7770608454,35.0019224373,100
                135.776914997,35.0019080172,100
                135.7769340468,35.0019359832,100
                135.7767893535,35.0019801186,100
                135.7767598759,35.0019286518,100
                135.7767488532,35.0018896859,100
                135.77669735,35.0017074644,100
                135.7772326159,35.0016870252,100
                135.7772494051,35.0014834464,100
                135.7773870326,35.0014832731,100
                135.7774067444,35.0013383682,100
                135.7773631652,35.0013278653,100
                135.7773467192,35.0012532513,100
                135.777527622,35.0012413952,100
                135.7775579214,35.0008431068,100
                135.7769561324,35.000834339,100
                135.7767326998,35.0008442159,100
                135.7767327268,35.000850062,100
                135.776273708,35.0008532417,100
                135.7752866442,35.0008600326,100
                135.7753136699,35.0014806999,100
                135.7746356884,35.0015159391,100
                135.7746267638,35.0014691582,100
                135.7744136401,35.0014955306,100
                135.7740052431,35.0015462635,100
                135.7741687961,35.0022126772,100
                135.7743050763,35.0027678341,100
                135.7744326827,35.0032877614,100
                135.7736829532,35.0033716729,100
                135.7736465833,35.0032133528,100
                135.7736220756,35.0032157732,100
                135.7736033563,35.0031604512,100
                135.7736345065,35.0031544523,100
                135.7736246139,35.0030863296,100
                135.7734924675,35.0030998898,100
                135.7734654299,35.002979478,100
                135.7733424518,35.0029893233,100
                135.7733877454,35.0031936486,100
                135.773338517,35.0031984884,100
                135.7733407818,35.0032080709,100
                135.7733678125,35.0033226374,100
                135.7735521415,35.0033037494,100
                135.7735793458,35.0034021908,100
                135.7734440678,35.0034259574,100
                135.7734430083,35.003439924,100
                135.773444769,35.0035180224,100
                135.7734118996,35.0035188643,100
                135.7733779331,35.0035206037,100
                135.7733308184,35.0035223199,100
                135.7733297671,35.0035060902,100
                135.7732147007,35.0035175984,100
                135.7730755267,35.003530864,100
                135.7730331558,35.0035350263,100
                135.7730297034,35.0035179476,100
              </coordinates>
            </LinearRing>
          </outerBoundaryIs>
        </Polygon>
      </Placemark>
    </Document>
  </Document>
</kml>
