<?xml version="1.0" encoding="UTF-8"?>
<kml xmlns="http://www.opengis.net/kml/2.2">
  <Document id="root_doc">
    <Document id="_0_03______disv4326">
      <name>20_03清水disv4326</name>
      <Placemark id="_0_03______disv4326.1">
        <visibility>1</visibility>
        <Polygon>
          <extrude>0</extrude>
          <outerBoundaryIs>
            <LinearRing>
              <coordinates>
                135.7788488947,34.9955337953,100
                135.7786884558,34.9959629803,100
                135.7781487426,34.9959903862,100
                135.7780628178,34.9955759717,100
                135.7780706573,34.9954610466,100
                135.7780866321,34.9952240831,100
                135.777682848,34.9949576253,100
                135.7775398198,34.9948699644,100
                135.7774400576,34.9951548778,100
                135.7774279833,34.9951893675,100
                135.7774464958,34.9953147622,100
                135.7774721627,34.9954524965,100
                135.7779262117,34.9954225425,100
                135.777906933,34.9954788504,100
                135.7779600627,34.9957879158,100
                135.7780261067,34.9961721522,100
                135.77793335,34.9962781905,100
                135.7777093108,34.9962879976,100
                135.7774014062,34.9962958912,100
                135.7771523159,34.9963204401,100
                135.7767081842,34.9963835821,100
                135.7767394613,34.9965194966,100
                135.7765148681,34.9965281023,100
                135.7759966707,34.996525185,100
                135.7759968468,34.9973834276,100
                135.7760065859,34.9976421294,100
                135.7765818352,34.9976525446,100
                135.7766384891,34.9976536343,100
                135.7766391912,34.9979480966,100
                135.7766515329,34.9979651633,100
                135.7766908301,34.9982766691,100
                135.7767187332,34.9984977955,100
                135.7767388835,34.9987292613,100
                135.7767637022,34.9987305026,100
                135.7767831286,34.998841252,100
                135.7767432991,34.9988688569,100
                135.7767430047,34.9989462579,100
                135.7767968665,34.9991812359,100
                135.7768009144,34.9991960321,100
                135.7768731391,34.999461326,100
                135.7761389918,34.9996932496,100
                135.7756773309,34.9997494552,100
                135.7757083303,34.9998776207,100
                135.7756534609,34.9999044941,100
                135.7757058833,35.0001483452,100
                135.7757408521,35.0003109564,100
                135.7755079002,35.000352014,100
                135.7756276489,35.0007181083,100
                135.7762312253,35.0006195536,100
                135.7762278742,35.0006009544,100
                135.7763925099,35.0005782355,100
                135.7766127354,35.0005478467,100
                135.7766308024,35.0006873978,100
                135.7767207026,35.0006915755,100
                135.7767326998,35.0008442159,100
                135.7769561324,35.000834339,100
                135.7775579214,35.0008431068,100
                135.777527622,35.0012413952,100
                135.7773467192,35.0012532513,100
                135.7773631652,35.0013278653,100
                135.7774067444,35.0013383682,100
                135.7773870326,35.0014832731,100
                135.7772494051,35.0014834464,100
                135.7772326159,35.0016870252,100
                135.77669735,35.0017074644,100
                135.7767488532,35.0018896859,100
                135.7767598759,35.0019286518,100
                135.7767893535,35.0019801186,100
                135.7769340468,35.0019359832,100
                135.776914997,35.0019080172,100
                135.7770608454,35.0019224373,100
                135.7770618299,35.0020016716,100
                135.777432862,35.0020250218,100
                135.7774294778,35.0021060083,100
                135.7774290883,35.0021155859,100
                135.7777761903,35.0021259328,100
                135.7777718656,35.0019280211,100
                135.777933079,35.001925706,100
                135.7779673785,35.0015515119,100
                135.7782197091,35.0015383037,100
                135.7782347806,35.0016308743,100
                135.7785867032,35.0016305925,100
                135.7785462961,35.0019934372,100
                135.7788436051,35.0019565753,100
                135.7792325829,35.001934455,100
                135.7794307155,35.0018967093,100
                135.7796546007,35.0018708404,100
                135.7799778053,35.0018637424,100
                135.7799893543,35.0018907371,100
                135.7806206518,35.0018855264,100
                135.7806534481,35.0024547863,100
                135.780674051,35.0026246262,100
                135.7806868325,35.0026221834,100
                135.7811961626,35.0025235759,100
                135.781777153,35.0024328399,100
                135.7822285776,35.0023753953,100
                135.7821826864,35.0021931877,100
                135.7822319979,35.0016263262,100
                135.782589395,35.0016272408,100
                135.7829873793,35.0016210429,100
                135.7830367911,35.0016759942,100
                135.7834164647,35.0014466433,100
                135.7835097198,35.0014363847,100
                135.7840569167,35.0013761452,100
                135.7840575641,35.0015005533,100
                135.7839697949,35.0017333435,100
                135.783911818,35.001887109,100
                135.7838663251,35.0020646522,100
                135.7839986249,35.0021404089,100
                135.7842507246,35.0022923972,100
                135.7844734206,35.0024245074,100
                135.7844644429,35.0024835666,100
                135.7844130467,35.00268969,100
                135.7844463266,35.0027327651,100
                135.7844706461,35.002722545,100
                135.7845680666,35.0026815949,100
                135.7847140861,35.002742968,100
                135.7847705259,35.0027666884,100
                135.7848770514,35.0030071709,100
                135.7848900423,35.0030147988,100
                135.7859886318,35.0036599271,100
                135.7849941583,35.004101539,100
                135.7849359948,35.0041183401,100
                135.7850249174,35.0041139885,100
                135.7861840411,35.0041717949,100
                135.7869254977,35.0042111166,100
                135.7870490988,35.0042918333,100
                135.787064518,35.0042126275,100
                135.7872955057,35.0039496215,100
                135.7873007428,35.0038186323,100
                135.7872814361,35.003663019,100
                135.787309627,35.0034270597,100
                135.7873835259,35.0032479436,100
                135.787420579,35.0030260878,100
                135.7874579626,35.0029086769,100
                135.7874274857,35.0028108696,100
                135.7875490125,35.0027167048,100
                135.7875985909,35.0026331217,100
                135.7875392171,35.0023795449,100
                135.7876336892,35.0021870854,100
                135.7877196295,35.0020844072,100
                135.787987562,35.0018209747,100
                135.7877546783,35.0014489181,100
                135.7876894667,35.0012954129,100
                135.7877706704,35.0011781475,100
                135.7881235201,35.0007080086,100
                135.7887725651,34.9999127803,100
                135.7889512563,34.9997091232,100
                135.7891246151,34.9992640248,100
                135.7891892861,34.9991679998,100
                135.7892771282,34.9991063837,100
                135.7895658164,34.9989722145,100
                135.7896570829,34.9989101107,100
                135.7897594787,34.9987961888,100
                135.7899115075,34.9985757203,100
                135.7900453726,34.998464811,100
                135.7902229754,34.9983853865,100
                135.7905211456,34.9982731324,100
                135.7906226615,34.998218862,100
                135.7906906825,34.9981425615,100
                135.7907582175,34.9980130148,100
                135.7908052566,34.9978658255,100
                135.790895539,34.9974731933,100
                135.7909160699,34.9973661749,100
                135.7909618916,34.997082772,100
                135.7910654466,34.9968127799,100
                135.7910796884,34.9966459545,100
                135.7910710914,34.996559946,100
                135.7910337845,34.9964542387,100
                135.7909623067,34.9963321347,100
                135.7907332943,34.9960303807,100
                135.790680191,34.9959875409,100
                135.7905441149,34.9959001202,100
                135.7903611424,34.9957524038,100
                135.7901773571,34.9956475774,100
                135.789907098,34.9956069752,100
                135.7898516414,34.9955982804,100
                135.7898376411,34.995596085,100
                135.7897900883,34.9955679293,100
                135.7897784991,34.9955549309,100
                135.7897710266,34.9955350974,100
                135.7897716158,34.9955083996,100
                135.7897760454,34.9954894754,100
                135.7898480292,34.9954602427,100
                135.7899792507,34.9953172102,100
                135.790035882,34.9951672921,100
                135.790127228,34.9948775588,100
                135.790185837,34.994748426,100
                135.7902496932,34.9944805648,100
                135.7902023982,34.9942978007,100
                135.7901603439,34.9939706728,100
                135.7901670373,34.9938106078,100
                135.7902266635,34.9933797039,100
                135.7903490493,34.9930125009,100
                135.7904420468,34.9928284249,100
                135.7906792636,34.9925014187,100
                135.7907293456,34.9922649435,100
                135.7907632719,34.9921391502,100
                135.7907542397,34.9919784238,100
                135.7907851819,34.991729593,100
                135.790890969,34.9914010963,100
                135.7908995166,34.9913022338,100
                135.7908801291,34.9911583219,100
                135.7907985693,34.9909895858,100
                135.7907834918,34.9905777123,100
                135.7907126065,34.99049442,100
                135.7904536098,34.9903723539,100
                135.7903675686,34.9903188262,100
                135.7903001782,34.9902073666,100
                135.7903095193,34.9900748427,100
                135.7903938448,34.9896186989,100
                135.7890341719,34.989165505,100
                135.7888734405,34.9892153719,100
                135.788478578,34.9893377951,100
                135.7880172186,34.9895704626,100
                135.7877666919,34.9899549814,100
                135.78736098,34.9898918119,100
                135.7873498875,34.9899546831,100
                135.787580356,34.9900349463,100
                135.7876849323,34.9900930158,100
                135.7878345633,34.9902107459,100
                135.7879717402,34.9903045806,100
                135.7882084111,34.9904452053,100
                135.7880592104,34.9901086644,100
                135.7879957216,34.9900627068,100
                135.7880840606,34.9897269238,100
                135.7885106099,34.9896468101,100
                135.7885591173,34.9896862618,100
                135.7887201505,34.9896029425,100
                135.7888874599,34.9895493548,100
                135.7889366077,34.9895054241,100
                135.7890536647,34.9894932996,100
                135.7890571583,34.9894568265,100
                135.789170109,34.9894441315,100
                135.7892103118,34.9898397127,100
                135.7891076251,34.9898541852,100
                135.7890779617,34.9897324381,100
                135.7889976759,34.9897460328,100
                135.7890114305,34.9899407156,100
                135.7888863596,34.9899576123,100
                135.7888554933,34.9896860673,100
                135.7886966106,34.989714528,100
                135.7887426328,34.9899573654,100
                135.7885673588,34.989986785,100
                135.7885773219,34.9901239214,100
                135.7883207199,34.99009869,100
                135.7882726996,34.990161569,100
                135.7886164376,34.9903904102,100
                135.7886694049,34.9905865675,100
                135.7881728941,34.9907310744,100
                135.7879997467,34.9904132951,100
                135.7875588263,34.9901793544,100
                135.7874924712,34.9901679716,100
                135.7871739813,34.9902718614,100
                135.7872019337,34.9903174769,100
                135.7869574526,34.9903944534,100
                135.7869404108,34.9903657591,100
                135.7868327039,34.9904009236,100
                135.7865494098,34.9905529656,100
                135.7865668429,34.9905890543,100
                135.78609113,34.9907376568,100
                135.7860733323,34.9909457003,100
                135.7858879332,34.9912561031,100
                135.7858810138,34.9912677831,100
                135.7856223854,34.9912212031,100
                135.7852820946,34.9912818823,100
                135.7849207377,34.9912720984,100
                135.7846631567,34.9913739092,100
                135.7842108346,34.9915548164,100
                135.7838452232,34.9916045279,100
                135.7835353663,34.9916214466,100
                135.7834644538,34.991626813,100
                135.7831460151,34.9915951205,100
                135.7830732362,34.9915813325,100
                135.7831085819,34.9918784124,100
                135.7830121234,34.9919025826,100
                135.78276489,34.9919554024,100
                135.7825911097,34.9919980346,100
                135.7825355883,34.9920200883,100
                135.7824037047,34.9920817979,100
                135.7823014847,34.9921434363,100
                135.7822024527,34.9922069659,100
                135.7821227238,34.9922251826,100
                135.7818728081,34.9922763608,100
                135.7817833573,34.9921874621,100
                135.7816177224,34.9918960178,100
                135.7820947428,34.9917228963,100
                135.7822439648,34.9915956178,100
                135.7824917086,34.9913640222,100
                135.782550382,34.9912914649,100
                135.7825329655,34.9912499664,100
                135.7823761516,34.9912282833,100
                135.7821796774,34.9912233264,100
                135.7816410507,34.9913511461,100
                135.7814723505,34.9913929609,100
                135.7811744613,34.99145604,100
                135.781034176,34.9914896665,100
                135.7809143347,34.9915498076,100
                135.780779044,34.9916194298,100
                135.7804351572,34.9917300186,100
                135.7802420852,34.9917487576,100
                135.7800260664,34.9917804849,100
                135.7794401049,34.9919369802,100
                135.7791657571,34.9920615783,100
                135.7791206395,34.9921381224,100
                135.7791204776,34.9921985201,100
                135.7791421174,34.9922986239,100
                135.7791693043,34.9923725941,100
                135.7791186916,34.99245634,100
                135.7790385808,34.9925111854,100
                135.7790478876,34.9925719864,100
                135.7790493286,34.9926180713,100
                135.7790547291,34.9926166885,100
                135.7792292388,34.9926588592,100
                135.7792689642,34.9926700199,100
                135.7793929901,34.9926984309,100
                135.7795134893,34.9926968437,100
                135.7795474399,34.9926996085,100
                135.7795726113,34.9927086686,100
                135.7796340714,34.9927495112,100
                135.7796598399,34.992766792,100
                135.7796852629,34.9927737781,100
                135.7797733595,34.9927703441,100
                135.779810544,34.9927688918,100
                135.7798527497,34.9927731806,100
                135.7798736691,34.9927759209,100
                135.7798946268,34.9927850707,100
                135.7799093823,34.9927931617,100
                135.7799433061,34.9927927368,100
                135.7802806765,34.9932034431,100
                135.7802949806,34.993230935,100
                135.7806046877,34.9932883954,100
                135.7809368762,34.9933882932,100
                135.7812059328,34.9933903226,100
                135.7813487654,34.9934469196,100
                135.7814492709,34.9934503396,100
                135.7816212476,34.9934562088,100
                135.7817274384,34.9935137959,100
                135.7816304274,34.9937075826,100
                135.7814301698,34.9937035657,100
                135.7814004041,34.9937017629,100
                135.7813857849,34.9937894358,100
                135.7813691469,34.9939225684,100
                135.7814458071,34.9939299167,100
                135.7814738937,34.9942584541,100
                135.781477745,34.9942788443,100
                135.7817850508,34.9943221399,100
                135.781854405,34.994342618,100
                135.7820564627,34.9944450483,100
                135.7819796494,34.9945992539,100
                135.7816168684,34.9945197296,100
                135.7815252967,34.9945279485,100
                135.7813548995,34.9944979233,100
                135.7811179712,34.9944977126,100
                135.7810882534,34.9946424589,100
                135.7810819122,34.9947016761,100
                135.7811869342,34.9946965809,100
                135.781196555,34.9948685125,100
                135.7811725152,34.9949378424,100
                135.7810006423,34.9949476774,100
                135.7809974621,34.9951960715,100
                135.7809863335,34.995245774,100
                135.7809916011,34.9952456464,100
                135.7808635279,34.9958120661,100
                135.7808427475,34.9958082798,100
                135.7805887023,34.9957619935,100
                135.7805843193,34.9957610833,100
                135.7805697607,34.9957586534,100
                135.7804016665,34.9957559421,100
                135.7803543517,34.9959089952,100
                135.7803922633,34.9960631597,100
                135.7803758444,34.9961077121,100
                135.7799133088,34.9959713088,100
                135.7792783874,34.995710358,100
                135.7788488947,34.9955337953,100
              </coordinates>
            </LinearRing>
          </outerBoundaryIs>
        </Polygon>
      </Placemark>
    </Document>
  </Document>
</kml>
