<?xml version="1.0" encoding="UTF-8"?>
<kml xmlns="http://www.opengis.net/kml/2.2">
  <Document id="root_doc">
    <Document id="_0_06______disv4326">
      <name>20_06一橋disv4326</name>
      <Placemark id="_0_06______disv4326.1">
        <visibility>1</visibility>
        <Polygon>
          <extrude>0</extrude>
          <outerBoundaryIs>
            <LinearRing>
              <coordinates>
                135.7699887201,34.980645755,100
                135.7699861757,34.9806456093,100
                135.7699218935,34.9809606534,100
                135.769876845,34.9811058611,100
                135.7698109945,34.9813081467,100
                135.7695227303,34.9819568064,100
                135.7694634301,34.9820271923,100
                135.7693145003,34.9822031907,100
                135.768902459,34.9827125888,100
                135.7688510438,34.9827165745,100
                135.7683735166,34.9831487978,100
                135.768163857,34.983338554,100
                135.7681412565,34.9835095808,100
                135.7680340883,34.9843206417,100
                135.7680224373,34.9844089353,100
                135.7678608169,34.9856180943,100
                135.767693968,34.9863946704,100
                135.7676925167,34.9864015009,100
                135.7673988201,34.9873213718,100
                135.7673411845,34.9875500836,100
                135.7673059502,34.9877458789,100
                135.7672942506,34.98788115,100
                135.7672893854,34.9879294554,100
                135.7672463147,34.988407936,100
                135.7680554864,34.9884600482,100
                135.7685595432,34.9884517109,100
                135.7685857163,34.9888364421,100
                135.768830449,34.9888176093,100
                135.7688266471,34.988929936,100
                135.7691954998,34.9889282411,100
                135.7691907151,34.9892920668,100
                135.7691929887,34.9892973527,100
                135.7695726065,34.9893029316,100
                135.7695754518,34.9893028665,100
                135.7700152081,34.9892782741,100
                135.7701502797,34.9892577515,100
                135.7701245079,34.9887723792,100
                135.7701935785,34.9887606075,100
                135.7702986071,34.9887426348,100
                135.7702878095,34.988617815,100
                135.7704835714,34.9886214944,100
                135.770634684,34.9886336815,100
                135.7706014012,34.9883090842,100
                135.7707193299,34.9882984604,100
                135.7707278368,34.98838602,100
                135.7710106627,34.9883769742,100
                135.7711969749,34.9883709849,100
                135.7712406792,34.9891808551,100
                135.7712412303,34.9891906435,100
                135.7739383925,34.989062841,100
                135.774459136,34.9890318994,100
                135.774300321,34.9873645687,100
                135.7742938862,34.9873158903,100
                135.7742360177,34.9868781427,100
                135.7742156048,34.9867236557,100
                135.7741881157,34.9865279549,100
                135.7741419262,34.986199254,100
                135.7741377088,34.9861692446,100
                135.7741311337,34.9860463361,100
                135.7741270226,34.9859695618,100
                135.7741097597,34.985647605,100
                135.7741036669,34.9854271556,100
                135.7736305829,34.9854989598,100
                135.7735957815,34.9853096548,100
                135.7737148582,34.9852921286,100
                135.7737169234,34.9852414965,100
                135.7737795561,34.9852355548,100
                135.7737688509,34.985020096,100
                135.7736340487,34.9850300595,100
                135.7735745861,34.984893881,100
                135.7737854791,34.9848452549,100
                135.7740634346,34.9848285157,100
                135.7740461583,34.9843319695,100
                135.7740308445,34.9841038951,100
                135.7739386675,34.9834602965,100
                135.7739241214,34.9833587831,100
                135.7739109185,34.9832973456,100
                135.7740850573,34.9832875978,100
                135.7745396465,34.9832535808,100
                135.7747024854,34.9832057797,100
                135.7748669213,34.9830581161,100
                135.774947038,34.9829467764,100
                135.7754502475,34.9827407895,100
                135.7755673319,34.9826200116,100
                135.7757884605,34.9825728803,100
                135.7765501093,34.9824189207,100
                135.777016607,34.9824571717,100
                135.7771466846,34.9823560658,100
                135.777207647,34.982159404,100
                135.7772528332,34.98211716,100
                135.7774912999,34.9820164636,100
                135.7775232789,34.981985746,100
                135.7773288851,34.9818125603,100
                135.7776903826,34.9815182721,100
                135.7780244771,34.9813194329,100
                135.7783688612,34.9809513747,100
                135.7785091126,34.981027692,100
                135.7786796741,34.9808577111,100
                135.7788925395,34.9809859946,100
                135.7796526009,34.9802215517,100
                135.7798427865,34.9803209877,100
                135.7791634895,34.9810890294,100
                135.7790287673,34.9810073712,100
                135.7788199332,34.9812355266,100
                135.7787906591,34.9813919635,100
                135.7786329859,34.9816862715,100
                135.7786028685,34.9817019923,100
                135.7786667158,34.9818004954,100
                135.7785843602,34.981840277,100
                135.7788923877,34.9819657766,100
                135.7789498836,34.9819832778,100
                135.7790545907,34.9820493879,100
                135.779098009,34.9820284779,100
                135.7795023404,34.9818339887,100
                135.7796196946,34.9819462509,100
                135.7794817766,34.9820605141,100
                135.7792585829,34.98220209,100
                135.7795960397,34.9824275763,100
                135.7798548183,34.9823063471,100
                135.7799123292,34.982407514,100
                135.7794967419,34.9826429047,100
                135.7794426772,34.9825573765,100
                135.7795460561,34.9824635443,100
                135.7792264219,34.9822459088,100
                135.7791218083,34.9824327732,100
                135.7789792319,34.9825610425,100
                135.7786458523,34.9825800161,100
                135.7785395094,34.9826451096,100
                135.7785164559,34.9826592224,100
                135.778638981,34.9827733955,100
                135.7786273263,34.9828600008,100
                135.7784164463,34.983050967,100
                135.7782275057,34.9829171632,100
                135.7778988726,34.9832401775,100
                135.7780768477,34.9833138867,100
                135.7781357293,34.9831991977,100
                135.7782890805,34.9832500439,100
                135.7782377117,34.9833645354,100
                135.7784367301,34.9834179311,100
                135.7785028953,34.9833787521,100
                135.7786991173,34.9833176261,100
                135.7792175132,34.9833219045,100
                135.7793446769,34.9833229527,100
                135.7794281864,34.983436562,100
                135.7796602881,34.9831482311,100
                135.7799183787,34.9831422193,100
                135.7801552551,34.983053488,100
                135.7802805614,34.9828625046,100
                135.7805962175,34.9823145889,100
                135.7805291314,34.9822988348,100
                135.7805681572,34.9821999532,100
                135.7804887451,34.9821767808,100
                135.7805626961,34.9820239486,100
                135.7807345611,34.9817717062,100
                135.780931709,34.9817065647,100
                135.7810179708,34.9816132648,100
                135.7810857533,34.9815840894,100
                135.7811658441,34.9814947904,100
                135.7814554353,34.9814173491,100
                135.7815931987,34.9816197917,100
                135.7815772681,34.9816422996,100
                135.781315761,34.9816882411,100
                135.7809467459,34.9821045037,100
                135.780854972,34.98230745,100
                135.7807912977,34.982449597,100
                135.7808029166,34.9826272362,100
                135.7806858476,34.982768794,100
                135.7806351631,34.9829492766,100
                135.7805824125,34.9831588424,100
                135.7808980161,34.9830831381,100
                135.7813231523,34.9829416401,100
                135.7815209611,34.9829427707,100
                135.7816736599,34.982901564,100
                135.7822848055,34.982796668,100
                135.7825793651,34.982701766,100
                135.7832577825,34.982394084,100
                135.7832274589,34.982111972,100
                135.783229736,34.981969081,100
                135.7832756246,34.9817791513,100
                135.7834830604,34.9817960718,100
                135.7835473792,34.982184026,100
                135.7835599507,34.9822277123,100
                135.7835768039,34.9822862679,100
                135.7837061844,34.9821126837,100
                135.783896512,34.9817496929,100
                135.7840094751,34.9814888914,100
                135.7841080712,34.9813979364,100
                135.7845064697,34.9814469545,100
                135.7846351627,34.9812492162,100
                135.784728945,34.98118433,100
                135.7845795595,34.9809922146,100
                135.7849138827,34.9808864367,100
                135.7851952603,34.9808292281,100
                135.7852896786,34.9808178461,100
                135.7854119067,34.9808104931,100
                135.7855158385,34.9808295372,100
                135.7855623847,34.9808407153,100
                135.7855802389,34.9810196022,100
                135.7857033352,34.9810137079,100
                135.7861340685,34.9808413622,100
                135.7865032103,34.980786309,100
                135.7866123347,34.9807507965,100
                135.7867098176,34.9806914582,100
                135.7870586944,34.9804554428,100
                135.7873121154,34.9802803179,100
                135.787389618,34.980245735,100
                135.7878366117,34.9801020076,100
                135.7881206146,34.9799879236,100
                135.7884308988,34.9799512836,100
                135.7884768487,34.9799334778,100
                135.7884752774,34.97982833,100
                135.7883951754,34.9798253003,100
                135.7883474818,34.9797795807,100
                135.7883849439,34.9796678808,100
                135.7883672776,34.979641299,100
                135.7879592465,34.9794893794,100
                135.7877410616,34.979445893,100
                135.7875243345,34.9793844526,100
                135.7873563657,34.9792877439,100
                135.7871311492,34.9791335358,100
                135.7869600759,34.9789704779,100
                135.7868493481,34.9789319005,100
                135.7867677133,34.9788174537,100
                135.7869214508,34.9787337085,100
                135.7869753239,34.9786293615,100
                135.7869616892,34.9784651737,100
                135.7868250306,34.9782628083,100
                135.7871432547,34.9779873728,100
                135.7874052712,34.9777257794,100
                135.7877734426,34.9774576839,100
                135.7879478186,34.9773470003,100
                135.7880042198,34.9772909702,100
                135.7881310335,34.9771009035,100
                135.7882937156,34.9765578526,100
                135.7880622209,34.9762844026,100
                135.7878648289,34.9760335472,100
                135.7876614418,34.9756005604,100
                135.7874776798,34.9753655049,100
                135.7874455441,34.9752096634,100
                135.7874070223,34.9751000136,100
                135.7872441364,34.9747897068,100
                135.786995956,34.9745706625,100
                135.7869676445,34.9744744112,100
                135.7867961031,34.9742635997,100
                135.7865895277,34.9740773768,100
                135.7865522517,34.9740002642,100
                135.7865882176,34.9739205358,100
                135.786825404,34.9736953825,100
                135.787231186,34.9732836191,100
                135.7872569414,34.9730403413,100
                135.7873038423,34.9728150607,100
                135.7874206441,34.9725659599,100
                135.7875486905,34.9722588473,100
                135.7876214556,34.9720663608,100
                135.787642565,34.9719399125,100
                135.787704781,34.9718080456,100
                135.7878135491,34.9716712608,100
                135.7878494999,34.9715966713,100
                135.7877608745,34.9715176364,100
                135.7874564025,34.9713330002,100
                135.7870309188,34.9711214566,100
                135.7869419448,34.9711200289,100
                135.7865874805,34.9712401072,100
                135.7864476831,34.9712733794,100
                135.7861868923,34.971271856,100
                135.7858184449,34.9713053514,100
                135.7855713003,34.9713123039,100
                135.7854092557,34.971421384,100
                135.7853736209,34.9714302651,100
                135.785100778,34.9713668117,100
                135.7848828064,34.9712816951,100
                135.7846392942,34.971240339,100
                135.784445611,34.9712345708,100
                135.7843921334,34.9712529259,100
                135.7843144082,34.9713273689,100
                135.7842988899,34.9714307979,100
                135.7843601827,34.9716491598,100
                135.7842131458,34.9719168006,100
                135.7841763535,34.9720257548,100
                135.7841329343,34.9720913852,100
                135.7839826171,34.9721808411,100
                135.783753578,34.9722648715,100
                135.7836371319,34.9722824121,100
                135.783585901,34.9722425979,100
                135.7834478607,34.9722069961,100
                135.7833662888,34.9722297385,100
                135.7832488255,34.9723174906,100
                135.7830273007,34.972407239,100
                135.7829506493,34.9725526029,100
                135.7828343126,34.972692263,100
                135.7828145072,34.9728310369,100
                135.7827662689,34.9728993345,100
                135.7826043189,34.9729854573,100
                135.7824997683,34.9730923882,100
                135.7822663015,34.9732478936,100
                135.7820234971,34.9733515449,100
                135.7819552694,34.9734474141,100
                135.7817580383,34.9736188301,100
                135.7815434848,34.9737633995,100
                135.7815412792,34.9738585603,100
                135.7815060593,34.9739904661,100
                135.7814315329,34.9741423626,100
                135.7813652661,34.9742245921,100
                135.7812336568,34.9742973728,100
                135.7811033905,34.9743687655,100
                135.7810413949,34.974399394,100
                135.7809758947,34.9744447298,100
                135.7810340413,34.9744674626,100
                135.7814644737,34.9745823149,100
                135.7820357331,34.9747576575,100
                135.7823131386,34.9748474112,100
                135.7823633629,34.9749018849,100
                135.782403898,34.9749652462,100
                135.7824625993,34.9751298363,100
                135.7825514575,34.9754310865,100
                135.7826564966,34.9756386838,100
                135.7829493936,34.9755575521,100
                135.78314218,34.9754588565,100
                135.7834082332,34.9752956017,100
                135.7839450637,34.9752190355,100
                135.7839898456,34.9753254388,100
                135.7840534579,34.9756528328,100
                135.7836428589,34.9756178436,100
                135.7835772003,34.9755978939,100
                135.7835272951,34.9755925446,100
                135.7832449804,34.975683302,100
                135.7830824873,34.9757552845,100
                135.7822671268,34.9760139761,100
                135.7815686731,34.9759813066,100
                135.7811949486,34.975955348,100
                135.780842963,34.9761465531,100
                135.7808614235,34.976154405,100
                135.7805734314,34.9764855948,100
                135.7805244904,34.9764934632,100
                135.7796661683,34.976612826,100
                135.7794682427,34.976636623,100
                135.7790507789,34.9766890345,100
                135.7787480454,34.9769048332,100
                135.7780582764,34.9769340642,100
                135.7776667689,34.9770139848,100
                135.777435784,34.9773230879,100
                135.7772912269,34.9774509296,100
                135.7764802871,34.9775557093,100
                135.7764480409,34.9776072723,100
                135.776313717,34.9777867544,100
                135.7761841432,34.9779819504,100
                135.776116282,34.9780896484,100
                135.7757709007,34.978219088,100
                135.7756535262,34.9782598606,100
                135.7750522461,34.9786796211,100
                135.7750492108,34.9789304781,100
                135.7750477025,34.9790454837,100
                135.7750465381,34.979426002,100
                135.7753871515,34.9795200214,100
                135.7755691552,34.9795252173,100
                135.7755637265,34.9800280595,100
                135.7762459957,34.9799277632,100
                135.7763500082,34.9799316188,100
                135.7764026676,34.9799335459,100
                135.7766072604,34.9799158229,100
                135.7768474916,34.9798492182,100
                135.7771670305,34.9798344518,100
                135.7772432798,34.9801246821,100
                135.7772332973,34.9801863983,100
                135.7772520709,34.9802935175,100
                135.7772880342,34.9804987428,100
                135.7772905281,34.980512977,100
                135.7769862477,34.9805737491,100
                135.7769970738,34.9806206444,100
                135.7769976283,34.9806240089,100
                135.7770908256,34.9811905459,100
                135.7770909825,34.9811913753,100
                135.7770634065,34.9811956934,100
                135.7767036585,34.981252853,100
                135.7762509319,34.9812590621,100
                135.776235032,34.9811736753,100
                135.7763737945,34.9810649796,100
                135.7763256123,34.9808223404,100
                135.7761665122,34.9808424701,100
                135.7761498686,34.9807558131,100
                135.77561745,34.9808452609,100
                135.7756041221,34.9808476167,100
                135.774818842,34.9809863975,100
                135.7746230698,34.9810721684,100
                135.7746010339,34.9810805068,100
                135.7745402408,34.9811034238,100
                135.7744080309,34.9812407951,100
                135.773916207,34.9813305201,100
                135.7739186636,34.9813705987,100
                135.7738919661,34.9814180871,100
                135.7736947799,34.9815347011,100
                135.7735954381,34.9816591028,100
                135.7733168936,34.9817385191,100
                135.7731835413,34.9817836957,100
                135.7729904481,34.9818346066,100
                135.7726191906,34.9815557224,100
                135.7724717002,34.9814449449,100
                135.7720651178,34.9811395114,100
                135.7716300409,34.9808126795,100
                135.7715875416,34.9807807658,100
                135.7715624562,34.9807619141,100
                135.770985084,34.9807231449,100
                135.7707459675,34.9807090274,100
                135.7706156521,34.9807013866,100
                135.7701750874,34.9806588572,100
                135.7699887201,34.980645755,100
              </coordinates>
            </LinearRing>
          </outerBoundaryIs>
        </Polygon>
      </Placemark>
    </Document>
  </Document>
</kml>
