<?xml version="1.0" encoding="UTF-8"?>
<kml xmlns="http://www.opengis.net/kml/2.2">
  <Document id="root_doc">
    <Document id="_0_01______disv4326">
      <name>20_01修道disv4326</name>
      <Placemark id="_0_01______disv4326.1">
        <visibility>1</visibility>
        <Polygon>
          <extrude>0</extrude>
          <outerBoundaryIs>
            <LinearRing>
              <coordinates>
                135.7700627976,34.992186145,100
                135.7701174961,34.9927022084,100
                135.7701225833,34.9927410324,100
                135.7701343785,34.9928310534,100
                135.7702363349,34.9936091989,100
                135.7702658734,34.9938345542,100
                135.7703133156,34.9941993226,100
                135.7703457447,34.9944085554,100
                135.7706112072,34.9944806801,100
                135.7706637582,34.9947943971,100
                135.7707116599,34.9950803565,100
                135.7707438345,34.9952809981,100
                135.7702195042,34.9953545271,100
                135.770221408,34.9953630526,100
                135.7703338728,34.995865844,100
                135.7702481153,34.9958820944,100
                135.7702740485,34.9959742624,100
                135.7704388244,34.995940688,100
                135.7707905079,34.9958690269,100
                135.7708088979,34.9958652571,100
                135.7707873828,34.9957085127,100
                135.7708609733,34.9956968186,100
                135.770872955,34.9956195818,100
                135.7709368704,34.9956401942,100
                135.7711511116,34.9956076353,100
                135.7711580886,34.9955520102,100
                135.7714295628,34.9955345588,100
                135.7714508953,34.995718277,100
                135.7716738339,34.9956890436,100
                135.7716578295,34.9956120356,100
                135.7718099566,34.9955946416,100
                135.7717716117,34.9951410781,100
                135.7717564464,34.9949617382,100
                135.7723768513,34.994851335,100
                135.7726000757,34.9948101965,100
                135.7726950571,34.9947185369,100
                135.7726933966,34.9947109099,100
                135.7726217728,34.9944664773,100
                135.7727346645,34.9944441496,100
                135.7727607075,34.9945334437,100
                135.7727747894,34.9945911643,100
                135.7727787489,34.9946034922,100
                135.7727637779,34.9946118774,100
                135.7727538989,34.9946190719,100
                135.7727506035,34.9946226714,100
                135.7727494871,34.9946298805,100
                135.7727515847,34.9946363462,100
                135.7727612659,34.9946662114,100
                135.772884878,34.9945966224,100
                135.7730250663,34.9945632882,100
                135.7730600703,34.9945702539,100
                135.773081565,34.9946353699,100
                135.7731940983,34.9946101436,100
                135.7732831943,34.9945461301,100
                135.7733622116,34.9944930886,100
                135.7735114942,34.9943824834,100
                135.7736040752,34.9943133206,100
                135.7736157185,34.9943005555,100
                135.7737430997,34.9942012057,100
                135.7738370969,34.9943924509,100
                135.773866024,34.9944532695,100
                135.7741380877,34.9943800315,100
                135.7740866873,34.9942420126,100
                135.7740554445,34.9941581168,100
                135.7740541992,34.9941548237,100
                135.7742102347,34.9941326963,100
                135.7745155301,34.994122059,100
                135.7747607351,34.9940522924,100
                135.7749705117,34.9939354852,100
                135.7751697446,34.9938880312,100
                135.7751827309,34.9938846877,100
                135.7752367192,34.9940106417,100
                135.7752605766,34.9940990304,100
                135.7752820845,34.9941784903,100
                135.7759037332,34.9940574155,100
                135.775915335,34.994071031,100
                135.7762485792,34.9938199981,100
                135.7762367136,34.9936357367,100
                135.7763701217,34.9936635879,100
                135.7766408847,34.9934944216,100
                135.7768261285,34.993356932,100
                135.7768076338,34.9933211908,100
                135.7771793325,34.9930186054,100
                135.7772729763,34.9930665242,100
                135.7774075312,34.992898305,100
                135.7773502563,34.9928116455,100
                135.7775996046,34.9927194157,100
                135.7776429308,34.9927187191,100
                135.778259268,34.9927092742,100
                135.7783626218,34.9927301423,100
                135.7784606607,34.9927499349,100
                135.7784798573,34.992711807,100
                135.7785069142,34.9926580677,100
                135.7789253816,34.9926498088,100
                135.7790493286,34.9926180713,100
                135.7790478876,34.9925719864,100
                135.7790385808,34.9925111854,100
                135.7791186916,34.99245634,100
                135.7791693043,34.9923725941,100
                135.7791421174,34.9922986239,100
                135.7791204776,34.9921985201,100
                135.7791206395,34.9921381224,100
                135.7791657571,34.9920615783,100
                135.7794401049,34.9919369802,100
                135.7800260664,34.9917804849,100
                135.7802420852,34.9917487576,100
                135.7804351572,34.9917300186,100
                135.780779044,34.9916194298,100
                135.7809143347,34.9915498076,100
                135.781034176,34.9914896665,100
                135.7811744613,34.99145604,100
                135.7814723505,34.9913929609,100
                135.7816410507,34.9913511461,100
                135.7821796774,34.9912233264,100
                135.7823761516,34.9912282833,100
                135.7825329655,34.9912499664,100
                135.782550382,34.9912914649,100
                135.7824917086,34.9913640222,100
                135.7822439648,34.9915956178,100
                135.7820947428,34.9917228963,100
                135.7816177224,34.9918960178,100
                135.7817833573,34.9921874621,100
                135.7818728081,34.9922763608,100
                135.7821227238,34.9922251826,100
                135.7822024527,34.9922069659,100
                135.7823014847,34.9921434363,100
                135.7824037047,34.9920817979,100
                135.7825355883,34.9920200883,100
                135.7825911097,34.9919980346,100
                135.78276489,34.9919554024,100
                135.7830121234,34.9919025826,100
                135.7831085819,34.9918784124,100
                135.7830732362,34.9915813325,100
                135.7831460151,34.9915951205,100
                135.7834644538,34.991626813,100
                135.7835353663,34.9916214466,100
                135.7838452232,34.9916045279,100
                135.7842108346,34.9915548164,100
                135.7846631567,34.9913739092,100
                135.7849207377,34.9912720984,100
                135.7852820946,34.9912818823,100
                135.7856223854,34.9912212031,100
                135.7858810138,34.9912677831,100
                135.7858879332,34.9912561031,100
                135.7860733323,34.9909457003,100
                135.78609113,34.9907376568,100
                135.7865668429,34.9905890543,100
                135.7865494098,34.9905529656,100
                135.7868327039,34.9904009236,100
                135.7869404108,34.9903657591,100
                135.7869574526,34.9903944534,100
                135.7872019337,34.9903174769,100
                135.7871739813,34.9902718614,100
                135.7874924712,34.9901679716,100
                135.7875588263,34.9901793544,100
                135.7879997467,34.9904132951,100
                135.7881728941,34.9907310744,100
                135.7886694049,34.9905865675,100
                135.7886164376,34.9903904102,100
                135.7882726996,34.990161569,100
                135.7883207199,34.99009869,100
                135.7885773219,34.9901239214,100
                135.7885673588,34.989986785,100
                135.7887426328,34.9899573654,100
                135.7886966106,34.989714528,100
                135.7888554933,34.9896860673,100
                135.7888863596,34.9899576123,100
                135.7890114305,34.9899407156,100
                135.7889976759,34.9897460328,100
                135.7890779617,34.9897324381,100
                135.7891076251,34.9898541852,100
                135.7892103118,34.9898397127,100
                135.789170109,34.9894441315,100
                135.7890571583,34.9894568265,100
                135.7890536647,34.9894932996,100
                135.7889366077,34.9895054241,100
                135.7888874599,34.9895493548,100
                135.7887201505,34.9896029425,100
                135.7885591173,34.9896862618,100
                135.7885106099,34.9896468101,100
                135.7880840606,34.9897269238,100
                135.7879957216,34.9900627068,100
                135.7880592104,34.9901086644,100
                135.7882084111,34.9904452053,100
                135.7879717402,34.9903045806,100
                135.7878345633,34.9902107459,100
                135.7876849323,34.9900930158,100
                135.787580356,34.9900349463,100
                135.7873498875,34.9899546831,100
                135.78736098,34.9898918119,100
                135.7877666919,34.9899549814,100
                135.7880172186,34.9895704626,100
                135.788478578,34.9893377951,100
                135.7888734405,34.9892153719,100
                135.7890341719,34.989165505,100
                135.7890327048,34.9890351433,100
                135.7888700431,34.9890191573,100
                135.7884292797,34.9889622685,100
                135.788010977,34.9889992945,100
                135.7880165114,34.9886911887,100
                135.787931417,34.9884775086,100
                135.7878475095,34.9883926116,100
                135.7877786951,34.9883167696,100
                135.7877046215,34.9882400919,100
                135.7876618525,34.9881759395,100
                135.7876660584,34.9881652122,100
                135.7876597893,34.9881263556,100
                135.7877212377,34.9880039439,100
                135.7877753317,34.9879192207,100
                135.7876998786,34.9878695094,100
                135.7876198052,34.9879135409,100
                135.7875145846,34.9879425262,100
                135.787413781,34.9879519466,100
                135.7872820725,34.9879529335,100
                135.7871681022,34.9879710142,100
                135.7869662734,34.9879469993,100
                135.7870084997,34.9883482235,100
                135.7867942413,34.9889961977,100
                135.7861657267,34.9897159239,100
                135.78603303,34.9896864657,100
                135.7852627747,34.9895214479,100
                135.7849546158,34.989610211,100
                135.7837678521,34.9899276525,100
                135.7837070572,34.9897859146,100
                135.7835430529,34.9897692854,100
                135.7835402304,34.9897684347,100
                135.7834290081,34.9897340799,100
                135.7831797419,34.9897441326,100
                135.783175798,34.9899180813,100
                135.7832482574,34.9900574466,100
                135.7830940475,34.9900985831,100
                135.7827817763,34.9901738109,100
                135.7824587247,34.9901739402,100
                135.7820699695,34.990192265,100
                135.781649124,34.99045942,100
                135.7815337821,34.9897361334,100
                135.7813432752,34.9897412154,100
                135.7805673928,34.9897617995,100
                135.7805511794,34.9897683972,100
                135.7807154177,34.989664654,100
                135.7811078666,34.9894440818,100
                135.7811686099,34.9894112319,100
                135.7814853413,34.9892985477,100
                135.7816394987,34.9892408715,100
                135.781668645,34.9892335606,100
                135.7820774734,34.9890668749,100
                135.7822585079,34.9889921876,100
                135.7821694011,34.9888152543,100
                135.7821405331,34.9887476836,100
                135.7821123317,34.9886408633,100
                135.7820714555,34.9884816201,100
                135.782079848,34.9883540564,100
                135.7820805857,34.9883428091,100
                135.7818801872,34.9883235209,100
                135.7816486719,34.9880598778,100
                135.7815331831,34.9880662531,100
                135.7814496695,34.9880708599,100
                135.7814086598,34.9880291637,100
                135.781366505,34.9880325409,100
                135.7809689111,34.9880956354,100
                135.7808141851,34.9881792375,100
                135.7803186402,34.9884471707,100
                135.7804504551,34.9888451838,100
                135.7789218014,34.9890411056,100
                135.7788953674,34.9889421765,100
                135.7788678238,34.9887861294,100
                135.7788399311,34.98841732,100
                135.7770730534,34.9886326465,100
                135.7770571962,34.9886345891,100
                135.7771797861,34.9891628836,100
                135.7749065069,34.9894841676,100
                135.7748818785,34.9893605923,100
                135.7745203728,34.9894045062,100
                135.7744837004,34.9890305346,100
                135.774459136,34.9890318994,100
                135.7739383925,34.989062841,100
                135.7740573445,34.9904038029,100
                135.773920435,34.9904153819,100
                135.7739692507,34.9908693816,100
                135.7733387994,34.9909192049,100
                135.7733402945,34.9910437251,100
                135.7733427701,34.9912483242,100
                135.7733482993,34.9915012418,100
                135.7733465944,34.9916314611,100
                135.7733550765,34.9920708782,100
                135.7733542806,34.9921113037,100
                135.7733908273,34.9925526741,100
                135.7731697728,34.9925700851,100
                135.7728712482,34.9925872781,100
                135.7725356885,34.9926127139,100
                135.7719062344,34.9926602785,100
                135.771466329,34.9926935424,100
                135.7713726027,34.9919599964,100
                135.7710240371,34.9920385047,100
                135.7710036545,34.9919823356,100
                135.7709036614,34.9920113035,100
                135.7709538968,34.9921647927,100
                135.7707676294,34.9922058531,100
                135.7706895217,34.991981603,100
                135.7703123564,34.992043013,100
                135.77033791,34.9921325037,100
                135.7700627976,34.992186145,100
              </coordinates>
            </LinearRing>
          </outerBoundaryIs>
        </Polygon>
      </Placemark>
    </Document>
  </Document>
</kml>
