<?xml version="1.0" encoding="UTF-8"?>
<kml xmlns="http://www.opengis.net/kml/2.2">
  <Document id="root_doc">
    <Document id="_0_08______disv4326">
      <name>20_08新道disv4326</name>
      <Placemark id="_0_08______disv4326.1">
        <visibility>1</visibility>
        <Polygon>
          <extrude>0</extrude>
          <outerBoundaryIs>
            <LinearRing>
              <coordinates>
                135.7702740485,34.9959742624,100
                135.7702481153,34.9958820944,100
                135.7702288063,34.995870154,100
                135.7699121509,34.9959164646,100
                135.7695927983,34.995963331,100
                135.7693829288,34.9959939949,100
                135.7692854295,34.9960083198,100
                135.7690929388,34.9960366914,100
                135.7689184922,34.9960623489,100
                135.7688859413,34.9959739712,100
                135.7687906741,34.995551993,100
                135.7679433977,34.9956732134,100
                135.7680559666,34.995962423,100
                135.768168782,34.9962522627,100
                135.7683133875,34.9966237681,100
                135.768388646,34.9968171153,100
                135.7683984742,34.996842364,100
                135.7684279081,34.9969179817,100
                135.7684434268,34.9969578535,100
                135.768488957,34.9970742293,100
                135.7685086077,34.9971244587,100
                135.7686475142,34.9974417863,100
                135.768733204,34.9976375425,100
                135.7687397087,34.997652921,100
                135.7687853407,34.997760808,100
                135.7688222299,34.9978480213,100
                135.7689490045,34.998147748,100
                135.7690161758,34.9983065554,100
                135.7690178414,34.9983104949,100
                135.7692277974,34.9987987049,100
                135.7692361983,34.9988168127,100
                135.7692628038,34.9988741699,100
                135.769345523,34.999052497,100
                135.7693578951,34.9990791672,100
                135.7694106266,34.9991928463,100
                135.7694128839,34.9991976364,100
                135.7694440333,34.9992637573,100
                135.7694910351,34.9993635241,100
                135.7696213324,34.9996401733,100
                135.7696215726,34.9996406189,100
                135.7696276902,34.9996536768,100
                135.769993032,35.0004341327,100
                135.7700248288,35.0005017352,100
                135.7700952798,35.0006515254,100
                135.7703398316,35.0011714668,100
                135.7703831437,35.0012385477,100
                135.7705701176,35.0015281271,100
                135.7705895117,35.0015604161,100
                135.770957903,35.0021737682,100
                135.7710558696,35.0023541089,100
                135.7711909145,35.0026528375,100
                135.7714164622,35.0032553534,100
                135.7714994433,35.0035171514,100
                135.7720422054,35.0034058995,100
                135.7722531933,35.0033726972,100
                135.772274299,35.0033693557,100
                135.7722662397,35.0033203223,100
                135.7725455912,35.0032883001,100
                135.7725654987,35.0033939103,100
                135.7725980631,35.0034412988,100
                135.7725354177,35.0034701297,100
                135.7725422859,35.0035240893,100
                135.772722101,35.0035139988,100
                135.7727263628,35.0035430229,100
                135.7730243312,35.0035184307,100
                135.7730297034,35.0035179476,100
                135.7730331558,35.0035350263,100
                135.7730755267,35.003530864,100
                135.7732147007,35.0035175984,100
                135.7733297671,35.0035060902,100
                135.7733308184,35.0035223199,100
                135.7733779331,35.0035206037,100
                135.7734118996,35.0035188643,100
                135.773444769,35.0035180224,100
                135.7734430083,35.003439924,100
                135.7734440678,35.0034259574,100
                135.7735793458,35.0034021908,100
                135.7735521415,35.0033037494,100
                135.7733678125,35.0033226374,100
                135.7733407818,35.0032080709,100
                135.773338517,35.0031984884,100
                135.7733877454,35.0031936486,100
                135.7733424518,35.0029893233,100
                135.7734654299,35.002979478,100
                135.7734924675,35.0030998898,100
                135.7736246139,35.0030863296,100
                135.7736345065,35.0031544523,100
                135.7736033563,35.0031604512,100
                135.7736220756,35.0032157732,100
                135.7736465833,35.0032133528,100
                135.7736829532,35.0033716729,100
                135.7744326827,35.0032877614,100
                135.7743050763,35.0027678341,100
                135.7741687961,35.0022126772,100
                135.7740052431,35.0015462635,100
                135.7744136401,35.0014955306,100
                135.7746267638,35.0014691582,100
                135.7746356884,35.0015159391,100
                135.7753136699,35.0014806999,100
                135.7752866442,35.0008600326,100
                135.776273708,35.0008532417,100
                135.7767327268,35.000850062,100
                135.7767326998,35.0008442159,100
                135.7767207026,35.0006915755,100
                135.7766308024,35.0006873978,100
                135.7766127354,35.0005478467,100
                135.7763925099,35.0005782355,100
                135.7762278742,35.0006009544,100
                135.7762312253,35.0006195536,100
                135.7756276489,35.0007181083,100
                135.7755079002,35.000352014,100
                135.7757408521,35.0003109564,100
                135.7757058833,35.0001483452,100
                135.7756534609,34.9999044941,100
                135.7757083303,34.9998776207,100
                135.7756773309,34.9997494552,100
                135.7761389918,34.9996932496,100
                135.7768731391,34.999461326,100
                135.7768009144,34.9991960321,100
                135.7767968665,34.9991812359,100
                135.7767430047,34.9989462579,100
                135.7767432991,34.9988688569,100
                135.7767831286,34.998841252,100
                135.7767637022,34.9987305026,100
                135.7767388835,34.9987292613,100
                135.7767187332,34.9984977955,100
                135.7766908301,34.9982766691,100
                135.7766515329,34.9979651633,100
                135.7766391912,34.9979480966,100
                135.7766392192,34.9979612674,100
                135.7764226241,34.9979619296,100
                135.776365209,34.9979735871,100
                135.7760188771,34.9979783073,100
                135.7759038924,34.9979630962,100
                135.775694546,34.997957221,100
                135.7755465383,34.9979530065,100
                135.7755471643,34.9976438252,100
                135.7754972107,34.9976336631,100
                135.7753534456,34.9976356538,100
                135.775360334,34.997942664,100
                135.7753246567,34.9979464734,100
                135.7751925378,34.99796095,100
                135.7745782033,34.9980577909,100
                135.7744143344,34.9980800271,100
                135.7741709252,34.9981131735,100
                135.774147912,34.9979381166,100
                135.7740907355,34.9979480827,100
                135.7740960732,34.9981233893,100
                135.7739077511,34.998152341,100
                135.773908379,34.9981730492,100
                135.773610443,34.9982327151,100
                135.7736058874,34.9982483561,100
                135.7735447849,34.9982569161,100
                135.7735057773,34.9982555324,100
                135.7734066321,34.9982604825,100
                135.7734817912,34.9986716081,100
                135.7734998844,34.9987416239,100
                135.7732728489,34.9987708718,100
                135.7730361461,34.9988234674,100
                135.7728697341,34.9985246824,100
                135.7727431068,34.9982876229,100
                135.7724732183,34.998392415,100
                135.7724761839,34.9983966891,100
                135.7726466447,34.9987999978,100
                135.7720890046,34.9988331215,100
                135.7720992731,34.9989652665,100
                135.7718972483,34.9989891869,100
                135.7715519867,34.9990840448,100
                135.7714777244,34.999105174,100
                135.7714457974,34.9991142717,100
                135.7713683102,34.9989098831,100
                135.7712613337,34.998931657,100
                135.771233371,34.9988765993,100
                135.7711611183,34.9988909027,100
                135.7711495669,34.9987967883,100
                135.7710152812,34.9988282289,100
                135.7709504199,34.9987164086,100
                135.7709084851,34.9987228794,100
                135.7708857394,34.9986081794,100
                135.7709094528,34.9985520915,100
                135.7709510577,34.9985327316,100
                135.7709677618,34.9984042304,100
                135.7708975245,34.9980556168,100
                135.7708940035,34.997967856,100
                135.770918873,34.9978965588,100
                135.7709164102,34.9978743685,100
                135.7709007909,34.9978041928,100
                135.7707756075,34.997825932,100
                135.7707412485,34.9977479024,100
                135.7706965047,34.9977569749,100
                135.7706353351,34.997564167,100
                135.7706124285,34.9974919357,100
                135.7705855153,34.9974044391,100
                135.7705804097,34.9973878501,100
                135.7706242742,34.9973796928,100
                135.7707148152,34.9973509867,100
                135.7707754063,34.9972831365,100
                135.7709382306,34.9972518895,100
                135.7709240727,34.9971419237,100
                135.7709121995,34.9971185196,100
                135.7708747817,34.9970397811,100
                135.7708614696,34.9970411642,100
                135.7708411255,34.996909635,100
                135.7708350952,34.9968622956,100
                135.7708386485,34.9968617388,100
                135.7707568177,34.9962431508,100
                135.7708353105,34.9962306906,100
                135.7708099695,34.9960261108,100
                135.7707905079,34.9958690269,100
                135.7704388244,34.995940688,100
                135.7702740485,34.9959742624,100
              </coordinates>
            </LinearRing>
          </outerBoundaryIs>
        </Polygon>
      </Placemark>
    </Document>
  </Document>
</kml>
