<?xml version="1.0" encoding="UTF-8"?>
<kml xmlns="http://www.opengis.net/kml/2.2">
  <Document id="root_doc">
    <Document id="_0_04_________disv4326">
      <name>20_04今熊野disv4326</name>
      <Placemark id="_0_04_________disv4326.1">
        <visibility>1</visibility>
        <Polygon>
          <extrude>0</extrude>
          <outerBoundaryIs>
            <LinearRing>
              <coordinates>
                135.7790287673,34.9810073712,100
                135.7791634895,34.9810890294,100
                135.7798427865,34.9803209877,100
                135.7796526009,34.9802215517,100
                135.7788925395,34.9809859946,100
                135.7786796741,34.9808577111,100
                135.7785091126,34.981027692,100
                135.7783688612,34.9809513747,100
                135.7780244771,34.9813194329,100
                135.7776903826,34.9815182721,100
                135.7773288851,34.9818125603,100
                135.7775232789,34.981985746,100
                135.7774912999,34.9820164636,100
                135.7772528332,34.98211716,100
                135.777207647,34.982159404,100
                135.7771466846,34.9823560658,100
                135.777016607,34.9824571717,100
                135.7765501093,34.9824189207,100
                135.7757884605,34.9825728803,100
                135.7755673319,34.9826200116,100
                135.7754502475,34.9827407895,100
                135.774947038,34.9829467764,100
                135.7748669213,34.9830581161,100
                135.7747024854,34.9832057797,100
                135.7745396465,34.9832535808,100
                135.7740850573,34.9832875978,100
                135.7739109185,34.9832973456,100
                135.7739241214,34.9833587831,100
                135.7739386675,34.9834602965,100
                135.7740308445,34.9841038951,100
                135.7740461583,34.9843319695,100
                135.7740634346,34.9848285157,100
                135.7737854791,34.9848452549,100
                135.7735745861,34.984893881,100
                135.7736340487,34.9850300595,100
                135.7737688509,34.985020096,100
                135.7737795561,34.9852355548,100
                135.7737169234,34.9852414965,100
                135.7737148582,34.9852921286,100
                135.7735957815,34.9853096548,100
                135.7736305829,34.9854989598,100
                135.7741036669,34.9854271556,100
                135.7741097597,34.985647605,100
                135.7741270226,34.9859695618,100
                135.7741311337,34.9860463361,100
                135.7741377088,34.9861692446,100
                135.7741419262,34.986199254,100
                135.7741881157,34.9865279549,100
                135.7742156048,34.9867236557,100
                135.7742360177,34.9868781427,100
                135.7742938862,34.9873158903,100
                135.774300321,34.9873645687,100
                135.774459136,34.9890318994,100
                135.7744837004,34.9890305346,100
                135.7745203728,34.9894045062,100
                135.7748818785,34.9893605923,100
                135.7749065069,34.9894841676,100
                135.7771797861,34.9891628836,100
                135.7770571962,34.9886345891,100
                135.7770730534,34.9886326465,100
                135.7788399311,34.98841732,100
                135.7788678238,34.9887861294,100
                135.7788953674,34.9889421765,100
                135.7789218014,34.9890411056,100
                135.7804504551,34.9888451838,100
                135.7803186402,34.9884471707,100
                135.7808141851,34.9881792375,100
                135.7809689111,34.9880956354,100
                135.781366505,34.9880325409,100
                135.7814086598,34.9880291637,100
                135.7814496695,34.9880708599,100
                135.7815331831,34.9880662531,100
                135.7816486719,34.9880598778,100
                135.7818801872,34.9883235209,100
                135.7820805857,34.9883428091,100
                135.782079848,34.9883540564,100
                135.7820714555,34.9884816201,100
                135.7821123317,34.9886408633,100
                135.7821405331,34.9887476836,100
                135.7821694011,34.9888152543,100
                135.7822585079,34.9889921876,100
                135.7820774734,34.9890668749,100
                135.781668645,34.9892335606,100
                135.7816394987,34.9892408715,100
                135.7814853413,34.9892985477,100
                135.7811686099,34.9894112319,100
                135.7811078666,34.9894440818,100
                135.7807154177,34.989664654,100
                135.7805511794,34.9897683972,100
                135.7805673928,34.9897617995,100
                135.7813432752,34.9897412154,100
                135.7815337821,34.9897361334,100
                135.781649124,34.99045942,100
                135.7820699695,34.990192265,100
                135.7824587247,34.9901739402,100
                135.7827817763,34.9901738109,100
                135.7830940475,34.9900985831,100
                135.7832482574,34.9900574466,100
                135.783175798,34.9899180813,100
                135.7831797419,34.9897441326,100
                135.7834290081,34.9897340799,100
                135.7835402304,34.9897684347,100
                135.7835430529,34.9897692854,100
                135.7837070572,34.9897859146,100
                135.7837678521,34.9899276525,100
                135.7849546158,34.989610211,100
                135.7852627747,34.9895214479,100
                135.78603303,34.9896864657,100
                135.7861657267,34.9897159239,100
                135.7867942413,34.9889961977,100
                135.7870084997,34.9883482235,100
                135.7869662734,34.9879469993,100
                135.7871681022,34.9879710142,100
                135.7872820725,34.9879529335,100
                135.787413781,34.9879519466,100
                135.7875145846,34.9879425262,100
                135.7876198052,34.9879135409,100
                135.7876998786,34.9878695094,100
                135.7877753317,34.9879192207,100
                135.7877212377,34.9880039439,100
                135.7876597893,34.9881263556,100
                135.7876660584,34.9881652122,100
                135.7876618525,34.9881759395,100
                135.7877046215,34.9882400919,100
                135.7877786951,34.9883167696,100
                135.7878475095,34.9883926116,100
                135.787931417,34.9884775086,100
                135.7880165114,34.9886911887,100
                135.788010977,34.9889992945,100
                135.7884292797,34.9889622685,100
                135.7888700431,34.9890191573,100
                135.7890327048,34.9890351433,100
                135.7890469985,34.9887985365,100
                135.7888791671,34.9887458505,100
                135.789194066,34.9880867114,100
                135.7891974678,34.9879433998,100
                135.7892988084,34.987783849,100
                135.7892871473,34.9876147361,100
                135.7893241065,34.9874838082,100
                135.7893110964,34.987450614,100
                135.7887619779,34.9869501332,100
                135.788555213,34.9868994905,100
                135.7881711122,34.9862968927,100
                135.788112231,34.9861569242,100
                135.7878773936,34.9860090441,100
                135.7877822263,34.9857200615,100
                135.7875877851,34.9855272484,100
                135.7872242333,34.9853607598,100
                135.7870633563,34.9853032939,100
                135.7869888711,34.9852438631,100
                135.7869921652,34.9852184462,100
                135.7873967492,34.9849319568,100
                135.7875856977,34.9848112269,100
                135.7878369283,34.9845358769,100
                135.7879558558,34.984356993,100
                135.7880819973,34.984167274,100
                135.7884078486,34.9838302223,100
                135.7887507954,34.9833970675,100
                135.7889109753,34.983153816,100
                135.7889731997,34.9830801183,100
                135.789019113,34.9830183635,100
                135.789312803,34.9827992895,100
                135.7894811757,34.9824447071,100
                135.7893777706,34.982240154,100
                135.7893127474,34.9821698248,100
                135.7889047227,34.9820331234,100
                135.7886849935,34.9820722474,100
                135.7886372857,34.9820438133,100
                135.7884922076,34.982112419,100
                135.7882791615,34.9819764382,100
                135.7883175979,34.9818948656,100
                135.7883626469,34.9818075015,100
                135.7882452407,34.9817214393,100
                135.7882372117,34.981718748,100
                135.7880390421,34.981575263,100
                135.7877931041,34.9815274355,100
                135.7877804138,34.9815249675,100
                135.7881099192,34.9813661391,100
                135.7883063821,34.9813650744,100
                135.7878366117,34.9801020076,100
                135.787389618,34.980245735,100
                135.7873121154,34.9802803179,100
                135.7870586944,34.9804554428,100
                135.7867098176,34.9806914582,100
                135.7866123347,34.9807507965,100
                135.7865032103,34.980786309,100
                135.7861340685,34.9808413622,100
                135.7857033352,34.9810137079,100
                135.7855802389,34.9810196022,100
                135.7855623847,34.9808407153,100
                135.7855158385,34.9808295372,100
                135.7854119067,34.9808104931,100
                135.7852896786,34.9808178461,100
                135.7851952603,34.9808292281,100
                135.7849138827,34.9808864367,100
                135.7845795595,34.9809922146,100
                135.784728945,34.98118433,100
                135.7846351627,34.9812492162,100
                135.7845064697,34.9814469545,100
                135.7841080712,34.9813979364,100
                135.7840094751,34.9814888914,100
                135.783896512,34.9817496929,100
                135.7837061844,34.9821126837,100
                135.7835768039,34.9822862679,100
                135.7835599507,34.9822277123,100
                135.7835473792,34.982184026,100
                135.7834830604,34.9817960718,100
                135.7832756246,34.9817791513,100
                135.783229736,34.981969081,100
                135.7832274589,34.982111972,100
                135.7832577825,34.982394084,100
                135.7825793651,34.982701766,100
                135.7822848055,34.982796668,100
                135.7816736599,34.982901564,100
                135.7815209611,34.9829427707,100
                135.7813231523,34.9829416401,100
                135.7808980161,34.9830831381,100
                135.7805824125,34.9831588424,100
                135.7806351631,34.9829492766,100
                135.7806858476,34.982768794,100
                135.7808029166,34.9826272362,100
                135.7807912977,34.982449597,100
                135.780854972,34.98230745,100
                135.7809467459,34.9821045037,100
                135.781315761,34.9816882411,100
                135.7815772681,34.9816422996,100
                135.7815931987,34.9816197917,100
                135.7814554353,34.9814173491,100
                135.7811658441,34.9814947904,100
                135.7810857533,34.9815840894,100
                135.7810179708,34.9816132648,100
                135.780931709,34.9817065647,100
                135.7807345611,34.9817717062,100
                135.7805626961,34.9820239486,100
                135.7804887451,34.9821767808,100
                135.7805681572,34.9821999532,100
                135.7805291314,34.9822988348,100
                135.7805962175,34.9823145889,100
                135.7802805614,34.9828625046,100
                135.7801552551,34.983053488,100
                135.7799183787,34.9831422193,100
                135.7796602881,34.9831482311,100
                135.7794281864,34.983436562,100
                135.7793446769,34.9833229527,100
                135.7792175132,34.9833219045,100
                135.7786991173,34.9833176261,100
                135.7785028953,34.9833787521,100
                135.7784367301,34.9834179311,100
                135.7782377117,34.9833645354,100
                135.7782890805,34.9832500439,100
                135.7781357293,34.9831991977,100
                135.7780768477,34.9833138867,100
                135.7778988726,34.9832401775,100
                135.7782275057,34.9829171632,100
                135.7784164463,34.983050967,100
                135.7786273263,34.9828600008,100
                135.778638981,34.9827733955,100
                135.7785164559,34.9826592224,100
                135.7785395094,34.9826451096,100
                135.7786458523,34.9825800161,100
                135.7789792319,34.9825610425,100
                135.7791218083,34.9824327732,100
                135.7792264219,34.9822459088,100
                135.7795460561,34.9824635443,100
                135.7794426772,34.9825573765,100
                135.7794967419,34.9826429047,100
                135.7799123292,34.982407514,100
                135.7798548183,34.9823063471,100
                135.7795960397,34.9824275763,100
                135.7792585829,34.98220209,100
                135.7794817766,34.9820605141,100
                135.7796196946,34.9819462509,100
                135.7795023404,34.9818339887,100
                135.779098009,34.9820284779,100
                135.7790545907,34.9820493879,100
                135.7789498836,34.9819832778,100
                135.7788923877,34.9819657766,100
                135.7785843602,34.981840277,100
                135.7786667158,34.9818004954,100
                135.7786028685,34.9817019923,100
                135.7786329859,34.9816862715,100
                135.7787906591,34.9813919635,100
                135.7788199332,34.9812355266,100
                135.7790287673,34.9810073712,100
              </coordinates>
            </LinearRing>
          </outerBoundaryIs>
        </Polygon>
      </Placemark>
    </Document>
  </Document>
</kml>
