<?xml version="1.0" encoding="UTF-8"?>
<kml xmlns="http://www.opengis.net/kml/2.2">
  <Document id="root_doc">
    <Document id="_0_02______disv4326">
      <name>20_02六原disv4326</name>
      <Placemark id="_0_02______disv4326.1">
        <visibility>1</visibility>
        <Polygon>
          <extrude>0</extrude>
          <outerBoundaryIs>
            <LinearRing>
              <coordinates>
                135.7738370969,34.9943924509,100
                135.7737430997,34.9942012057,100
                135.7736157185,34.9943005555,100
                135.7736040752,34.9943133206,100
                135.7735114942,34.9943824834,100
                135.7733622116,34.9944930886,100
                135.7732831943,34.9945461301,100
                135.7731940983,34.9946101436,100
                135.773081565,34.9946353699,100
                135.7730600703,34.9945702539,100
                135.7730250663,34.9945632882,100
                135.772884878,34.9945966224,100
                135.7727612659,34.9946662114,100
                135.7727515847,34.9946363462,100
                135.7727494871,34.9946298805,100
                135.7727506035,34.9946226714,100
                135.7727538989,34.9946190719,100
                135.7727637779,34.9946118774,100
                135.7727787489,34.9946034922,100
                135.7727747894,34.9945911643,100
                135.7727607075,34.9945334437,100
                135.7727346645,34.9944441496,100
                135.7726217728,34.9944664773,100
                135.7726933966,34.9947109099,100
                135.7726950571,34.9947185369,100
                135.7726000757,34.9948101965,100
                135.7723768513,34.994851335,100
                135.7717564464,34.9949617382,100
                135.7717716117,34.9951410781,100
                135.7718099566,34.9955946416,100
                135.7716578295,34.9956120356,100
                135.7716738339,34.9956890436,100
                135.7714508953,34.995718277,100
                135.7714295628,34.9955345588,100
                135.7711580886,34.9955520102,100
                135.7711511116,34.9956076353,100
                135.7709368704,34.9956401942,100
                135.770872955,34.9956195818,100
                135.7708609733,34.9956968186,100
                135.7707873828,34.9957085127,100
                135.7708088979,34.9958652571,100
                135.7707905079,34.9958690269,100
                135.7708099695,34.9960261108,100
                135.7708353105,34.9962306906,100
                135.7707568177,34.9962431508,100
                135.7708386485,34.9968617388,100
                135.7708350952,34.9968622956,100
                135.7708411255,34.996909635,100
                135.7708614696,34.9970411642,100
                135.7708747817,34.9970397811,100
                135.7709121995,34.9971185196,100
                135.7709240727,34.9971419237,100
                135.7709382306,34.9972518895,100
                135.7707754063,34.9972831365,100
                135.7707148152,34.9973509867,100
                135.7706242742,34.9973796928,100
                135.7705804097,34.9973878501,100
                135.7705855153,34.9974044391,100
                135.7706124285,34.9974919357,100
                135.7706353351,34.997564167,100
                135.7706965047,34.9977569749,100
                135.7707412485,34.9977479024,100
                135.7707756075,34.997825932,100
                135.7709007909,34.9978041928,100
                135.7709164102,34.9978743685,100
                135.770918873,34.9978965588,100
                135.7708940035,34.997967856,100
                135.7708975245,34.9980556168,100
                135.7709677618,34.9984042304,100
                135.7709510577,34.9985327316,100
                135.7709094528,34.9985520915,100
                135.7708857394,34.9986081794,100
                135.7709084851,34.9987228794,100
                135.7709504199,34.9987164086,100
                135.7710152812,34.9988282289,100
                135.7711495669,34.9987967883,100
                135.7711611183,34.9988909027,100
                135.771233371,34.9988765993,100
                135.7712613337,34.998931657,100
                135.7713683102,34.9989098831,100
                135.7714457974,34.9991142717,100
                135.7714777244,34.999105174,100
                135.7715519867,34.9990840448,100
                135.7718972483,34.9989891869,100
                135.7720992731,34.9989652665,100
                135.7720890046,34.9988331215,100
                135.7726466447,34.9987999978,100
                135.7724761839,34.9983966891,100
                135.7724732183,34.998392415,100
                135.7727431068,34.9982876229,100
                135.7728697341,34.9985246824,100
                135.7730361461,34.9988234674,100
                135.7732728489,34.9987708718,100
                135.7734998844,34.9987416239,100
                135.7734817912,34.9986716081,100
                135.7734066321,34.9982604825,100
                135.7735057773,34.9982555324,100
                135.7735447849,34.9982569161,100
                135.7736058874,34.9982483561,100
                135.773610443,34.9982327151,100
                135.773908379,34.9981730492,100
                135.7739077511,34.998152341,100
                135.7740960732,34.9981233893,100
                135.7740907355,34.9979480827,100
                135.774147912,34.9979381166,100
                135.7741709252,34.9981131735,100
                135.7744143344,34.9980800271,100
                135.7745782033,34.9980577909,100
                135.7751925378,34.99796095,100
                135.7753246567,34.9979464734,100
                135.775360334,34.997942664,100
                135.7753534456,34.9976356538,100
                135.7754972107,34.9976336631,100
                135.7755471643,34.9976438252,100
                135.7755465383,34.9979530065,100
                135.775694546,34.997957221,100
                135.7759038924,34.9979630962,100
                135.7760188771,34.9979783073,100
                135.776365209,34.9979735871,100
                135.7764226241,34.9979619296,100
                135.7766392192,34.9979612674,100
                135.7766391912,34.9979480966,100
                135.7766384891,34.9976536343,100
                135.7765818352,34.9976525446,100
                135.7760065859,34.9976421294,100
                135.7759968468,34.9973834276,100
                135.7759966707,34.996525185,100
                135.7765148681,34.9965281023,100
                135.7767394613,34.9965194966,100
                135.7767081842,34.9963835821,100
                135.7771523159,34.9963204401,100
                135.7774014062,34.9962958912,100
                135.7777093108,34.9962879976,100
                135.77793335,34.9962781905,100
                135.7780261067,34.9961721522,100
                135.7779600627,34.9957879158,100
                135.777906933,34.9954788504,100
                135.7779262117,34.9954225425,100
                135.7774721627,34.9954524965,100
                135.7774464958,34.9953147622,100
                135.7774279833,34.9951893675,100
                135.7774400576,34.9951548778,100
                135.7775398198,34.9948699644,100
                135.777682848,34.9949576253,100
                135.7780866321,34.9952240831,100
                135.7780706573,34.9954610466,100
                135.7780628178,34.9955759717,100
                135.7781487426,34.9959903862,100
                135.7786884558,34.9959629803,100
                135.7788488947,34.9955337953,100
                135.7792783874,34.995710358,100
                135.7799133088,34.9959713088,100
                135.7803758444,34.9961077121,100
                135.7803922633,34.9960631597,100
                135.7803543517,34.9959089952,100
                135.7804016665,34.9957559421,100
                135.7805697607,34.9957586534,100
                135.7805843193,34.9957610833,100
                135.7805887023,34.9957619935,100
                135.7808427475,34.9958082798,100
                135.7808635279,34.9958120661,100
                135.7809916011,34.9952456464,100
                135.7809863335,34.995245774,100
                135.7809974621,34.9951960715,100
                135.7810006423,34.9949476774,100
                135.7811725152,34.9949378424,100
                135.781196555,34.9948685125,100
                135.7811869342,34.9946965809,100
                135.7810819122,34.9947016761,100
                135.7810882534,34.9946424589,100
                135.7811179712,34.9944977126,100
                135.7813548995,34.9944979233,100
                135.7815252967,34.9945279485,100
                135.7816168684,34.9945197296,100
                135.7819796494,34.9945992539,100
                135.7820564627,34.9944450483,100
                135.781854405,34.994342618,100
                135.7817850508,34.9943221399,100
                135.781477745,34.9942788443,100
                135.7814738937,34.9942584541,100
                135.7814458071,34.9939299167,100
                135.7813691469,34.9939225684,100
                135.7813857849,34.9937894358,100
                135.7814004041,34.9937017629,100
                135.7814301698,34.9937035657,100
                135.7816304274,34.9937075826,100
                135.7817274384,34.9935137959,100
                135.7816212476,34.9934562088,100
                135.7814492709,34.9934503396,100
                135.7813487654,34.9934469196,100
                135.7812059328,34.9933903226,100
                135.7809368762,34.9933882932,100
                135.7806046877,34.9932883954,100
                135.7802949806,34.993230935,100
                135.7802806765,34.9932034431,100
                135.7799433061,34.9927927368,100
                135.7799093823,34.9927931617,100
                135.7798946268,34.9927850707,100
                135.7798736691,34.9927759209,100
                135.7798527497,34.9927731806,100
                135.779810544,34.9927688918,100
                135.7797733595,34.9927703441,100
                135.7796852629,34.9927737781,100
                135.7796598399,34.992766792,100
                135.7796340714,34.9927495112,100
                135.7795726113,34.9927086686,100
                135.7795474399,34.9926996085,100
                135.7795134893,34.9926968437,100
                135.7793929901,34.9926984309,100
                135.7792689642,34.9926700199,100
                135.7792292388,34.9926588592,100
                135.7790547291,34.9926166885,100
                135.7790493286,34.9926180713,100
                135.7789253816,34.9926498088,100
                135.7785069142,34.9926580677,100
                135.7784798573,34.992711807,100
                135.7784606607,34.9927499349,100
                135.7783626218,34.9927301423,100
                135.778259268,34.9927092742,100
                135.7776429308,34.9927187191,100
                135.7775996046,34.9927194157,100
                135.7773502563,34.9928116455,100
                135.7774075312,34.992898305,100
                135.7772729763,34.9930665242,100
                135.7771793325,34.9930186054,100
                135.7768076338,34.9933211908,100
                135.7768261285,34.993356932,100
                135.7766408847,34.9934944216,100
                135.7763701217,34.9936635879,100
                135.7762367136,34.9936357367,100
                135.7762485792,34.9938199981,100
                135.775915335,34.994071031,100
                135.7759037332,34.9940574155,100
                135.7752820845,34.9941784903,100
                135.7752605766,34.9940990304,100
                135.7752367192,34.9940106417,100
                135.7751827309,34.9938846877,100
                135.7751697446,34.9938880312,100
                135.7749705117,34.9939354852,100
                135.7747607351,34.9940522924,100
                135.7745155301,34.994122059,100
                135.7742102347,34.9941326963,100
                135.7740541992,34.9941548237,100
                135.7740554445,34.9941581168,100
                135.7740866873,34.9942420126,100
                135.7741380877,34.9943800315,100
                135.773866024,34.9944532695,100
                135.7738370969,34.9943924509,100
              </coordinates>
            </LinearRing>
          </outerBoundaryIs>
        </Polygon>
      </Placemark>
    </Document>
  </Document>
</kml>
