<?xml version="1.0" encoding="UTF-8"?>
<kml xmlns="http://www.opengis.net/kml/2.2">
  <Document id="root_doc">
    <Document id="_0_10______disv4326">
      <name>20_10有済disv4326</name>
      <Placemark id="_0_10______disv4326.1">
        <visibility>1</visibility>
        <Polygon>
          <extrude>0</extrude>
          <outerBoundaryIs>
            <LinearRing>
              <coordinates>
                135.7739341254,35.0060849856,100
                135.7728493749,35.0061775719,100
                135.772822509,35.0065303701,100
                135.7727995277,35.0068323265,100
                135.7727909808,35.0069444334,100
                135.7727790798,35.0069769501,100
                135.7727782245,35.006988572,100
                135.7725875767,35.0069884509,100
                135.7718187716,35.0069939029,100
                135.7718397234,35.007523637,100
                135.7718014132,35.0077737301,100
                135.7717916705,35.007976405,100
                135.7718016234,35.0081689764,100
                135.7717825577,35.0087788539,100
                135.7717728515,35.0088683509,100
                135.7717785129,35.0090494339,100
                135.7717676485,35.0093409889,100
                135.771773648,35.0095624987,100
                135.772469082,35.0095523354,100
                135.7724762477,35.0095522304,100
                135.7724850835,35.0094597677,100
                135.772603403,35.0094635925,100
                135.7726036831,35.0095503662,100
                135.7726066872,35.0095503217,100
                135.7729579803,35.0095451857,100
                135.7729829538,35.0095761501,100
                135.7732396973,35.0095869077,100
                135.7734490771,35.0095926529,100
                135.7734493071,35.0095926594,100
                135.7734449565,35.0094290898,100
                135.7734584612,35.0092992995,100
                135.773718074,35.0093196111,100
                135.7736875385,35.0095991936,100
                135.7739167447,35.0096054813,100
                135.7747049182,35.0096720767,100
                135.7746789156,35.0100173423,100
                135.7747177861,35.0100534732,100
                135.7749745012,35.0100745791,100
                135.7752749877,35.0101163309,100
                135.7755505208,35.0101271175,100
                135.7757133219,35.0101377676,100
                135.7757393887,35.0097667963,100
                135.776177728,35.0097778083,100
                135.7761960004,35.0094238658,100
                135.7770808775,35.0094431524,100
                135.7770805173,35.0091885511,100
                135.7760550854,35.0091557683,100
                135.7758189036,35.0091471985,100
                135.7756066359,35.0091394961,100
                135.7754399376,35.0091334465,100
                135.7754542976,35.0086381446,100
                135.7754586299,35.008556033,100
                135.7754766835,35.0082130068,100
                135.775466918,35.0080200836,100
                135.7758460182,35.0079985204,100
                135.7759457725,35.0079928573,100
                135.7762071138,35.0079943895,100
                135.7770311137,35.0079991276,100
                135.7770478261,35.0079992283,100
                135.7770540123,35.0074841221,100
                135.7770500938,35.0074138269,100
                135.7770912731,35.0073792511,100
                135.7771981678,35.0073685989,100
                135.7771940631,35.0072956265,100
                135.7774642955,35.0072771003,100
                135.777561823,35.0072561488,100
                135.7777893264,35.007235643,100
                135.7778560855,35.0072296364,100
                135.7779533583,35.0072242477,100
                135.7779473106,35.0071814864,100
                135.7780891361,35.0071677272,100
                135.778093828,35.0072054152,100
                135.7785514215,35.0071573629,100
                135.7786561908,35.0071167034,100
                135.7786626396,35.0071138274,100
                135.778354029,35.0067630271,100
                135.7780581372,35.0064176727,100
                135.7780345225,35.0063900934,100
                135.7783803413,35.0063599405,100
                135.7783660939,35.0061912367,100
                135.7785147518,35.0061742501,100
                135.7794829905,35.0060630925,100
                135.7795392326,35.0059642411,100
                135.7794799203,35.0058753214,100
                135.7791298249,35.0058650452,100
                135.7791086703,35.0057497847,100
                135.7792025036,35.005741361,100
                135.7791779575,35.0055985577,100
                135.7794518803,35.0055655257,100
                135.7794281519,35.0054211019,100
                135.7791743765,35.0054497358,100
                135.7791459824,35.0053370676,100
                135.7790713386,35.0053477091,100
                135.7790562967,35.0052993672,100
                135.7783769365,35.0054130847,100
                135.7776790846,35.0055353572,100
                135.7777015027,35.0057849289,100
                135.7777125164,35.0058500951,100
                135.7776868787,35.0058509637,100
                135.7775641512,35.0058618695,100
                135.7775555535,35.0057964958,100
                135.7764465773,35.0058843519,100
                135.7764332868,35.0058853842,100
                135.7760460846,35.0059153154,100
                135.7747425786,35.0060159713,100
                135.7747369501,35.006016454,100
                135.7739341254,35.0060849856,100
              </coordinates>
            </LinearRing>
          </outerBoundaryIs>
        </Polygon>
      </Placemark>
    </Document>
  </Document>
</kml>
