<?xml version="1.0" encoding="UTF-8"?>
<kml xmlns="http://www.opengis.net/kml/2.2">
  <Document id="root_doc">
    <Document id="_0_11______disv4326">
      <name>20_11粟田disv4326</name>
      <Placemark id="_0_11______disv4326.1">
        <visibility>1</visibility>
        <Polygon>
          <extrude>0</extrude>
          <outerBoundaryIs>
            <LinearRing>
              <coordinates>
                135.7778560855,35.0072296364,100
                135.7777893264,35.007235643,100
                135.777561823,35.0072561488,100
                135.7774642955,35.0072771003,100
                135.7771940631,35.0072956265,100
                135.7771981678,35.0073685989,100
                135.7770912731,35.0073792511,100
                135.7770500938,35.0074138269,100
                135.7770540123,35.0074841221,100
                135.7770478261,35.0079992283,100
                135.7770311137,35.0079991276,100
                135.7762071138,35.0079943895,100
                135.7759457725,35.0079928573,100
                135.7758460182,35.0079985204,100
                135.775466918,35.0080200836,100
                135.7754766835,35.0082130068,100
                135.7754586299,35.008556033,100
                135.7754542976,35.0086381446,100
                135.7754399376,35.0091334465,100
                135.7756066359,35.0091394961,100
                135.7758189036,35.0091471985,100
                135.7760550854,35.0091557683,100
                135.7770805173,35.0091885511,100
                135.7770808775,35.0094431524,100
                135.7761960004,35.0094238658,100
                135.776177728,35.0097778083,100
                135.7766098311,35.0097837359,100
                135.7766096773,35.0098405019,100
                135.7776494942,35.0098511218,100
                135.7779560892,35.0098572405,100
                135.7781604539,35.0098418337,100
                135.7786686785,35.0098388067,100
                135.7789319251,35.0098430142,100
                135.7789731954,35.0101099434,100
                135.7790132126,35.010333276,100
                135.779018406,35.0103837119,100
                135.7797287655,35.0103761847,100
                135.7800093407,35.0103354173,100
                135.7800390598,35.0103372753,100
                135.7801055588,35.0103414358,100
                135.7801772955,35.0102903612,100
                135.7802672518,35.0102531239,100
                135.7806976167,35.0103115058,100
                135.7811762641,35.0104230015,100
                135.7813959869,35.0104586789,100
                135.7814553176,35.0104056111,100
                135.7817616729,35.0105522957,100
                135.7819982148,35.0106457527,100
                135.7827461559,35.0106779966,100
                135.7834041008,35.0106578188,100
                135.7834855783,35.0106463411,100
                135.7835540776,35.0106386442,100
                135.783704089,35.0106146809,100
                135.7837034134,35.0106517254,100
                135.7839449879,35.010629895,100
                135.7839424326,35.0105923523,100
                135.7840289802,35.0106390577,100
                135.784205748,35.0107345182,100
                135.784751717,35.0108675325,100
                135.7847475121,35.01070765,100
                135.7847512915,35.0106451157,100
                135.7847713985,35.0103120217,100
                135.784783368,35.0102277385,100
                135.7848059383,35.0098935218,100
                135.7852420855,35.0098950637,100
                135.7856868879,35.0099412718,100
                135.7856995153,35.0101469475,100
                135.7859953963,35.0101690874,100
                135.7859955366,35.0101149979,100
                135.7861928713,35.0101045678,100
                135.7861997777,35.0099746378,100
                135.7862135546,35.0097366108,100
                135.786437174,35.0097315787,100
                135.7864441086,35.0095908736,100
                135.7867335659,35.0095643342,100
                135.7867397719,35.0097050623,100
                135.7871156796,35.0097719918,100
                135.7872919532,35.0098033581,100
                135.7873912095,35.0098100814,100
                135.7875418184,35.0098200615,100
                135.7876501583,35.0098060242,100
                135.7877062867,35.0097987277,100
                135.7877064537,35.0097337904,100
                135.7877337244,35.0097231325,100
                135.7880092877,35.0096152193,100
                135.7880091207,35.009680226,100
                135.7883383362,35.0095292323,100
                135.7883907519,35.0096104579,100
                135.7887205915,35.0095908873,100
                135.7890429871,35.0095373543,100
                135.7893525815,35.0093430086,100
                135.7899199381,35.0088349201,100
                135.7899793229,35.0087593097,100
                135.7900253456,35.0087702343,100
                135.7900715284,35.0087108006,100
                135.7901962866,35.0087867271,100
                135.790229328,35.0087272713,100
                135.7903871624,35.0087221887,100
                135.7905453211,35.00859794,100
                135.7905326093,35.0084302246,100
                135.790493517,35.0082840166,100
                135.7906383087,35.0082410195,100
                135.7906775354,35.008332998,100
                135.7909275044,35.0083063804,100
                135.7908657023,35.0081630213,100
                135.7908330452,35.0080709853,100
                135.7907357661,35.007529707,100
                135.7904927135,35.0074210396,100
                135.7905988983,35.0070478734,100
                135.7905331747,35.0070261391,100
                135.7905926108,35.0069287661,100
                135.7906846095,35.006961392,100
                135.790677928,35.0070047653,100
                135.7911682408,35.0070400427,100
                135.7912887566,35.0067025369,100
                135.7911895327,35.0066758862,100
                135.7911793023,35.0065838886,100
                135.7911003213,35.006405256,100
                135.7908756693,35.0063687928,100
                135.7908785354,35.0063636764,100
                135.7909936091,35.0061581761,100
                135.7911652422,35.005720747,100
                135.7912295851,35.0057304351,100
                135.7913614972,35.0056335365,100
                135.7913733183,35.0054183232,100
                135.791451254,35.0052813309,100
                135.7913235827,35.00520123,100
                135.791191204,35.0052194014,100
                135.7911221538,35.0052437933,100
                135.7909964633,35.0052671736,100
                135.7910381816,35.0054567718,100
                135.7910135945,35.0056089979,100
                135.7908612196,35.005860455,100
                135.7908961193,35.0058695295,100
                135.7907024891,35.0063310755,100
                135.7906279902,35.006462441,100
                135.7903487653,35.0069214472,100
                135.7901825377,35.0072161214,100
                135.7902046997,35.0073285657,100
                135.7901554505,35.0074842018,100
                135.7901575604,35.0075573285,100
                135.790128913,35.0075367805,100
                135.7900897042,35.0074447602,100
                135.7897508503,35.0075631766,100
                135.7896612178,35.0074809858,100
                135.7895778872,35.0075051843,100
                135.788668174,35.0074349821,100
                135.7885692969,35.0074180849,100
                135.7880151073,35.0072490809,100
                135.7875935602,35.0067859108,100
                135.7869920317,35.0066291458,100
                135.7868849266,35.0063320994,100
                135.7867909112,35.0061952329,100
                135.7866020101,35.0057871886,100
                135.7868647678,35.0051392716,100
                135.7869634678,35.0047629285,100
                135.7869990945,35.0043982358,100
                135.7870490988,35.0042918333,100
                135.7869254977,35.0042111166,100
                135.7861840411,35.0041717949,100
                135.7850249174,35.0041139885,100
                135.7849359948,35.0041183401,100
                135.7845203338,35.004209451,100
                135.7845551698,35.0043157188,100
                135.7848284515,35.0042725324,100
                135.7848686307,35.0045047378,100
                135.7850921189,35.0049393979,100
                135.7851551735,35.0049006314,100
                135.7853174497,35.0048962658,100
                135.7853186985,35.0050333944,100
                135.7851424612,35.0050409736,100
                135.7851336748,35.0051525182,100
                135.7857072437,35.0054327742,100
                135.7857235179,35.0056092287,100
                135.7857487166,35.005736329,100
                135.7858306895,35.0059528312,100
                135.7859024589,35.0060619087,100
                135.7859879989,35.0061322063,100
                135.7859557008,35.0062417374,100
                135.786119774,35.0063874612,100
                135.786021789,35.0065690687,100
                135.7858369333,35.0065570532,100
                135.7857249469,35.0069218936,100
                135.7854121147,35.0069963517,100
                135.7849148532,35.0071147179,100
                135.7849013183,35.007061377,100
                135.7847874101,35.007070967,100
                135.7844409584,35.0064166349,100
                135.7842909063,35.0064180621,100
                135.7841954984,35.0066850338,100
                135.7834959195,35.0067066927,100
                135.783110155,35.0067346081,100
                135.7825225981,35.0069107682,100
                135.7824233358,35.0069405261,100
                135.7819704856,35.0070493109,100
                135.7818807787,35.0070745766,100
                135.7815889756,35.0072076614,100
                135.7816223062,35.0074612655,100
                135.7816284269,35.0075017038,100
                135.7814955882,35.0075162567,100
                135.7815115974,35.0077327859,100
                135.7810748928,35.0078517377,100
                135.7810625164,35.0079516539,100
                135.7806694579,35.0080482865,100
                135.780631118,35.0079572232,100
                135.7804332191,35.0080065222,100
                135.7804127102,35.0079447198,100
                135.7802757498,35.0079710966,100
                135.7802341135,35.0078085428,100
                135.7801071682,35.0078191607,100
                135.780091746,35.0077601845,100
                135.7799274091,35.0077735552,100
                135.7799083859,35.0075892066,100
                135.7801569341,35.0075650723,100
                135.7801393179,35.0074631998,100
                135.7801385835,35.0074579873,100
                135.7804486845,35.0074216363,100
                135.780421911,35.0072865765,100
                135.7801142381,35.0073180727,100
                135.7800465297,35.0069263659,100
                135.7794036023,35.0069907115,100
                135.7792083727,35.0070102214,100
                135.7791735564,35.0069383922,100
                135.7790870309,35.0069423915,100
                135.7790868811,35.0069983118,100
                135.7788262732,35.0070438327,100
                135.7786626396,35.0071138274,100
                135.7786561908,35.0071167034,100
                135.7785514215,35.0071573629,100
                135.778093828,35.0072054152,100
                135.7780891361,35.0071677272,100
                135.7779473106,35.0071814864,100
                135.7779533583,35.0072242477,100
                135.7778560855,35.0072296364,100
              </coordinates>
            </LinearRing>
          </outerBoundaryIs>
        </Polygon>
      </Placemark>
    </Document>
  </Document>
</kml>
