<?xml version="1.0" encoding="UTF-8"?>
<kml xmlns="http://www.opengis.net/kml/2.2">
  <Document id="root_doc">
    <Document id="_2_06_________disv4326">
      <name>22_06音羽川disv4326</name>
      <Placemark id="_2_06_________disv4326.1">
        <visibility>1</visibility>
        <Polygon>
          <extrude>0</extrude>
          <outerBoundaryIs>
            <LinearRing>
              <coordinates>
                135.8219505771,34.9821881955,100
                135.8213450403,34.9822501279,100
                135.8213443362,34.9822502116,100
                135.8210366745,34.9822866501,100
                135.8204379999,34.9823754199,100
                135.8196963129,34.9824707354,100
                135.8192569482,34.9825237472,100
                135.8187093619,34.9826041338,100
                135.8182166115,34.9826967825,100
                135.8177130162,34.9828225851,100
                135.8172798917,34.9829619406,100
                135.81685016,34.983029889,100
                135.816850118,34.9832665907,100
                135.8168500187,34.983728234,100
                135.816850014,34.9837304172,100
                135.816884904,34.9839583694,100
                135.8169031934,34.9840576275,100
                135.8169581702,34.9843558239,100
                135.8169671377,34.9844044326,100
                135.8170002969,34.9845843208,100
                135.8170175453,34.984677902,100
                135.8170381512,34.9847896708,100
                135.8170667923,34.9849450324,100
                135.8170947692,34.985016769,100
                135.817194539,34.9855950481,100
                135.8173117184,34.9856110005,100
                135.8174277681,34.9856938571,100
                135.8175028086,34.9857959475,100
                135.8176495574,34.9860282936,100
                135.8177068509,34.9863300844,100
                135.8177537255,34.9864136806,100
                135.8178816109,34.986539796,100
                135.8180377355,34.9867164493,100
                135.8181695937,34.9868117243,100
                135.8183315521,34.9868409831,100
                135.8184129338,34.9868604744,100
                135.8185303203,34.9869303022,100
                135.8185635922,34.9869825378,100
                135.818613928,34.987128044,100
                135.8186097277,34.9871915631,100
                135.8186067976,34.9872360684,100
                135.8185123746,34.9874769262,100
                135.8184956971,34.9875675404,100
                135.818538759,34.9877031764,100
                135.8185739038,34.987780347,100
                135.8187224167,34.9882209476,100
                135.8187766704,34.9883808977,100
                135.818825225,34.9885198526,100
                135.8188612509,34.9886066723,100
                135.8188936891,34.9886377418,100
                135.8190298207,34.9887681319,100
                135.8191416456,34.9888492912,100
                135.8192798559,34.9888962616,100
                135.8193878253,34.9889040991,100
                135.8196645097,34.9889112737,100
                135.8198235274,34.9889378496,100
                135.8199230097,34.9889785639,100
                135.8200225892,34.9890779437,100
                135.8200675226,34.9891547065,100
                135.8200693436,34.9892044294,100
                135.8200741459,34.9893411718,100
                135.8200874779,34.9897208959,100
                135.8206147942,34.9897128299,100
                135.820670586,34.9897119757,100
                135.8207117839,34.9897113535,100
                135.8209631275,34.9897075495,100
                135.8211391224,34.9897048531,100
                135.8214327364,34.9897003576,100
                135.8215908718,34.9896979905,100
                135.8219844977,34.989692096,100
                135.8225297568,34.9896839231,100
                135.8225287226,34.989428924,100
                135.8231261087,34.9894386672,100
                135.8234229346,34.9894433226,100
                135.8234308579,34.9896028363,100
                135.823441556,34.9896623488,100
                135.8235380625,34.9896628705,100
                135.8236601177,34.9896635308,100
                135.8242201301,34.9896665543,100
                135.8242165018,34.989589338,100
                135.8242045401,34.9891837309,100
                135.8241988756,34.9889915279,100
                135.824195449,34.988875177,100
                135.8241760325,34.9886174565,100
                135.8241976781,34.9885119181,100
                135.8242176928,34.9884141937,100
                135.824238884,34.9883107669,100
                135.8241913809,34.9880161733,100
                135.8241144516,34.9875418764,100
                135.8240432804,34.9871785816,100
                135.8239961469,34.9869380765,100
                135.8239825356,34.9868481918,100
                135.8240510562,34.9866232761,100
                135.8241315238,34.9862201967,100
                135.8241271528,34.9860900412,100
                135.8241098089,34.985573927,100
                135.8244350488,34.9855605209,100
                135.8253023483,34.985524859,100
                135.8253740223,34.9855215105,100
                135.8261338177,34.9854864648,100
                135.8263243114,34.9854827916,100
                135.8265567426,34.9854500913,100
                135.8273596469,34.9852260725,100
                135.8274027789,34.9852245828,100
                135.827483694,34.9852320215,100
                135.8272806674,34.9844194962,100
                135.8271935689,34.9840732935,100
                135.8271247936,34.9838007835,100
                135.8271005704,34.9837047569,100
                135.8269760811,34.9832114497,100
                135.8263890916,34.9830515944,100
                135.8260309871,34.9829424172,100
                135.8258061092,34.9828585704,100
                135.8255592835,34.9827999056,100
                135.8255304213,34.9827702146,100
                135.8245960453,34.9821513057,100
                135.8245521,34.9824725308,100
                135.8240704004,34.9823857791,100
                135.823759832,34.9823298362,100
                135.8230657928,34.9822686208,100
                135.82278236,34.9822439844,100
                135.8226064829,34.9822287298,100
                135.8219797409,34.9821898584,100
                135.8219505771,34.9821881955,100
              </coordinates>
            </LinearRing>
          </outerBoundaryIs>
        </Polygon>
      </Placemark>
    </Document>
  </Document>
</kml>
