<?xml version="1.0" encoding="UTF-8"?>
<kml xmlns="http://www.opengis.net/kml/2.2">
  <Document id="root_doc">
    <Document id="_2_07______disv4326">
      <name>22_07音羽disv4326</name>
      <Placemark id="_2_07______disv4326.1">
        <visibility>1</visibility>
        <Polygon>
          <extrude>0</extrude>
          <outerBoundaryIs>
            <LinearRing>
              <coordinates>
                135.8253023483,34.985524859,100
                135.8244350488,34.9855605209,100
                135.8241098089,34.985573927,100
                135.8241271528,34.9860900412,100
                135.8241315238,34.9862201967,100
                135.8240510562,34.9866232761,100
                135.8239825356,34.9868481918,100
                135.8239961469,34.9869380765,100
                135.8240432804,34.9871785816,100
                135.8241144516,34.9875418764,100
                135.8241913809,34.9880161733,100
                135.824238884,34.9883107669,100
                135.8242176928,34.9884141937,100
                135.8241976781,34.9885119181,100
                135.8241760325,34.9886174565,100
                135.824195449,34.988875177,100
                135.8241988756,34.9889915279,100
                135.8242045401,34.9891837309,100
                135.8242165018,34.989589338,100
                135.8242201301,34.9896665543,100
                135.8236601177,34.9896635308,100
                135.8235380625,34.9896628705,100
                135.823441556,34.9896623488,100
                135.8234308579,34.9896028363,100
                135.8234229346,34.9894433226,100
                135.8231261087,34.9894386672,100
                135.8225287226,34.989428924,100
                135.8225297568,34.9896839231,100
                135.8219844977,34.989692096,100
                135.8215908718,34.9896979905,100
                135.8214327364,34.9897003576,100
                135.8211391224,34.9897048531,100
                135.8209631275,34.9897075495,100
                135.8207117839,34.9897113535,100
                135.820670586,34.9897119757,100
                135.8206147942,34.9897128299,100
                135.8200874779,34.9897208959,100
                135.8200938351,34.9898253483,100
                135.8201570761,34.9899660848,100
                135.8202672562,34.9900516775,100
                135.8203892198,34.9900803814,100
                135.8205550046,34.9900741491,100
                135.8206511902,34.9906161569,100
                135.8206337023,34.9908314949,100
                135.8206196398,34.9910614873,100
                135.8206454237,34.9913323172,100
                135.8203747971,34.9913352948,100
                135.8203634628,34.9918924944,100
                135.8206415875,34.991875583,100
                135.8206253603,34.9922586805,100
                135.8206795013,34.9922980597,100
                135.8206946381,34.9924047078,100
                135.8207268252,34.9924098265,100
                135.820724189,34.9925940589,100
                135.8210051074,34.9926125058,100
                135.8209940608,34.9927882048,100
                135.8209714293,34.9931093173,100
                135.8209400363,34.9935166889,100
                135.820927584,34.9936782299,100
                135.820909758,34.9936860219,100
                135.8208735674,34.9938675271,100
                135.8207496647,34.9940562983,100
                135.8205639765,34.9940646847,100
                135.8203324292,34.9940933536,100
                135.820353047,34.9942129689,100
                135.8203538055,34.9943400204,100
                135.8203599961,34.9943916519,100
                135.8204908966,34.9944955153,100
                135.8205176842,34.9946011255,100
                135.8204992458,34.9947146253,100
                135.8205706408,34.9949634103,100
                135.8205521881,34.99507804,100
                135.8204618153,34.9951864341,100
                135.8204145664,34.9952651032,100
                135.8204263055,34.9954488661,100
                135.8205547828,34.9954608896,100
                135.8206947819,34.9954721549,100
                135.8210012012,34.9954768373,100
                135.8214883002,34.9953733973,100
                135.8218000239,34.9953430823,100
                135.8220404874,34.9952627277,100
                135.8224880136,34.99546995,100
                135.823077387,34.9956164546,100
                135.8230144734,34.9958299004,100
                135.8228830345,34.9971225545,100
                135.8230765076,34.9975006112,100
                135.8231131161,34.997953939,100
                135.8232298896,34.9984314687,100
                135.8233109617,34.998732032,100
                135.8230682094,34.9995544882,100
                135.823207491,34.9997896384,100
                135.8238951818,35.0007807818,100
                135.8240353497,35.0009164886,100
                135.8241915134,35.0010208064,100
                135.8243254557,35.0010744548,100
                135.824437037,35.001098139,100
                135.8246056709,35.0010974669,100
                135.8249652145,35.0010648138,100
                135.8250007573,35.0010790216,100
                135.8252584862,35.0014256855,100
                135.8253860343,35.0015553152,100
                135.8254423421,35.0015812437,100
                135.825763831,35.0015904375,100
                135.8259798006,35.001587789,100
                135.8262640921,35.0016996829,100
                135.8265683252,35.0018902725,100
                135.8267078071,35.0019361087,100
                135.8268310203,35.0019598779,100
                135.8268535897,35.0023056398,100
                135.8268533207,35.0024208593,100
                135.8268969792,35.0027858079,100
                135.8268779921,35.0030138266,100
                135.8268749394,35.0033903279,100
                135.8268105922,35.0036299009,100
                135.8267060029,35.0046042565,100
                135.8266124895,35.0048076588,100
                135.8266241333,35.0048943009,100
                135.8267185106,35.0051741749,100
                135.8268290341,35.0057445825,100
                135.8268990513,35.0062373929,100
                135.8268833413,35.0064828095,100
                135.8268609762,35.0066203219,100
                135.8269108355,35.0068122372,100
                135.8269227933,35.0070275525,100
                135.8269117621,35.007369742,100
                135.8268724062,35.0076572414,100
                135.8267723417,35.0079654314,100
                135.8266305794,35.0084020191,100
                135.8271565687,35.0086176424,100
                135.8272360762,35.0086169802,100
                135.8277316835,35.0089453116,100
                135.8279023201,35.0087806133,100
                135.82808239,35.00871875,100
                135.8282169232,35.008694855,100
                135.828393685,35.0087037655,100
                135.8285936108,35.0087291196,100
                135.8286919541,35.0087696131,100
                135.8288396284,35.0091487221,100
                135.8291045394,35.0094385501,100
                135.8292706723,35.0094867439,100
                135.8297905783,35.0095213499,100
                135.8298583497,35.0096160992,100
                135.8303412487,35.0098983413,100
                135.8309070428,35.009850042,100
                135.83100914,35.0098556762,100
                135.8315070526,35.0099783472,100
                135.8317142665,35.0098660923,100
                135.8321504409,35.0097483771,100
                135.8324357779,35.0095579114,100
                135.8326466554,35.009500733,100
                135.8328984994,35.0094662893,100
                135.8330046787,35.0092263472,100
                135.8329361569,35.0085717716,100
                135.8331914663,35.0080406067,100
                135.8332395604,35.0075407099,100
                135.8333806847,35.0073049006,100
                135.833440071,35.0069293933,100
                135.8334987677,35.006794745,100
                135.8335162974,35.0063403011,100
                135.833521085,35.005857036,100
                135.8338442806,35.0052468715,100
                135.8339867937,35.0048678151,100
                135.8340075843,35.0048241087,100
                135.8339699499,35.0045710105,100
                135.8341738494,35.0041299213,100
                135.8344518504,35.0039253553,100
                135.8347003164,35.0036475061,100
                135.834975073,35.0034232142,100
                135.8351544595,35.0032894353,100
                135.8353103103,35.0030997733,100
                135.8357023186,35.0024209555,100
                135.8357549436,35.0023296124,100
                135.8359509098,35.0021020419,100
                135.8365059333,35.0021378596,100
                135.8365555249,35.001871851,100
                135.8366426862,35.0018621778,100
                135.836749964,35.001740904,100
                135.8366641502,35.0012756139,100
                135.8366127319,35.0011898903,100
                135.8365524937,35.0010894639,100
                135.8364363343,35.0008977446,100
                135.8363871977,35.0007639358,100
                135.8364192103,35.0004930429,100
                135.8363583121,35.0003999262,100
                135.83651358,35.0002024434,100
                135.8363995551,34.9999865702,100
                135.8362606568,34.9999520152,100
                135.8361090617,34.9998780744,100
                135.8358484118,34.9996746098,100
                135.835674162,34.9995049261,100
                135.835329804,34.9994131877,100
                135.835311519,34.9994083041,100
                135.8351546395,34.999356821,100
                135.8347815795,34.999226377,100
                135.8344725001,34.9992101813,100
                135.8339303682,34.9991450711,100
                135.8339265757,34.9996038316,100
                135.8339249174,34.9998047601,100
                135.8339082643,34.9998998852,100
                135.8338886437,35.0000197259,100
                135.8337095218,35.0000117344,100
                135.833688697,35.0002858804,100
                135.833630413,35.0002849561,100
                135.8336067601,35.0004084534,100
                135.8333805926,35.0003975793,100
                135.8333479767,35.0005250087,100
                135.8325736826,35.0004785191,100
                135.8325790997,35.0003690108,100
                135.832587768,35.000179291,100
                135.8326143649,35.0001148857,100
                135.832890106,34.9998033413,100
                135.8329092503,34.9997739993,100
                135.8328615355,34.9995977125,100
                135.8325418484,34.9994114646,100
                135.8326237278,34.9993330115,100
                135.8326188261,34.9992363057,100
                135.8326776508,34.9991210971,100
                135.8325081562,34.9988947899,100
                135.8323448707,34.9986998319,100
                135.8321734027,34.9985470497,100
                135.8320184337,34.9984471098,100
                135.8318854444,34.9983976963,100
                135.8316334761,34.9986060953,100
                135.8314936028,34.9985337134,100
                135.8315557983,34.9983527992,100
                135.8314802683,34.998203951,100
                135.831463847,34.9981511635,100
                135.8314574241,34.998077234,100
                135.8313736599,34.9978787656,100
                135.8312761814,34.9976139764,100
                135.8311265091,34.997301069,100
                135.8308547895,34.9969162971,100
                135.8307113521,34.9966893896,100
                135.8306900143,34.9965758302,100
                135.8306960905,34.9964904802,100
                135.830779575,34.9963696005,100
                135.8305505654,34.9961921552,100
                135.8301428417,34.9958479144,100
                135.8300808227,34.9957955537,100
                135.8299887735,34.9955326586,100
                135.8299592925,34.9954939525,100
                135.8297082964,34.9952456243,100
                135.8295506105,34.99514448,100
                135.8294593847,34.9950411751,100
                135.8294332189,34.9948978887,100
                135.8294683741,34.99466919,100
                135.8294761452,34.9946192674,100
                135.8294011044,34.9942141343,100
                135.8294318526,34.9941169883,100
                135.8295529257,34.9939068615,100
                135.8295764202,34.9938211847,100
                135.8295808736,34.9937304109,100
                135.8295410018,34.9935815408,100
                135.8294703268,34.9934787591,100
                135.8293160771,34.9933450822,100
                135.8291392764,34.9933243411,100
                135.828965979,34.9933642399,100
                135.8287850426,34.9932991222,100
                135.8284596274,34.9933109888,100
                135.828409973,34.9933041571,100
                135.8283006609,34.9932891415,100
                135.8281896196,34.9932313052,100
                135.8279325649,34.9930735362,100
                135.8278577607,34.9929189833,100
                135.8277898879,34.9928751525,100
                135.8277109816,34.9927235517,100
                135.8275511763,34.9925056341,100
                135.8277073151,34.9924229625,100
                135.8276451777,34.9923418837,100
                135.8274446557,34.9921039075,100
                135.8273068877,34.9920331434,100
                135.8272191221,34.9919303359,100
                135.8270630519,34.991837996,100
                135.8270120617,34.9917108018,100
                135.8268872836,34.9915759676,100
                135.8268470815,34.9914507613,100
                135.8268074007,34.9913271764,100
                135.8269103198,34.9912647138,100
                135.827075444,34.9912872018,100
                135.8272685535,34.9911983156,100
                135.8273608765,34.9911961929,100
                135.8281077655,34.9912189408,100
                135.8282817627,34.9911907342,100
                135.8286900654,34.9911884219,100
                135.829047644,34.9911479352,100
                135.8293716447,34.9911231767,100
                135.8293478813,34.9909074243,100
                135.829337116,34.9908095862,100
                135.8292103277,34.9907472909,100
                135.8290704987,34.9906585676,100
                135.8289895184,34.9905799274,100
                135.8289676327,34.9905434164,100
                135.82869284,34.9896390245,100
                135.8286631644,34.9895034809,100
                135.8286471057,34.9894301423,100
                135.828604063,34.9892333782,100
                135.8285195464,34.9888474584,100
                135.828415635,34.9884679906,100
                135.828411961,34.9884546042,100
                135.8282258213,34.9877749298,100
                135.8281091049,34.9873655122,100
                135.8280969505,34.9873242256,100
                135.8279871276,34.9869494676,100
                135.8277906788,34.9862792861,100
                135.8276802126,34.9859024151,100
                135.8276708766,34.9858705672,100
                135.827632953,34.9857412108,100
                135.8275155723,34.9853407363,100
                135.827483694,34.9852320215,100
                135.8274027789,34.9852245828,100
                135.8273596469,34.9852260725,100
                135.8265567426,34.9854500913,100
                135.8263243114,34.9854827916,100
                135.8261338177,34.9854864648,100
                135.8253740223,34.9855215105,100
                135.8253023483,34.985524859,100
              </coordinates>
            </LinearRing>
          </outerBoundaryIs>
        </Polygon>
      </Placemark>
    </Document>
  </Document>
</kml>
