<?xml version="1.0" encoding="UTF-8"?>
<kml xmlns="http://www.opengis.net/kml/2.2">
  <Document id="root_doc">
    <Document id="_2_01______disv4326">
      <name>22_01勧修disv4326</name>
      <Placemark id="_2_01______disv4326.1">
        <visibility>1</visibility>
        <Polygon>
          <extrude>0</extrude>
          <outerBoundaryIs>
            <LinearRing>
              <coordinates>
                135.8036186081,34.965595784,100
                135.8034866143,34.965710299,100
                135.8033237787,34.9658164544,100
                135.8032612106,34.9657563481,100
                135.8031375935,34.9658469306,100
                135.8030926627,34.965799953,100
                135.8029238572,34.9658974349,100
                135.8027737564,34.9660082583,100
                135.8027153784,34.9659492151,100
                135.8025984127,34.9658308449,100
                135.80187629,34.9662994346,100
                135.8014510508,34.9666387028,100
                135.800987229,34.9670203772,100
                135.800851921,34.9671596759,100
                135.8002708123,34.9674664318,100
                135.8000900645,34.9676358697,100
                135.799884789,34.967875626,100
                135.7996876199,34.9681322287,100
                135.7995948754,34.9684389388,100
                135.7995442049,34.9685733742,100
                135.7994113096,34.9689260074,100
                135.7993384903,34.9691192164,100
                135.7993305906,34.9691401908,100
                135.799264009,34.9693720764,100
                135.7991852032,34.9696621159,100
                135.7991210261,34.9698988639,100
                135.7990410058,34.9701940253,100
                135.7989925791,34.9703726143,100
                135.7989763802,34.9704467454,100
                135.7989483257,34.9705794259,100
                135.798762793,34.9714568537,100
                135.8000112921,34.9714917266,100
                135.8003920457,34.9715332852,100
                135.8006501511,34.9715401617,100
                135.8009226234,34.9715474183,100
                135.8013140454,34.9715578425,100
                135.8013087987,34.97163329,100
                135.8013314474,34.9721628559,100
                135.8013991292,34.9723381851,100
                135.8014496567,34.9724690489,100
                135.8016072734,34.9727281899,100
                135.8020659065,34.9734510108,100
                135.8021737536,34.9736209833,100
                135.8028102653,34.9745974852,100
                135.8028352214,34.974635767,100
                135.8028477722,34.9746199421,100
                135.8032418947,34.9741227415,100
                135.8036396924,34.9737879458,100
                135.8036421878,34.9739083793,100
                135.8036914803,34.9739124727,100
                135.8036897378,34.9740526886,100
                135.8036636528,34.9740581386,100
                135.8036824083,34.9742934616,100
                135.8046499555,34.9742476956,100
                135.8049553361,34.9749825212,100
                135.8050822984,34.9751306204,100
                135.8050829756,34.9751305598,100
                135.8060193138,34.9750464145,100
                135.8060558514,34.9749261846,100
                135.8069614536,34.9748267068,100
                135.8069807439,34.9740930339,100
                135.8067759521,34.9740885526,100
                135.8067527967,34.9733507272,100
                135.8071135073,34.9734770818,100
                135.8073669577,34.9735924199,100
                135.8077134329,34.9736695223,100
                135.8077833739,34.9736791406,100
                135.8080172544,34.9737112022,100
                135.8080405922,34.9735255947,100
                135.8080933257,34.9733005229,100
                135.8081112984,34.9730299016,100
                135.8081534034,34.9728217154,100
                135.8081926083,34.9726278921,100
                135.8082274679,34.9726208339,100
                135.8082962003,34.9726070686,100
                135.8085719995,34.9726396172,100
                135.8085904102,34.9725597116,100
                135.8086753465,34.9721972868,100
                135.8089573563,34.9722163925,100
                135.8090023068,34.9718770754,100
                135.8085927407,34.9718473467,100
                135.8086652962,34.9717149881,100
                135.8086781889,34.9716224244,100
                135.8086884804,34.9715485352,100
                135.8090651908,34.9715432096,100
                135.8091403048,34.9712191511,100
                135.809149159,34.9711359203,100
                135.8094812747,34.9711479193,100
                135.8094797141,34.9714450481,100
                135.809752199,34.9714594182,100
                135.8097774589,34.9716548217,100
                135.8099013879,34.9716650151,100
                135.8098618355,34.9717315777,100
                135.8096529931,34.9722601606,100
                135.8095730599,34.9732286189,100
                135.8095583813,34.9737517983,100
                135.8095504111,34.9740363815,100
                135.80953834,34.9744668127,100
                135.8095192512,34.974815327,100
                135.8095012569,34.9751437706,100
                135.8094917128,34.9756638862,100
                135.8094892235,34.9757995681,100
                135.8101232197,34.9757513281,100
                135.8101087249,34.975402339,100
                135.8101168511,34.9754033387,100
                135.8103249822,34.9754311994,100
                135.8104816883,34.9754417936,100
                135.8105153308,34.9754440296,100
                135.8106448416,34.9753451389,100
                135.8106579509,34.9752163487,100
                135.8106755681,34.9751636674,100
                135.8107367124,34.9749808212,100
                135.8107807421,34.9748558824,100
                135.8107936159,34.9746049701,100
                135.8108611098,34.9745547187,100
                135.8113290563,34.9746355192,100
                135.8112801312,34.974402259,100
                135.8114001278,34.9743855418,100
                135.8115510467,34.9744465536,100
                135.8117566953,34.974427431,100
                135.8120284505,34.9745459566,100
                135.8122892795,34.9745665705,100
                135.8122833901,34.9745882018,100
                135.8122272869,34.9747942354,100
                135.812151903,34.9750711087,100
                135.8121385073,34.9752434237,100
                135.8121273131,34.9753872895,100
                135.8121208583,34.975470312,100
                135.8120904546,34.9758612764,100
                135.8122492395,34.9758795497,100
                135.8122185146,34.9762322728,100
                135.8128271879,34.9762638424,100
                135.8128847875,34.9762668176,100
                135.8128862674,34.9764831015,100
                135.8128872469,34.976627548,100
                135.8128886913,34.9768402399,100
                135.8128834873,34.9769386901,100
                135.8130066995,34.9769388783,100
                135.8131025313,34.9769390247,100
                135.813101872,34.9772320003,100
                135.8139334223,34.9772283386,100
                135.8142381715,34.9772337327,100
                135.8142401112,34.9769397024,100
                135.814742736,34.9769508187,100
                135.8147482982,34.9769508972,100
                135.8158271789,34.9769723875,100
                135.815826852,34.9766167308,100
                135.8158268205,34.9765798969,100
                135.8158267153,34.9764575555,100
                135.8158266675,34.9764012237,100
                135.8158283469,34.9762895998,100
                135.8158263122,34.9762130601,100
                135.8158213369,34.9760259103,100
                135.8158170179,34.9758503296,100
                135.8158013179,34.9752116714,100
                135.8158007817,34.9749995458,100
                135.8157967697,34.9744733783,100
                135.8157882185,34.9743073677,100
                135.8157677601,34.9742036681,100
                135.8157242145,34.9740853565,100
                135.8156542859,34.9738953081,100
                135.815549466,34.9737337327,100
                135.8154376799,34.9735614384,100
                135.8153670539,34.9734525219,100
                135.8153167458,34.9733750476,100
                135.8152734076,34.9733081457,100
                135.815234753,34.9732491585,100
                135.8150771569,34.9730086746,100
                135.8148782836,34.9727052553,100
                135.8148402532,34.9726472362,100
                135.8147184668,34.9724614075,100
                135.8146323448,34.9723300008,100
                135.8146204398,34.9718664303,100
                135.8146190013,34.9718106498,100
                135.8143449201,34.9718077684,100
                135.8142627112,34.9716584101,100
                135.8137677357,34.9706180806,100
                135.8136753533,34.9703901081,100
                135.8136019242,34.9702089285,100
                135.8135444705,34.9700670706,100
                135.8134986295,34.9698783261,100
                135.8134925375,34.969322851,100
                135.813491134,34.969195093,100
                135.8134782964,34.9680225167,100
                135.8127866406,34.9680011759,100
                135.8110400935,34.9678053053,100
                135.8100611071,34.9676899757,100
                135.8096162628,34.967637588,100
                135.8088434325,34.9675465829,100
                135.808749036,34.9675053762,100
                135.8086817782,34.9678281838,100
                135.8078818052,34.9678392518,100
                135.8072918458,34.9678474067,100
                135.8063322496,34.9678522253,100
                135.8063517198,34.9671768477,100
                135.8062922576,34.9669210965,100
                135.8059879772,34.9671968346,100
                135.8058407784,34.9666931843,100
                135.8057678745,34.9664437431,100
                135.8057133885,34.9662567376,100
                135.8056814769,34.9661472411,100
                135.8056213661,34.9659319857,100
                135.8055224391,34.965587924,100
                135.8054936524,34.9655337888,100
                135.805446927,34.9654665263,100
                135.8054327325,34.9653531123,100
                135.8054742511,34.9652955686,100
                135.805619691,34.9651743111,100
                135.8058250898,34.9650747014,100
                135.8058188424,34.965039547,100
                135.8044298775,34.9646720779,100
                135.8044284649,34.9646722165,100
                135.8038303069,34.9650468501,100
                135.803908911,34.9651261389,100
                135.8040288016,34.9652471181,100
                135.8037146113,34.9654519818,100
                135.8037664797,34.9655047466,100
                135.8036186081,34.965595784,100
              </coordinates>
            </LinearRing>
          </outerBoundaryIs>
        </Polygon>
      </Placemark>
    </Document>
  </Document>
</kml>
