<?xml version="1.0" encoding="UTF-8"?>
<kml xmlns="http://www.opengis.net/kml/2.2">
  <Document id="root_doc">
    <Document id="_2_09______disv4326">
      <name>22_09大宅disv4326</name>
      <Placemark id="_2_09______disv4326.1">
        <visibility>1</visibility>
        <Polygon>
          <extrude>0</extrude>
          <outerBoundaryIs>
            <LinearRing>
              <coordinates>
                135.8170948617,34.9665795349,100
                135.8166731497,34.966395887,100
                135.8166586617,34.9663895972,100
                135.816052447,34.9672288215,100
                135.8159137051,34.9674208805,100
                135.8159157333,34.9675377945,100
                135.8159239494,34.9680112937,100
                135.8159329765,34.968532827,100
                135.8159499751,34.9695129276,100
                135.8159596334,34.9700690393,100
                135.8155786777,34.970038112,100
                135.8145587974,34.9699552959,100
                135.8142962933,34.9699342625,100
                135.8134986295,34.9698783261,100
                135.8135444705,34.9700670706,100
                135.8136019242,34.9702089285,100
                135.8136753533,34.9703901081,100
                135.8137677357,34.9706180806,100
                135.8142627112,34.9716584101,100
                135.8143449201,34.9718077684,100
                135.8146190013,34.9718106498,100
                135.8146204398,34.9718664303,100
                135.8146323448,34.9723300008,100
                135.8147184668,34.9724614075,100
                135.8148402532,34.9726472362,100
                135.8148782836,34.9727052553,100
                135.8150771569,34.9730086746,100
                135.815234753,34.9732491585,100
                135.8152734076,34.9733081457,100
                135.8153167458,34.9733750476,100
                135.8153670539,34.9734525219,100
                135.8154376799,34.9735614384,100
                135.815549466,34.9737337327,100
                135.8156542859,34.9738953081,100
                135.8157242145,34.9740853565,100
                135.8157677601,34.9742036681,100
                135.8157882185,34.9743073677,100
                135.8157967697,34.9744733783,100
                135.8158007817,34.9749995458,100
                135.8158013179,34.9752116714,100
                135.8158170179,34.9758503296,100
                135.8158213369,34.9760259103,100
                135.8158263122,34.9762130601,100
                135.8158283469,34.9762895998,100
                135.8158266675,34.9764012237,100
                135.8158267153,34.9764575555,100
                135.8158268205,34.9765798969,100
                135.815826852,34.9766167308,100
                135.8158271789,34.9769723875,100
                135.8158341956,34.9773587616,100
                135.8158446561,34.9779485339,100
                135.8158484593,34.978428004,100
                135.8158502617,34.9786522433,100
                135.8158512547,34.9787757721,100
                135.815857363,34.978859025,100
                135.8158612485,34.978912202,100
                135.8159002586,34.979240882,100
                135.8159022548,34.9792577037,100
                135.8159067591,34.9792818666,100
                135.8159503895,34.9794728581,100
                135.8159946361,34.9796558208,100
                135.8160415656,34.9798251959,100
                135.8160881106,34.9799850638,100
                135.8161353574,34.9801471141,100
                135.8163030449,34.9807106355,100
                135.8164504669,34.9812397585,100
                135.8174003161,34.9812338632,100
                135.8185569628,34.9812277748,100
                135.8188309032,34.9812263506,100
                135.8189043661,34.9812260384,100
                135.8190147619,34.9812254444,100
                135.8194061477,34.9812233334,100
                135.8203073445,34.9812087318,100
                135.8207027798,34.9812023223,100
                135.8209914068,34.9811976438,100
                135.8230722241,34.9811660252,100
                135.8229246349,34.9810093944,100
                135.8227369082,34.9807498818,100
                135.8226368956,34.9805432443,100
                135.8225645296,34.9803692555,100
                135.8225383804,34.9801484308,100
                135.822550357,34.9800132284,100
                135.8225675593,34.9799557848,100
                135.8225720837,34.9799287831,100
                135.8225811249,34.9798913989,100
                135.822589775,34.9797958778,100
                135.8226145977,34.9797987296,100
                135.8226831958,34.9797662903,100
                135.8227379374,34.979597908,100
                135.8227955451,34.979420657,100
                135.8228156646,34.9794198161,100
                135.8228244614,34.9794038711,100
                135.8228367724,34.979346909,100
                135.8228674356,34.9792992026,100
                135.8228625623,34.9791890235,100
                135.8228109438,34.9791935004,100
                135.8228103775,34.9791935502,100
                135.8228104602,34.9791939696,100
                135.8225777817,34.9792065165,100
                135.8226802345,34.9790401947,100
                135.8227548361,34.978919081,100
                135.8227608108,34.9789093817,100
                135.8227440009,34.9788514775,100
                135.8226952403,34.9786912726,100
                135.8228071806,34.9786678911,100
                135.8227997428,34.9786435005,100
                135.8227140034,34.9784107559,100
                135.8226680908,34.978413367,100
                135.822641672,34.9782967717,100
                135.8226590336,34.9782947175,100
                135.8227973481,34.9783011519,100
                135.8228036949,34.9780210553,100
                135.8228060985,34.9779848334,100
                135.8227793001,34.9779823991,100
                135.822779393,34.9779814568,100
                135.8227596914,34.9779798812,100
                135.8227595617,34.9779609042,100
                135.8227520801,34.9777658014,100
                135.8227436748,34.9776325928,100
                135.8227276056,34.9776317818,100
                135.8227072152,34.9776322619,100
                135.8227067881,34.9776192394,100
                135.8227044636,34.9775848924,100
                135.8226939261,34.977486075,100
                135.8227034826,34.9774851887,100
                135.8227034634,34.9774850692,100
                135.8227034308,34.9774848348,100
                135.8227048807,34.9774851901,100
                135.8227501868,34.9774822953,100
                135.8227258469,34.9773069626,100
                135.8227085437,34.9771823267,100
                135.8226289481,34.9771898864,100
                135.822616564,34.97710546,100
                135.8227344707,34.9770821083,100
                135.8227292697,34.9770228,100
                135.8226891978,34.9765654593,100
                135.8225740638,34.9757597471,100
                135.8225732683,34.9756798821,100
                135.8226336782,34.9756798992,100
                135.8225934222,34.9752090362,100
                135.8230117293,34.9752296375,100
                135.823017985,34.9752299287,100
                135.8238492843,34.9751539317,100
                135.8242222526,34.9750581198,100
                135.824263313,34.9749709893,100
                135.8242918745,34.9748921515,100
                135.8243079689,34.9745001756,100
                135.8243929579,34.9744875494,100
                135.8244126785,34.974544976,100
                135.8246408631,34.9745349477,100
                135.8246356708,34.9744194395,100
                135.8247905322,34.9744176877,100
                135.8248555486,34.9744437688,100
                135.8252117346,34.9744180742,100
                135.8255732085,34.9743946421,100
                135.8258743571,34.9743732345,100
                135.8263405319,34.9743583978,100
                135.8264295325,34.9743833835,100
                135.8266665516,34.9744028731,100
                135.8269592904,34.9743415199,100
                135.8272844761,34.9741723863,100
                135.8278756271,34.9744793617,100
                135.8280110872,34.9744096866,100
                135.8282139419,34.9744634227,100
                135.828466005,34.974449688,100
                135.8286631768,34.9743641114,100
                135.8287890364,34.9742973794,100
                135.8289337829,34.9741527112,100
                135.8292331955,34.9741423506,100
                135.8295037455,34.974121103,100
                135.8298902237,34.9739557793,100
                135.8303472722,34.973548351,100
                135.8305112805,34.9732220024,100
                135.830793149,34.9729698357,100
                135.8310477645,34.972796368,100
                135.8312696376,34.972751246,100
                135.8315163275,34.9728117275,100
                135.8321799106,34.9731932934,100
                135.8324047452,34.9733167776,100
                135.8326761037,34.9733907422,100
                135.8329939585,34.9733836367,100
                135.8332377057,34.9733002274,100
                135.8342971712,34.97259512,100
                135.8350367132,34.9723941921,100
                135.8355272161,34.9724228763,100
                135.8359986044,34.9724920987,100
                135.836560128,34.9726540524,100
                135.8366126011,34.9726691927,100
                135.8366616163,34.97244424,100
                135.8368394191,34.9722303738,100
                135.8370912839,34.9720613972,100
                135.8371262509,34.9720470061,100
                135.8373651423,34.9719486513,100
                135.8377375974,34.9718088483,100
                135.8379457854,34.9717635542,100
                135.838121264,34.9718600592,100
                135.838250236,34.9719927024,100
                135.8384834658,34.9722510549,100
                135.8386205678,34.9723273657,100
                135.8388480207,34.9723653417,100
                135.8391467229,34.9723808026,100
                135.8394317456,34.9724254714,100
                135.8397552119,34.9725398424,100
                135.8400758912,34.9726181512,100
                135.840437637,34.9726537608,100
                135.8410298156,34.9729005278,100
                135.8416355729,34.9730595556,100
                135.8419945105,34.9731450194,100
                135.8420302698,34.9731535163,100
                135.8421315184,34.9730522296,100
                135.8422901645,34.9728496002,100
                135.8425914206,34.9727481461,100
                135.842659822,34.9726873134,100
                135.8427254378,34.9725725291,100
                135.8427965777,34.9724937405,100
                135.8431115989,34.9724483614,100
                135.8432509626,34.9721692931,100
                135.8432835742,34.9719669259,100
                135.8433491708,34.9718498174,100
                135.843628497,34.9717303024,100
                135.8440694313,34.9715903553,100
                135.8440886311,34.9714735401,100
                135.8440609426,34.971403641,100
                135.8439758414,34.971289019,100
                135.8439125987,34.9711182228,100
                135.8438931726,34.9709360015,100
                135.8439806108,34.9707650437,100
                135.8441447884,34.9705961541,100
                135.8443555856,34.9704902142,100
                135.8444130324,34.9704001392,100
                135.8443607542,34.9702517529,100
                135.8442865934,34.970114608,100
                135.8442699822,34.9699999304,100
                135.8443739703,34.9699053362,100
                135.8444039833,34.9698109312,100
                135.8443764683,34.9697231449,100
                135.8441131592,34.9695367443,100
                135.8440774469,34.9694581026,100
                135.844069059,34.9693389294,100
                135.8441647832,34.9692196057,100
                135.8443426727,34.9690776375,100
                135.844520531,34.9688998215,100
                135.8446433775,34.9685712931,100
                135.8447499872,34.9684001483,100
                135.8448330288,34.9682729907,100
                135.8447199889,34.968330528,100
                135.8446295799,34.9683297806,100
                135.8445669625,34.9682954744,100
                135.8442175009,34.9679549426,100
                135.8437369507,34.9675794523,100
                135.8432109785,34.9671045309,100
                135.8429799843,34.9669428183,100
                135.8426638949,34.9667938154,100
                135.8423228269,34.9666716829,100
                135.8419459383,34.9665649278,100
                135.8416516859,34.9664229219,100
                135.8413962923,34.9662384278,100
                135.8411760495,34.9660947561,100
                135.8406248052,34.9656736675,100
                135.8404882216,34.9656387703,100
                135.8399254359,34.965726429,100
                135.8396595717,34.9657309445,100
                135.8393448035,34.9657012382,100
                135.8390435544,34.9656874653,100
                135.8387880275,34.9657438966,100
                135.8386114787,34.9658436721,100
                135.8384200497,34.9660401248,100
                135.8381997172,34.9663624635,100
                135.8379192966,34.9664389315,100
                135.8376727237,34.9664369177,100
                135.8374671011,34.9664441837,100
                135.8373640837,34.9665828593,100
                135.8372523941,34.9669848512,100
                135.8371393695,34.9672698613,100
                135.8371718252,34.9675357661,100
                135.8371748853,34.9677383881,100
                135.8370878881,34.9679087773,100
                135.8370115893,34.9681039713,100
                135.8367980991,34.96831159,100
                135.8365619313,34.9685819987,100
                135.836509822,34.9688156769,100
                135.8364532495,34.9691934434,100
                135.8364121056,34.9694249529,100
                135.8363116848,34.9695726456,100
                135.836099274,34.9696901883,100
                135.8358590193,34.9697771987,100
                135.8356103638,34.9697851789,100
                135.8354245825,34.9697385201,100
                135.8351709539,34.9696374009,100
                135.8348933191,34.9694861755,100
                135.8347920877,34.9693870897,100
                135.834563887,34.9691095839,100
                135.8343967089,34.9689682956,100
                135.8340770161,34.9687241188,100
                135.8339819938,34.9687032153,100
                135.8335485832,34.968742072,100
                135.8331128171,34.9686745092,100
                135.8328997046,34.968606048,100
                135.8326819767,34.9685184944,100
                135.8324809371,34.9684084968,100
                135.8322817012,34.9682511736,100
                135.8321192958,34.9680423485,100
                135.8319733849,34.9678961547,100
                135.8319018608,34.9678529555,100
                135.8315912949,34.9677304125,100
                135.8314187006,34.9676543969,100
                135.8312022026,34.9675110636,100
                135.831019569,34.9673386904,100
                135.8308352903,34.9671235641,100
                135.8306830546,34.9668539712,100
                135.8304576068,34.9665744182,100
                135.8303528437,34.9664966634,100
                135.829953978,34.9662969456,100
                135.8292269288,34.9658109085,100
                135.8291537364,34.9657276329,100
                135.8289989958,34.9655054314,100
                135.8287908095,34.9652828027,100
                135.8287268231,34.9651692558,100
                135.8286949989,34.965059204,100
                135.8286350751,34.9647374082,100
                135.8285674205,34.9645776546,100
                135.8284630213,34.9643922852,100
                135.8283105866,34.9642161452,100
                135.828199985,34.9641040823,100
                135.8281093357,34.9640555722,100
                135.8279009211,34.9639990807,100
                135.8274664275,34.9641494685,100
                135.8269368069,34.9643628255,100
                135.8266143905,34.9645453436,100
                135.8264640529,34.9647161296,100
                135.8263435974,34.9647722316,100
                135.8261849378,34.9648145468,100
                135.8260612596,34.9647794402,100
                135.8260009625,34.9647198432,100
                135.8258695513,34.9646245099,100
                135.8257499485,34.9645939161,100
                135.8251836205,34.964473951,100
                135.824749778,34.9643662136,100
                135.8242820448,34.9642753999,100
                135.8237304412,34.9642088328,100
                135.823149917,34.9641601098,100
                135.8228248251,34.9641486553,100
                135.8223345284,34.9641468392,100
                135.8219538892,34.9641454255,100
                135.8213914459,34.9640833315,100
                135.8212316717,34.964088239,100
                135.8211949326,34.9640917072,100
                135.8210732666,34.964103291,100
                135.8204765339,34.9641384745,100
                135.8203964021,34.9641594152,100
                135.8202357824,34.9642286897,100
                135.8201954846,34.9642902801,100
                135.8200908104,34.9644502554,100
                135.8195412352,34.9652962702,100
                135.8197246077,34.9661294902,100
                135.8197255084,34.9661336468,100
                135.8202470468,34.9679968107,100
                135.8197940145,34.9677950017,100
                135.8187748262,34.9673260643,100
                135.8181648766,34.9670454192,100
                135.8177732357,34.9668748222,100
                135.8171533445,34.9666050029,100
                135.8170948617,34.9665795349,100
              </coordinates>
            </LinearRing>
          </outerBoundaryIs>
        </Polygon>
      </Placemark>
    </Document>
  </Document>
</kml>
