<?xml version="1.0" encoding="UTF-8"?>
<kml xmlns="http://www.opengis.net/kml/2.2">
  <Document id="root_doc">
    <Document id="_2_05______disv4326">
      <name>22_05山階disv4326</name>
      <Placemark id="_2_05______disv4326.1">
        <visibility>1</visibility>
        <Polygon>
          <extrude>0</extrude>
          <outerBoundaryIs>
            <LinearRing>
              <coordinates>
                135.811074501,34.9825080627,100
                135.8110553717,34.9827895231,100
                135.8110218876,34.9832822377,100
                135.8110084199,34.9834803226,100
                135.8110381951,34.9839820796,100
                135.8111286669,34.9843954759,100
                135.8112299827,34.9848583282,100
                135.811246366,34.9850530094,100
                135.8112363377,34.9852915949,100
                135.8112278215,34.9854944066,100
                135.8112241861,34.9855807429,100
                135.8112114928,34.9858822839,100
                135.811201119,34.986180026,100
                135.8112030021,34.9861800999,100
                135.8117538649,34.9862060294,100
                135.8123032298,34.9862319563,100
                135.8129868784,34.9862641099,100
                135.8129910866,34.9864861154,100
                135.8132583476,34.9864865285,100
                135.8132755026,34.9867701986,100
                135.8125529301,34.9867263789,100
                135.8117701453,34.9866789629,100
                135.811670101,34.9866728912,100
                135.8116623479,34.9872628406,100
                135.8113676996,34.9872699167,100
                135.81136963,34.9874787337,100
                135.8113494572,34.9878330171,100
                135.8113221963,34.9885455486,100
                135.8113168862,34.9887291419,100
                135.8113140053,34.9891191578,100
                135.8113752213,34.9892691905,100
                135.8113759441,34.9893198287,100
                135.8113761449,34.9893344078,100
                135.8113773145,34.9894169966,100
                135.8113781962,34.9894794177,100
                135.8113833716,34.9898455022,100
                135.8119360734,34.9898341803,100
                135.8124575775,34.9898252031,100
                135.8127433648,34.9898238864,100
                135.812885145,34.9898232607,100
                135.8130233737,34.98982263,100
                135.8130509611,34.9898225137,100
                135.813327538,34.9898213413,100
                135.8136412475,34.9898197821,100
                135.8142138213,34.9898131308,100
                135.8143049764,34.9898120722,100
                135.8144467597,34.9898099663,100
                135.814600802,34.989807738,100
                135.815135267,34.9898001067,100
                135.8155332572,34.9897943782,100
                135.8160752296,34.9897866124,100
                135.8165583495,34.989778545,100
                135.8169667595,34.9897714176,100
                135.8173017405,34.9897655169,100
                135.8178884562,34.9897553462,100
                135.818544917,34.9897445033,100
                135.8189510679,34.9897383524,100
                135.8190308591,34.9897371347,100
                135.8193039967,34.9897329665,100
                135.8195005538,34.9897299506,100
                135.8195998985,34.9897283392,100
                135.8200874779,34.9897208959,100
                135.8200741459,34.9893411718,100
                135.8200693436,34.9892044294,100
                135.8200675226,34.9891547065,100
                135.8200225892,34.9890779437,100
                135.8199230097,34.9889785639,100
                135.8198235274,34.9889378496,100
                135.8196645097,34.9889112737,100
                135.8193878253,34.9889040991,100
                135.8192798559,34.9888962616,100
                135.8191416456,34.9888492912,100
                135.8190298207,34.9887681319,100
                135.8188936891,34.9886377418,100
                135.8188612509,34.9886066723,100
                135.818825225,34.9885198526,100
                135.8187766704,34.9883808977,100
                135.8187224167,34.9882209476,100
                135.8185739038,34.987780347,100
                135.818538759,34.9877031764,100
                135.8184956971,34.9875675404,100
                135.8185123746,34.9874769262,100
                135.8186067976,34.9872360684,100
                135.8186097277,34.9871915631,100
                135.818613928,34.987128044,100
                135.8185635922,34.9869825378,100
                135.8185303203,34.9869303022,100
                135.8184129338,34.9868604744,100
                135.8183315521,34.9868409831,100
                135.8181695937,34.9868117243,100
                135.8180377355,34.9867164493,100
                135.8178816109,34.986539796,100
                135.8177537255,34.9864136806,100
                135.8177068509,34.9863300844,100
                135.8176495574,34.9860282936,100
                135.8175028086,34.9857959475,100
                135.8174277681,34.9856938571,100
                135.8173117184,34.9856110005,100
                135.817194539,34.9855950481,100
                135.8170947692,34.985016769,100
                135.8170667923,34.9849450324,100
                135.8170381512,34.9847896708,100
                135.8170175453,34.984677902,100
                135.8170002969,34.9845843208,100
                135.8169671377,34.9844044326,100
                135.8169581702,34.9843558239,100
                135.8169031934,34.9840576275,100
                135.816884904,34.9839583694,100
                135.816850014,34.9837304172,100
                135.8168500187,34.983728234,100
                135.816850118,34.9832665907,100
                135.81685016,34.983029889,100
                135.8172798917,34.9829619406,100
                135.8177130162,34.9828225851,100
                135.8182166115,34.9826967825,100
                135.8187093619,34.9826041338,100
                135.8192569482,34.9825237472,100
                135.8196963129,34.9824707354,100
                135.8204379999,34.9823754199,100
                135.8210366745,34.9822866501,100
                135.8213443362,34.9822502116,100
                135.8213450403,34.9822501279,100
                135.8219505771,34.9821881955,100
                135.8219797409,34.9821898584,100
                135.8226064829,34.9822287298,100
                135.82278236,34.9822439844,100
                135.8230657928,34.9822686208,100
                135.823759832,34.9823298362,100
                135.8240704004,34.9823857791,100
                135.8245521,34.9824725308,100
                135.8245960453,34.9821513057,100
                135.8237458091,34.9820072607,100
                135.8237524092,34.9821042477,100
                135.8235062905,34.9821004867,100
                135.8234999858,34.9820841611,100
                135.8234216351,34.9819113376,100
                135.8233290797,34.9817058517,100
                135.8233205926,34.9816983665,100
                135.8233153828,34.9816859154,100
                135.8231800826,34.9815292327,100
                135.8233382684,34.981524248,100
                135.8232416783,34.9811635225,100
                135.8230722241,34.9811660252,100
                135.8209914068,34.9811976438,100
                135.8207027798,34.9812023223,100
                135.8203073445,34.9812087318,100
                135.8194061477,34.9812233334,100
                135.8190147619,34.9812254444,100
                135.8189043661,34.9812260384,100
                135.8188309032,34.9812263506,100
                135.8185569628,34.9812277748,100
                135.8174003161,34.9812338632,100
                135.8164504669,34.9812397585,100
                135.8137832861,34.9812783846,100
                135.8132070454,34.9812867285,100
                135.8130379152,34.9812891439,100
                135.8117488693,34.9813053276,100
                135.8111634792,34.9813109698,100
                135.8110888957,34.9823265285,100
                135.8110859183,34.9823670889,100
                135.811074501,34.9825080627,100
              </coordinates>
            </LinearRing>
          </outerBoundaryIs>
        </Polygon>
      </Placemark>
    </Document>
  </Document>
</kml>
