<?xml version="1.0" encoding="UTF-8"?>
<kml xmlns="http://www.opengis.net/kml/2.2">
  <Document id="root_doc">
    <Document id="_2_03______disv4326">
      <name>22_03鏡山disv4326</name>
      <Placemark id="_2_03______disv4326.1">
        <visibility>1</visibility>
        <Polygon>
          <extrude>0</extrude>
          <outerBoundaryIs>
            <LinearRing>
              <coordinates>
                135.7975282986,34.9815744068,100
                135.7973574449,34.9815732182,100
                135.7973147031,34.9815848647,100
                135.7971338267,34.9816521674,100
                135.797135867,34.981714369,100
                135.7975323097,34.9817276564,100
                135.797599722,34.9818934243,100
                135.7975169418,34.9819337619,100
                135.7970756105,34.9822276033,100
                135.7968102438,34.9824930794,100
                135.7967255477,34.9826013199,100
                135.7965730432,34.9827962097,100
                135.7965129654,34.9828878714,100
                135.796477795,34.9829415454,100
                135.7964135959,34.9830393982,100
                135.7961521673,34.9834777719,100
                135.7959761977,34.9838104419,100
                135.7959210519,34.9839147173,100
                135.7956990008,34.9843702706,100
                135.7955677968,34.9847226643,100
                135.7955212105,34.9848955481,100
                135.7954397796,34.9851978137,100
                135.7954212579,34.9853449689,100
                135.795395122,34.9855524655,100
                135.7953607401,34.9858255145,100
                135.7953606521,34.9858262175,100
                135.7953068773,34.9862401409,100
                135.7952966407,34.9863189406,100
                135.7952828733,34.9864553284,100
                135.7952043759,34.9869932363,100
                135.7951127568,34.9875784467,100
                135.7950632073,34.9878522427,100
                135.7948446537,34.9881756872,100
                135.7946961149,34.9883605826,100
                135.794299903,34.9886040075,100
                135.7930345265,34.9891126673,100
                135.7927432311,34.9891798538,100
                135.7931059091,34.9893768095,100
                135.7934860149,34.9894384384,100
                135.7936672631,34.9894062058,100
                135.7938504161,34.9892757356,100
                135.7940970011,34.9891114264,100
                135.7942486741,34.9890897088,100
                135.7946729391,34.98912528,100
                135.7948848345,34.9892180308,100
                135.7949362175,34.9892730474,100
                135.7951319107,34.9892904156,100
                135.7958792653,34.9889038386,100
                135.7967971463,34.9888536012,100
                135.7969691243,34.9888489553,100
                135.797817686,34.9889153878,100
                135.7981588647,34.988943571,100
                135.798164959,34.9889450597,100
                135.7986843036,34.9890801651,100
                135.7987886456,34.9891121027,100
                135.7988573588,34.9891331338,100
                135.7991872419,34.9892341125,100
                135.7995103353,34.9893650103,100
                135.7995815945,34.9894024564,100
                135.8001023089,34.9896752356,100
                135.8003835076,34.9898374708,100
                135.8004973512,34.9899065367,100
                135.8010370808,34.9902389254,100
                135.8010583974,34.9902523845,100
                135.8011460037,34.9903077012,100
                135.8013072875,34.9904096636,100
                135.8013585818,34.9904420805,100
                135.8016062714,34.9905986172,100
                135.8019431689,34.9908048178,100
                135.8022430486,34.9909878571,100
                135.8023638578,34.9910614398,100
                135.8030271284,34.991449313,100
                135.8033303932,34.9916041162,100
                135.8036064762,34.9917268308,100
                135.8038521028,34.991827874,100
                135.8044669235,34.9920148107,100
                135.8044704721,34.9920158735,100
                135.8050339508,34.9921556085,100
                135.8053806948,34.992208223,100
                135.8057735954,34.9922657714,100
                135.806123186,34.9922900067,100
                135.8063214955,34.9922963872,100
                135.8065123645,34.9923015578,100
                135.8071231516,34.9923198094,100
                135.8078397864,34.9923422414,100
                135.8091909199,34.9923698487,100
                135.809250503,34.9923710016,100
                135.8100098475,34.9923853114,100
                135.8102904935,34.992390895,100
                135.8112679805,34.9924104584,100
                135.8118675058,34.9924311149,100
                135.8117928048,34.992090205,100
                135.8119711504,34.9920703408,100
                135.8118852678,34.9917653314,100
                135.8118246214,34.991550014,100
                135.8118265381,34.991505578,100
                135.8113948872,34.9915115942,100
                135.811411443,34.9914083064,100
                135.8114185802,34.991363878,100
                135.8114031823,34.9912180705,100
                135.8114478562,34.9912066625,100
                135.8114251486,34.990702021,100
                135.8113804197,34.9903629201,100
                135.8113815433,34.9901960809,100
                135.8113833716,34.9898455022,100
                135.8113781962,34.9894794177,100
                135.8113773145,34.9894169966,100
                135.8113761449,34.9893344078,100
                135.8113759441,34.9893198287,100
                135.8113752213,34.9892691905,100
                135.8113140053,34.9891191578,100
                135.8113168862,34.9887291419,100
                135.8113221963,34.9885455486,100
                135.8113494572,34.9878330171,100
                135.81136963,34.9874787337,100
                135.8113676996,34.9872699167,100
                135.8116623479,34.9872628406,100
                135.811670101,34.9866728912,100
                135.8117701453,34.9866789629,100
                135.8125529301,34.9867263789,100
                135.8132755026,34.9867701986,100
                135.8132583476,34.9864865285,100
                135.8129910866,34.9864861154,100
                135.8129868784,34.9862641099,100
                135.8123032298,34.9862319563,100
                135.8117538649,34.9862060294,100
                135.8112030021,34.9861800999,100
                135.811201119,34.986180026,100
                135.8105293467,34.9861521441,100
                135.8103224068,34.9861434386,100
                135.8097658268,34.9861204517,100
                135.8096945939,34.9861174522,100
                135.8095550402,34.9861115971,100
                135.8086228997,34.9860727873,100
                135.8084518602,34.986065683,100
                135.8079772663,34.9860459093,100
                135.8074956138,34.9860258407,100
                135.8075164837,34.9864353247,100
                135.806924223,34.9864929659,100
                135.8068953149,34.9864958068,100
                135.8068165224,34.9855575503,100
                135.8065649461,34.9855393979,100
                135.8065144683,34.9855356544,100
                135.8065262781,34.9857601878,100
                135.8063714765,34.9857624035,100
                135.8063779459,34.986151652,100
                135.8063674632,34.9861517753,100
                135.8061026168,34.9861540242,100
                135.8060117922,34.9865146629,100
                135.805751526,34.9865153684,100
                135.8057870528,34.9863785906,100
                135.805366487,34.9863529784,100
                135.8052234878,34.9865436682,100
                135.8049668213,34.9864957137,100
                135.8049328727,34.9864947437,100
                135.8046452434,34.986486528,100
                135.8040228006,34.9864687519,100
                135.8038253594,34.9862218731,100
                135.8037731984,34.9860774163,100
                135.8037732336,34.9860732255,100
                135.8037745693,34.985910795,100
                135.8037942444,34.9856184941,100
                135.8038029305,34.985507589,100
                135.8035145502,34.9854473972,100
                135.8035198246,34.985423884,100
                135.8035532236,34.9852749208,100
                135.8035823964,34.9851112308,100
                135.8035639956,34.9848454188,100
                135.8035709126,34.9847600057,100
                135.8033816734,34.9844670114,100
                135.8032939739,34.9844355993,100
                135.803272405,34.9843828864,100
                135.803259665,34.9843517368,100
                135.8031898012,34.9843416231,100
                135.8031924884,34.9842892091,100
                135.8032759601,34.9842953264,100
                135.8033343529,34.9843000546,100
                135.8033748078,34.9839706114,100
                135.8034662285,34.983955092,100
                135.8034693205,34.9838351667,100
                135.8033133818,34.9838308831,100
                135.803355132,34.983757158,100
                135.8033677852,34.9836509086,100
                135.8034151569,34.9834072454,100
                135.8033046717,34.9834062911,100
                135.8032354117,34.9834057041,100
                135.8032223783,34.983405593,100
                135.8025720567,34.9834002297,100
                135.8025744002,34.9832131156,100
                135.8025747535,34.9831847329,100
                135.8025834065,34.9824896597,100
                135.8025967288,34.9814214821,100
                135.8025949179,34.9813359832,100
                135.8025852368,34.9806822171,100
                135.8025824399,34.9804703757,100
                135.8025722763,34.9800230921,100
                135.8025687586,34.9798811104,100
                135.8025685632,34.9798732049,100
                135.8025615219,34.9795886385,100
                135.8025613698,34.9795824981,100
                135.8025685124,34.9790438327,100
                135.8022815512,34.9791111805,100
                135.8022770667,34.9793080098,100
                135.8021826107,34.9793704639,100
                135.8021794001,34.9794261628,100
                135.8021752744,34.9794974961,100
                135.8018441718,34.9797702702,100
                135.801794898,34.979810824,100
                135.8017813432,34.980372296,100
                135.8019054096,34.9804278548,100
                135.8019070528,34.98060265,100
                135.801389841,34.9805750371,100
                135.8013841085,34.9808655296,100
                135.8019500596,34.9809528014,100
                135.8019664078,34.9813523459,100
                135.8006408108,34.9814087515,100
                135.8004513064,34.9814171003,100
                135.8001878288,34.9814278613,100
                135.7996338111,34.981448068,100
                135.7993197671,34.981457686,100
                135.7990262825,34.981473535,100
                135.7987472045,34.9815221539,100
                135.7982879691,34.981623641,100
                135.7982172307,34.9816398607,100
                135.7978379755,34.9817773262,100
                135.7976562501,34.9818658807,100
                135.7975282986,34.9815744068,100
              </coordinates>
            </LinearRing>
          </outerBoundaryIs>
        </Polygon>
      </Placemark>
    </Document>
  </Document>
</kml>
