<?xml version="1.0" encoding="UTF-8"?>
<kml xmlns="http://www.opengis.net/kml/2.2">
  <Document id="root_doc">
    <Document id="_2_08______disv4326">
      <name>22_08大塚disv4326</name>
      <Placemark id="_2_08______disv4326.1">
        <visibility>1</visibility>
        <Polygon>
          <extrude>0</extrude>
          <outerBoundaryIs>
            <LinearRing>
              <coordinates>
                135.8292331955,34.9741423506,100
                135.8289337829,34.9741527112,100
                135.8287890364,34.9742973794,100
                135.8286631768,34.9743641114,100
                135.828466005,34.974449688,100
                135.8282139419,34.9744634227,100
                135.8280110872,34.9744096866,100
                135.8278756271,34.9744793617,100
                135.8272844761,34.9741723863,100
                135.8269592904,34.9743415199,100
                135.8266665516,34.9744028731,100
                135.8264295325,34.9743833835,100
                135.8263405319,34.9743583978,100
                135.8258743571,34.9743732345,100
                135.8255732085,34.9743946421,100
                135.8252117346,34.9744180742,100
                135.8248555486,34.9744437688,100
                135.8247905322,34.9744176877,100
                135.8246356708,34.9744194395,100
                135.8246408631,34.9745349477,100
                135.8244126785,34.974544976,100
                135.8243929579,34.9744875494,100
                135.8243079689,34.9745001756,100
                135.8242918745,34.9748921515,100
                135.824263313,34.9749709893,100
                135.8242222526,34.9750581198,100
                135.8238492843,34.9751539317,100
                135.823017985,34.9752299287,100
                135.8230117293,34.9752296375,100
                135.8225934222,34.9752090362,100
                135.8226336782,34.9756798992,100
                135.8225732683,34.9756798821,100
                135.8225740638,34.9757597471,100
                135.8226891978,34.9765654593,100
                135.8227292697,34.9770228,100
                135.8227344707,34.9770821083,100
                135.822616564,34.97710546,100
                135.8226289481,34.9771898864,100
                135.8227085437,34.9771823267,100
                135.8227258469,34.9773069626,100
                135.8227501868,34.9774822953,100
                135.8227048807,34.9774851901,100
                135.8227034308,34.9774848348,100
                135.8227034634,34.9774850692,100
                135.8227034826,34.9774851887,100
                135.8226939261,34.977486075,100
                135.8227044636,34.9775848924,100
                135.8227067881,34.9776192394,100
                135.8227072152,34.9776322619,100
                135.8227276056,34.9776317818,100
                135.8227436748,34.9776325928,100
                135.8227520801,34.9777658014,100
                135.8227595617,34.9779609042,100
                135.8227596914,34.9779798812,100
                135.822779393,34.9779814568,100
                135.8227793001,34.9779823991,100
                135.8228060985,34.9779848334,100
                135.8228036949,34.9780210553,100
                135.8227973481,34.9783011519,100
                135.8226590336,34.9782947175,100
                135.822641672,34.9782967717,100
                135.8226680908,34.978413367,100
                135.8227140034,34.9784107559,100
                135.8227997428,34.9786435005,100
                135.8228071806,34.9786678911,100
                135.8226952403,34.9786912726,100
                135.8227440009,34.9788514775,100
                135.8227608108,34.9789093817,100
                135.8227548361,34.978919081,100
                135.8226802345,34.9790401947,100
                135.8225777817,34.9792065165,100
                135.8228104602,34.9791939696,100
                135.8228103775,34.9791935502,100
                135.8228109438,34.9791935004,100
                135.8228625623,34.9791890235,100
                135.8228674356,34.9792992026,100
                135.8228367724,34.979346909,100
                135.8228244614,34.9794038711,100
                135.8228156646,34.9794198161,100
                135.8227955451,34.979420657,100
                135.8227379374,34.979597908,100
                135.8226831958,34.9797662903,100
                135.8226145977,34.9797987296,100
                135.822589775,34.9797958778,100
                135.8225811249,34.9798913989,100
                135.8225720837,34.9799287831,100
                135.8225675593,34.9799557848,100
                135.822550357,34.9800132284,100
                135.8225383804,34.9801484308,100
                135.8225645296,34.9803692555,100
                135.8226368956,34.9805432443,100
                135.8227369082,34.9807498818,100
                135.8229246349,34.9810093944,100
                135.8230722241,34.9811660252,100
                135.8232416783,34.9811635225,100
                135.8233382684,34.981524248,100
                135.8231800826,34.9815292327,100
                135.8233153828,34.9816859154,100
                135.8233205926,34.9816983665,100
                135.8233290797,34.9817058517,100
                135.8234216351,34.9819113376,100
                135.8234999858,34.9820841611,100
                135.8235062905,34.9821004867,100
                135.8237524092,34.9821042477,100
                135.8237458091,34.9820072607,100
                135.8245960453,34.9821513057,100
                135.8255304213,34.9827702146,100
                135.8255592835,34.9827999056,100
                135.8258061092,34.9828585704,100
                135.8260309871,34.9829424172,100
                135.8263890916,34.9830515944,100
                135.8269760811,34.9832114497,100
                135.8271005704,34.9837047569,100
                135.8271247936,34.9838007835,100
                135.8271935689,34.9840732935,100
                135.8272806674,34.9844194962,100
                135.827483694,34.9852320215,100
                135.8275155723,34.9853407363,100
                135.827632953,34.9857412108,100
                135.8276708766,34.9858705672,100
                135.8276802126,34.9859024151,100
                135.8277906788,34.9862792861,100
                135.8279871276,34.9869494676,100
                135.8280969505,34.9873242256,100
                135.8281091049,34.9873655122,100
                135.8282258213,34.9877749298,100
                135.828411961,34.9884546042,100
                135.828415635,34.9884679906,100
                135.8285195464,34.9888474584,100
                135.828604063,34.9892333782,100
                135.8286471057,34.9894301423,100
                135.8286631644,34.9895034809,100
                135.82869284,34.9896390245,100
                135.8289676327,34.9905434164,100
                135.8289895184,34.9905799274,100
                135.8290704987,34.9906585676,100
                135.8292103277,34.9907472909,100
                135.829337116,34.9908095862,100
                135.8293478813,34.9909074243,100
                135.8293766598,34.9909326777,100
                135.829406944,34.9911023808,100
                135.8307748981,34.9910364674,100
                135.8311677718,34.9909564437,100
                135.8313846078,34.990885965,100
                135.832887849,34.9908627524,100
                135.8329574253,34.9908188306,100
                135.8333624331,34.990838331,100
                135.8333781051,34.9908700443,100
                135.8338459934,34.9909485771,100
                135.834036419,34.9909372168,100
                135.8343047941,34.9908936353,100
                135.8344219426,34.9908870335,100
                135.8346542649,34.9909003079,100
                135.8348708725,34.9909242631,100
                135.8351428491,34.9909166708,100
                135.8353957931,34.9909387717,100
                135.8356738865,34.9909209727,100
                135.835714151,34.9908876449,100
                135.8358928217,34.9908589374,100
                135.8361163888,34.9908981121,100
                135.8361641317,34.9908528901,100
                135.8363302637,34.9909193139,100
                135.8364004981,34.9909938514,100
                135.8367667757,34.9909346858,100
                135.83704196,34.9908792723,100
                135.8374296461,34.9908570373,100
                135.8375206406,34.9908466447,100
                135.837537551,34.9908447149,100
                135.8376093481,34.9908364982,100
                135.8383034354,34.9907567743,100
                135.8385557503,34.9906467449,100
                135.8389043617,34.9905053614,100
                135.8388129995,34.9903519202,100
                135.8387461077,34.9902395689,100
                135.8391825654,34.9902203511,100
                135.8394018355,34.9901000648,100
                135.8394183876,34.9900740269,100
                135.8395086935,34.9900416082,100
                135.8395489057,34.9899964447,100
                135.839553504,34.9895178209,100
                135.8396595903,34.9895005652,100
                135.8396849765,34.9894655938,100
                135.839896162,34.9895723564,100
                135.8403403527,34.9897450604,100
                135.8408117758,34.9898166633,100
                135.8411269159,34.989814114,100
                135.8412804861,34.989888191,100
                135.8415133391,34.9898339793,100
                135.841631195,34.9898496271,100
                135.8417408997,34.9899102646,100
                135.8418642168,34.9899123254,100
                135.8420285366,34.9898379524,100
                135.8423409405,34.9898399039,100
                135.8428151373,34.9899114329,100
                135.8430811889,34.9900843212,100
                135.8431502042,34.9901452594,100
                135.8432211173,34.9902078903,100
                135.8433336634,34.9903405091,100
                135.8434131565,34.9903516693,100
                135.8435773887,34.9902278522,100
                135.843744576,34.9902344045,100
                135.8439119865,34.990405124,100
                135.8439286292,34.9905513546,100
                135.8440547444,34.9906006732,100
                135.8442273391,34.9905645526,100
                135.8445835511,34.9905304925,100
                135.8447262306,34.9906495562,100
                135.8448880504,34.9907550517,100
                135.8449978024,34.9908494225,100
                135.8452143662,34.9909054749,100
                135.8460584737,34.9910926085,100
                135.846535702,34.9912213143,100
                135.8469140497,34.991340177,100
                135.8470511031,34.9913715481,100
                135.8472510914,34.9913307381,100
                135.8473413913,34.9912339414,100
                135.8475606282,34.9912495689,100
                135.8479202017,34.9914035532,100
                135.8484079389,34.9916197438,100
                135.8486082778,34.9918062778,100
                135.8487919884,34.9918825693,100
                135.8490167204,34.9919070757,100
                135.8491835217,34.9916460614,100
                135.8492602559,34.9915074122,100
                135.8493666538,34.9913152021,100
                135.8496319251,34.9909325383,100
                135.8497793648,34.9905544461,100
                135.8498419349,34.9902350578,100
                135.8498798625,34.9899425429,100
                135.8501177922,34.989598227,100
                135.8502517265,34.9893483694,100
                135.8503802527,34.9891614679,100
                135.8503685309,34.9891235622,100
                135.8503169236,34.9889568646,100
                135.8501220008,34.9887097009,100
                135.8498777291,34.9884400804,100
                135.8497459078,34.9882422248,100
                135.8496442372,34.9880353907,100
                135.8492704193,34.9872552813,100
                135.8492678624,34.987243094,100
                135.8492319591,34.9870724005,100
                135.8492041995,34.9869403835,100
                135.8492094097,34.986749175,100
                135.8491266266,34.9863467134,100
                135.8490075794,34.9854964899,100
                135.8489659948,34.9851704941,100
                135.8489739529,34.9849792898,100
                135.8490751836,34.9848667288,100
                135.8492723426,34.9847299183,100
                135.8494332247,34.9846182758,100
                135.8494940137,34.9845760934,100
                135.8499605231,34.985029877,100
                135.8502834392,34.9847304584,100
                135.8505466117,34.9844499804,100
                135.8508306606,34.9841472719,100
                135.8512034259,34.9842120995,100
                135.8516529217,34.9842768051,100
                135.8518476257,34.9843778255,100
                135.8519425898,34.9844516801,100
                135.8521412112,34.9846316548,100
                135.8522864465,34.9846270413,100
                135.8526692613,34.9844525584,100
                135.8528724507,34.9843497654,100
                135.8530916209,34.9843090406,100
                135.8534396787,34.9843446009,100
                135.8537300463,34.9842767738,100
                135.8538589365,34.9843531331,100
                135.8539727904,34.9844541232,100
                135.8540565103,34.9845283842,100
                135.8543471546,34.9846607139,100
                135.8549200524,34.9847748562,100
                135.8551419783,34.9847611058,100
                135.8554650817,34.9845852745,100
                135.8555719709,34.9844560237,100
                135.8558206857,34.9841553037,100
                135.8562526103,34.9834506796,100
                135.8564706892,34.9830793536,100
                135.8566161423,34.9828316855,100
                135.8566898004,34.9826089368,100
                135.8566593174,34.9823862041,100
                135.8562800084,34.9816151976,100
                135.856167194,34.9812890488,100
                135.8562079742,34.9810776002,100
                135.8565608837,34.9806857974,100
                135.8567164721,34.9802806616,100
                135.8566253432,34.9797994548,100
                135.8564769328,34.979504958,100
                135.8563476701,34.9791902021,100
                135.8562568774,34.9789428192,100
                135.8560042967,34.9786079138,100
                135.8554964984,34.9780192361,100
                135.8551918995,34.977729418,100
                135.8548655651,34.9775520466,100
                135.8546571315,34.9774240419,100
                135.8540867408,34.9771278477,100
                135.853927626,34.976999761,100
                135.8542284038,34.9765631166,100
                135.8543919412,34.975964536,100
                135.8544873543,34.97564054,100
                135.85464327,34.975455853,100
                135.8548512025,34.9752419995,100
                135.8548531655,34.9751442478,100
                135.8548563007,34.9749877602,100
                135.8547572873,34.9747292433,100
                135.8545705189,34.9744280133,100
                135.8542573932,34.9739065461,100
                135.8541036167,34.9736840232,100
                135.8539308966,34.9736234602,100
                135.8536815451,34.9736012601,100
                135.8535800309,34.9735250059,100
                135.8534757416,34.973408112,100
                135.8533961082,34.9732889939,100
                135.8532782143,34.9732351874,100
                135.8528641193,34.9730017153,100
                135.8526940253,34.9728601626,100
                135.8526034433,34.9727410309,100
                135.852570368,34.9726038689,100
                135.8525562331,34.9723002382,100
                135.8524789124,34.9718932844,100
                135.8523852451,34.9715446949,100
                135.8523575755,34.9713624657,100
                135.8523874618,34.9711758683,100
                135.8526308881,34.9708988162,100
                135.8527731679,34.9707591881,100
                135.8532280259,34.9707721989,100
                135.8534965682,34.9707741397,100
                135.8537788039,34.9707984929,100
                135.8540248331,34.9708070254,100
                135.8544665764,34.9708224111,100
                135.8546472638,34.9707231807,100
                135.8548852753,34.9704799935,100
                135.8550384578,34.9702976257,100
                135.8553369181,34.9701645875,100
                135.8556929159,34.9700359124,100
                135.8559036925,34.9698938963,100
                135.8560841778,34.9696664851,100
                135.8561606118,34.9694661363,100
                135.8561767577,34.9692726903,100
                135.8562778951,34.9691039221,100
                135.8564145934,34.9689080106,100
                135.8564663938,34.9687280573,100
                135.8563756796,34.9685413877,100
                135.856317826,34.968325529,100
                135.8563121248,34.9681748071,100
                135.8563392363,34.967979119,100
                135.8562783807,34.9675923282,100
                135.856179107,34.9671515447,100
                135.8562006624,34.9669085237,100
                135.8562743639,34.9667217638,100
                135.8564276069,34.9665865806,100
                135.8568054049,34.9663814411,100
                135.8573281599,34.9660118779,100
                135.8580068986,34.9655116362,100
                135.8585323271,34.9650902346,100
                135.8588525749,34.9648941766,100
                135.858997372,34.9646173481,100
                135.8591941721,34.9643021248,100
                135.8595252186,34.9639821941,100
                135.8598451813,34.9635814026,100
                135.8599516288,34.9633293223,100
                135.8601131011,34.9632031607,100
                135.8603596115,34.9631488635,100
                135.8607869554,34.9630942809,100
                135.861025026,34.9629163007,100
                135.8613122872,34.9626211847,100
                135.8618318996,34.9619996166,100
                135.8621025527,34.9616168675,100
                135.862236303,34.9612905213,100
                135.8624962418,34.9610472126,100
                135.8631094155,34.9606909859,100
                135.8632953502,34.960441041,100
                135.8634046869,34.9602811553,100
                135.8634300448,34.9601686423,100
                135.8630299768,34.9601699517,100
                135.8627390564,34.9602103288,100
                135.8621453224,34.9603697335,100
                135.8616201982,34.9605207619,100
                135.8611299334,34.9607351421,100
                135.8607687733,34.96092354,100
                135.860122898,34.9613235202,100
                135.8596488191,34.9615605186,100
                135.8592190994,34.9617551169,100
                135.8584368696,34.9620999564,100
                135.858036954,34.9623216997,100
                135.8575128302,34.9626190784,100
                135.8568072096,34.9629735019,100
                135.8561762136,34.9632722297,100
                135.8557035166,34.9633921809,100
                135.8549624294,34.9634987151,100
                135.8541803948,34.9635912521,100
                135.8540298641,34.9635764957,100
                135.8539096745,34.9635462111,100
                135.8537490639,34.9634548875,100
                135.85342944,34.9633734458,100
                135.8531360384,34.9633912677,100
                135.8528091874,34.9634560946,100
                135.8525149666,34.9635437782,100
                135.8524010318,34.9636801314,100
                135.8522402048,34.9638409361,100
                135.852107805,34.9639140223,100
                135.851950933,34.9639713032,100
                135.8518945405,34.9645697298,100
                135.851838928,34.9646390342,100
                135.8516690315,34.9646399569,100
                135.8509354881,34.9645708283,100
                135.8505019426,34.9646212225,100
                135.8502805144,34.9645788379,100
                135.8500784427,34.9645186592,100
                135.8498683978,34.9644381863,100
                135.849724501,34.9643244122,100
                135.8496101805,34.9642603243,100
                135.8494487378,34.9642410416,100
                135.849333072,34.9642895662,100
                135.8493087836,34.9643266518,100
                135.8491491647,34.9645492179,100
                135.8490168212,34.9646179339,100
                135.8489502812,34.9646310229,100
                135.8488739968,34.9646460003,100
                135.8487258951,34.9646582849,100
                135.8485965909,34.9647022841,100
                135.8484611829,34.9647978989,100
                135.8482710413,34.9648886566,100
                135.8480813188,34.9649432863,100
                135.8478726188,34.9649821155,100
                135.8476939325,34.9650302085,100
                135.8475644127,34.9650921646,100
                135.847429569,34.9651405926,100
                135.8472758944,34.9651595584,100
                135.8471255895,34.9651245113,100
                135.8470330795,34.9650696745,100
                135.8468664093,34.9650301001,100
                135.846753845,34.9650471445,100
                135.8466624171,34.965131967,100
                135.8466086269,34.9652778254,100
                135.8465764823,34.9654463877,100
                135.8465006679,34.9656010228,100
                135.8463671436,34.9657688259,100
                135.8461790783,34.9659135308,100
                135.8459539495,34.9659521969,100
                135.845808043,34.9660073005,100
                135.845681079,34.9660850352,100
                135.84555879,34.9662303851,100
                135.8455501421,34.9665719455,100
                135.8455484809,34.9666377229,100
                135.845492143,34.9667655483,100
                135.8454006708,34.9668548764,100
                135.8451611521,34.9669474697,100
                135.8448701744,34.9669923199,100
                135.8447188413,34.9670428376,100
                135.8446355814,34.9671322459,100
                135.8445955773,34.9672691764,100
                135.8446956477,34.9673825489,100
                135.8448534409,34.9674762038,100
                135.8449158018,34.9675329753,100
                135.8448542018,34.9678746814,100
                135.8448484851,34.9681268028,100
                135.8448330288,34.9682729907,100
                135.8447499872,34.9684001483,100
                135.8446433775,34.9685712931,100
                135.844520531,34.9688998215,100
                135.8443426727,34.9690776375,100
                135.8441647832,34.9692196057,100
                135.844069059,34.9693389294,100
                135.8440774469,34.9694581026,100
                135.8441131592,34.9695367443,100
                135.8443764683,34.9697231449,100
                135.8444039833,34.9698109312,100
                135.8443739703,34.9699053362,100
                135.8442699822,34.9699999304,100
                135.8442865934,34.970114608,100
                135.8443607542,34.9702517529,100
                135.8444130324,34.9704001392,100
                135.8443555856,34.9704902142,100
                135.8441447884,34.9705961541,100
                135.8439806108,34.9707650437,100
                135.8438931726,34.9709360015,100
                135.8439125987,34.9711182228,100
                135.8439758414,34.971289019,100
                135.8440609426,34.971403641,100
                135.8440886311,34.9714735401,100
                135.8440694313,34.9715903553,100
                135.843628497,34.9717303024,100
                135.8433491708,34.9718498174,100
                135.8432835742,34.9719669259,100
                135.8432509626,34.9721692931,100
                135.8431115989,34.9724483614,100
                135.8427965777,34.9724937405,100
                135.8427254378,34.9725725291,100
                135.842659822,34.9726873134,100
                135.8425914206,34.9727481461,100
                135.8422901645,34.9728496002,100
                135.8421315184,34.9730522296,100
                135.8420302698,34.9731535163,100
                135.8419945105,34.9731450194,100
                135.8416355729,34.9730595556,100
                135.8410298156,34.9729005278,100
                135.840437637,34.9726537608,100
                135.8400758912,34.9726181512,100
                135.8397552119,34.9725398424,100
                135.8394317456,34.9724254714,100
                135.8391467229,34.9723808026,100
                135.8388480207,34.9723653417,100
                135.8386205678,34.9723273657,100
                135.8384834658,34.9722510549,100
                135.838250236,34.9719927024,100
                135.838121264,34.9718600592,100
                135.8379457854,34.9717635542,100
                135.8377375974,34.9718088483,100
                135.8373651423,34.9719486513,100
                135.8371262509,34.9720470061,100
                135.8370912839,34.9720613972,100
                135.8368394191,34.9722303738,100
                135.8366616163,34.97244424,100
                135.8366126011,34.9726691927,100
                135.836560128,34.9726540524,100
                135.8359986044,34.9724920987,100
                135.8355272161,34.9724228763,100
                135.8350367132,34.9723941921,100
                135.8342971712,34.97259512,100
                135.8332377057,34.9733002274,100
                135.8329939585,34.9733836367,100
                135.8326761037,34.9733907422,100
                135.8324047452,34.9733167776,100
                135.8321799106,34.9731932934,100
                135.8315163275,34.9728117275,100
                135.8312696376,34.972751246,100
                135.8310477645,34.972796368,100
                135.830793149,34.9729698357,100
                135.8305112805,34.9732220024,100
                135.8303472722,34.973548351,100
                135.8298902237,34.9739557793,100
                135.8295037455,34.974121103,100
                135.8292331955,34.9741423506,100
              </coordinates>
            </LinearRing>
          </outerBoundaryIs>
        </Polygon>
      </Placemark>
    </Document>
  </Document>
</kml>
