<?xml version="1.0" encoding="UTF-8"?>
<kml xmlns="http://www.opengis.net/kml/2.2">
  <Document id="root_doc">
    <Document id="_2_04______disv4326">
      <name>22_04西野disv4326</name>
      <Placemark id="_2_04______disv4326.1">
        <visibility>1</visibility>
        <Polygon>
          <extrude>0</extrude>
          <outerBoundaryIs>
            <LinearRing>
              <coordinates>
                135.8111286669,34.9843954759,100
                135.8110381951,34.9839820796,100
                135.8110084199,34.9834803226,100
                135.8110218876,34.9832822377,100
                135.8110553717,34.9827895231,100
                135.811074501,34.9825080627,100
                135.8110859183,34.9823670889,100
                135.8110888957,34.9823265285,100
                135.8111634792,34.9813109698,100
                135.8098724941,34.9813232569,100
                135.8090522245,34.9813307646,100
                135.8084272037,34.981336321,100
                135.8081977764,34.981338421,100
                135.8077197808,34.981342658,100
                135.8074253452,34.98134585,100
                135.8073848934,34.9813463487,100
                135.8068385259,34.9813532903,100
                135.8061900747,34.9813614732,100
                135.8056402634,34.9813685188,100
                135.8050135049,34.9813765455,100
                135.8050006043,34.9813767359,100
                135.8042876693,34.9813899456,100
                135.8037558181,34.9813999263,100
                135.8037510049,34.9813999883,100
                135.8025967288,34.9814214821,100
                135.8025834065,34.9824896597,100
                135.8025747535,34.9831847329,100
                135.8025744002,34.9832131156,100
                135.8025720567,34.9834002297,100
                135.8032223783,34.983405593,100
                135.8032354117,34.9834057041,100
                135.8033046717,34.9834062911,100
                135.8034151569,34.9834072454,100
                135.8033677852,34.9836509086,100
                135.803355132,34.983757158,100
                135.8033133818,34.9838308831,100
                135.8034693205,34.9838351667,100
                135.8034662285,34.983955092,100
                135.8033748078,34.9839706114,100
                135.8033343529,34.9843000546,100
                135.8032759601,34.9842953264,100
                135.8031924884,34.9842892091,100
                135.8031898012,34.9843416231,100
                135.803259665,34.9843517368,100
                135.803272405,34.9843828864,100
                135.8032939739,34.9844355993,100
                135.8033816734,34.9844670114,100
                135.8035709126,34.9847600057,100
                135.8035639956,34.9848454188,100
                135.8035823964,34.9851112308,100
                135.8035532236,34.9852749208,100
                135.8035198246,34.985423884,100
                135.8035145502,34.9854473972,100
                135.8038029305,34.985507589,100
                135.8037942444,34.9856184941,100
                135.8037745693,34.985910795,100
                135.8037732336,34.9860732255,100
                135.8037731984,34.9860774163,100
                135.8038253594,34.9862218731,100
                135.8040228006,34.9864687519,100
                135.8046452434,34.986486528,100
                135.8049328727,34.9864947437,100
                135.8049668213,34.9864957137,100
                135.8052234878,34.9865436682,100
                135.805366487,34.9863529784,100
                135.8057870528,34.9863785906,100
                135.805751526,34.9865153684,100
                135.8060117922,34.9865146629,100
                135.8061026168,34.9861540242,100
                135.8063674632,34.9861517753,100
                135.8063779459,34.986151652,100
                135.8063714765,34.9857624035,100
                135.8065262781,34.9857601878,100
                135.8065144683,34.9855356544,100
                135.8065649461,34.9855393979,100
                135.8068165224,34.9855575503,100
                135.8068953149,34.9864958068,100
                135.806924223,34.9864929659,100
                135.8075164837,34.9864353247,100
                135.8074956138,34.9860258407,100
                135.8079772663,34.9860459093,100
                135.8084518602,34.986065683,100
                135.8086228997,34.9860727873,100
                135.8095550402,34.9861115971,100
                135.8096945939,34.9861174522,100
                135.8097658268,34.9861204517,100
                135.8103224068,34.9861434386,100
                135.8105293467,34.9861521441,100
                135.811201119,34.986180026,100
                135.8112114928,34.9858822839,100
                135.8112241861,34.9855807429,100
                135.8112278215,34.9854944066,100
                135.8112363377,34.9852915949,100
                135.811246366,34.9850530094,100
                135.8112299827,34.9848583282,100
                135.8111286669,34.9843954759,100
              </coordinates>
            </LinearRing>
          </outerBoundaryIs>
        </Polygon>
      </Placemark>
    </Document>
  </Document>
</kml>
