<?xml version="1.0" encoding="UTF-8"?>
<kml xmlns="http://www.opengis.net/kml/2.2">
  <Document id="root_doc">
    <Document id="_2_02_________disv4326">
      <name>22_02山階南disv4326</name>
      <Placemark id="_2_02_________disv4326.1">
        <visibility>1</visibility>
        <Polygon>
          <extrude>0</extrude>
          <outerBoundaryIs>
            <LinearRing>
              <coordinates>
                135.8077833739,34.9736791406,100
                135.8077134329,34.9736695223,100
                135.8073669577,34.9735924199,100
                135.8071135073,34.9734770818,100
                135.8067527967,34.9733507272,100
                135.8067759521,34.9740885526,100
                135.8069807439,34.9740930339,100
                135.8069614536,34.9748267068,100
                135.8060558514,34.9749261846,100
                135.8060193138,34.9750464145,100
                135.8050829756,34.9751305598,100
                135.8050822984,34.9751306204,100
                135.8049553361,34.9749825212,100
                135.8046499555,34.9742476956,100
                135.8036824083,34.9742934616,100
                135.8036636528,34.9740581386,100
                135.8036897378,34.9740526886,100
                135.8036914803,34.9739124727,100
                135.8036421878,34.9739083793,100
                135.8036396924,34.9737879458,100
                135.8032418947,34.9741227415,100
                135.8028477722,34.9746199421,100
                135.8028352214,34.974635767,100
                135.8026335998,34.9748810845,100
                135.8025014295,34.9750898232,100
                135.8024769896,34.9751676033,100
                135.8024191945,34.9755363998,100
                135.8023537324,34.975747781,100
                135.8026200686,34.9761473901,100
                135.8026333447,34.9762217814,100
                135.8030413568,34.9765373903,100
                135.8030449716,34.976825225,100
                135.8030464778,34.9771734842,100
                135.8030373839,34.9773186868,100
                135.8030175792,34.9775882449,100
                135.8030102431,34.9776883075,100
                135.8030014762,34.9777450723,100
                135.8029694866,34.977952197,100
                135.8029066965,34.9783282387,100
                135.8028486943,34.9784277992,100
                135.8027358514,34.9786214889,100
                135.8026569408,34.9787788994,100
                135.8025989771,34.9789040184,100
                135.8025712476,34.9790172157,100
                135.8025685124,34.9790438327,100
                135.8025613698,34.9795824981,100
                135.8025615219,34.9795886385,100
                135.8025685632,34.9798732049,100
                135.8025687586,34.9798811104,100
                135.8025722763,34.9800230921,100
                135.8025824399,34.9804703757,100
                135.8025852368,34.9806822171,100
                135.8025949179,34.9813359832,100
                135.8025967288,34.9814214821,100
                135.8037510049,34.9813999883,100
                135.8037558181,34.9813999263,100
                135.8042876693,34.9813899456,100
                135.8050006043,34.9813767359,100
                135.8050135049,34.9813765455,100
                135.8056402634,34.9813685188,100
                135.8061900747,34.9813614732,100
                135.8068385259,34.9813532903,100
                135.8073848934,34.9813463487,100
                135.8074253452,34.98134585,100
                135.8077197808,34.981342658,100
                135.8081977764,34.981338421,100
                135.8084272037,34.981336321,100
                135.8090522245,34.9813307646,100
                135.8098724941,34.9813232569,100
                135.8111634792,34.9813109698,100
                135.8117488693,34.9813053276,100
                135.8130379152,34.9812891439,100
                135.8132070454,34.9812867285,100
                135.8137832861,34.9812783846,100
                135.8164504669,34.9812397585,100
                135.8163030449,34.9807106355,100
                135.8161353574,34.9801471141,100
                135.8160881106,34.9799850638,100
                135.8160415656,34.9798251959,100
                135.8159946361,34.9796558208,100
                135.8159503895,34.9794728581,100
                135.8159067591,34.9792818666,100
                135.8159022548,34.9792577037,100
                135.8159002586,34.979240882,100
                135.8158612485,34.978912202,100
                135.815857363,34.978859025,100
                135.8158512547,34.9787757721,100
                135.8158502617,34.9786522433,100
                135.8158484593,34.978428004,100
                135.8158446561,34.9779485339,100
                135.8158341956,34.9773587616,100
                135.8158271789,34.9769723875,100
                135.8147482982,34.9769508972,100
                135.814742736,34.9769508187,100
                135.8142401112,34.9769397024,100
                135.8142381715,34.9772337327,100
                135.8139334223,34.9772283386,100
                135.813101872,34.9772320003,100
                135.8131025313,34.9769390247,100
                135.8130066995,34.9769388783,100
                135.8128834873,34.9769386901,100
                135.8128886913,34.9768402399,100
                135.8128872469,34.976627548,100
                135.8128862674,34.9764831015,100
                135.8128847875,34.9762668176,100
                135.8128271879,34.9762638424,100
                135.8122185146,34.9762322728,100
                135.8122492395,34.9758795497,100
                135.8120904546,34.9758612764,100
                135.8121208583,34.975470312,100
                135.8121273131,34.9753872895,100
                135.8121385073,34.9752434237,100
                135.812151903,34.9750711087,100
                135.8122272869,34.9747942354,100
                135.8122833901,34.9745882018,100
                135.8122892795,34.9745665705,100
                135.8120284505,34.9745459566,100
                135.8117566953,34.974427431,100
                135.8115510467,34.9744465536,100
                135.8114001278,34.9743855418,100
                135.8112801312,34.974402259,100
                135.8113290563,34.9746355192,100
                135.8108611098,34.9745547187,100
                135.8107936159,34.9746049701,100
                135.8107807421,34.9748558824,100
                135.8107367124,34.9749808212,100
                135.8106755681,34.9751636674,100
                135.8106579509,34.9752163487,100
                135.8106448416,34.9753451389,100
                135.8105153308,34.9754440296,100
                135.8104816883,34.9754417936,100
                135.8103249822,34.9754311994,100
                135.8101168511,34.9754033387,100
                135.8101087249,34.975402339,100
                135.8101232197,34.9757513281,100
                135.8094892235,34.9757995681,100
                135.8094917128,34.9756638862,100
                135.8095012569,34.9751437706,100
                135.8095192512,34.974815327,100
                135.80953834,34.9744668127,100
                135.8095504111,34.9740363815,100
                135.8095583813,34.9737517983,100
                135.8095730599,34.9732286189,100
                135.8096529931,34.9722601606,100
                135.8098618355,34.9717315777,100
                135.8099013879,34.9716650151,100
                135.8097774589,34.9716548217,100
                135.809752199,34.9714594182,100
                135.8094797141,34.9714450481,100
                135.8094812747,34.9711479193,100
                135.809149159,34.9711359203,100
                135.8091403048,34.9712191511,100
                135.8090651908,34.9715432096,100
                135.8086884804,34.9715485352,100
                135.8086781889,34.9716224244,100
                135.8086652962,34.9717149881,100
                135.8085927407,34.9718473467,100
                135.8090023068,34.9718770754,100
                135.8089573563,34.9722163925,100
                135.8086753465,34.9721972868,100
                135.8085904102,34.9725597116,100
                135.8085719995,34.9726396172,100
                135.8082962003,34.9726070686,100
                135.8082274679,34.9726208339,100
                135.8081926083,34.9726278921,100
                135.8081534034,34.9728217154,100
                135.8081112984,34.9730299016,100
                135.8080933257,34.9733005229,100
                135.8080405922,34.9735255947,100
                135.8080172544,34.9737112022,100
                135.8077833739,34.9736791406,100
              </coordinates>
            </LinearRing>
          </outerBoundaryIs>
        </Polygon>
      </Placemark>
    </Document>
  </Document>
</kml>
