<?xml version="1.0" encoding="UTF-8"?>
<kml xmlns="http://www.opengis.net/kml/2.2">
  <Document id="root_doc">
    <Document id="_2_11______disv4326">
      <name>22_11百々disv4326</name>
      <Placemark id="_2_11______disv4326.1">
        <visibility>1</visibility>
        <Polygon>
          <extrude>0</extrude>
          <outerBoundaryIs>
            <LinearRing>
              <coordinates>
                135.7994113096,34.9689260074,100
                135.7995442049,34.9685733742,100
                135.7995948754,34.9684389388,100
                135.7996876199,34.9681322287,100
                135.799884789,34.967875626,100
                135.8000900645,34.9676358697,100
                135.8002708123,34.9674664318,100
                135.800851921,34.9671596759,100
                135.800987229,34.9670203772,100
                135.8014510508,34.9666387028,100
                135.8013771689,34.9665790698,100
                135.801241485,34.9665706787,100
                135.8010555191,34.9666343958,100
                135.8009004651,34.9667125303,100
                135.8006522523,34.9665552779,100
                135.8004843767,34.966665155,100
                135.8003516496,34.966573872,100
                135.8000751279,34.9668521778,100
                135.7997359153,34.9671935558,100
                135.7993334933,34.9670205528,100
                135.7990615236,34.9668977693,100
                135.7985327766,34.9664459357,100
                135.7984162674,34.9663174913,100
                135.7983544044,34.9661623031,100
                135.7983294575,34.9655263529,100
                135.798255508,34.9655322879,100
                135.7981865409,34.9655735151,100
                135.7981165134,34.9656644649,100
                135.7980788574,34.9657856816,100
                135.7980528214,34.9660193243,100
                135.798085433,34.9662077769,100
                135.797699631,34.9661878394,100
                135.7967016363,34.9658648644,100
                135.7962050313,34.9657619652,100
                135.7954757176,34.9652359508,100
                135.7951041443,34.9651962279,100
                135.7947544953,34.965269509,100
                135.794540422,34.9653419651,100
                135.7940864633,34.9654852136,100
                135.7932116746,34.9654934238,100
                135.7928045642,34.9655799116,100
                135.792515072,34.9656275838,100
                135.7920244767,34.9656141249,100
                135.7920191785,34.9656462313,100
                135.7912177236,34.9659902884,100
                135.7909881381,34.9660897566,100
                135.7908352849,34.9661902014,100
                135.7906296719,34.9663418276,100
                135.7899792794,34.9668514356,100
                135.7898250971,34.9669525101,100
                135.7891451197,34.9673420503,100
                135.7892593128,34.967433808,100
                135.7893574446,34.9675521606,100
                135.7893776494,34.967631921,100
                135.7893643106,34.9677135249,100
                135.7892811711,34.9678510665,100
                135.7891726129,34.9679848985,100
                135.7889242454,34.9682178601,100
                135.7887981581,34.9683727195,100
                135.7887255718,34.968480276,100
                135.7886842986,34.9685718311,100
                135.7886659017,34.9686839204,100
                135.7887325436,34.9690169543,100
                135.7887163723,34.9691436967,100
                135.7886660692,34.9692786182,100
                135.7884070939,34.969747493,100
                135.7883193366,34.9699508721,100
                135.7882992558,34.9700923242,100
                135.7882998165,34.9702937423,100
                135.7883635878,34.9708288142,100
                135.7883741223,34.9710599703,100
                135.788359166,34.9711214253,100
                135.788304129,34.9712068257,100
                135.7880529315,34.9714280815,100
                135.7878494999,34.9715966713,100
                135.7878135491,34.9716712608,100
                135.787704781,34.9718080456,100
                135.787642565,34.9719399125,100
                135.7876214556,34.9720663608,100
                135.7875486905,34.9722588473,100
                135.7874206441,34.9725659599,100
                135.7873038423,34.9728150607,100
                135.7872569414,34.9730403413,100
                135.787231186,34.9732836191,100
                135.786825404,34.9736953825,100
                135.7865882176,34.9739205358,100
                135.7865522517,34.9740002642,100
                135.7865895277,34.9740773768,100
                135.7867961031,34.9742635997,100
                135.7869676445,34.9744744112,100
                135.786995956,34.9745706625,100
                135.7872441364,34.9747897068,100
                135.7874070223,34.9751000136,100
                135.7874455441,34.9752096634,100
                135.7874776798,34.9753655049,100
                135.7876614418,34.9756005604,100
                135.7878648289,34.9760335472,100
                135.7880622209,34.9762844026,100
                135.7882937156,34.9765578526,100
                135.7881310335,34.9771009035,100
                135.7880042198,34.9772909702,100
                135.7879478186,34.9773470003,100
                135.7877734426,34.9774576839,100
                135.7874052712,34.9777257794,100
                135.7871432547,34.9779873728,100
                135.7868250306,34.9782628083,100
                135.7869616892,34.9784651737,100
                135.7869753239,34.9786293615,100
                135.7869214508,34.9787337085,100
                135.7867677133,34.9788174537,100
                135.7868493481,34.9789319005,100
                135.7869600759,34.9789704779,100
                135.7871311492,34.9791335358,100
                135.7873563657,34.9792877439,100
                135.7875243345,34.9793844526,100
                135.7877410616,34.979445893,100
                135.7879592465,34.9794893794,100
                135.7883672776,34.979641299,100
                135.7883849439,34.9796678808,100
                135.7883474818,34.9797795807,100
                135.7883951754,34.9798253003,100
                135.7884752774,34.97982833,100
                135.7884768487,34.9799334778,100
                135.7884308988,34.9799512836,100
                135.7881206146,34.9799879236,100
                135.7878366117,34.9801020076,100
                135.7883063821,34.9813650744,100
                135.7881099192,34.9813661391,100
                135.7877804138,34.9815249675,100
                135.7877931041,34.9815274355,100
                135.7880390421,34.981575263,100
                135.7882372117,34.981718748,100
                135.7882452407,34.9817214393,100
                135.7883626469,34.9818075015,100
                135.7883175979,34.9818948656,100
                135.7882791615,34.9819764382,100
                135.7884922076,34.982112419,100
                135.7886372857,34.9820438133,100
                135.7886849935,34.9820722474,100
                135.7889047227,34.9820331234,100
                135.7893127474,34.9821698248,100
                135.7893777706,34.982240154,100
                135.7894811757,34.9824447071,100
                135.789312803,34.9827992895,100
                135.789019113,34.9830183635,100
                135.7889731997,34.9830801183,100
                135.7889109753,34.983153816,100
                135.7887507954,34.9833970675,100
                135.7884078486,34.9838302223,100
                135.7880819973,34.984167274,100
                135.7879558558,34.984356993,100
                135.7878369283,34.9845358769,100
                135.7875856977,34.9848112269,100
                135.7873967492,34.9849319568,100
                135.7869921652,34.9852184462,100
                135.7869888711,34.9852438631,100
                135.7870633563,34.9853032939,100
                135.7872242333,34.9853607598,100
                135.7875877851,34.9855272484,100
                135.7877822263,34.9857200615,100
                135.7878773936,34.9860090441,100
                135.788112231,34.9861569242,100
                135.7881711122,34.9862968927,100
                135.788555213,34.9868994905,100
                135.7887619779,34.9869501332,100
                135.7893110964,34.987450614,100
                135.7893241065,34.9874838082,100
                135.7892871473,34.9876147361,100
                135.7892988084,34.987783849,100
                135.7891974678,34.9879433998,100
                135.789194066,34.9880867114,100
                135.7888791671,34.9887458505,100
                135.7890469985,34.9887985365,100
                135.7890327048,34.9890351433,100
                135.7890341719,34.989165505,100
                135.7903938448,34.9896186989,100
                135.7907630299,34.9897363044,100
                135.7909082673,34.9897314111,100
                135.7912582948,34.9895708731,100
                135.7917466292,34.9893251442,100
                135.7919492551,34.9892297796,100
                135.7920100985,34.9892136844,100
                135.792143254,34.9893089843,100
                135.7923075717,34.9893641939,100
                135.7927432311,34.9891798538,100
                135.7930345265,34.9891126673,100
                135.794299903,34.9886040075,100
                135.7946961149,34.9883605826,100
                135.7948446537,34.9881756872,100
                135.7950632073,34.9878522427,100
                135.7951127568,34.9875784467,100
                135.7952043759,34.9869932363,100
                135.7952828733,34.9864553284,100
                135.7952966407,34.9863189406,100
                135.7953068773,34.9862401409,100
                135.7953606521,34.9858262175,100
                135.7953607401,34.9858255145,100
                135.795395122,34.9855524655,100
                135.7954212579,34.9853449689,100
                135.7954397796,34.9851978137,100
                135.7955212105,34.9848955481,100
                135.7955677968,34.9847226643,100
                135.7956990008,34.9843702706,100
                135.7959210519,34.9839147173,100
                135.7959761977,34.9838104419,100
                135.7961521673,34.9834777719,100
                135.7964135959,34.9830393982,100
                135.796477795,34.9829415454,100
                135.7965129654,34.9828878714,100
                135.7965730432,34.9827962097,100
                135.7967255477,34.9826013199,100
                135.7968102438,34.9824930794,100
                135.7970756105,34.9822276033,100
                135.7975169418,34.9819337619,100
                135.797599722,34.9818934243,100
                135.7975323097,34.9817276564,100
                135.797135867,34.981714369,100
                135.7971338267,34.9816521674,100
                135.7973147031,34.9815848647,100
                135.7973574449,34.9815732182,100
                135.7975282986,34.9815744068,100
                135.7976562501,34.9818658807,100
                135.7978379755,34.9817773262,100
                135.7982172307,34.9816398607,100
                135.7982879691,34.981623641,100
                135.7987472045,34.9815221539,100
                135.7990262825,34.981473535,100
                135.7993197671,34.981457686,100
                135.7996338111,34.981448068,100
                135.8001878288,34.9814278613,100
                135.8004513064,34.9814171003,100
                135.8006408108,34.9814087515,100
                135.8019664078,34.9813523459,100
                135.8019500596,34.9809528014,100
                135.8013841085,34.9808655296,100
                135.801389841,34.9805750371,100
                135.8019070528,34.98060265,100
                135.8019054096,34.9804278548,100
                135.8017813432,34.980372296,100
                135.801794898,34.979810824,100
                135.8018441718,34.9797702702,100
                135.8021752744,34.9794974961,100
                135.8021794001,34.9794261628,100
                135.8021826107,34.9793704639,100
                135.8022770667,34.9793080098,100
                135.8022815512,34.9791111805,100
                135.8025685124,34.9790438327,100
                135.8025712476,34.9790172157,100
                135.8025989771,34.9789040184,100
                135.8026569408,34.9787788994,100
                135.8027358514,34.9786214889,100
                135.8028486943,34.9784277992,100
                135.8029066965,34.9783282387,100
                135.8029694866,34.977952197,100
                135.8030014762,34.9777450723,100
                135.8030102431,34.9776883075,100
                135.8030175792,34.9775882449,100
                135.8030373839,34.9773186868,100
                135.8030464778,34.9771734842,100
                135.8030449716,34.976825225,100
                135.8030413568,34.9765373903,100
                135.8026333447,34.9762217814,100
                135.8026200686,34.9761473901,100
                135.8023537324,34.975747781,100
                135.8024191945,34.9755363998,100
                135.8024769896,34.9751676033,100
                135.8025014295,34.9750898232,100
                135.8026335998,34.9748810845,100
                135.8028352214,34.974635767,100
                135.8028102653,34.9745974852,100
                135.8021737536,34.9736209833,100
                135.8020659065,34.9734510108,100
                135.8016072734,34.9727281899,100
                135.8014496567,34.9724690489,100
                135.8013991292,34.9723381851,100
                135.8013314474,34.9721628559,100
                135.8013087987,34.97163329,100
                135.8013140454,34.9715578425,100
                135.8009226234,34.9715474183,100
                135.8006501511,34.9715401617,100
                135.8003920457,34.9715332852,100
                135.8000112921,34.9714917266,100
                135.798762793,34.9714568537,100
                135.7989483257,34.9705794259,100
                135.7989763802,34.9704467454,100
                135.7989925791,34.9703726143,100
                135.7990410058,34.9701940253,100
                135.7991210261,34.9698988639,100
                135.7991852032,34.9696621159,100
                135.799264009,34.9693720764,100
                135.7993305906,34.9691401908,100
                135.7993384903,34.9691192164,100
                135.7994113096,34.9689260074,100
              </coordinates>
            </LinearRing>
          </outerBoundaryIs>
        </Polygon>
      </Placemark>
    </Document>
  </Document>
</kml>
