<?xml version="1.0" encoding="UTF-8"?>
<kml xmlns="http://www.opengis.net/kml/2.2">
  <Document id="root_doc">
    <Document id="_2_12_________disv4326">
      <name>22_12陵ヶ岡disv4326</name>
      <Placemark id="_2_12_________disv4326.1">
        <visibility>1</visibility>
        <Polygon>
          <extrude>0</extrude>
          <outerBoundaryIs>
            <LinearRing>
              <coordinates>
                135.7991872419,34.9892341125,100
                135.7988573588,34.9891331338,100
                135.7987886456,34.9891121027,100
                135.7986843036,34.9890801651,100
                135.798164959,34.9889450597,100
                135.7981588647,34.988943571,100
                135.797817686,34.9889153878,100
                135.7969691243,34.9888489553,100
                135.7967971463,34.9888536012,100
                135.7958792653,34.9889038386,100
                135.7951319107,34.9892904156,100
                135.7949362175,34.9892730474,100
                135.7948848345,34.9892180308,100
                135.7946729391,34.98912528,100
                135.7942486741,34.9890897088,100
                135.7940970011,34.9891114264,100
                135.7938504161,34.9892757356,100
                135.7936672631,34.9894062058,100
                135.7934860149,34.9894384384,100
                135.7931059091,34.9893768095,100
                135.7927432311,34.9891798538,100
                135.7923075717,34.9893641939,100
                135.792143254,34.9893089843,100
                135.7920100985,34.9892136844,100
                135.7919492551,34.9892297796,100
                135.7917466292,34.9893251442,100
                135.7912582948,34.9895708731,100
                135.7909082673,34.9897314111,100
                135.7907630299,34.9897363044,100
                135.7903938448,34.9896186989,100
                135.7903095193,34.9900748427,100
                135.7903001782,34.9902073666,100
                135.7903675686,34.9903188262,100
                135.7904536098,34.9903723539,100
                135.7907126065,34.99049442,100
                135.7907834918,34.9905777123,100
                135.7907985693,34.9909895858,100
                135.7908801291,34.9911583219,100
                135.7908995166,34.9913022338,100
                135.790890969,34.9914010963,100
                135.7907851819,34.991729593,100
                135.7907542397,34.9919784238,100
                135.7907632719,34.9921391502,100
                135.7907293456,34.9922649435,100
                135.7906792636,34.9925014187,100
                135.7904420468,34.9928284249,100
                135.7903490493,34.9930125009,100
                135.7902266635,34.9933797039,100
                135.7901670373,34.9938106078,100
                135.7901603439,34.9939706728,100
                135.7902023982,34.9942978007,100
                135.7902496932,34.9944805648,100
                135.790185837,34.994748426,100
                135.790127228,34.9948775588,100
                135.790035882,34.9951672921,100
                135.7899792507,34.9953172102,100
                135.7898480292,34.9954602427,100
                135.7897760454,34.9954894754,100
                135.7897716158,34.9955083996,100
                135.7897710266,34.9955350974,100
                135.7897784991,34.9955549309,100
                135.7897900883,34.9955679293,100
                135.7898376411,34.995596085,100
                135.7898516414,34.9955982804,100
                135.789907098,34.9956069752,100
                135.7901773571,34.9956475774,100
                135.7903611424,34.9957524038,100
                135.7905441149,34.9959001202,100
                135.790680191,34.9959875409,100
                135.7907332943,34.9960303807,100
                135.7909623067,34.9963321347,100
                135.7910337845,34.9964542387,100
                135.7910710914,34.996559946,100
                135.7910796884,34.9966459545,100
                135.7910654466,34.9968127799,100
                135.7909618916,34.997082772,100
                135.7909160699,34.9973661749,100
                135.790895539,34.9974731933,100
                135.7908052566,34.9978658255,100
                135.7907582175,34.9980130148,100
                135.7906906825,34.9981425615,100
                135.7906226615,34.998218862,100
                135.7905211456,34.9982731324,100
                135.7902229754,34.9983853865,100
                135.7900453726,34.998464811,100
                135.7899115075,34.9985757203,100
                135.7897594787,34.9987961888,100
                135.7896570829,34.9989101107,100
                135.7895658164,34.9989722145,100
                135.7892771282,34.9991063837,100
                135.7891892861,34.9991679998,100
                135.7891246151,34.9992640248,100
                135.7889512563,34.9997091232,100
                135.7887725651,34.9999127803,100
                135.7881235201,35.0007080086,100
                135.7877706704,35.0011781475,100
                135.7876894667,35.0012954129,100
                135.7877546783,35.0014489181,100
                135.787987562,35.0018209747,100
                135.7877196295,35.0020844072,100
                135.7876336892,35.0021870854,100
                135.7875392171,35.0023795449,100
                135.7875985909,35.0026331217,100
                135.7875490125,35.0027167048,100
                135.7874274857,35.0028108696,100
                135.7874579626,35.0029086769,100
                135.787420579,35.0030260878,100
                135.7873835259,35.0032479436,100
                135.787309627,35.0034270597,100
                135.7872814361,35.003663019,100
                135.7873007428,35.0038186323,100
                135.7872955057,35.0039496215,100
                135.787064518,35.0042126275,100
                135.7870490988,35.0042918333,100
                135.7869990945,35.0043982358,100
                135.7869634678,35.0047629285,100
                135.7868647678,35.0051392716,100
                135.7866020101,35.0057871886,100
                135.7867909112,35.0061952329,100
                135.7868849266,35.0063320994,100
                135.7869920317,35.0066291458,100
                135.7875935602,35.0067859108,100
                135.7880151073,35.0072490809,100
                135.7885692969,35.0074180849,100
                135.788668174,35.0074349821,100
                135.7895778872,35.0075051843,100
                135.7896612178,35.0074809858,100
                135.7897508503,35.0075631766,100
                135.7900897042,35.0074447602,100
                135.790128913,35.0075367805,100
                135.7901575604,35.0075573285,100
                135.7901554505,35.0074842018,100
                135.7902046997,35.0073285657,100
                135.7901825377,35.0072161214,100
                135.7903487653,35.0069214472,100
                135.7906279902,35.006462441,100
                135.7907024891,35.0063310755,100
                135.7908961193,35.0058695295,100
                135.7908612196,35.005860455,100
                135.7910135945,35.0056089979,100
                135.7910381816,35.0054567718,100
                135.7909964633,35.0052671736,100
                135.7911221538,35.0052437933,100
                135.791191204,35.0052194014,100
                135.7913235827,35.00520123,100
                135.791451254,35.0052813309,100
                135.7913733183,35.0054183232,100
                135.7913614972,35.0056335365,100
                135.7912295851,35.0057304351,100
                135.7911652422,35.005720747,100
                135.7909936091,35.0061581761,100
                135.7908785354,35.0063636764,100
                135.7908756693,35.0063687928,100
                135.7911003213,35.006405256,100
                135.7911793023,35.0065838886,100
                135.7911895327,35.0066758862,100
                135.7912887566,35.0067025369,100
                135.7911682408,35.0070400427,100
                135.7913552832,35.0070004978,100
                135.7917502213,35.0068658745,100
                135.792105698,35.0067311132,100
                135.7922109854,35.0067042468,100
                135.792357203,35.006730553,100
                135.7924541814,35.0067480437,100
                135.792521233,35.0067531579,100
                135.7926117334,35.0067600724,100
                135.7928617998,35.0067009818,100
                135.7932567274,35.0065609301,100
                135.7934207248,35.0065195123,100
                135.7936901159,35.0065366588,100
                135.7937811745,35.0065084993,100
                135.7939395412,35.0064594642,100
                135.7941511665,35.0065407446,100
                135.794315359,35.0066275784,100
                135.7943741974,35.0067683964,100
                135.7945609721,35.006766949,100
                135.7949312481,35.0069094165,100
                135.7952459126,35.0073104077,100
                135.7957446997,35.0077279054,100
                135.7959418457,35.0077823245,100
                135.796231098,35.0078261215,100
                135.7963429368,35.007815462,100
                135.7963825694,35.0077452381,100
                135.7965814023,35.0071232472,100
                135.7968775813,35.0070209809,100
                135.797107708,35.0070375622,100
                135.7971736079,35.0069889337,100
                135.79723447,35.0068657828,100
                135.797320209,35.0067631695,100
                135.7976754611,35.0067149591,100
                135.7979852624,35.0063593845,100
                135.7981208313,35.0065221649,100
                135.798272754,35.0067187085,100
                135.7984113734,35.0069479801,100
                135.7984537626,35.0069396693,100
                135.7986529089,35.0068040026,100
                135.7988528582,35.0067335542,100
                135.7989754368,35.0066693864,100
                135.7991134639,35.0065792546,100
                135.7992408859,35.0065201651,100
                135.7993113718,35.0065116203,100
                135.7995489085,35.0065422302,100
                135.7996982798,35.0065386763,100
                135.7998604722,35.0064629522,100
                135.7999752296,35.0063758098,100
                135.8000917543,35.0062655692,100
                135.8001785387,35.0061359104,100
                135.8002032744,35.0060298135,100
                135.8002086418,35.0058540996,100
                135.8003536741,35.005776868,100
                135.8004180671,35.0057745093,100
                135.8005305057,35.0058320962,100
                135.8006909973,35.005839687,100
                135.8007344317,35.0058596203,100
                135.8010041424,35.0060536787,100
                135.8010607487,35.0060863819,100
                135.8011477617,35.0060839194,100
                135.8013785569,35.0061236006,100
                135.8015818868,35.0061590102,100
                135.8017384672,35.0061289132,100
                135.8018489776,35.0061971305,100
                135.8019229653,35.006137951,100
                135.8020013502,35.0057155709,100
                135.8021490815,35.0056901072,100
                135.8022370468,35.0057095502,100
                135.8024658218,35.0058071893,100
                135.8025380954,35.0057210315,100
                135.8027230239,35.005710912,100
                135.8027604807,35.0056345565,100
                135.8028093743,35.0056533006,100
                135.8031338442,35.0058407534,100
                135.8033412093,35.0058710248,100
                135.8036272817,35.0058364189,100
                135.803708527,35.0058109146,100
                135.8038010211,35.0058066989,100
                135.8039524814,35.0058605435,100
                135.8040017704,35.0058567502,100
                135.8041511987,35.0058013537,100
                135.8042143164,35.0057501138,100
                135.8042735914,35.0056674549,100
                135.8043829706,35.0056990451,100
                135.8044689176,35.0057760231,100
                135.8045005124,35.0057808643,100
                135.8048974408,35.0056765683,100
                135.8048357385,35.0053983423,100
                135.8048860483,35.005087688,100
                135.8048243454,35.0048641152,100
                135.8047625331,35.0046878697,100
                135.8047866774,35.0045394433,100
                135.8048715772,35.0043597041,100
                135.8050068911,35.00421667,100
                135.8051374462,35.0041321557,100
                135.8052791379,35.0040610398,100
                135.8054437559,35.004013978,100
                135.8055812631,35.0039935648,100
                135.8057321856,35.0039466923,100
                135.8059389017,35.0038125056,100
                135.8062716814,35.003674368,100
                135.8064592383,35.0035432491,100
                135.8066518259,35.0033742465,100
                135.8067716736,35.0032543573,100
                135.8069135403,35.0030875999,100
                135.8071242184,35.0028846119,100
                135.8071834741,35.0027985028,100
                135.8072797306,35.0027661191,100
                135.8074010896,35.0028811129,100
                135.807780189,35.0031057531,100
                135.8078894369,35.0031278313,100
                135.8080169065,35.0031261344,100
                135.8084019724,35.0034464969,100
                135.8085318213,35.0035269942,100
                135.8086870448,35.0035532296,100
                135.8087326807,35.0035369627,100
                135.8088371138,35.0034195826,100
                135.808975352,35.0033595858,100
                135.8091843935,35.0033382966,100
                135.8094999286,35.0033639418,100
                135.8096362087,35.0033275349,100
                135.8097310368,35.0032175332,100
                135.8100015088,35.0028176491,100
                135.8100366938,35.0027099495,100
                135.8100670478,35.002278557,100
                135.8101082704,35.0021410764,100
                135.8101114287,35.0020785415,100
                135.8101911805,35.0021245152,100
                135.8103887976,35.00215666,100
                135.8104781212,35.0021992692,100
                135.8105319106,35.0022673162,100
                135.8106219626,35.0024805037,100
                135.8106591561,35.0025164095,100
                135.8108839992,35.002660012,100
                135.811112499,35.0028532027,100
                135.8111722935,35.0028857632,100
                135.8113972718,35.0027420915,100
                135.8115414499,35.0026263226,100
                135.8116670074,35.0024847484,100
                135.811768475,35.0023210908,100
                135.8119889372,35.001926969,100
                135.8123618342,35.0014163854,100
                135.8124771196,35.0012830338,100
                135.8127158482,35.001033457,100
                135.8131702911,35.0005951162,100
                135.812729701,35.0000505174,100
                135.8126672672,34.9998959026,100
                135.8126461209,34.9997733235,100
                135.8126750575,34.9993664368,100
                135.8127583005,34.9988531482,100
                135.8128669142,34.9984860348,100
                135.8129634544,34.9981785558,100
                135.8129839907,34.9980271669,100
                135.8129606166,34.9978669784,100
                135.8128735425,34.9977185931,100
                135.8126996976,34.9974799227,100
                135.8126380585,34.9973433386,100
                135.8126261071,34.9972821187,100
                135.812632415,34.9970237973,100
                135.8126224358,34.996798202,100
                135.8125590937,34.9964467378,100
                135.8124283851,34.996054955,100
                135.8123421666,34.995935798,100
                135.8121678605,34.9957428354,100
                135.8120323065,34.9956328261,100
                135.8119426485,34.9955138742,100
                135.8118844668,34.9953834221,100
                135.8117952784,34.9950725549,100
                135.8118864346,34.994635205,100
                135.8120237119,34.9942483566,100
                135.8121577474,34.9937500177,100
                135.8122385884,34.9936013333,100
                135.8123850156,34.9934090855,100
                135.8124465516,34.993235017,100
                135.8125769051,34.9931216225,100
                135.8125612986,34.9930097615,100
                135.8125937666,34.9929184693,100
                135.8125731891,34.9927711755,100
                135.8125045725,34.992752758,100
                135.8119720538,34.9927423505,100
                135.8118675058,34.9924311149,100
                135.8112679805,34.9924104584,100
                135.8102904935,34.992390895,100
                135.8100098475,34.9923853114,100
                135.809250503,34.9923710016,100
                135.8091909199,34.9923698487,100
                135.8078397864,34.9923422414,100
                135.8071231516,34.9923198094,100
                135.8065123645,34.9923015578,100
                135.8063214955,34.9922963872,100
                135.806123186,34.9922900067,100
                135.8057735954,34.9922657714,100
                135.8053806948,34.992208223,100
                135.8050339508,34.9921556085,100
                135.8044704721,34.9920158735,100
                135.8044669235,34.9920148107,100
                135.8038521028,34.991827874,100
                135.8036064762,34.9917268308,100
                135.8033303932,34.9916041162,100
                135.8030271284,34.991449313,100
                135.8023638578,34.9910614398,100
                135.8022430486,34.9909878571,100
                135.8019431689,34.9908048178,100
                135.8016062714,34.9905986172,100
                135.8013585818,34.9904420805,100
                135.8013072875,34.9904096636,100
                135.8011460037,34.9903077012,100
                135.8010583974,34.9902523845,100
                135.8010370808,34.9902389254,100
                135.8004973512,34.9899065367,100
                135.8003835076,34.9898374708,100
                135.8001023089,34.9896752356,100
                135.7995815945,34.9894024564,100
                135.7995103353,34.9893650103,100
                135.7991872419,34.9892341125,100
              </coordinates>
            </LinearRing>
          </outerBoundaryIs>
        </Polygon>
      </Placemark>
    </Document>
  </Document>
</kml>
