<?xml version="1.0" encoding="UTF-8"?>
<kml xmlns="http://www.opengis.net/kml/2.2">
  <Document id="root_doc">
    <Document id="_2_13______disv4326">
      <name>22_13安朱disv4326</name>
      <Placemark id="_2_13______disv4326.1">
        <visibility>1</visibility>
        <Polygon>
          <extrude>0</extrude>
          <outerBoundaryIs>
            <LinearRing>
              <coordinates>
                135.8193039967,34.9897329665,100
                135.8190308591,34.9897371347,100
                135.8189510679,34.9897383524,100
                135.818544917,34.9897445033,100
                135.8178884562,34.9897553462,100
                135.8173017405,34.9897655169,100
                135.8169667595,34.9897714176,100
                135.8165583495,34.989778545,100
                135.8160752296,34.9897866124,100
                135.8155332572,34.9897943782,100
                135.815135267,34.9898001067,100
                135.814600802,34.989807738,100
                135.8144467597,34.9898099663,100
                135.8143049764,34.9898120722,100
                135.8142138213,34.9898131308,100
                135.8136412475,34.9898197821,100
                135.813327538,34.9898213413,100
                135.8130509611,34.9898225137,100
                135.8130233737,34.98982263,100
                135.812885145,34.9898232607,100
                135.8127433648,34.9898238864,100
                135.8124575775,34.9898252031,100
                135.8119360734,34.9898341803,100
                135.8113833716,34.9898455022,100
                135.8113815433,34.9901960809,100
                135.8113804197,34.9903629201,100
                135.8114251486,34.990702021,100
                135.8114478562,34.9912066625,100
                135.8114031823,34.9912180705,100
                135.8114185802,34.991363878,100
                135.811411443,34.9914083064,100
                135.8113948872,34.9915115942,100
                135.8118265381,34.991505578,100
                135.8118246214,34.991550014,100
                135.8118852678,34.9917653314,100
                135.8119711504,34.9920703408,100
                135.8117928048,34.992090205,100
                135.8118675058,34.9924311149,100
                135.8119720538,34.9927423505,100
                135.8125045725,34.992752758,100
                135.8125731891,34.9927711755,100
                135.8125937666,34.9929184693,100
                135.8125612986,34.9930097615,100
                135.8125769051,34.9931216225,100
                135.8124465516,34.993235017,100
                135.8123850156,34.9934090855,100
                135.8122385884,34.9936013333,100
                135.8121577474,34.9937500177,100
                135.8120237119,34.9942483566,100
                135.8118864346,34.994635205,100
                135.8117952784,34.9950725549,100
                135.8118844668,34.9953834221,100
                135.8119426485,34.9955138742,100
                135.8120323065,34.9956328261,100
                135.8121678605,34.9957428354,100
                135.8123421666,34.995935798,100
                135.8124283851,34.996054955,100
                135.8125590937,34.9964467378,100
                135.8126224358,34.996798202,100
                135.812632415,34.9970237973,100
                135.8126261071,34.9972821187,100
                135.8126380585,34.9973433386,100
                135.8126996976,34.9974799227,100
                135.8128735425,34.9977185931,100
                135.8129606166,34.9978669784,100
                135.8129839907,34.9980271669,100
                135.8129634544,34.9981785558,100
                135.8128669142,34.9984860348,100
                135.8127583005,34.9988531482,100
                135.8126750575,34.9993664368,100
                135.8126461209,34.9997733235,100
                135.8126672672,34.9998959026,100
                135.812729701,35.0000505174,100
                135.8131702911,35.0005951162,100
                135.8127158482,35.001033457,100
                135.8124771196,35.0012830338,100
                135.8123618342,35.0014163854,100
                135.8119889372,35.001926969,100
                135.811768475,35.0023210908,100
                135.8116670074,35.0024847484,100
                135.8115414499,35.0026263226,100
                135.8113972718,35.0027420915,100
                135.8111722935,35.0028857632,100
                135.811112499,35.0028532027,100
                135.8108839992,35.002660012,100
                135.8106591561,35.0025164095,100
                135.8106219626,35.0024805037,100
                135.8105319106,35.0022673162,100
                135.8104781212,35.0021992692,100
                135.8103887976,35.00215666,100
                135.8101911805,35.0021245152,100
                135.8101114287,35.0020785415,100
                135.8101082704,35.0021410764,100
                135.8100670478,35.002278557,100
                135.8100366938,35.0027099495,100
                135.8100015088,35.0028176491,100
                135.8097310368,35.0032175332,100
                135.8096362087,35.0033275349,100
                135.8094999286,35.0033639418,100
                135.8091843935,35.0033382966,100
                135.808975352,35.0033595858,100
                135.8088371138,35.0034195826,100
                135.8087326807,35.0035369627,100
                135.8086870448,35.0035532296,100
                135.8085318213,35.0035269942,100
                135.8084019724,35.0034464969,100
                135.8080169065,35.0031261344,100
                135.8078894369,35.0031278313,100
                135.807780189,35.0031057531,100
                135.8074010896,35.0028811129,100
                135.8072797306,35.0027661191,100
                135.8071834741,35.0027985028,100
                135.8071242184,35.0028846119,100
                135.8069135403,35.0030875999,100
                135.8067716736,35.0032543573,100
                135.8066518259,35.0033742465,100
                135.8064592383,35.0035432491,100
                135.8062716814,35.003674368,100
                135.8059389017,35.0038125056,100
                135.8057321856,35.0039466923,100
                135.8055812631,35.0039935648,100
                135.8054437559,35.004013978,100
                135.8052791379,35.0040610398,100
                135.8051374462,35.0041321557,100
                135.8050068911,35.00421667,100
                135.8048715772,35.0043597041,100
                135.8047866774,35.0045394433,100
                135.8047625331,35.0046878697,100
                135.8048243454,35.0048641152,100
                135.8048860483,35.005087688,100
                135.8048357385,35.0053983423,100
                135.8048974408,35.0056765683,100
                135.8045005124,35.0057808643,100
                135.8044689176,35.0057760231,100
                135.8043829706,35.0056990451,100
                135.8042735914,35.0056674549,100
                135.8042143164,35.0057501138,100
                135.8041511987,35.0058013537,100
                135.8040017704,35.0058567502,100
                135.8039524814,35.0058605435,100
                135.8038010211,35.0058066989,100
                135.803708527,35.0058109146,100
                135.8036272817,35.0058364189,100
                135.8033412093,35.0058710248,100
                135.8031338442,35.0058407534,100
                135.8028093743,35.0056533006,100
                135.8027604807,35.0056345565,100
                135.8027230239,35.005710912,100
                135.8025380954,35.0057210315,100
                135.8024658218,35.0058071893,100
                135.8022370468,35.0057095502,100
                135.8021490815,35.0056901072,100
                135.8020013502,35.0057155709,100
                135.8019229653,35.006137951,100
                135.8018489776,35.0061971305,100
                135.8017384672,35.0061289132,100
                135.8015818868,35.0061590102,100
                135.8013785569,35.0061236006,100
                135.8011477617,35.0060839194,100
                135.8010607487,35.0060863819,100
                135.8010041424,35.0060536787,100
                135.8007344317,35.0058596203,100
                135.8006909973,35.005839687,100
                135.8005305057,35.0058320962,100
                135.8004180671,35.0057745093,100
                135.8003536741,35.005776868,100
                135.8002086418,35.0058540996,100
                135.8002032744,35.0060298135,100
                135.8001785387,35.0061359104,100
                135.8000917543,35.0062655692,100
                135.7999752296,35.0063758098,100
                135.7998604722,35.0064629522,100
                135.7996982798,35.0065386763,100
                135.7995489085,35.0065422302,100
                135.7993113718,35.0065116203,100
                135.7992408859,35.0065201651,100
                135.7991134639,35.0065792546,100
                135.7989754368,35.0066693864,100
                135.7988528582,35.0067335542,100
                135.7986529089,35.0068040026,100
                135.7984537626,35.0069396693,100
                135.7984113734,35.0069479801,100
                135.7985569196,35.0070299926,100
                135.7989407692,35.0072160063,100
                135.7995693716,35.0074507418,100
                135.799907426,35.0073912972,100
                135.8000531818,35.007396963,100
                135.8003641865,35.0075774271,100
                135.8004568456,35.0076212478,100
                135.8007614036,35.0077252835,100
                135.8008871503,35.0077854279,100
                135.8011515296,35.0080639917,100
                135.8016335156,35.0085061708,100
                135.801917651,35.0088392777,100
                135.8020894171,35.009057681,100
                135.8020957642,35.0091776333,100
                135.8020429839,35.0093519314,100
                135.8018699639,35.0096678765,100
                135.80190962,35.0097116081,100
                135.8022677927,35.0095649273,100
                135.8024599913,35.0095434795,100
                135.802625549,35.0095927697,100
                135.8030688173,35.0098825379,100
                135.8034391253,35.0102047943,100
                135.8034852753,35.0103085419,100
                135.8034844114,35.0106737893,100
                135.803530063,35.010978824,100
                135.8034434166,35.011185887,100
                135.8034098258,35.0113820493,100
                135.8033764137,35.0115020071,100
                135.8032567935,35.0116436574,100
                135.8029913641,35.0120148806,100
                135.8029314225,35.0121401478,100
                135.8029509413,35.0122929413,100
                135.8030433495,35.0124457127,100
                135.8032216703,35.0127022964,100
                135.8032010775,35.0130021517,100
                135.8034387139,35.0133896892,100
                135.803650561,35.0136148449,100
                135.8039153857,35.0137188777,100
                135.8040412222,35.0137462673,100
                135.8041536571,35.0138392059,100
                135.804199759,35.0139647151,100
                135.8042258513,35.0141446349,100
                135.8042652958,35.0142701333,100
                135.804329371,35.0145699851,100
                135.804415125,35.0147336614,100
                135.8046532674,35.0149194885,100
                135.80477237,35.0149905328,100
                135.8050040724,35.0150945092,100
                135.805129746,35.0151928909,100
                135.805268598,35.0153293962,100
                135.8055931737,35.0155385322,100
                135.8057521806,35.0155497043,100
                135.8059577772,35.0154791126,100
                135.8060639776,35.0154030087,100
                135.8062565921,35.0152178772,100
                135.8063561278,35.0151634541,100
                135.8067866804,35.0152459129,100
                135.8068726049,35.0153388766,100
                135.8069586652,35.0153826096,100
                135.807111013,35.015404687,100
                135.8071439741,35.0154865084,100
                135.8072498945,35.0155302729,100
                135.8074559876,35.0157629496,100
                135.8081340826,35.0156461302,100
                135.8085251032,35.0156574567,100
                135.8089028456,35.0157759552,100
                135.8090589243,35.015926428,100
                135.8093057904,35.0164416587,100
                135.8094618709,35.0165920612,100
                135.8097093577,35.0166674587,100
                135.8101915828,35.0167003934,100
                135.8107391935,35.0166368679,100
                135.8108828481,35.016519191,100
                135.8109819328,35.0162466414,100
                135.8109826926,35.0159112578,100
                135.810904856,35.0156661136,100
                135.8109209234,35.015498517,100
                135.8114385173,35.0153702897,100
                135.8120809457,35.0154874167,100
                135.8127867471,35.0153079185,100
                135.8131789,35.0151923808,100
                135.81377439,35.0152836499,100
                135.8140878626,35.0152970155,100
                135.8143075583,35.0151941006,100
                135.81501301,35.0151693932,100
                135.8155777551,35.0149767787,100
                135.8159076535,35.0146549244,100
                135.8160807901,35.0143326917,100
                135.8160503196,35.0139329629,100
                135.815988292,35.0136361532,100
                135.8158946925,35.0134296558,100
                135.8160204764,35.0132492669,100
                135.8162561702,35.0129917119,100
                135.8165117806,35.0127169328,100
                135.8169299594,35.0131088625,100
                135.8170548568,35.0133411825,100
                135.8171956174,35.0134831668,100
                135.817352403,35.0134705133,100
                135.8175407731,35.0133419105,100
                135.8178699825,35.0133295142,100
                135.8182146803,35.0134073589,100
                135.8185283256,35.013343384,100
                135.819014785,35.0130990869,100
                135.8192972729,35.0129447046,100
                135.8196890434,35.0129968382,100
                135.8199240569,35.0130488099,100
                135.8202534481,35.0129461183,100
                135.8207514555,35.0129066372,100
                135.8210133485,35.0129186432,100
                135.8211352089,35.0128652264,100
                135.8212562736,35.0127539869,100
                135.8214221935,35.0126674629,100
                135.8215890329,35.0125961525,100
                135.8217742096,35.0125612794,100
                135.8219171705,35.0124974701,100
                135.8219931994,35.012400109,100
                135.8223105912,35.0120761814,100
                135.8225358919,35.0119251608,100
                135.8225357713,35.011770642,100
                135.8225882632,35.0115604914,100
                135.8226454886,35.0113925357,100
                135.8227170607,35.011270448,100
                135.8229370745,35.0110465277,100
                135.8229073948,35.0108421041,100
                135.8233074603,35.0103347642,100
                135.8236162344,35.0102794339,100
                135.8237220535,35.0100814745,100
                135.8237228327,35.0097099012,100
                135.823783568,35.0094683528,100
                135.8240850394,35.0093015941,100
                135.8239050789,35.0089606762,100
                135.8239806599,35.008818311,100
                135.8242744767,35.0087134475,100
                135.8250880958,35.0084421364,100
                135.8255323612,35.0083870665,100
                135.8257129292,35.0084430336,100
                135.8264352242,35.0084030075,100
                135.8266305794,35.0084020191,100
                135.8267723417,35.0079654314,100
                135.8268724062,35.0076572414,100
                135.8269117621,35.007369742,100
                135.8269227933,35.0070275525,100
                135.8269108355,35.0068122372,100
                135.8268609762,35.0066203219,100
                135.8268833413,35.0064828095,100
                135.8268990513,35.0062373929,100
                135.8268290341,35.0057445825,100
                135.8267185106,35.0051741749,100
                135.8266241333,35.0048943009,100
                135.8266124895,35.0048076588,100
                135.8267060029,35.0046042565,100
                135.8268105922,35.0036299009,100
                135.8268749394,35.0033903279,100
                135.8268779921,35.0030138266,100
                135.8268969792,35.0027858079,100
                135.8268533207,35.0024208593,100
                135.8268535897,35.0023056398,100
                135.8268310203,35.0019598779,100
                135.8267078071,35.0019361087,100
                135.8265683252,35.0018902725,100
                135.8262640921,35.0016996829,100
                135.8259798006,35.001587789,100
                135.825763831,35.0015904375,100
                135.8254423421,35.0015812437,100
                135.8253860343,35.0015553152,100
                135.8252584862,35.0014256855,100
                135.8250007573,35.0010790216,100
                135.8249652145,35.0010648138,100
                135.8246056709,35.0010974669,100
                135.824437037,35.001098139,100
                135.8243254557,35.0010744548,100
                135.8241915134,35.0010208064,100
                135.8240353497,35.0009164886,100
                135.8238951818,35.0007807818,100
                135.823207491,34.9997896384,100
                135.8230682094,34.9995544882,100
                135.8233109617,34.998732032,100
                135.8232298896,34.9984314687,100
                135.8231131161,34.997953939,100
                135.8230765076,34.9975006112,100
                135.8228830345,34.9971225545,100
                135.8230144734,34.9958299004,100
                135.823077387,34.9956164546,100
                135.8224880136,34.99546995,100
                135.8220404874,34.9952627277,100
                135.8218000239,34.9953430823,100
                135.8214883002,34.9953733973,100
                135.8210012012,34.9954768373,100
                135.8206947819,34.9954721549,100
                135.8205547828,34.9954608896,100
                135.8204263055,34.9954488661,100
                135.8204145664,34.9952651032,100
                135.8204618153,34.9951864341,100
                135.8205521881,34.99507804,100
                135.8205706408,34.9949634103,100
                135.8204992458,34.9947146253,100
                135.8205176842,34.9946011255,100
                135.8204908966,34.9944955153,100
                135.8203599961,34.9943916519,100
                135.8203538055,34.9943400204,100
                135.820353047,34.9942129689,100
                135.8203324292,34.9940933536,100
                135.8205639765,34.9940646847,100
                135.8207496647,34.9940562983,100
                135.8208735674,34.9938675271,100
                135.820909758,34.9936860219,100
                135.820927584,34.9936782299,100
                135.8209400363,34.9935166889,100
                135.8209714293,34.9931093173,100
                135.8209940608,34.9927882048,100
                135.8210051074,34.9926125058,100
                135.820724189,34.9925940589,100
                135.8207268252,34.9924098265,100
                135.8206946381,34.9924047078,100
                135.8206795013,34.9922980597,100
                135.8206253603,34.9922586805,100
                135.8206415875,34.991875583,100
                135.8203634628,34.9918924944,100
                135.8203747971,34.9913352948,100
                135.8206454237,34.9913323172,100
                135.8206196398,34.9910614873,100
                135.8206337023,34.9908314949,100
                135.8206511902,34.9906161569,100
                135.8205550046,34.9900741491,100
                135.8203892198,34.9900803814,100
                135.8202672562,34.9900516775,100
                135.8201570761,34.9899660848,100
                135.8200938351,34.9898253483,100
                135.8200874779,34.9897208959,100
                135.8195998985,34.9897283392,100
                135.8195005538,34.9897299506,100
                135.8193039967,34.9897329665,100
              </coordinates>
            </LinearRing>
          </outerBoundaryIs>
        </Polygon>
      </Placemark>
    </Document>
  </Document>
</kml>
