<?xml version="1.0" encoding="UTF-8"?>
<kml xmlns="http://www.opengis.net/kml/2.2">
  <Document id="root_doc">
    <Document id="_2_10______disv4326">
      <name>22_10小野disv4326</name>
      <Placemark id="_2_10______disv4326.1">
        <visibility>1</visibility>
        <Polygon>
          <extrude>0</extrude>
          <outerBoundaryIs>
            <LinearRing>
              <coordinates>
                135.8090805597,34.9535779868,100
                135.808528969,34.952839931,100
                135.808448087,34.9528426201,100
                135.8083978222,34.9527919727,100
                135.8082735207,34.9527518421,100
                135.8081322805,34.9527689431,100
                135.8080434014,34.9528179622,100
                135.8079201604,34.952977077,100
                135.8078539185,34.9530484575,100
                135.8078404565,34.9530629445,100
                135.8078287314,34.9530933514,100
                135.8077962266,34.9531775337,100
                135.8078024508,34.9533814355,100
                135.8078006945,34.9534570037,100
                135.8079537343,34.9540003964,100
                135.8079687301,34.9540536641,100
                135.8079218167,34.9541353577,100
                135.8077525745,34.9540629693,100
                135.8077118638,34.9539859261,100
                135.8076481577,34.9537453093,100
                135.8076350625,34.9536651395,100
                135.8076308667,34.9536394966,100
                135.8077654904,34.9535242775,100
                135.8077018385,34.9532596449,100
                135.8075617317,34.9532208966,100
                135.8075328804,34.9531571826,100
                135.8075640431,34.9530714504,100
                135.8074891802,34.9530606952,100
                135.8074142299,34.9530498706,100
                135.8071889562,34.9530913465,100
                135.8066169291,34.9533014393,100
                135.8063610541,34.953379135,100
                135.8061950102,34.953394645,100
                135.8058574389,34.9533742423,100
                135.8054898784,34.9532287081,100
                135.8053183092,34.9531377189,100
                135.8051321885,34.9530600882,100
                135.8049676668,34.9530648938,100
                135.8048329072,34.9531269352,100
                135.8047801194,34.9531594587,100
                135.8047303924,34.9532452317,100
                135.8046496908,34.9533441953,100
                135.8044077331,34.9534597305,100
                135.8043567909,34.9535347257,100
                135.8040862343,34.9536900071,100
                135.8040068217,34.9537951702,100
                135.8039655655,34.953843629,100
                135.8038065382,34.9540303607,100
                135.8036422457,34.9542377894,100
                135.8034971895,34.9543851735,100
                135.803199417,34.954635347,100
                135.8029137041,34.954685873,100
                135.8028462651,34.9547094274,100
                135.8027515494,34.9547904636,100
                135.8026821051,34.9548498768,100
                135.8024507989,34.9549891605,100
                135.80233576,34.9551475798,100
                135.8021961529,34.955186792,100
                135.8020026171,34.9552869774,100
                135.8017567729,34.9554144039,100
                135.8016178472,34.9554543209,100
                135.801263505,34.9556229815,100
                135.8010334651,34.95565979,100
                135.8007591394,34.9556765932,100
                135.8005603893,34.9556219652,100
                135.8001429175,34.9554664015,100
                135.7999633474,34.9553589821,100
                135.7998256392,34.9553009313,100
                135.7996261251,34.9552530616,100
                135.7996430682,34.955214353,100
                135.7996518154,34.9550618879,100
                135.7995297887,34.9549566754,100
                135.7993289373,34.9548514031,100
                135.7993203245,34.9546075617,100
                135.7993370093,34.9544804643,100
                135.7993664078,34.9543755028,100
                135.7994300594,34.9542729928,100
                135.7993477711,34.9540583987,100
                135.7992999452,34.9537142018,100
                135.7992669735,34.9535606104,100
                135.7991567126,34.953445416,100
                135.7988530704,34.9532327777,100
                135.798443126,34.9531363822,100
                135.7982087342,34.9529744266,100
                135.7980373807,34.952868215,100
                135.7977772766,34.9526833256,100
                135.7976631927,34.9525762941,100
                135.797605744,34.9524914711,100
                135.7975646367,34.9523432192,100
                135.7975679867,34.9522751908,100
                135.7976486945,34.9520606576,100
                135.7976204446,34.9519282034,100
                135.797557691,34.9518264685,100
                135.7975131208,34.9517932927,100
                135.7974127731,34.9517186099,100
                135.7972346976,34.9516431635,100
                135.7969469612,34.951577181,100
                135.7967061391,34.9515485331,100
                135.7961718938,34.9515502365,100
                135.7960067071,34.9515654522,100
                135.7959020445,34.9515513295,100
                135.7954802634,34.9514630009,100
                135.7952056904,34.9514545059,100
                135.7950165233,34.9513942497,100
                135.7946717742,34.9511206786,100
                135.7943676466,34.9508238641,100
                135.7941397817,34.9505780296,100
                135.79404095,34.9505239113,100
                135.7939756323,34.9504735875,100
                135.7937661919,34.950312224,100
                135.7935793383,34.9501909065,100
                135.7934383505,34.9505678148,100
                135.7933659289,34.9511663397,100
                135.7932557323,34.9515953473,100
                135.7931006912,34.951841232,100
                135.7931279571,34.9519365697,100
                135.7931848655,34.9520480871,100
                135.7931407392,34.9520782251,100
                135.7928617975,34.952063168,100
                135.7928046321,34.9520911002,100
                135.7925057785,34.9527111402,100
                135.7924267591,34.9528512996,100
                135.7923120466,34.9529321664,100
                135.7920846768,34.9533603368,100
                135.7918934762,34.9536201029,100
                135.7917373799,34.9538919016,100
                135.791599932,34.9542322594,100
                135.7915519406,34.954388952,100
                135.7915486646,34.9545980512,100
                135.7915096068,34.9548258216,100
                135.791489902,34.9553214689,100
                135.7914308548,34.9556853448,100
                135.7913681247,34.9559215257,100
                135.7913073923,34.9561014381,100
                135.7911231637,34.9564272759,100
                135.7909796465,34.9566682476,100
                135.7909807247,34.9567160703,100
                135.790990887,34.9571192949,100
                135.7909697023,34.9573911856,100
                135.790944205,34.9575403808,100
                135.7909000669,34.9576774292,100
                135.7908944533,34.9578277158,100
                135.7909582655,34.9581044723,100
                135.7910459414,34.9582094934,100
                135.7911759285,34.9583024031,100
                135.7913291304,34.9584428931,100
                135.7913551725,34.9584972397,100
                135.7913562651,34.9585821786,100
                135.7913068291,34.9587344317,100
                135.7912116253,34.9588437834,100
                135.7910730819,34.9589410875,100
                135.7908499186,34.9590621204,100
                135.7907915364,34.9591048399,100
                135.7907700531,34.9592467172,100
                135.7907849593,34.9595565603,100
                135.7907596624,34.9596675126,100
                135.7908370338,34.9597716005,100
                135.7910046924,34.9598613373,100
                135.7910727335,34.9599340678,100
                135.7911129004,34.9600184407,100
                135.7911562438,34.9601936027,100
                135.7912419411,34.9607869061,100
                135.7912306394,34.9609203497,100
                135.7911825922,34.9610202751,100
                135.7909455195,34.9612376308,100
                135.7907798265,34.9615691336,100
                135.7906583066,34.9618526103,100
                135.7909135094,34.9622485813,100
                135.7909910594,34.9624194356,100
                135.7910352504,34.9626058676,100
                135.7911416152,34.9629379836,100
                135.7912364564,34.963121686,100
                135.7912271855,34.9633062633,100
                135.7911860665,34.9634664883,100
                135.7911814698,34.9635345849,100
                135.7912612765,34.9638821486,100
                135.7912725436,34.9640126029,100
                135.7912485251,34.9641157393,100
                135.7911071194,34.9643623454,100
                135.7910166418,34.964572488,100
                135.7910326636,34.9647001335,100
                135.7910759975,34.9647672572,100
                135.7912584941,34.9649484365,100
                135.7913080591,34.9650728292,100
                135.7912883997,34.9651433651,100
                135.7911946422,34.9653647707,100
                135.7911947227,34.9654784429,100
                135.7912282346,34.9656340081,100
                135.7912665301,34.9658958582,100
                135.7912177236,34.9659902884,100
                135.7920191785,34.9656462313,100
                135.7920244767,34.9656141249,100
                135.792515072,34.9656275838,100
                135.7928045642,34.9655799116,100
                135.7932116746,34.9654934238,100
                135.7940864633,34.9654852136,100
                135.794540422,34.9653419651,100
                135.7947544953,34.965269509,100
                135.7951041443,34.9651962279,100
                135.7954757176,34.9652359508,100
                135.7962050313,34.9657619652,100
                135.7967016363,34.9658648644,100
                135.797699631,34.9661878394,100
                135.798085433,34.9662077769,100
                135.7980528214,34.9660193243,100
                135.7980788574,34.9657856816,100
                135.7981165134,34.9656644649,100
                135.7981865409,34.9655735151,100
                135.798255508,34.9655322879,100
                135.7983294575,34.9655263529,100
                135.7983544044,34.9661623031,100
                135.7984162674,34.9663174913,100
                135.7985327766,34.9664459357,100
                135.7990615236,34.9668977693,100
                135.7993334933,34.9670205528,100
                135.7997359153,34.9671935558,100
                135.8000751279,34.9668521778,100
                135.8003516496,34.966573872,100
                135.8004843767,34.966665155,100
                135.8006522523,34.9665552779,100
                135.8009004651,34.9667125303,100
                135.8010555191,34.9666343958,100
                135.801241485,34.9665706787,100
                135.8013771689,34.9665790698,100
                135.8014510508,34.9666387028,100
                135.80187629,34.9662994346,100
                135.8025984127,34.9658308449,100
                135.8027153784,34.9659492151,100
                135.8027737564,34.9660082583,100
                135.8029238572,34.9658974349,100
                135.8030926627,34.965799953,100
                135.8031375935,34.9658469306,100
                135.8032612106,34.9657563481,100
                135.8033237787,34.9658164544,100
                135.8034866143,34.965710299,100
                135.8036186081,34.965595784,100
                135.8037664797,34.9655047466,100
                135.8037146113,34.9654519818,100
                135.8040288016,34.9652471181,100
                135.803908911,34.9651261389,100
                135.8038303069,34.9650468501,100
                135.8044284649,34.9646722165,100
                135.8044298775,34.9646720779,100
                135.8058188424,34.965039547,100
                135.8058250898,34.9650747014,100
                135.805619691,34.9651743111,100
                135.8054742511,34.9652955686,100
                135.8054327325,34.9653531123,100
                135.805446927,34.9654665263,100
                135.8054936524,34.9655337888,100
                135.8055224391,34.965587924,100
                135.8056213661,34.9659319857,100
                135.8056814769,34.9661472411,100
                135.8057133885,34.9662567376,100
                135.8057678745,34.9664437431,100
                135.8058407784,34.9666931843,100
                135.8059879772,34.9671968346,100
                135.8062922576,34.9669210965,100
                135.8063517198,34.9671768477,100
                135.8063322496,34.9678522253,100
                135.8072918458,34.9678474067,100
                135.8078818052,34.9678392518,100
                135.8086817782,34.9678281838,100
                135.808749036,34.9675053762,100
                135.8088434325,34.9675465829,100
                135.8096162628,34.967637588,100
                135.8100611071,34.9676899757,100
                135.8110400935,34.9678053053,100
                135.8127866406,34.9680011759,100
                135.8134782964,34.9680225167,100
                135.813491134,34.969195093,100
                135.8134925375,34.969322851,100
                135.8134986295,34.9698783261,100
                135.8142962933,34.9699342625,100
                135.8145587974,34.9699552959,100
                135.8155786777,34.970038112,100
                135.8159596334,34.9700690393,100
                135.8159499751,34.9695129276,100
                135.8159329765,34.968532827,100
                135.8159239494,34.9680112937,100
                135.8159157333,34.9675377945,100
                135.8159137051,34.9674208805,100
                135.816052447,34.9672288215,100
                135.8166586617,34.9663895972,100
                135.8166731497,34.966395887,100
                135.8170948617,34.9665795349,100
                135.8171533445,34.9666050029,100
                135.8177732357,34.9668748222,100
                135.8181648766,34.9670454192,100
                135.8187748262,34.9673260643,100
                135.8197940145,34.9677950017,100
                135.8202470468,34.9679968107,100
                135.8197255084,34.9661336468,100
                135.8197246077,34.9661294902,100
                135.8195412352,34.9652962702,100
                135.8200908104,34.9644502554,100
                135.8201954846,34.9642902801,100
                135.8202357824,34.9642286897,100
                135.8197912562,34.964420304,100
                135.8197063437,34.9644474348,100
                135.8193885785,34.9645255613,100
                135.8193531267,34.9643043668,100
                135.8193973404,34.9641585748,100
                135.8197403111,34.9636931303,100
                135.8200025613,34.9636105524,100
                135.8199343139,34.9634216345,100
                135.8196548343,34.9634676346,100
                135.8191862929,34.9635751192,100
                135.8191362605,34.9632183979,100
                135.819221986,34.9632010587,100
                135.8192395508,34.9629767007,100
                135.8190219554,34.9629629976,100
                135.8190615321,34.96260331,100
                135.8190822752,34.962362408,100
                135.81903747,34.9619301234,100
                135.819353101,34.9618092435,100
                135.8196454269,34.9616860755,100
                135.8197968406,34.9616735508,100
                135.8198234789,34.961637531,100
                135.8198929667,34.9614488152,100
                135.8199493764,34.9612399369,100
                135.8199971392,34.9611435907,100
                135.8201393871,34.9610167473,100
                135.8201385992,34.9609655454,100
                135.8199460501,34.9609686429,100
                135.8197773669,34.9609266281,100
                135.8196081021,34.9609116588,100
                135.819466314,34.9609490577,100
                135.8192457745,34.9609597896,100
                135.8190727687,34.9608550868,100
                135.8189582374,34.9608135052,100
                135.818859564,34.9605068535,100
                135.8172937136,34.9604893761,100
                135.8170744782,34.9602464211,100
                135.8171319042,34.9601279056,100
                135.8172386134,34.9599076942,100
                135.8174708046,34.9594000393,100
                135.817602114,34.9583551447,100
                135.8176059848,34.958325571,100
                135.8176229932,34.9581957958,100
                135.8176413877,34.9578423418,100
                135.817366422,34.9577684025,100
                135.8169231799,34.9577675262,100
                135.8168326113,34.9577673197,100
                135.8161130023,34.9577566578,100
                135.8159278567,34.9580123868,100
                135.8158450993,34.9580874098,100
                135.8157677686,34.9581251831,100
                135.8156273636,34.9581670877,100
                135.8154458598,34.9582066752,100
                135.8154045833,34.9581397763,100
                135.8149516014,34.9581325391,100
                135.8149076553,34.9583920729,100
                135.8148746612,34.9586498631,100
                135.8146723111,34.9585707459,100
                135.8144458703,34.9587366134,100
                135.8142957868,34.9590328197,100
                135.8142017839,34.9589800657,100
                135.8140859981,34.9590091171,100
                135.8140148064,34.9590270383,100
                135.8134070882,34.9590790729,100
                135.8133166507,34.9590295638,100
                135.8133037222,34.9589100967,100
                135.8131012484,34.9589253507,100
                135.8130537743,34.9589045735,100
                135.8130536694,34.9588652025,100
                135.8129736571,34.9589350157,100
                135.8122173694,34.9590060422,100
                135.812170349,34.9587007399,100
                135.8121700943,34.9586990887,100
                135.8123270198,34.9587309624,100
                135.8123270659,34.9587309718,100
                135.8124913006,34.9587643299,100
                135.8125000602,34.9587643433,100
                135.812530719,34.9587643905,100
                135.8125394834,34.9587621503,100
                135.8125657782,34.958755429,100
                135.8125716526,34.9587120549,100
                135.8126570759,34.9583467313,100
                135.8127173507,34.9583325263,100
                135.8126984972,34.9581862864,100
                135.8126011535,34.958173952,100
                135.81260643,34.9580810655,100
                135.8126393215,34.9580810446,100
                135.8126608629,34.9579166273,100
                135.81296032,34.9579111707,100
                135.8131878807,34.9579238448,100
                135.813203231,34.9577448381,100
                135.8133676815,34.9577379058,100
                135.8133789567,34.9575824865,100
                135.8134190794,34.9574473246,100
                135.8132538792,34.9574261541,100
                135.8133883299,34.9568918754,100
                135.8134367724,34.9567944056,100
                135.8134794791,34.9565934676,100
                135.8135338266,34.9564469173,100
                135.8133110992,34.9563693157,100
                135.8135351836,34.955687344,100
                135.8139072662,34.9557929232,100
                135.8142155745,34.9558039577,100
                135.8142090309,34.9557464073,100
                135.8141781574,34.9554745758,100
                135.8141451022,34.9551835128,100
                135.814121634,34.9549769097,100
                135.8140730199,34.9549311975,100
                135.8140284144,34.9549100002,100
                135.8140693208,34.954719623,100
                135.8136914823,34.9546848878,100
                135.8134260201,34.9546604644,100
                135.8131760319,34.9547355109,100
                135.8131164774,34.9547721124,100
                135.8129589468,34.9547948308,100
                135.8129442478,34.9548172041,100
                135.8127817433,34.9550645823,100
                135.8128076109,34.9556496047,100
                135.8128981521,34.9557756712,100
                135.8128676185,34.9560881872,100
                135.8127284974,34.9560252212,100
                135.8122886873,34.9560244038,100
                135.8122577966,34.9559529407,100
                135.8122185897,34.9557947673,100
                135.8121547375,34.9556219072,100
                135.8121805737,34.9553927003,100
                135.8119339655,34.9554278863,100
                135.8119491525,34.9555404558,100
                135.811169782,34.9556000298,100
                135.8108853292,34.9556217729,100
                135.8104921393,34.9548686276,100
                135.8102578908,34.9544437869,100
                135.8100895795,34.9541384968,100
                135.8099651002,34.9539127177,100
                135.8098835746,34.9537648302,100
                135.8098417952,34.9537716669,100
                135.8093677099,34.953962208,100
                135.8092401344,34.9537914974,100
                135.8090805597,34.9535779868,100
              </coordinates>
            </LinearRing>
          </outerBoundaryIs>
        </Polygon>
      </Placemark>
    </Document>
  </Document>
</kml>
