<?xml version="1.0" encoding="UTF-8"?>
<kml xmlns="http://www.opengis.net/kml/2.2">
  <Document id="root_doc">
    <Document id="_4_03______disv4326">
      <name>24_03植柳disv4326</name>
      <Placemark id="_4_03______disv4326.1">
        <visibility>1</visibility>
        <Polygon>
          <extrude>0</extrude>
          <outerBoundaryIs>
            <LinearRing>
              <coordinates>
                135.7539820626,34.9892397204,100
                135.7539511455,34.9892400097,100
                135.7538158269,34.9892397371,100
                135.753698073,34.9892394997,100
                135.7536588675,34.9892437404,100
                135.7536464263,34.9893795077,100
                135.7535321648,34.9893784227,100
                135.75353187,34.989414362,100
                135.7534684393,34.989414272,100
                135.7534097186,34.9894141887,100
                135.7534152182,34.9892535133,100
                135.7532815607,34.9892491541,100
                135.7528732557,34.989232411,100
                135.7528717164,34.9892324079,100
                135.7528669162,34.9893986117,100
                135.7525779239,34.9893867271,100
                135.7521799482,34.9893838558,100
                135.7521092266,34.9893833436,100
                135.7519868982,34.9893824598,100
                135.7519841697,34.9894384363,100
                135.7514615913,34.9894316786,100
                135.751466323,34.9892884347,100
                135.7513821963,34.9892900242,100
                135.7513970004,34.9899069461,100
                135.7510491948,34.9899062377,100
                135.7510462053,34.9902221083,100
                135.7508693521,34.9902312557,100
                135.7508594743,34.9903003263,100
                135.7502460173,34.9902958343,100
                135.7496425373,34.9902764979,100
                135.7493163935,34.990277802,100
                135.7492818242,34.9913662893,100
                135.7492103901,34.9913658598,100
                135.7491941357,34.9927489205,100
                135.7491955719,34.9928748519,100
                135.7491764329,34.9929000258,100
                135.7495503681,34.9928967784,100
                135.7507176223,34.9929045188,100
                135.752160015,34.9929142144,100
                135.752156906,34.9932788911,100
                135.7522471955,34.9932928079,100
                135.7522457536,34.9933745741,100
                135.752328653,34.9934977829,100
                135.7523125327,34.9937279125,100
                135.7523053268,34.9941532915,100
                135.7529744718,34.9941602099,100
                135.7531396909,34.9941596287,100
                135.7531720894,34.9941595121,100
                135.753410006,34.9941586526,100
                135.7534648834,34.9941584535,100
                135.7537422384,34.9941571111,100
                135.7540525194,34.9941556231,100
                135.7540726348,34.9941557483,100
                135.7544212868,34.9941579142,100
                135.7544212444,34.994157562,100
                135.7547700045,34.9941602354,100
                135.7550159854,34.9941617847,100
                135.7550229742,34.9941618328,100
                135.7551753987,34.9941628783,100
                135.7555848289,34.9941609511,100
                135.7556080426,34.9941608567,100
                135.7556946035,34.9941626496,100
                135.7559713301,34.9941638363,100
                135.7563069792,34.9941652808,100
                135.7563101244,34.9941652871,100
                135.7566475208,34.994168918,100
                135.7566838264,34.9942273756,100
                135.7570521079,34.9942197982,100
                135.7570863526,34.9941870456,100
                135.7570922139,34.9938328687,100
                135.7570919056,34.9938082365,100
                135.7570906892,34.9937112342,100
                135.7571072469,34.9937122531,100
                135.7571166587,34.9933075138,100
                135.7571235529,34.9930241199,100
                135.7571287141,34.9927250871,100
                135.7571548267,34.9919682347,100
                135.7571528263,34.9915808698,100
                135.7571589785,34.9907724938,100
                135.7571673446,34.99046079,100
                135.7571723331,34.9899819506,100
                135.7571774709,34.9894879697,100
                135.7571804614,34.9892509796,100
                135.75717428,34.989194987,100
                135.7573021159,34.9891936211,100
                135.7573038989,34.9888539553,100
                135.7571663149,34.988854012,100
                135.7571719612,34.9888181741,100
                135.7570640408,34.9888210589,100
                135.7567525275,34.988811002,100
                135.7566938754,34.9888093346,100
                135.7566939801,34.988764698,100
                135.7563582555,34.9887625288,100
                135.7563545556,34.9885321243,100
                135.7562625445,34.9885319407,100
                135.7562635808,34.9885517758,100
                135.7560499745,34.9885540538,100
                135.7560497793,34.9886198625,100
                135.7559928142,34.9886215518,100
                135.755992503,34.9887936196,100
                135.7552219834,34.9887823069,100
                135.7552240388,34.9892489769,100
                135.7548702214,34.9892482673,100
                135.7548593672,34.9894232621,100
                135.7546563889,34.9894260943,100
                135.7546685376,34.9892478624,100
                135.7543293014,34.9892362634,100
                135.7542067787,34.9892374844,100
                135.7542033174,34.989394474,100
                135.7542027676,34.9894193939,100
                135.7541700317,34.9894186419,100
                135.7540220397,34.9894154233,100
                135.7539694626,34.9894144167,100
                135.7539747506,34.9893233049,100
                135.7539820626,34.9892397204,100
              </coordinates>
            </LinearRing>
          </outerBoundaryIs>
        </Polygon>
      </Placemark>
    </Document>
  </Document>
</kml>
