<?xml version="1.0" encoding="UTF-8"?>
<kml xmlns="http://www.opengis.net/kml/2.2">
  <Document id="root_doc">
    <Document id="_4_09_________disv4326">
      <name>24_09西大路disv4326</name>
      <Placemark id="_4_09_________disv4326.1">
        <visibility>1</visibility>
        <Polygon>
          <extrude>0</extrude>
          <outerBoundaryIs>
            <LinearRing>
              <coordinates>
                135.7325838384,34.9835319706,100
                135.7326626993,34.9831971811,100
                135.7326639451,34.9831159787,100
                135.7317911098,34.9831170279,100
                135.7318121132,34.9824085535,100
                135.7313894665,34.9823922035,100
                135.7313608982,34.9828983869,100
                135.731078098,34.9828968246,100
                135.7310773195,34.9828968201,100
                135.7310772422,34.9828993318,100
                135.7310769304,34.9829097557,100
                135.7310757212,34.9829499204,100
                135.731075365,34.9829617462,100
                135.7310740259,34.9830062233,100
                135.7310736552,34.983018524,100
                135.7310720748,34.9830710372,100
                135.7310667889,34.9830709854,100
                135.7309159745,34.9830695035,100
                135.7309155372,34.9829719237,100
                135.7305511787,34.9829769675,100
                135.7305512158,34.9829867672,100
                135.7305515358,34.9830722548,100
                135.7305515032,34.9831003653,100
                135.7305513893,34.9831970037,100
                135.7304686312,34.9832064423,100
                135.7304738081,34.9835821378,100
                135.7305308199,34.9835822633,100
                135.7305329635,34.983732988,100
                135.7305384852,34.9839171725,100
                135.7305381292,34.9839195316,100
                135.7303795468,34.9839200931,100
                135.7303793894,34.9839828646,100
                135.7303790565,34.9839828634,100
                135.7303199213,34.9839825994,100
                135.7303203786,34.9840645142,100
                135.7303206494,34.9841130721,100
                135.7301262197,34.9841140301,100
                135.7301271285,34.984242706,100
                135.7301298176,34.9846204957,100
                135.730130278,34.9846767318,100
                135.7301371709,34.9855189788,100
                135.7294924273,34.9855210069,100
                135.7289875033,34.9855191154,100
                135.7284822082,34.9855260246,100
                135.728473359,34.9858122299,100
                135.7282058509,34.9857996632,100
                135.7282122216,34.9857486871,100
                135.7279599456,34.9857429848,100
                135.7279493088,34.9858297301,100
                135.7278935149,34.9859143332,100
                135.7272266621,34.9859638393,100
                135.7271871782,34.9860198838,100
                135.7271976675,34.9865464366,100
                135.7271978155,34.9865536207,100
                135.7271880521,34.9867188963,100
                135.7271687009,34.9871509342,100
                135.7271606892,34.9873259278,100
                135.7271513905,34.9875290291,100
                135.7271531288,34.9877354601,100
                135.7271535766,34.9877879302,100
                135.7271255557,34.9877859667,100
                135.7271058953,34.9879811514,100
                135.7272520357,34.9880019015,100
                135.7272519708,34.9880023239,100
                135.7271808032,34.9884086817,100
                135.7273455888,34.9885560341,100
                135.7274074117,34.9890718524,100
                135.7279497277,34.9890617905,100
                135.7283929026,34.9890849595,100
                135.7287237281,34.9891292183,100
                135.7289903042,34.9891420635,100
                135.7290324863,34.9891572992,100
                135.7296478873,34.9891706556,100
                135.7296901477,34.9891715721,100
                135.730156275,34.9891828828,100
                135.7306555472,34.9891989141,100
                135.7307001949,34.9891997166,100
                135.7316512014,34.9892189895,100
                135.7316770015,34.9892194687,100
                135.7324303829,34.9892338662,100
                135.7324370568,34.9892340222,100
                135.7324641397,34.9882277209,100
                135.7324748647,34.9878292795,100
                135.7324759806,34.9877877773,100
                135.7324775126,34.9877303106,100
                135.7324873479,34.9874215713,100
                135.7324926538,34.9872550171,100
                135.732503701,34.9869081789,100
                135.7325150055,34.9865540859,100
                135.7325151263,34.9865500016,100
                135.7325468164,34.9855171539,100
                135.7325467722,34.985510956,100
                135.7325443404,34.9851363368,100
                135.7325688784,34.9849503864,100
                135.7325583799,34.984835563,100
                135.7325114689,34.9845483904,100
                135.7325225752,34.9842479629,100
                135.7325279661,34.9841019046,100
                135.7325361173,34.9839089453,100
                135.7325838384,34.9835319706,100
              </coordinates>
            </LinearRing>
          </outerBoundaryIs>
        </Polygon>
      </Placemark>
    </Document>
  </Document>
</kml>
