<?xml version="1.0" encoding="UTF-8"?>
<kml xmlns="http://www.opengis.net/kml/2.2">
  <Document id="root_doc">
    <Document id="_4_01______disv4326">
      <name>24_01修徳disv4326</name>
      <Placemark id="_4_01______disv4326.1">
        <visibility>1</visibility>
        <Polygon>
          <extrude>0</extrude>
          <outerBoundaryIs>
            <LinearRing>
              <coordinates>
                135.7584849253,34.9966363201,100
                135.7584776591,34.9966844095,100
                135.7583626286,34.9966860832,100
                135.7583541998,34.9964671024,100
                135.758141125,34.9964680142,100
                135.7581064516,34.9964681612,100
                135.7581010248,34.9965745692,100
                135.7579078149,34.9965760888,100
                135.7579071191,34.9966668003,100
                135.7577993128,34.99666384,100
                135.7577991611,34.996715323,100
                135.7577145167,34.9967160009,100
                135.7577175229,34.9968661484,100
                135.7577192175,34.9969509013,100
                135.757706633,34.9969511762,100
                135.7576299442,34.9969528273,100
                135.7576278605,34.9968681061,100
                135.7574395688,34.9968722175,100
                135.757436811,34.9967175586,100
                135.757167343,34.996719071,100
                135.7570826465,34.9967372132,100
                135.7569654622,34.9967366996,100
                135.7569649212,34.9966445759,100
                135.7566799997,34.9966480241,100
                135.7566761438,34.9966070959,100
                135.7564539871,34.9966074105,100
                135.7564527614,34.9966669401,100
                135.7563520006,34.996668993,100
                135.7563517873,34.9967409708,100
                135.7562972898,34.996741496,100
                135.7562189222,34.9967317613,100
                135.7562208222,34.996704438,100
                135.7560058912,34.9967065451,100
                135.7560051117,34.9966592861,100
                135.7558436426,34.9966601004,100
                135.7558461377,34.9967040703,100
                135.7558466182,34.9967091064,100
                135.7557957724,34.9967098577,100
                135.7556076348,34.9967104677,100
                135.755608623,34.9967520934,100
                135.7556058852,34.9970324675,100
                135.7556251654,34.9971400515,100
                135.7556266988,34.9973037554,100
                135.7554751752,34.997304626,100
                135.7554756491,34.9974074515,100
                135.7552016165,34.9974093008,100
                135.7551987058,34.997639809,100
                135.7551941004,34.9980727995,100
                135.7552113116,34.9981345295,100
                135.7552755609,34.9981356447,100
                135.7555927503,34.9981330391,100
                135.7556198984,34.998134573,100
                135.7556286544,34.9984610335,100
                135.7556312051,34.9985561148,100
                135.7555587569,34.9985559699,100
                135.7554585152,34.9985557694,100
                135.7553057462,34.9985546884,100
                135.7551838221,34.9985543402,100
                135.7551831115,34.9985886417,100
                135.7551816565,34.998658958,100
                135.7551818207,34.9988699634,100
                135.7551833712,34.999002937,100
                135.7551838782,34.9990152504,100
                135.7551881404,34.9991191554,100
                135.7553802812,34.9991195401,100
                135.7553797603,34.9991226825,100
                135.7554434785,34.9991219769,100
                135.7554416856,34.9991490435,100
                135.7555528427,34.9991560865,100
                135.7556364071,34.9991546975,100
                135.7556359992,34.9992336947,100
                135.7556358185,34.9992528676,100
                135.7556939289,34.9992510255,100
                135.7557037792,34.999250862,100
                135.755702926,34.9991855993,100
                135.7559870746,34.9991897082,100
                135.7559816646,34.9990594692,100
                135.7562233966,34.9990617112,100
                135.7562230086,34.999192568,100
                135.7563180316,34.9991927575,100
                135.7563396151,34.9991656148,100
                135.7563801437,34.99916478,100
                135.7564174286,34.9991181603,100
                135.7564134677,34.9990603305,100
                135.756679979,34.999062621,100
                135.7566797875,34.999018884,100
                135.7569493373,34.9990206182,100
                135.7569516518,34.9990777415,100
                135.7570186262,34.9990766063,100
                135.75702446,34.9993299955,100
                135.7567125617,34.9993300496,100
                135.756712455,34.9993661092,100
                135.7570253387,34.9993682117,100
                135.7570312182,34.9996235845,100
                135.7577875154,34.9996289591,100
                135.7577858955,34.9995612733,100
                135.7577827125,34.9994290719,100
                135.7577762524,34.9991598784,100
                135.757788854,34.9991618044,100
                135.7577881156,34.9990636526,100
                135.7578175924,34.9990651625,100
                135.7578807536,34.9990653581,100
                135.7578884607,34.9989626869,100
                135.7579604783,34.998963464,100
                135.7580019637,34.9989632721,100
                135.758002236,34.9988719116,100
                135.7581445189,34.9988736078,100
                135.7581399634,34.9990476295,100
                135.7583978735,34.9990496197,100
                135.7584036081,34.9992026023,100
                135.7587688171,34.9991989575,100
                135.7587702008,34.9991988683,100
                135.7587706374,34.9990922855,100
                135.7588530836,34.9990922693,100
                135.7589475064,34.9990923604,100
                135.7589476365,34.9991713476,100
                135.7589743862,34.9991711858,100
                135.7591577903,34.9991700732,100
                135.7592241599,34.9991704152,100
                135.7592807167,34.9991700171,100
                135.7592796579,34.9991171678,100
                135.7593136947,34.9991162906,100
                135.7593180124,34.9988760654,100
                135.7596885107,34.9988781319,100
                135.7597067403,34.998877957,100
                135.7602750486,34.9988714651,100
                135.7606578724,34.9988719336,100
                135.7606835882,34.9988732522,100
                135.7610835371,34.998893407,100
                135.7613520287,34.9989069379,100
                135.761369842,34.9989078354,100
                135.7613702771,34.9988979751,100
                135.761377346,34.9987404393,100
                135.761491143,34.9987426751,100
                135.7614897256,34.9987089653,100
                135.7614900377,34.9986014206,100
                135.7614900972,34.9985809368,100
                135.7614901914,34.9985484653,100
                135.7614902329,34.9985341605,100
                135.7614958272,34.9985240775,100
                135.7616337419,34.9985238902,100
                135.7616344587,34.998411825,100
                135.7616243315,34.9982732711,100
                135.7616406093,34.9982733028,100
                135.761640203,34.9982552458,100
                135.761637232,34.9981578023,100
                135.761637016,34.9981506781,100
                135.7615526579,34.9981523167,100
                135.7615561638,34.998264224,100
                135.761556668,34.9982803367,100
                135.7614788841,34.9982819887,100
                135.7614725187,34.998138572,100
                135.7614036518,34.9981400108,100
                135.7613938536,34.9978888412,100
                135.7614072535,34.997850413,100
                135.7612416802,34.9978469023,100
                135.7612396366,34.9978279012,100
                135.7612399601,34.9976576034,100
                135.7612303626,34.9974554534,100
                135.7613177286,34.9974534919,100
                135.7613457586,34.9974528604,100
                135.7614144712,34.9974512954,100
                135.761414618,34.9974007308,100
                135.761459533,34.9974003409,100
                135.7614596144,34.9973723069,100
                135.7614626671,34.9973717434,100
                135.761453073,34.9972936897,100
                135.7614570755,34.9971088912,100
                135.761459127,34.99701459,100
                135.7614616938,34.9968964153,100
                135.7614590009,34.9968055366,100
                135.761458809,34.9967990771,100
                135.7614578356,34.9967661132,100
                135.7614511432,34.9967134076,100
                135.7612522477,34.9967129527,100
                135.7612514262,34.9966236969,100
                135.7612843208,34.9966237612,100
                135.7612844176,34.996590406,100
                135.7612296447,34.996590299,100
                135.7612246086,34.996556695,100
                135.7611132723,34.9965589898,100
                135.761052982,34.9965602326,100
                135.761050168,34.9966381224,100
                135.7610482342,34.9967165983,100
                135.7606636868,34.9967145755,100
                135.7606656406,34.9966765778,100
                135.7605271877,34.9966808774,100
                135.7605284457,34.9966249871,100
                135.7604603891,34.9966256246,100
                135.7603252296,34.9966270263,100
                135.7603248257,34.9966314196,100
                135.7600487183,34.9966365827,100
                135.76004849,34.9967147587,100
                135.7599449099,34.9967159645,100
                135.7599304159,34.9966968497,100
                135.7597094943,34.996693035,100
                135.7597044498,34.9966030863,100
                135.7595535244,34.9965950423,100
                135.7594787325,34.9965947587,100
                135.7594787233,34.9966611691,100
                135.7592039874,34.9966642911,100
                135.7591482499,34.9966635854,100
                135.7591479026,34.9966057133,100
                135.7590375646,34.9966058304,100
                135.7590369287,34.9964489688,100
                135.7589630719,34.9964499517,100
                135.7589621448,34.9966144441,100
                135.7588430817,34.9966120952,100
                135.7587162097,34.9966095207,100
                135.7586400453,34.9966366974,100
                135.7585784469,34.9966365758,100
                135.7584849253,34.9966363201,100
              </coordinates>
            </LinearRing>
          </outerBoundaryIs>
        </Polygon>
      </Placemark>
    </Document>
  </Document>
</kml>
