<?xml version="1.0" encoding="UTF-8"?>
<kml xmlns="http://www.opengis.net/kml/2.2">
  <Document id="root_doc">
    <Document id="_4_05______disv4326">
      <name>24_05安寧disv4326</name>
      <Placemark id="_4_05______disv4326.1">
        <visibility>1</visibility>
        <Polygon>
          <extrude>0</extrude>
          <outerBoundaryIs>
            <LinearRing>
              <coordinates>
                135.7514958962,34.9876487567,100
                135.751187485,34.9876464384,100
                135.7511821337,34.9878958178,100
                135.7509963932,34.9878954392,100
                135.7504603363,34.987890189,100
                135.7503382395,34.9878889958,100
                135.7497135157,34.9878828865,100
                135.7497097491,34.9878828787,100
                135.7492313916,34.9878720361,100
                135.7488990344,34.9878650849,100
                135.7489027575,34.9886518613,100
                135.7488920517,34.9887000466,100
                135.7488911522,34.9887040956,100
                135.7486982871,34.9886993641,100
                135.7486971553,34.9887555046,100
                135.7486098946,34.988756037,100
                135.7484857443,34.9887561329,100
                135.7484758847,34.9887568521,100
                135.748475933,34.9885765714,100
                135.7484098229,34.9885787792,100
                135.748411351,34.9886682982,100
                135.7484112029,34.9886909779,100
                135.7483237177,34.9886956738,100
                135.7483240902,34.9886805349,100
                135.7481370782,34.9886813516,100
                135.7481358977,34.9885923725,100
                135.7480752342,34.9885942353,100
                135.747785139,34.9885911715,100
                135.7477788966,34.9887018034,100
                135.747623417,34.9887039477,100
                135.747621654,34.9891614544,100
                135.7476216741,34.9891762441,100
                135.7476199728,34.9893897136,100
                135.7476198321,34.9894070852,100
                135.7476157175,34.9899203203,100
                135.7475973233,34.9903730027,100
                135.7480636003,34.9903722751,100
                135.7480668905,34.990276358,100
                135.7488591948,34.9902902439,100
                135.7488142802,34.9908547848,100
                135.7487941806,34.9913635261,100
                135.7487939913,34.9913973677,100
                135.7491294366,34.9914058956,100
                135.7491317066,34.9913654187,100
                135.7492103901,34.9913658598,100
                135.7492818242,34.9913662893,100
                135.7493163935,34.990277802,100
                135.7496425373,34.9902764979,100
                135.7502460173,34.9902958343,100
                135.7508594743,34.9903003263,100
                135.7508693521,34.9902312557,100
                135.7510462053,34.9902221083,100
                135.7510491948,34.9899062377,100
                135.7513970004,34.9899069461,100
                135.7513821963,34.9892900242,100
                135.751466323,34.9892884347,100
                135.7514615913,34.9894316786,100
                135.7519841697,34.9894384363,100
                135.7519868982,34.9893824598,100
                135.7521092266,34.9893833436,100
                135.7521799482,34.9893838558,100
                135.7525779239,34.9893867271,100
                135.7528669162,34.9893986117,100
                135.7528717164,34.9892324079,100
                135.7528732557,34.989232411,100
                135.7532815607,34.9892491541,100
                135.7534152182,34.9892535133,100
                135.7534097186,34.9894141887,100
                135.7534684393,34.989414272,100
                135.75353187,34.989414362,100
                135.7535321648,34.9893784227,100
                135.7536464263,34.9893795077,100
                135.7536588675,34.9892437404,100
                135.753698073,34.9892394997,100
                135.7538158269,34.9892397371,100
                135.7539511455,34.9892400097,100
                135.7539820626,34.9892397204,100
                135.7539747506,34.9893233049,100
                135.7539694626,34.9894144167,100
                135.7540220397,34.9894154233,100
                135.7541700317,34.9894186419,100
                135.7542027676,34.9894193939,100
                135.7542033174,34.989394474,100
                135.7542067787,34.9892374844,100
                135.7543293014,34.9892362634,100
                135.7546685376,34.9892478624,100
                135.7546563889,34.9894260943,100
                135.7548593672,34.9894232621,100
                135.7548702214,34.9892482673,100
                135.7552240388,34.9892489769,100
                135.7552219834,34.9887823069,100
                135.7552213396,34.9885343505,100
                135.755221256,34.9885019264,100
                135.7552195232,34.9879840553,100
                135.7552196667,34.9878779179,100
                135.7551914072,34.9876042435,100
                135.7551634586,34.9873337384,100
                135.7551886054,34.9873089272,100
                135.7552042325,34.9871475337,100
                135.7552011684,34.9870702676,100
                135.755206817,34.9865435316,100
                135.7552071185,34.9865154353,100
                135.7551966993,34.9863213119,100
                135.7551946355,34.9862981602,100
                135.7551808405,34.9861435161,100
                135.7551685592,34.9859641087,100
                135.7551585849,34.9858794327,100
                135.7551605021,34.9858439864,100
                135.7551684111,34.9856976041,100
                135.755122304,34.98502294,100
                135.7538651638,34.9852882553,100
                135.7536235876,34.9852810071,100
                135.7534719344,34.9852726719,100
                135.7533333263,34.9852650674,100
                135.7522493542,34.9852467442,100
                135.752230562,34.9856415329,100
                135.7521693894,34.9868197607,100
                135.7521646277,34.9870582962,100
                135.7521689789,34.9875886391,100
                135.7518077601,34.9875826227,100
                135.7515005395,34.9875775614,100
                135.7514958962,34.9876487567,100
              </coordinates>
            </LinearRing>
          </outerBoundaryIs>
        </Polygon>
      </Placemark>
    </Document>
  </Document>
</kml>
