<?xml version="1.0" encoding="UTF-8"?>
<kml xmlns="http://www.opengis.net/kml/2.2">
  <Document id="root_doc">
    <Document id="_4_07______disv4326">
      <name>24_07大内disv4326</name>
      <Placemark id="_4_07______disv4326.1">
        <visibility>1</visibility>
        <Polygon>
          <extrude>0</extrude>
          <outerBoundaryIs>
            <LinearRing>
              <coordinates>
                135.7439668261,34.9849123132,100
                135.7436866541,34.9848508753,100
                135.7428157748,34.9846490271,100
                135.7427524993,34.9847638345,100
                135.7425002505,34.9853768832,100
                135.7422839726,34.9859723289,100
                135.7418271986,34.9871648608,100
                135.7418166241,34.9871665287,100
                135.7415371574,34.9869943013,100
                135.7408903109,34.9866252916,100
                135.7409126655,34.9866807663,100
                135.7412233431,34.9870922385,100
                135.741444026,34.9874606987,100
                135.7415090454,34.9875692979,100
                135.7415206195,34.9876035505,100
                135.7415442336,34.9876736077,100
                135.7415423158,34.987746427,100
                135.7415386772,34.9878839678,100
                135.7409070585,34.9878829128,100
                135.7401959312,34.9878709087,100
                135.7394503849,34.9878641808,100
                135.7390415637,34.9878639418,100
                135.7390353613,34.9885961817,100
                135.7392052444,34.988598939,100
                135.7392062558,34.9891537115,100
                135.7392062535,34.9891543459,100
                135.7391350092,34.9891545454,100
                135.7391450395,34.9897527226,100
                135.7391643473,34.9903874008,100
                135.7391769525,34.9909494532,100
                135.7391909684,34.9915734852,100
                135.739195328,34.9918805938,100
                135.7391997098,34.9921891518,100
                135.7392079479,34.9927694094,100
                135.7392052949,34.9927694038,100
                135.7392158563,34.9932809534,100
                135.7392269604,34.9936813663,100
                135.7392348366,34.9938572448,100
                135.7392446707,34.9940764413,100
                135.740771014,34.9940645516,100
                135.7408108901,34.9939089173,100
                135.7408688571,34.9938593889,100
                135.7414895575,34.9938550712,100
                135.7426544445,34.9938480245,100
                135.7428117843,34.9938490027,100
                135.7428134464,34.9936469324,100
                135.7428589275,34.9936468869,100
                135.7433824042,34.993649891,100
                135.7437001457,34.9936516856,100
                135.7443487138,34.9936709345,100
                135.7445777667,34.9936805706,100
                135.7445776088,34.9936766966,100
                135.7449831179,34.9936909967,100
                135.7449994548,34.9931811924,100
                135.7450481791,34.9931788996,100
                135.7450434252,34.9930607278,100
                135.745044976,34.9929270258,100
                135.7450453479,34.9928949421,100
                135.7450456348,34.9928475096,100
                135.7450456557,34.9928407341,100
                135.7451004276,34.9928408485,100
                135.7451015448,34.9928241877,100
                135.7451127674,34.9925638336,100
                135.7451124354,34.992407972,100
                135.7459631664,34.9924113663,100
                135.7459581437,34.9926946225,100
                135.746291957,34.9926939781,100
                135.7468587867,34.9926929715,100
                135.7468983938,34.9926844612,100
                135.746894921,34.9924566862,100
                135.7469024759,34.9924563585,100
                135.7469004898,34.9924028604,100
                135.7469607441,34.9924011822,100
                135.7469621457,34.9924499482,100
                135.7470509293,34.9924491385,100
                135.7470597344,34.9924490588,100
                135.7470601041,34.992426182,100
                135.7470636066,34.9922090464,100
                135.7471870909,34.9922060414,100
                135.7471870193,34.9922006171,100
                135.7471861527,34.9921257911,100
                135.7471859238,34.9921086278,100
                135.7471994405,34.9921089568,100
                135.7471979386,34.9920173634,100
                135.7472904317,34.9920067142,100
                135.7472893971,34.9919188342,100
                135.7472892918,34.9919099846,100
                135.7472889692,34.9918826127,100
                135.7472873856,34.9917480456,100
                135.7472856036,34.9915970608,100
                135.747293895,34.9915969861,100
                135.7473196095,34.9915996628,100
                135.747605123,34.9915931402,100
                135.7475941815,34.9915581763,100
                135.7475878993,34.9915380987,100
                135.7475974399,34.9907405042,100
                135.7475969785,34.9903814535,100
                135.7475973233,34.9903730027,100
                135.7476157175,34.9899203203,100
                135.7476198321,34.9894070852,100
                135.7476199728,34.9893897136,100
                135.7476216741,34.9891762441,100
                135.747621654,34.9891614544,100
                135.747623417,34.9887039477,100
                135.7477788966,34.9887018034,100
                135.747785139,34.9885911715,100
                135.7480752342,34.9885942353,100
                135.7481358977,34.9885923725,100
                135.7481370782,34.9886813516,100
                135.7483240902,34.9886805349,100
                135.7483237177,34.9886956738,100
                135.7484112029,34.9886909779,100
                135.748411351,34.9886682982,100
                135.7484098229,34.9885787792,100
                135.748475933,34.9885765714,100
                135.7484758847,34.9887568521,100
                135.7484857443,34.9887561329,100
                135.7486098946,34.988756037,100
                135.7486971553,34.9887555046,100
                135.7486982871,34.9886993641,100
                135.7488911522,34.9887040956,100
                135.7488920517,34.9887000466,100
                135.7489027575,34.9886518613,100
                135.7488990344,34.9878650849,100
                135.7487876578,34.9878649972,100
                135.748779809,34.987463673,100
                135.7488978264,34.9874610986,100
                135.7488906269,34.9874012891,100
                135.7489185025,34.9871272352,100
                135.7489617657,34.9870625994,100
                135.7490300615,34.9870111849,100
                135.7490260672,34.9867066399,100
                135.7490278946,34.9852021344,100
                135.7488720124,34.9851982919,100
                135.7488539811,34.985197847,100
                135.7476639965,34.9851684754,100
                135.7460082051,34.9851393383,100
                135.746011156,34.9851746999,100
                135.7456653636,34.9851701779,100
                135.745662522,34.9850994616,100
                135.7449715317,34.9850575254,100
                135.7444464446,34.9850033253,100
                135.7439668261,34.9849123132,100
              </coordinates>
            </LinearRing>
          </outerBoundaryIs>
        </Polygon>
      </Placemark>
    </Document>
  </Document>
</kml>
