<?xml version="1.0" encoding="UTF-8"?>
<kml xmlns="http://www.opengis.net/kml/2.2">
  <Document id="root_doc">
    <Document id="_4_06______disv4326">
      <name>24_06梅逕disv4326</name>
      <Placemark id="_4_06______disv4326.1">
        <visibility>1</visibility>
        <Polygon>
          <extrude>0</extrude>
          <outerBoundaryIs>
            <LinearRing>
              <coordinates>
                135.7505557563,34.9852209702,100
                135.7503640993,34.9852189593,100
                135.7501159428,34.9852163388,100
                135.7498300549,34.9852119497,100
                135.7497636099,34.985210969,100
                135.7490278946,34.9852021344,100
                135.7490260672,34.9867066399,100
                135.7490300615,34.9870111849,100
                135.7489617657,34.9870625994,100
                135.7489185025,34.9871272352,100
                135.7488906269,34.9874012891,100
                135.7488978264,34.9874610986,100
                135.748779809,34.987463673,100
                135.7487876578,34.9878649972,100
                135.7488990344,34.9878650849,100
                135.7492313916,34.9878720361,100
                135.7497097491,34.9878828787,100
                135.7497135157,34.9878828865,100
                135.7503382395,34.9878889958,100
                135.7504603363,34.987890189,100
                135.7509963932,34.9878954392,100
                135.7511821337,34.9878958178,100
                135.751187485,34.9876464384,100
                135.7514958962,34.9876487567,100
                135.7515005395,34.9875775614,100
                135.7518077601,34.9875826227,100
                135.7521689789,34.9875886391,100
                135.7521646277,34.9870582962,100
                135.7521693894,34.9868197607,100
                135.752230562,34.9856415329,100
                135.7522493542,34.9852467442,100
                135.7513088161,34.9852318733,100
                135.7511582557,34.9852294537,100
                135.7511360288,34.9852291273,100
                135.7507476928,34.985222982,100
                135.7505557563,34.9852209702,100
              </coordinates>
            </LinearRing>
          </outerBoundaryIs>
        </Polygon>
      </Placemark>
    </Document>
  </Document>
</kml>
