<?xml version="1.0" encoding="UTF-8"?>
<kml xmlns="http://www.opengis.net/kml/2.2">
  <Document id="root_doc">
    <Document id="_4_08______disv4326">
      <name>24_08七条disv4326</name>
      <Placemark id="_4_08______disv4326.1">
        <visibility>1</visibility>
        <Polygon>
          <extrude>0</extrude>
          <outerBoundaryIs>
            <LinearRing>
              <coordinates>
                135.7326626993,34.9831971811,100
                135.7325838384,34.9835319706,100
                135.7325361173,34.9839089453,100
                135.7325279661,34.9841019046,100
                135.7325225752,34.9842479629,100
                135.7325114689,34.9845483904,100
                135.7325583799,34.984835563,100
                135.7325688784,34.9849503864,100
                135.7325443404,34.9851363368,100
                135.7325467722,34.985510956,100
                135.7325468164,34.9855171539,100
                135.7325151263,34.9865500016,100
                135.7325150055,34.9865540859,100
                135.732503701,34.9869081789,100
                135.7324926538,34.9872550171,100
                135.7324873479,34.9874215713,100
                135.7324775126,34.9877303106,100
                135.7324759806,34.9877877773,100
                135.7324748647,34.9878292795,100
                135.7324641397,34.9882277209,100
                135.7324370568,34.9892340222,100
                135.7330057817,34.9892352633,100
                135.733100366,34.9892354704,100
                135.733684723,34.9892392071,100
                135.7341047303,34.9892417401,100
                135.7345718869,34.9892390922,100
                135.7346925757,34.9892385787,100
                135.7349213283,34.9892375969,100
                135.735188289,34.9892246535,100
                135.7362998185,34.9891577557,100
                135.737160653,34.9891563717,100
                135.7376286663,34.9891538557,100
                135.7378613579,34.9891521719,100
                135.7384794814,34.9891478623,100
                135.7392062558,34.9891537115,100
                135.7392052444,34.988598939,100
                135.7390353613,34.9885961817,100
                135.7390415637,34.9878639418,100
                135.7394503849,34.9878641808,100
                135.7401959312,34.9878709087,100
                135.7409070585,34.9878829128,100
                135.7415386772,34.9878839678,100
                135.7415423158,34.987746427,100
                135.7415442336,34.9876736077,100
                135.7415206195,34.9876035505,100
                135.7415090454,34.9875692979,100
                135.741444026,34.9874606987,100
                135.7412233431,34.9870922385,100
                135.7409126655,34.9866807663,100
                135.7408903109,34.9866252916,100
                135.7415371574,34.9869943013,100
                135.7418166241,34.9871665287,100
                135.7418271986,34.9871648608,100
                135.7422839726,34.9859723289,100
                135.7425002505,34.9853768832,100
                135.7427524993,34.9847638345,100
                135.7428157748,34.9846490271,100
                135.7423289471,34.9845173555,100
                135.742028665,34.984436151,100
                135.7414034579,34.9842670671,100
                135.7413582051,34.9842547876,100
                135.7409594292,34.9841463976,100
                135.739823877,34.983837829,100
                135.7391156652,34.9836501047,100
                135.737057185,34.9831045135,100
                135.73625534,34.982858537,100
                135.7350324501,34.9824833902,100
                135.7348698587,34.9824110581,100
                135.7335767317,34.9818360818,100
                135.7333262398,34.9817246812,100
                135.7333100413,34.9824663376,100
                135.732679213,34.982119717,100
                135.7326639451,34.9831159787,100
                135.7326626993,34.9831971811,100
              </coordinates>
            </LinearRing>
          </outerBoundaryIs>
        </Polygon>
      </Placemark>
    </Document>
  </Document>
</kml>
