<?xml version="1.0" encoding="UTF-8"?>
<kml xmlns="http://www.opengis.net/kml/2.2">
  <Document id="root_doc">
    <Document id="_4_04______disv4326">
      <name>24_04皆山disv4326</name>
      <Placemark id="_4_04______disv4326.1">
        <visibility>1</visibility>
        <Polygon>
          <extrude>0</extrude>
          <outerBoundaryIs>
            <LinearRing>
              <coordinates>
                135.7582675813,34.9842961776,100
                135.7582666233,34.9843015983,100
                135.7582408281,34.9843146471,100
                135.7582003557,34.984334992,100
                135.7580661573,34.9843347263,100
                135.7580422639,34.9844061647,100
                135.7575540615,34.9844089992,100
                135.7567674829,34.9844059568,100
                135.7567708342,34.9847776184,100
                135.755309753,34.9849939462,100
                135.7552800284,34.9849469103,100
                135.755122304,34.98502294,100
                135.7551684111,34.9856976041,100
                135.7551605021,34.9858439864,100
                135.7551585849,34.9858794327,100
                135.7551685592,34.9859641087,100
                135.7551808405,34.9861435161,100
                135.7551946355,34.9862981602,100
                135.7551966993,34.9863213119,100
                135.7552071185,34.9865154353,100
                135.755206817,34.9865435316,100
                135.7552011684,34.9870702676,100
                135.7552042325,34.9871475337,100
                135.7551886054,34.9873089272,100
                135.7551634586,34.9873337384,100
                135.7551914072,34.9876042435,100
                135.7552196667,34.9878779179,100
                135.7552195232,34.9879840553,100
                135.755221256,34.9885019264,100
                135.7552213396,34.9885343505,100
                135.7552219834,34.9887823069,100
                135.755992503,34.9887936196,100
                135.7559928142,34.9886215518,100
                135.7560497793,34.9886198625,100
                135.7560499745,34.9885540538,100
                135.7562635808,34.9885517758,100
                135.7562625445,34.9885319407,100
                135.7563545556,34.9885321243,100
                135.7563582555,34.9887625288,100
                135.7566939801,34.988764698,100
                135.7566938754,34.9888093346,100
                135.7567525275,34.988811002,100
                135.7570640408,34.9888210589,100
                135.7571719612,34.9888181741,100
                135.7571663149,34.988854012,100
                135.7573038989,34.9888539553,100
                135.7573021159,34.9891936211,100
                135.75717428,34.989194987,100
                135.7571804614,34.9892509796,100
                135.7571774709,34.9894879697,100
                135.7571723331,34.9899819506,100
                135.7571673446,34.99046079,100
                135.7571589785,34.9907724938,100
                135.7571528263,34.9915808698,100
                135.7571548267,34.9919682347,100
                135.7571287141,34.9927250871,100
                135.7571235529,34.9930241199,100
                135.7571166587,34.9933075138,100
                135.7574570748,34.9933088238,100
                135.7575419903,34.993309909,100
                135.7581652723,34.9933121999,100
                135.7581892997,34.9933118243,100
                135.758189743,34.9932813447,100
                135.7581986904,34.9926651608,100
                135.7584891279,34.9926657351,100
                135.7592226794,34.9926447867,100
                135.7592422928,34.9926614461,100
                135.7596398634,34.9926667362,100
                135.7596689223,34.9925629107,100
                135.7597606866,34.992562528,100
                135.7598289461,34.9925658311,100
                135.7598291137,34.9925133066,100
                135.759830298,34.9921405822,100
                135.759857745,34.9921409174,100
                135.7601876803,34.9921305801,100
                135.7602943233,34.9921336773,100
                135.7602976786,34.9920881916,100
                135.7607026922,34.9920890094,100
                135.7607096525,34.9920762473,100
                135.7607121782,34.992009767,100
                135.7610298881,34.9920094749,100
                135.7610660502,34.9920589161,100
                135.761458578,34.9920587693,100
                135.7614613177,34.9919991921,100
                135.7616357627,34.9920036098,100
                135.7616357257,34.9921746761,100
                135.7616303714,34.9922780436,100
                135.7618698936,34.9922856511,100
                135.762102331,34.9922832875,100
                135.762227858,34.9922821225,100
                135.7633124275,34.9922850068,100
                135.7637269385,34.9922884866,100
                135.7641164213,34.9922909306,100
                135.764143441,34.9922915463,100
                135.7644417458,34.9922989542,100
                135.7645131853,34.9922979653,100
                135.7650306355,34.9922908631,100
                135.7651779825,34.9922917443,100
                135.7651779443,34.9922852175,100
                135.7651792769,34.9922022823,100
                135.7650301827,34.9922043623,100
                135.7650272568,34.9916465735,100
                135.7650240898,34.9915118369,100
                135.7650273999,34.9911994905,100
                135.7650296609,34.9909847571,100
                135.7650319796,34.9907645303,100
                135.7650355273,34.9904292251,100
                135.7650352326,34.9903078056,100
                135.765036414,34.9897219806,100
                135.765028994,34.9892714313,100
                135.7650226013,34.9892105684,100
                135.765017992,34.9891687951,100
                135.7648766502,34.9891664094,100
                135.764841711,34.9891660217,100
                135.7648451502,34.9888598027,100
                135.7646551381,34.9888600381,100
                135.7642132499,34.9888605929,100
                135.7641342563,34.9888608707,100
                135.7640865876,34.9888635037,100
                135.7640007945,34.9888666756,100
                135.7639155892,34.9888665105,100
                135.7638628475,34.9888654547,100
                135.7638208685,34.9888607475,100
                135.7627533679,34.9888755042,100
                135.7625039055,34.9888789619,100
                135.7624245307,34.9883503298,100
                135.7624214583,34.9883298763,100
                135.7623925502,34.9883320031,100
                135.7623758947,34.9881291979,100
                135.7623689703,34.9880448884,100
                135.7626203346,34.9880330539,100
                135.7626143781,34.98794733,100
                135.7626453362,34.9879463339,100
                135.7626966001,34.9879447436,100
                135.7626907867,34.9878103458,100
                135.7626670602,34.9872618051,100
                135.7626320541,34.9867969748,100
                135.7626223271,34.9866686334,100
                135.7626210664,34.9866479957,100
                135.7626063532,34.9864070995,100
                135.7625998978,34.9863015845,100
                135.7625995546,34.9861537528,100
                135.7625994059,34.9860892913,100
                135.7625994028,34.9860880428,100
                135.7627426838,34.9856758201,100
                135.7627428206,34.9855767972,100
                135.7627434083,34.9851211927,100
                135.7627358626,34.9850010272,100
                135.7627008636,34.9848157999,100
                135.7627037685,34.9847634251,100
                135.7629922597,34.9848094246,100
                135.7629881908,34.9847012378,100
                135.7629630948,34.9846678347,100
                135.7629590474,34.984552435,100
                135.7629537337,34.9845382029,100
                135.7629426846,34.9845263448,100
                135.7627169327,34.9845259038,100
                135.7627224608,34.9844261591,100
                135.7611472327,34.984381023,100
                135.7608438381,34.9843540147,100
                135.7599990036,34.9843050187,100
                135.7597595349,34.9842910929,100
                135.7596836055,34.9842867174,100
                135.7582675813,34.9842961776,100
              </coordinates>
            </LinearRing>
          </outerBoundaryIs>
        </Polygon>
      </Placemark>
    </Document>
  </Document>
</kml>
