<?xml version="1.0" encoding="UTF-8"?>
<kml xmlns="http://www.opengis.net/kml/2.2">
  <Document id="root_doc">
    <Document id="_4_02______disv4326">
      <name>24_02尚徳disv4326</name>
      <Placemark id="_4_02______disv4326.1">
        <visibility>1</visibility>
        <Polygon>
          <extrude>0</extrude>
          <outerBoundaryIs>
            <LinearRing>
              <coordinates>
                135.7556080426,34.9941608567,100
                135.7555848289,34.9941609511,100
                135.7555715124,34.9946606207,100
                135.7555707234,34.9947154462,100
                135.7555701914,34.9947523875,100
                135.7555635657,34.9952104466,100
                135.7555632447,34.9952324199,100
                135.7551743708,34.9952415726,100
                135.7551783212,34.9958191009,100
                135.755406128,34.9958188918,100
                135.7554061887,34.9958215286,100
                135.7554080657,34.9959270074,100
                135.7555647228,34.9959255177,100
                135.7555718397,34.9959258285,100
                135.7555838564,34.996043103,100
                135.7555797329,34.9962717083,100
                135.7551873529,34.9962783885,100
                135.7551870451,34.9967057523,100
                135.7554576276,34.9967029134,100
                135.7555075933,34.9967509053,100
                135.755608623,34.9967520934,100
                135.7556076348,34.9967104677,100
                135.7557957724,34.9967098577,100
                135.7558466182,34.9967091064,100
                135.7558461377,34.9967040703,100
                135.7558436426,34.9966601004,100
                135.7560051117,34.9966592861,100
                135.7560058912,34.9967065451,100
                135.7562208222,34.996704438,100
                135.7562189222,34.9967317613,100
                135.7562972898,34.996741496,100
                135.7563517873,34.9967409708,100
                135.7563520006,34.996668993,100
                135.7564527614,34.9966669401,100
                135.7564539871,34.9966074105,100
                135.7566761438,34.9966070959,100
                135.7566799997,34.9966480241,100
                135.7569649212,34.9966445759,100
                135.7569654622,34.9967366996,100
                135.7570826465,34.9967372132,100
                135.757167343,34.996719071,100
                135.757436811,34.9967175586,100
                135.7574395688,34.9968722175,100
                135.7576278605,34.9968681061,100
                135.7576299442,34.9969528273,100
                135.757706633,34.9969511762,100
                135.7577192175,34.9969509013,100
                135.7577175229,34.9968661484,100
                135.7577145167,34.9967160009,100
                135.7577991611,34.996715323,100
                135.7577993128,34.99666384,100
                135.7579071191,34.9966668003,100
                135.7579078149,34.9965760888,100
                135.7581010248,34.9965745692,100
                135.7581064516,34.9964681612,100
                135.758141125,34.9964680142,100
                135.7583541998,34.9964671024,100
                135.7583626286,34.9966860832,100
                135.7584776591,34.9966844095,100
                135.7584849253,34.9966363201,100
                135.7585784469,34.9966365758,100
                135.7586400453,34.9966366974,100
                135.7587162097,34.9966095207,100
                135.7588430817,34.9966120952,100
                135.7589621448,34.9966144441,100
                135.7589630719,34.9964499517,100
                135.7590369287,34.9964489688,100
                135.7590375646,34.9966058304,100
                135.7591479026,34.9966057133,100
                135.7591482499,34.9966635854,100
                135.7592039874,34.9966642911,100
                135.7594787233,34.9966611691,100
                135.7594787325,34.9965947587,100
                135.7595535244,34.9965950423,100
                135.7597044498,34.9966030863,100
                135.7597094943,34.996693035,100
                135.7599304159,34.9966968497,100
                135.7599449099,34.9967159645,100
                135.76004849,34.9967147587,100
                135.7600487183,34.9966365827,100
                135.7603248257,34.9966314196,100
                135.7603252296,34.9966270263,100
                135.7604603891,34.9966256246,100
                135.7605284457,34.9966249871,100
                135.7605271877,34.9966808774,100
                135.7606656406,34.9966765778,100
                135.7606636868,34.9967145755,100
                135.7610482342,34.9967165983,100
                135.761050168,34.9966381224,100
                135.761052982,34.9965602326,100
                135.7610557934,34.99638825,100
                135.7610593793,34.9961699269,100
                135.7610622438,34.9959946341,100
                135.7614445133,34.9959816467,100
                135.7614498545,34.9956746561,100
                135.7614510851,34.9956045116,100
                135.7614503399,34.9955368981,100
                135.7614469959,34.99522989,100
                135.7614470582,34.9952227063,100
                135.7614552637,34.9941947387,100
                135.7610741105,34.9941868796,100
                135.7610506628,34.9941864112,100
                135.7606940242,34.9941802903,100
                135.7606780847,34.9941803295,100
                135.7602861202,34.9941818145,100
                135.7601387808,34.9941823643,100
                135.7599893245,34.9941829218,100
                135.7597438103,34.9941844809,100
                135.7592562015,34.9941865503,100
                135.7586655182,34.9941853854,100
                135.7586029079,34.9941843583,100
                135.7585703195,34.9941838235,100
                135.7581872219,34.994177538,100
                135.7580490671,34.9941752408,100
                135.7580477941,34.9941752339,100
                135.7579306183,34.9941759169,100
                135.7579310147,34.9941856925,100
                135.7579357237,34.9943021363,100
                135.757723656,34.9943040959,100
                135.7576218884,34.9943049164,100
                135.7576069847,34.9942982313,100
                135.7576027733,34.9941877898,100
                135.7570863526,34.9941870456,100
                135.7570521079,34.9942197982,100
                135.7566838264,34.9942273756,100
                135.7566475208,34.994168918,100
                135.7563101244,34.9941652871,100
                135.7563069792,34.9941652808,100
                135.7559713301,34.9941638363,100
                135.7556946035,34.9941626496,100
                135.7556080426,34.9941608567,100
              </coordinates>
            </LinearRing>
          </outerBoundaryIs>
        </Polygon>
      </Placemark>
    </Document>
  </Document>
</kml>
