<?xml version="1.0" encoding="UTF-8"?>
<kml xmlns="http://www.opengis.net/kml/2.2">
  <Document id="root_doc">
    <Document id="_4_16______disv4326">
      <name>24_16成徳disv4326</name>
      <Placemark id="_4_16______disv4326.1">
        <visibility>1</visibility>
        <Polygon>
          <extrude>0</extrude>
          <outerBoundaryIs>
            <LinearRing>
              <coordinates>
                135.7567125617,34.9993300496,100
                135.75702446,34.9993299955,100
                135.7570186262,34.9990766063,100
                135.7569516518,34.9990777415,100
                135.7569493373,34.9990206182,100
                135.7566797875,34.999018884,100
                135.756679979,34.999062621,100
                135.7564134677,34.9990603305,100
                135.7564174286,34.9991181603,100
                135.7563801437,34.99916478,100
                135.7563396151,34.9991656148,100
                135.7563180316,34.9991927575,100
                135.7562230086,34.999192568,100
                135.7562233966,34.9990617112,100
                135.7559816646,34.9990594692,100
                135.7559870746,34.9991897082,100
                135.755702926,34.9991855993,100
                135.7557037792,34.999250862,100
                135.7556939289,34.9992510255,100
                135.7556358185,34.9992528676,100
                135.7555957092,34.9992541388,100
                135.7555974187,34.999337898,100
                135.7555983606,34.9993840855,100
                135.7555996518,34.9994468411,100
                135.7553844467,34.9994481989,100
                135.7553831705,34.9995085966,100
                135.7552517065,34.9995092358,100
                135.7552526501,34.9995606218,100
                135.7554396117,34.9995601515,100
                135.7554680385,34.9995600108,100
                135.7555936212,34.9995611413,100
                135.7555866027,34.9995686571,100
                135.7555846984,34.9996615506,100
                135.755497486,34.9996613762,100
                135.7554938488,34.9997980006,100
                135.7551894456,34.9998012649,100
                135.7551892335,35.0001319298,100
                135.7551849172,35.0003810295,100
                135.755247078,35.0003804496,100
                135.7554475755,35.0003784569,100
                135.7556537193,35.0003764036,100
                135.755653064,35.0004200767,100
                135.7556448619,35.0009662309,100
                135.7555744981,35.0009661936,100
                135.755573568,35.0010577449,100
                135.7555444363,35.0010584135,100
                135.7555420028,35.0011403607,100
                135.7555239891,35.0011405833,100
                135.755488966,35.0011405132,100
                135.7554887623,35.0012090273,100
                135.7553507228,35.0012096518,100
                135.7553509909,35.0012251732,100
                135.7553411073,35.0012254368,100
                135.7553418015,35.0012793165,100
                135.755349259,35.0013694809,100
                135.7553951185,35.0013675302,100
                135.7554954486,35.0013703522,100
                135.7554941398,35.0014203439,100
                135.7554614425,35.0014206598,100
                135.7554597632,35.0014816851,100
                135.7554669105,35.001639742,100
                135.7556172358,35.0016367325,100
                135.7556701113,35.0016356409,100
                135.755666701,35.0018257936,100
                135.7556614212,35.0021189794,100
                135.7555882388,35.0021195561,100
                135.7555878616,35.0021458771,100
                135.7554397275,35.0021481548,100
                135.7554372795,35.0022713626,100
                135.7554009845,35.0022729802,100
                135.7553891564,35.0023637641,100
                135.7553898189,35.0024294517,100
                135.7552326272,35.0024292454,100
                135.7551649257,35.0024316078,100
                135.7551500369,35.0024805967,100
                135.7553837236,35.0024790216,100
                135.7553934299,35.0026422459,100
                135.7554472473,35.0026432208,100
                135.7554471642,35.0026711667,100
                135.755447999,35.0026951286,100
                135.7554496115,35.0027415326,100
                135.7554497902,35.0027466749,100
                135.7554506724,35.0027800997,100
                135.7556299581,35.002779535,100
                135.7556333891,35.003046561,100
                135.7556337563,35.00309873,100
                135.7557629642,35.0031014593,100
                135.7557546862,35.0032231445,100
                135.7556313389,35.003226771,100
                135.755602029,35.0032268725,100
                135.7556011571,35.0033061032,100
                135.7556008179,35.0033318466,100
                135.7555785185,35.0033314642,100
                135.755577945,35.0033874548,100
                135.7555770184,35.0034758417,100
                135.7554023582,35.0034796471,100
                135.7553983424,35.0036142998,100
                135.7551258254,35.0036123461,100
                135.7551264295,35.0036825647,100
                135.7552375914,35.0036824358,100
                135.7552737534,35.0036824372,100
                135.7552757927,35.0039254228,100
                135.7552734649,35.0039779859,100
                135.7553195364,35.0039783549,100
                135.755423555,35.0039791881,100
                135.7554236086,35.0039611583,100
                135.7554718138,35.0039612548,100
                135.7554731655,35.0040401652,100
                135.7554735151,35.0040605403,100
                135.7554735546,35.004062907,100
                135.7554735939,35.0040651932,100
                135.7554736816,35.0040703391,100
                135.7555778827,35.0040747106,100
                135.7555778789,35.0040723787,100
                135.7555865366,35.0040664624,100
                135.7555866639,35.0040236997,100
                135.7556281564,35.0040236486,100
                135.7556807681,35.0040235807,100
                135.7557664223,35.0040234689,100
                135.7560446153,35.0040231073,100
                135.7560444906,35.0040651692,100
                135.7560446526,35.0040684159,100
                135.7560455244,35.0040859056,100
                135.7561075681,35.0040851339,100
                135.7561075518,35.0040831665,100
                135.7561101147,35.0040832321,100
                135.7561548565,35.0040843778,100
                135.7561573478,35.0040844413,100
                135.7561613168,35.0040845431,100
                135.756164565,35.0040846262,100
                135.7561695109,35.004084753,100
                135.7561724095,35.0040848272,100
                135.7561784646,35.0040849825,100
                135.756178496,35.0040849832,100
                135.7561785529,35.0040849843,100
                135.7561815912,35.0040850398,100
                135.7561817149,35.0040850424,100
                135.7561837175,35.004085079,100
                135.756186465,35.0040851298,100
                135.7561902529,35.0040851993,100
                135.7561906742,35.004085206,100
                135.7561907451,35.0040852065,100
                135.7561922997,35.004085208,100
                135.7561931664,35.0040852088,100
                135.7561995556,35.0040852147,100
                135.7562072007,35.0040852225,100
                135.7562130617,35.004085228,100
                135.7562219141,35.0040853562,100
                135.756224175,35.0040032391,100
                135.7562243705,35.003996114,100
                135.7562851758,35.0039968807,100
                135.7562846931,35.0039737294,100
                135.7562846928,35.0039736959,100
                135.7562847939,35.003939326,100
                135.756284798,35.0039379455,100
                135.7562848154,35.0039320738,100
                135.7562890896,35.0039320776,100
                135.7562888957,35.0039257612,100
                135.7563398043,35.0039254302,100
                135.7563448583,35.0039253976,100
                135.7563455538,35.0038915002,100
                135.7563456727,35.0038857082,100
                135.756360947,35.0038858702,100
                135.7563901274,35.0038861781,100
                135.7563906905,35.0038751125,100
                135.7564679455,35.0038748984,100
                135.7564694325,35.0038492078,100
                135.7564711386,35.0038043847,100
                135.7564977354,35.0038041895,100
                135.7566619742,35.0038080375,100
                135.7567446957,35.0038094,100
                135.7567463748,35.0039216676,100
                135.7568277379,35.003940282,100
                135.7568440078,35.0041190638,100
                135.7569742504,35.0041210132,100
                135.757002659,35.0041529031,100
                135.7570621487,35.0041517537,100
                135.7571515965,35.0041501008,100
                135.7572297401,35.0041525004,100
                135.7572304378,35.0042550419,100
                135.7572808365,35.0042542402,100
                135.7572842355,35.004216384,100
                135.757336831,35.0042137841,100
                135.7573359674,35.004155763,100
                135.7573869956,35.0041573295,100
                135.757385343,35.0040647112,100
                135.7576843741,35.0040665726,100
                135.7580962847,35.0040738675,100
                135.758099003,35.0039425926,100
                135.7582379642,35.0039414595,100
                135.7582338592,35.0039839902,100
                135.7583174224,35.0039825355,100
                135.7583190949,35.0040905774,100
                135.758663332,35.0040880178,100
                135.7586625604,35.0041830254,100
                135.7586614859,35.0043158535,100
                135.7587450496,35.0043143282,100
                135.7587446926,35.0044360293,100
                135.758744589,35.0044713136,100
                135.7589314572,35.0044716823,100
                135.7589331683,35.0043628724,100
                135.7596678683,35.00437749,100
                135.7596680919,35.0036786902,100
                135.759669878,35.0033677482,100
                135.7598206076,35.0033662126,100
                135.7598255811,35.0031799375,100
                135.7598272289,35.0029843219,100
                135.760137791,35.0029825172,100
                135.7601494208,35.002982448,100
                135.7601787576,35.0029819575,100
                135.7601777179,35.0029177851,100
                135.7601720873,35.0027573363,100
                135.7600634951,35.0027941694,100
                135.7600391041,35.0027419336,100
                135.7597955502,35.0027447664,100
                135.7597980217,35.0024929444,100
                135.7601012864,35.0024935377,100
                135.7601042757,35.002157922,100
                135.7600979841,35.0019523268,100
                135.7600932765,35.0017985002,100
                135.7599850397,35.001801809,100
                135.7599869323,35.0017108187,100
                135.7599877522,35.0016716611,100
                135.7599364288,35.001676068,100
                135.7599367371,35.0015705661,100
                135.7598340563,35.0015764217,100
                135.7598293434,35.0013372342,100
                135.7598389145,35.0012865142,100
                135.7598390788,35.001072922,100
                135.7598637641,35.00107278,100
                135.7599165601,35.001072477,100
                135.7599172516,35.0010296684,100
                135.7601016295,35.0010265419,100
                135.760106138,35.0009336546,100
                135.7602745673,35.000928561,100
                135.7602660905,35.0007620503,100
                135.7601825124,35.0007618866,100
                135.7601635291,35.0006169765,100
                135.7596789541,35.0006089131,100
                135.7596835086,35.0003758706,100
                135.7596876829,35.0001633233,100
                135.7597067403,34.998877957,100
                135.7596885107,34.9988781319,100
                135.7593180124,34.9988760654,100
                135.7593136947,34.9991162906,100
                135.7592796579,34.9991171678,100
                135.7592807167,34.9991700171,100
                135.7592241599,34.9991704152,100
                135.7591577903,34.9991700732,100
                135.7589743862,34.9991711858,100
                135.7589476365,34.9991713476,100
                135.7589475064,34.9990923604,100
                135.7588530836,34.9990922693,100
                135.7587706374,34.9990922855,100
                135.7587702008,34.9991988683,100
                135.7587688171,34.9991989575,100
                135.7584036081,34.9992026023,100
                135.7583978735,34.9990496197,100
                135.7581399634,34.9990476295,100
                135.7581445189,34.9988736078,100
                135.758002236,34.9988719116,100
                135.7580019637,34.9989632721,100
                135.7579604783,34.998963464,100
                135.7578884607,34.9989626869,100
                135.7578807536,34.9990653581,100
                135.7578175924,34.9990651625,100
                135.7577881156,34.9990636526,100
                135.757788854,34.9991618044,100
                135.7577762524,34.9991598784,100
                135.7577827125,34.9994290719,100
                135.7577858955,34.9995612733,100
                135.7577875154,34.9996289591,100
                135.7570312182,34.9996235845,100
                135.7570253387,34.9993682117,100
                135.756712455,34.9993661092,100
                135.7567125617,34.9993300496,100
              </coordinates>
            </LinearRing>
          </outerBoundaryIs>
        </Polygon>
      </Placemark>
    </Document>
  </Document>
</kml>
