<?xml version="1.0" encoding="UTF-8"?>
<kml xmlns="http://www.opengis.net/kml/2.2">
  <Document id="root_doc">
    <Document id="_4_15______disv4326">
      <name>24_15格致disv4326</name>
      <Placemark id="_4_15______disv4326.1">
        <visibility>1</visibility>
        <Polygon>
          <extrude>0</extrude>
          <outerBoundaryIs>
            <LinearRing>
              <coordinates>
                135.7530553343,34.9991836037,100
                135.7527356691,34.999189789,100
                135.7527424297,34.9989873818,100
                135.7525889815,34.9989864159,100
                135.7525884773,34.9991540927,100
                135.752525295,34.9991553497,100
                135.7525256206,34.9991286714,100
                135.7525277224,34.9989565427,100
                135.7525247044,34.9988672884,100
                135.7523921598,34.9988634148,100
                135.7523569765,34.9990437399,100
                135.7520968294,34.999039959,100
                135.7520844693,34.9991088137,100
                135.7518194492,34.999080316,100
                135.7517923986,34.9992241475,100
                135.7516592807,34.9992270469,100
                135.7516636702,34.9994572991,100
                135.7515106649,34.9994602173,100
                135.7515094458,34.9995007821,100
                135.7515357383,34.9995008356,100
                135.7515355389,34.9995511657,100
                135.7516654813,34.9995524384,100
                135.7516666333,34.999612732,100
                135.7517885486,34.999611603,100
                135.7517886023,34.9997152794,100
                135.7517886152,34.9997411435,100
                135.751650044,34.9997405968,100
                135.7516487468,34.9997931206,100
                135.7516267429,34.9997917526,100
                135.751626318,34.9999325398,100
                135.7517023842,34.9999326944,100
                135.7516964245,35.0000140281,100
                135.751888502,35.0000080796,100
                135.7518785268,35.0001582855,100
                135.751665546,35.0001640507,100
                135.7516584745,35.0004369492,100
                135.7516176697,35.0004371485,100
                135.7516108979,35.0005901065,100
                135.7515990348,35.0005935676,100
                135.751274994,35.0005920161,100
                135.7512693517,35.0007097623,100
                135.7515588066,35.0007123649,100
                135.751599596,35.0007128841,100
                135.751594218,35.0008685912,100
                135.7515491401,35.0008675295,100
                135.7515472963,35.0009117053,100
                135.7515471961,35.0009140986,100
                135.7515455722,35.0009529722,100
                135.7515414451,35.001051792,100
                135.7515571646,35.0010515967,100
                135.7516066528,35.0010509815,100
                135.751637975,35.0010503287,100
                135.7516384653,35.0010362895,100
                135.7516969806,35.0010354367,100
                135.7516978468,35.0010490809,100
                135.7516995284,35.0011310705,100
                135.751749926,35.0011302716,100
                135.7517483813,35.0012790151,100
                135.7518847477,35.0012808948,100
                135.7518762229,35.0013981873,100
                135.7518121605,35.0014190457,100
                135.7516558837,35.0014159111,100
                135.7516296448,35.0014176048,100
                135.7516283663,35.0015620531,100
                135.7516282187,35.0015786053,100
                135.7516281296,35.0015887414,100
                135.7516279836,35.0016051115,100
                135.7515934219,35.0016052042,100
                135.751594933,35.0016435615,100
                135.7516147368,35.0021466718,100
                135.7516033697,35.0021465584,100
                135.7516036229,35.0022042229,100
                135.7518776853,35.0021975622,100
                135.7518765078,35.0024742763,100
                135.751726409,35.0024732672,100
                135.7517105301,35.0024721207,100
                135.7517080398,35.0025375417,100
                135.7517077392,35.0025616037,100
                135.7516090517,35.0025609244,100
                135.7515538885,35.0025605449,100
                135.7515532325,35.0027778035,100
                135.7515072199,35.0027777099,100
                135.7515072491,35.0027804254,100
                135.7515080613,35.0028615505,100
                135.7515853751,35.0028626491,100
                135.7515852458,35.0030015925,100
                135.7515851681,35.0030857855,100
                135.7515851547,35.0031005366,100
                135.7515841173,35.0032537345,100
                135.7515840649,35.0032614277,100
                135.7514557518,35.0032623746,100
                135.7514476826,35.0032624341,100
                135.7513348458,35.0032632649,100
                135.7513378839,35.0033453068,100
                135.7514174674,35.0033446846,100
                135.7514569031,35.0033443769,100
                135.7515839707,35.0033433824,100
                135.7515831798,35.0033920776,100
                135.7519662715,35.0033896869,100
                135.7519104502,35.0035655063,100
                135.7520338979,35.0035641359,100
                135.7523030059,35.0035611607,100
                135.7523006237,35.0036490515,100
                135.7522963571,35.0038078607,100
                135.7523633758,35.0038079965,100
                135.7523651792,35.0038631463,100
                135.7524203634,35.0038632581,100
                135.7524158613,35.0043285038,100
                135.7524626689,35.0043319088,100
                135.7525653581,35.0043321167,100
                135.7525609719,35.0040260929,100
                135.7525587118,35.0039517855,100
                135.7526705126,35.0039533505,100
                135.7526888476,35.0039534669,100
                135.7528818972,35.0039546932,100
                135.7528819311,35.0039434246,100
                135.7529362153,35.0039435343,100
                135.7529362329,35.0040223149,100
                135.7529419491,35.0040228773,100
                135.7530609888,35.0040238959,100
                135.7530843148,35.0040237451,100
                135.7530829263,35.0040888974,100
                135.7530827888,35.0041347386,100
                135.7532633172,35.0041324526,100
                135.7532666192,35.0039165231,100
                135.7534407452,35.0039194809,100
                135.7534427175,35.0038826499,100
                135.7536202545,35.0038830079,100
                135.7536356339,35.0038344086,100
                135.7536757277,35.0038350341,100
                135.7536765462,35.0038350455,100
                135.7537953041,35.0038365072,100
                135.7538108056,35.0038366979,100
                135.7538725165,35.0038374571,100
                135.7539394737,35.0038382814,100
                135.7539401456,35.0039228853,100
                135.7539409914,35.004063658,100
                135.7539409262,35.0040688404,100
                135.7539403628,35.0041132389,100
                135.7540307867,35.0041134209,100
                135.7540979292,35.0041165272,100
                135.7541142553,35.0043312284,100
                135.7541226423,35.0044413278,100
                135.7541642582,35.0044417813,100
                135.7542591765,35.0044408063,100
                135.7544423121,35.0044389261,100
                135.7544422298,35.0041352494,100
                135.7546281467,35.0041317492,100
                135.7547580261,35.0041273538,100
                135.7547570583,35.0041094706,100
                135.7547550628,35.0040436576,100
                135.7547126271,35.0040440951,100
                135.7547032113,35.0038946941,100
                135.7548414024,35.003900395,100
                135.7548393675,35.0038008739,100
                135.7551112463,35.0038090962,100
                135.7551264295,35.0036825647,100
                135.7551258254,35.0036123461,100
                135.7553983424,35.0036142998,100
                135.7554023582,35.0034796471,100
                135.7555770184,35.0034758417,100
                135.755577945,35.0033874548,100
                135.7555785185,35.0033314642,100
                135.7556008179,35.0033318466,100
                135.7556011571,35.0033061032,100
                135.755602029,35.0032268725,100
                135.7556313389,35.003226771,100
                135.7557546862,35.0032231445,100
                135.7557629642,35.0031014593,100
                135.7556337563,35.00309873,100
                135.7556333891,35.003046561,100
                135.7556299581,35.002779535,100
                135.7554506724,35.0027800997,100
                135.7554497902,35.0027466749,100
                135.7554496115,35.0027415326,100
                135.755447999,35.0026951286,100
                135.7554471642,35.0026711667,100
                135.7554472473,35.0026432208,100
                135.7553934299,35.0026422459,100
                135.7553837236,35.0024790216,100
                135.7551500369,35.0024805967,100
                135.7551649257,35.0024316078,100
                135.7552326272,35.0024292454,100
                135.7553898189,35.0024294517,100
                135.7553891564,35.0023637641,100
                135.7554009845,35.0022729802,100
                135.7554372795,35.0022713626,100
                135.7554397275,35.0021481548,100
                135.7555878616,35.0021458771,100
                135.7555882388,35.0021195561,100
                135.7556614212,35.0021189794,100
                135.755666701,35.0018257936,100
                135.7556701113,35.0016356409,100
                135.7556172358,35.0016367325,100
                135.7554669105,35.001639742,100
                135.7554597632,35.0014816851,100
                135.7554614425,35.0014206598,100
                135.7554941398,35.0014203439,100
                135.7554954486,35.0013703522,100
                135.7553951185,35.0013675302,100
                135.755349259,35.0013694809,100
                135.7553418015,35.0012793165,100
                135.7553411073,35.0012254368,100
                135.7553509909,35.0012251732,100
                135.7553507228,35.0012096518,100
                135.7554887623,35.0012090273,100
                135.755488966,35.0011405132,100
                135.7555239891,35.0011405833,100
                135.7555420028,35.0011403607,100
                135.7555444363,35.0010584135,100
                135.755573568,35.0010577449,100
                135.7555744981,35.0009661936,100
                135.7556448619,35.0009662309,100
                135.755653064,35.0004200767,100
                135.7556537193,35.0003764036,100
                135.7554475755,35.0003784569,100
                135.755247078,35.0003804496,100
                135.7551849172,35.0003810295,100
                135.7551892335,35.0001319298,100
                135.7551894456,34.9998012649,100
                135.7554938488,34.9997980006,100
                135.755497486,34.9996613762,100
                135.7555846984,34.9996615506,100
                135.7555866027,34.9995686571,100
                135.7555936212,34.9995611413,100
                135.7554680385,34.9995600108,100
                135.7554396117,34.9995601515,100
                135.7552526501,34.9995606218,100
                135.7552517065,34.9995092358,100
                135.7553831705,34.9995085966,100
                135.7553844467,34.9994481989,100
                135.7555996518,34.9994468411,100
                135.7555983606,34.9993840855,100
                135.7555974187,34.999337898,100
                135.7555957092,34.9992541388,100
                135.7556358185,34.9992528676,100
                135.7556359992,34.9992336947,100
                135.7556364071,34.9991546975,100
                135.7555528427,34.9991560865,100
                135.7554416856,34.9991490435,100
                135.7554434785,34.9991219769,100
                135.7553797603,34.9991226825,100
                135.7553802812,34.9991195401,100
                135.7551881404,34.9991191554,100
                135.7551838782,34.9990152504,100
                135.7550165943,34.9990172229,100
                135.7550196516,34.9991371993,100
                135.7549587995,34.999138926,100
                135.7549500865,34.9991395551,100
                135.7549208603,34.9991416638,100
                135.7549209743,34.9991806104,100
                135.7547748049,34.9991811491,100
                135.7543933615,34.9991826369,100
                135.7543665923,34.9990903208,100
                135.7541172678,34.9990929888,100
                135.7540959018,34.9992330302,100
                135.7540960417,34.9992390109,100
                135.7538776513,34.9992360282,100
                135.7538781756,34.9991468245,100
                135.7539018441,34.9991471627,100
                135.753948027,34.9991478224,100
                135.7539481832,34.9990955911,100
                135.7538784836,34.999094396,100
                135.7538787858,34.9990432413,100
                135.7538791587,34.9989798453,100
                135.7538769344,34.9988590766,100
                135.753679314,34.9988625064,100
                135.7534319691,34.9988667979,100
                135.7534112345,34.9988667561,100
                135.7533959876,34.9988662334,100
                135.7533950197,34.9990436869,100
                135.7533915891,34.9991205579,100
                135.7533228629,34.9991196346,100
                135.7533231958,34.9991499859,100
                135.7532567911,34.9991464019,100
                135.7532544162,34.9992453497,100
                135.7530536837,34.9992485367,100
                135.7530553343,34.9991836037,100
              </coordinates>
            </LinearRing>
          </outerBoundaryIs>
        </Polygon>
      </Placemark>
    </Document>
  </Document>
</kml>
