<?xml version="1.0" encoding="UTF-8"?>
<kml xmlns="http://www.opengis.net/kml/2.2">
  <Document id="root_doc">
    <Document id="_4_10____________disv4326">
      <name>24_10七条第三disv4326</name>
      <Placemark id="_4_10____________disv4326.1">
        <visibility>1</visibility>
        <Polygon>
          <extrude>0</extrude>
          <outerBoundaryIs>
            <LinearRing>
              <coordinates>
                135.7296478873,34.9891706556,100
                135.7290324863,34.9891572992,100
                135.7289903042,34.9891420635,100
                135.7287237281,34.9891292183,100
                135.7287066988,34.9902535785,100
                135.7286879127,34.9908290826,100
                135.7286541227,34.9917790938,100
                135.728637121,34.9921362011,100
                135.728628017,34.9924993822,100
                135.7286065854,34.9933530033,100
                135.7285948271,34.9933769944,100
                135.7285849571,34.9933971318,100
                135.7285685429,34.9937968536,100
                135.729277369,34.9938094842,100
                135.7292805741,34.9938095413,100
                135.730072119,34.9938236399,100
                135.7300709299,34.993852485,100
                135.7301599241,34.9938519105,100
                135.7301606479,34.9938216095,100
                135.7302170729,34.9938226011,100
                135.7307479593,34.9938308016,100
                135.730748793,34.9938308143,100
                135.7307961886,34.9938315464,100
                135.7314972776,34.9938321852,100
                135.7314973161,34.99382029,100
                135.7314973185,34.9938195642,100
                135.7315200887,34.9936454435,100
                135.7318857805,34.9936585708,100
                135.7322739774,34.9936664634,100
                135.7322627274,34.9939565356,100
                135.7330562962,34.9939882019,100
                135.7330159956,34.9952398484,100
                135.7331288398,34.9952388275,100
                135.7331276993,34.9956386506,100
                135.733131248,34.9962165996,100
                135.7331315297,34.9962616748,100
                135.7334453192,34.9962572882,100
                135.7338846881,34.9962579638,100
                135.7347062981,34.9962593265,100
                135.7358269623,34.9962611954,100
                135.7358268453,34.9962510535,100
                135.7362759007,34.9962401228,100
                135.7362813191,34.9960038441,100
                135.7362624905,34.9958427324,100
                135.7362753421,34.9956039349,100
                135.7362605234,34.9953665559,100
                135.7362393302,34.9951894511,100
                135.7362748451,34.994424739,100
                135.7362731102,34.9942438031,100
                135.7362836516,34.994153379,100
                135.7363147289,34.9938868184,100
                135.7371587876,34.9938730033,100
                135.7371676514,34.9938711214,100
                135.7371677536,34.993643776,100
                135.7379282765,34.9936587934,100
                135.7392269604,34.9936813663,100
                135.7392158563,34.9932809534,100
                135.7392052949,34.9927694038,100
                135.7392079479,34.9927694094,100
                135.7391997098,34.9921891518,100
                135.739195328,34.9918805938,100
                135.7391909684,34.9915734852,100
                135.7391769525,34.9909494532,100
                135.7391643473,34.9903874008,100
                135.7391450395,34.9897527226,100
                135.7391350092,34.9891545454,100
                135.7392062535,34.9891543459,100
                135.7392062558,34.9891537115,100
                135.7384794814,34.9891478623,100
                135.7378613579,34.9891521719,100
                135.7376286663,34.9891538557,100
                135.737160653,34.9891563717,100
                135.7362998185,34.9891577557,100
                135.735188289,34.9892246535,100
                135.7349213283,34.9892375969,100
                135.7346925757,34.9892385787,100
                135.7345718869,34.9892390922,100
                135.7341047303,34.9892417401,100
                135.733684723,34.9892392071,100
                135.733100366,34.9892354704,100
                135.7330057817,34.9892352633,100
                135.7324370568,34.9892340222,100
                135.7324303829,34.9892338662,100
                135.7316770015,34.9892194687,100
                135.7316512014,34.9892189895,100
                135.7307001949,34.9891997166,100
                135.7306555472,34.9891989141,100
                135.730156275,34.9891828828,100
                135.7296901477,34.9891715721,100
                135.7296478873,34.9891706556,100
              </coordinates>
            </LinearRing>
          </outerBoundaryIs>
        </Polygon>
      </Placemark>
    </Document>
  </Document>
</kml>
