<?xml version="1.0" encoding="UTF-8"?>
<kml xmlns="http://www.opengis.net/kml/2.2">
  <Document id="root_doc">
    <Document id="_4_14______disv4326">
      <name>24_14郁文disv4326</name>
      <Placemark id="_4_14______disv4326.1">
        <visibility>1</visibility>
        <Polygon>
          <extrude>0</extrude>
          <outerBoundaryIs>
            <LinearRing>
              <coordinates>
                135.7491835835,34.9987588481,100
                135.7489243365,34.9987608506,100
                135.7487613533,34.9987620651,100
                135.7482350312,34.9987928165,100
                135.7482375879,35.0000630837,100
                135.7475047766,35.0000658685,100
                135.7475063621,35.0002813143,100
                135.74751178,35.0010196361,100
                135.7474129881,35.0010199954,100
                135.7473848906,35.0010200869,100
                135.746476911,35.0010230537,100
                135.7464577525,35.000956177,100
                135.7461700314,35.0009568505,100
                135.7455338077,35.0009583369,100
                135.7455413013,35.0012341533,100
                135.7464105874,35.0012356129,100
                135.7464233752,35.0012357758,100
                135.7464242866,35.0012357875,100
                135.7464241537,35.0012477657,100
                135.7464241518,35.0012482471,100
                135.7464243681,35.0013149798,100
                135.7464245203,35.0013613485,100
                135.746424648,35.0014003753,100
                135.7464247703,35.0014376327,100
                135.7464248899,35.0014740063,100
                135.7464249546,35.001493741,100
                135.7464249952,35.0015060656,100
                135.7464252654,35.0015883699,100
                135.7464239766,35.0015884567,100
                135.7464143154,35.0015891042,100
                135.7464136115,35.0016273472,100
                135.7464135272,35.0016319335,100
                135.7464110499,35.0017665791,100
                135.7462193291,35.0017661802,100
                135.746219225,35.001799986,100
                135.7462191555,35.0018225233,100
                135.7464108764,35.0018229222,100
                135.7464115082,35.0018679982,100
                135.7464091971,35.0019932876,100
                135.7465055808,35.0021068626,100
                135.7465213425,35.0021254348,100
                135.7465208319,35.0022913644,100
                135.7464023635,35.0022875267,100
                135.7463970614,35.0024461218,100
                135.7476295333,35.0024426911,100
                135.7476101984,35.0030401019,100
                135.7478584422,35.0030370934,100
                135.7478435489,35.0035964112,100
                135.7489008642,35.0036085183,100
                135.7493086221,35.003615272,100
                135.74938024,35.0036155603,100
                135.7493583803,35.0039781547,100
                135.7493598082,35.0040716595,100
                135.7493866596,35.0040724332,100
                135.7496988774,35.0040793826,100
                135.7497175405,35.004079785,100
                135.7497175949,35.0040618961,100
                135.7500008011,35.0040617617,100
                135.7500003064,35.0040313193,100
                135.7500450285,35.0040314108,100
                135.7500444953,35.0040097032,100
                135.7501017258,35.0040053832,100
                135.750168645,35.0040040927,100
                135.7501724582,35.003925972,100
                135.7501832537,35.0039261142,100
                135.7501929612,35.0039262425,100
                135.750207102,35.0039264287,100
                135.7502210676,35.0039266134,100
                135.7502310085,35.0039267442,100
                135.7502331978,35.0039267682,100
                135.7502345244,35.0039267745,100
                135.7504169405,35.0039271467,100
                135.7504311828,35.0038596342,100
                135.7505670254,35.0038637851,100
                135.7505687717,35.0039371759,100
                135.7506300781,35.0039649802,100
                135.7507053605,35.0039635139,100
                135.7507071807,35.004012395,100
                135.7507079542,35.0040175566,100
                135.7507092493,35.0040261973,100
                135.7507102341,35.0040327695,100
                135.7507102734,35.0040332021,100
                135.7507103347,35.004033879,100
                135.7507104974,35.0040356753,100
                135.7507106127,35.0040369548,100
                135.7507108928,35.0040400504,100
                135.7507110108,35.0040413514,100
                135.7507111711,35.0040431546,100
                135.7507112949,35.0040444913,100
                135.7507811336,35.0040453178,100
                135.750987369,35.0040477598,100
                135.7509890299,35.0040477771,100
                135.7509905658,35.0040477982,100
                135.7509906414,35.0040477987,100
                135.7509937046,35.004047805,100
                135.7509923407,35.0040227665,100
                135.7509847534,35.0039070354,100
                135.7510857476,35.0039154109,100
                135.7510893886,35.004013174,100
                135.7513711453,35.0040450182,100
                135.7515077188,35.0040481835,100
                135.7518163197,35.0040553611,100
                135.7518924508,35.0036591395,100
                135.7519104502,35.0035655063,100
                135.7519662715,35.0033896869,100
                135.7515831798,35.0033920776,100
                135.7515839707,35.0033433824,100
                135.7514569031,35.0033443769,100
                135.7514174674,35.0033446846,100
                135.7513378839,35.0033453068,100
                135.7513348458,35.0032632649,100
                135.7514476826,35.0032624341,100
                135.7514557518,35.0032623746,100
                135.7515840649,35.0032614277,100
                135.7515841173,35.0032537345,100
                135.7515851547,35.0031005366,100
                135.7515851681,35.0030857855,100
                135.7515852458,35.0030015925,100
                135.7515853751,35.0028626491,100
                135.7515080613,35.0028615505,100
                135.7515072491,35.0027804254,100
                135.7515072199,35.0027777099,100
                135.7515532325,35.0027778035,100
                135.7515538885,35.0025605449,100
                135.7516090517,35.0025609244,100
                135.7517077392,35.0025616037,100
                135.7517080398,35.0025375417,100
                135.7517105301,35.0024721207,100
                135.751726409,35.0024732672,100
                135.7518765078,35.0024742763,100
                135.7518776853,35.0021975622,100
                135.7516036229,35.0022042229,100
                135.7516033697,35.0021465584,100
                135.7516147368,35.0021466718,100
                135.751594933,35.0016435615,100
                135.7515934219,35.0016052042,100
                135.7516279836,35.0016051115,100
                135.7516281296,35.0015887414,100
                135.7516282187,35.0015786053,100
                135.7516283663,35.0015620531,100
                135.7516296448,35.0014176048,100
                135.7516558837,35.0014159111,100
                135.7518121605,35.0014190457,100
                135.7518762229,35.0013981873,100
                135.7518847477,35.0012808948,100
                135.7517483813,35.0012790151,100
                135.751749926,35.0011302716,100
                135.7516995284,35.0011310705,100
                135.7516978468,35.0010490809,100
                135.7516969806,35.0010354367,100
                135.7516384653,35.0010362895,100
                135.751637975,35.0010503287,100
                135.7516066528,35.0010509815,100
                135.7515571646,35.0010515967,100
                135.7515414451,35.001051792,100
                135.7515455722,35.0009529722,100
                135.7515471961,35.0009140986,100
                135.7515472963,35.0009117053,100
                135.7515491401,35.0008675295,100
                135.751594218,35.0008685912,100
                135.751599596,35.0007128841,100
                135.7515588066,35.0007123649,100
                135.7512693517,35.0007097623,100
                135.751274994,35.0005920161,100
                135.7515990348,35.0005935676,100
                135.7516108979,35.0005901065,100
                135.7516176697,35.0004371485,100
                135.7516584745,35.0004369492,100
                135.751665546,35.0001640507,100
                135.7518785268,35.0001582855,100
                135.751888502,35.0000080796,100
                135.7516964245,35.0000140281,100
                135.7517023842,34.9999326944,100
                135.751626318,34.9999325398,100
                135.7516267429,34.9997917526,100
                135.7516487468,34.9997931206,100
                135.751650044,34.9997405968,100
                135.7517886152,34.9997411435,100
                135.7517886023,34.9997152794,100
                135.7517885486,34.999611603,100
                135.7516666333,34.999612732,100
                135.7516654813,34.9995524384,100
                135.7515355389,34.9995511657,100
                135.7515357383,34.9995008356,100
                135.7515094458,34.9995007821,100
                135.7515106649,34.9994602173,100
                135.7516636702,34.9994572991,100
                135.7516592807,34.9992270469,100
                135.7517923986,34.9992241475,100
                135.7518194492,34.999080316,100
                135.7520844693,34.9991088137,100
                135.7520968294,34.999039959,100
                135.7521391897,34.9988000923,100
                135.7521741058,34.9986023273,100
                135.7518817156,34.9985827181,100
                135.7518785565,34.9985378488,100
                135.7513202176,34.9985010767,100
                135.7511948898,34.9984999914,100
                135.7510905194,34.9984990883,100
                135.7507782347,34.9984963803,100
                135.7507423381,34.9984967577,100
                135.7507420138,34.9984967554,100
                135.7507409678,34.9985878062,100
                135.7506355812,34.998586384,100
                135.7506298136,34.9985779719,100
                135.7506150743,34.9985564757,100
                135.7498884261,34.9985213261,100
                135.74985699,34.9985083028,100
                135.7496384565,34.9984978548,100
                135.7495639483,34.9984998145,100
                135.7495411884,34.9984998146,100
                135.749541641,34.9985051209,100
                135.7495405816,34.998564994,100
                135.7495403168,34.9985799421,100
                135.7494548621,34.998581296,100
                135.7494395253,34.9985815386,100
                135.7494383615,34.9986040736,100
                135.7494339381,34.9986175869,100
                135.7494324886,34.9986680686,100
                135.7494217342,34.9986680465,100
                135.7494206416,34.9987570289,100
                135.7494133453,34.9987570657,100
                135.7491835835,34.9987588481,100
              </coordinates>
            </LinearRing>
          </outerBoundaryIs>
        </Polygon>
      </Placemark>
    </Document>
  </Document>
</kml>
