<?xml version="1.0" encoding="UTF-8"?>
<kml xmlns="http://www.opengis.net/kml/2.2">
  <Document id="root_doc">
    <Document id="_4_12______disv4326">
      <name>24_12淳風disv4326</name>
      <Placemark id="_4_12______disv4326.1">
        <visibility>1</visibility>
        <Polygon>
          <extrude>0</extrude>
          <outerBoundaryIs>
            <LinearRing>
              <coordinates>
                135.7488142802,34.9908547848,100
                135.7488591948,34.9902902439,100
                135.7480668905,34.990276358,100
                135.7480636003,34.9903722751,100
                135.7475973233,34.9903730027,100
                135.7475969785,34.9903814535,100
                135.7475974399,34.9907405042,100
                135.7475878993,34.9915380987,100
                135.7475941815,34.9915581763,100
                135.747605123,34.9915931402,100
                135.7473196095,34.9915996628,100
                135.747293895,34.9915969861,100
                135.7472856036,34.9915970608,100
                135.7472873856,34.9917480456,100
                135.7472889692,34.9918826127,100
                135.7472892918,34.9919099846,100
                135.7472893971,34.9919188342,100
                135.7472904317,34.9920067142,100
                135.7471979386,34.9920173634,100
                135.7471994405,34.9921089568,100
                135.7471859238,34.9921086278,100
                135.7471861527,34.9921257911,100
                135.7471870193,34.9922006171,100
                135.7471870909,34.9922060414,100
                135.7470636066,34.9922090464,100
                135.7470601041,34.992426182,100
                135.7470597344,34.9924490588,100
                135.7470509293,34.9924491385,100
                135.7469621457,34.9924499482,100
                135.7469607441,34.9924011822,100
                135.7469004898,34.9924028604,100
                135.7469024759,34.9924563585,100
                135.746894921,34.9924566862,100
                135.7468983938,34.9926844612,100
                135.7468587867,34.9926929715,100
                135.746291957,34.9926939781,100
                135.7459581437,34.9926946225,100
                135.7459631664,34.9924113663,100
                135.7451124354,34.992407972,100
                135.7451127674,34.9925638336,100
                135.7451015448,34.9928241877,100
                135.7451004276,34.9928408485,100
                135.7450456557,34.9928407341,100
                135.7450456348,34.9928475096,100
                135.7450453479,34.9928949421,100
                135.745044976,34.9929270258,100
                135.7451374052,34.9929278037,100
                135.7451401631,34.9929487171,100
                135.745210777,34.9929636833,100
                135.7452924611,34.9929638527,100
                135.7454775723,34.9929642388,100
                135.7455228999,34.9929643333,100
                135.7459222871,34.9929651653,100
                135.7459218809,34.9930970618,100
                135.7461509845,34.9930988871,100
                135.7462917094,34.993108385,100
                135.7468552438,34.9930944827,100
                135.7468606075,34.9933337433,100
                135.7469641176,34.9934109368,100
                135.7469672927,34.9938198569,100
                135.7469747421,34.9939581255,100
                135.7475739934,34.9939502096,100
                135.747602869,34.9938823054,100
                135.7479349752,34.9939640548,100
                135.7479452102,34.9939826693,100
                135.7479612113,34.9940117896,100
                135.7479316868,34.9943752152,100
                135.7479879545,34.9943767404,100
                135.7479911677,34.9944516136,100
                135.747996141,34.994567762,100
                135.748026037,34.9945663441,100
                135.7480239574,34.9946719136,100
                135.7480503337,34.9946733777,100
                135.7480499057,34.9946887293,100
                135.7481247739,34.9946888837,100
                135.7481245316,34.9947682148,100
                135.7481239004,34.994815727,100
                135.7481364661,34.9948158217,100
                135.7481266169,34.9950279357,100
                135.7481178424,34.9950282313,100
                135.7481136121,34.9952208325,100
                135.7481630508,34.9952252823,100
                135.7481732503,34.9952970708,100
                135.7481728777,34.9955031462,100
                135.7480003806,34.995518427,100
                135.7479832303,34.9955923414,100
                135.747980456,34.995890463,100
                135.7479798152,34.9959125996,100
                135.7479687317,34.9962955482,100
                135.7479824689,34.9965263035,100
                135.7480145775,34.9965422163,100
                135.7480030836,34.9966137486,100
                135.7480003395,34.9966909029,100
                135.7479738429,34.9966910573,100
                135.7479817169,34.9971493197,100
                135.7479631225,34.9972271057,100
                135.7479801176,34.997378282,100
                135.747938761,34.9973774924,100
                135.747943425,34.997594565,100
                135.7479835835,34.9975953517,100
                135.7480120459,34.9981390542,100
                135.7480452594,34.9987734804,100
                135.7480529568,34.9988034276,100
                135.7482350312,34.9987928165,100
                135.7487613533,34.9987620651,100
                135.7489243365,34.9987608506,100
                135.7491835835,34.9987588481,100
                135.7494133453,34.9987570657,100
                135.7494206416,34.9987570289,100
                135.7494217342,34.9986680465,100
                135.7494324886,34.9986680686,100
                135.7494339381,34.9986175869,100
                135.7494383615,34.9986040736,100
                135.7494395253,34.9985815386,100
                135.7494548621,34.998581296,100
                135.7495403168,34.9985799421,100
                135.7495405816,34.998564994,100
                135.749541641,34.9985051209,100
                135.7495411884,34.9984998146,100
                135.7495639483,34.9984998145,100
                135.7496384565,34.9984978548,100
                135.7496361651,34.9975906499,100
                135.7496388763,34.9975906939,100
                135.7496338771,34.9972821208,100
                135.7496332824,34.9972707827,100
                135.7496293293,34.9971954284,100
                135.7496338612,34.9970307542,100
                135.7496356361,34.9969662209,100
                135.7496354747,34.9969491767,100
                135.7496307229,34.9968556759,100
                135.7496308514,34.9968292344,100
                135.7496322229,34.9965464443,100
                135.7496269116,34.9964021078,100
                135.7496287396,34.9963561712,100
                135.7496294869,34.9963373379,100
                135.7496297692,34.9961277309,100
                135.7496310862,34.9961172446,100
                135.7496418102,34.9960317291,100
                135.7496365432,34.9955619151,100
                135.7495757866,34.9955627117,100
                135.7495736422,34.995389542,100
                135.749549353,34.9953893964,100
                135.7495489348,34.9953868651,100
                135.7495477185,34.9953062403,100
                135.7495471131,34.9952660943,100
                135.7495379112,34.9952664507,100
                135.7495065737,34.9952677802,100
                135.7495061689,34.9952599568,100
                135.7494820146,34.9947947951,100
                135.7495914685,34.9947937671,100
                135.7495905597,34.9947117293,100
                135.7497054489,34.9947110639,100
                135.7497036466,34.994583047,100
                135.7497144404,34.9945829184,100
                135.749715175,34.9945257262,100
                135.7495495354,34.9945240481,100
                135.7495495709,34.99452427,100
                135.7495393803,34.9945241346,100
                135.749539584,34.9944989147,100
                135.7495395841,34.9944988723,100
                135.7495412401,34.9943435606,100
                135.7494572171,34.994342694,100
                135.7494571229,34.9942381699,100
                135.7494579929,34.9942233771,100
                135.7494608012,34.9941756053,100
                135.7494685639,34.9940435583,100
                135.7495343956,34.9940436057,100
                135.7495394773,34.9937495165,100
                135.7495428338,34.9935551552,100
                135.7494254606,34.9935515169,100
                135.7494253637,34.9931256303,100
                135.7495498369,34.993099333,100
                135.7495503681,34.9928967784,100
                135.7491764329,34.9929000258,100
                135.7491955719,34.9928748519,100
                135.7491941357,34.9927489205,100
                135.7492103901,34.9913658598,100
                135.7491317066,34.9913654187,100
                135.7491294366,34.9914058956,100
                135.7487939913,34.9913973677,100
                135.7487941806,34.9913635261,100
                135.7488142802,34.9908547848,100
              </coordinates>
            </LinearRing>
          </outerBoundaryIs>
        </Polygon>
      </Placemark>
    </Document>
  </Document>
</kml>
