<?xml version="1.0" encoding="UTF-8"?>
<kml xmlns="http://www.opengis.net/kml/2.2">
  <Document id="root_doc">
    <Document id="_4_19______disv4326">
      <name>24_19永松disv4326</name>
      <Placemark id="_4_19______disv4326.1">
        <visibility>1</visibility>
        <Polygon>
          <extrude>0</extrude>
          <outerBoundaryIs>
            <LinearRing>
              <coordinates>
                135.7684279081,34.9969179817,100
                135.7683984742,34.996842364,100
                135.768388646,34.9968171153,100
                135.7683133875,34.9966237681,100
                135.768168782,34.9962522627,100
                135.7680559666,34.995962423,100
                135.7679433977,34.9956732134,100
                135.767933927,34.9956745695,100
                135.7678991911,34.9956795394,100
                135.7674060689,34.995769525,100
                135.7675286083,34.9963506561,100
                135.7674586533,34.9963703845,100
                135.7675336846,34.996742392,100
                135.7675398835,34.9967724263,100
                135.7676705644,34.9974057399,100
                135.7676905939,34.9975028296,100
                135.7677096974,34.99759541,100
                135.7673550693,34.9976436835,100
                135.7673500275,34.9977487957,100
                135.7673483169,34.9977844581,100
                135.7673464304,34.9978569677,100
                135.7673714358,34.9978562686,100
                135.767437091,34.9978599149,100
                135.7674369384,34.9979139336,100
                135.7675195649,34.997915781,100
                135.7676372631,34.9979167799,100
                135.7676453205,34.9979984658,100
                135.7675171934,34.9979977563,100
                135.7672785068,34.9979946959,100
                135.7675418394,34.9987408986,100
                135.7675404914,34.998740896,100
                135.7673054283,34.9987426319,100
                135.7672672458,34.9987414357,100
                135.7672658763,34.99884339,100
                135.7672112648,34.9988426236,100
                135.7671547247,34.998841223,100
                135.7671554582,34.9989659837,100
                135.7671727368,34.9989658967,100
                135.7671740689,34.9990093076,100
                135.767175807,34.9991210112,100
                135.7670327652,34.9991302469,100
                135.7670108918,34.9991310372,100
                135.7670093875,34.9992752727,100
                135.7670602347,34.999275868,100
                135.7671014076,34.9992763486,100
                135.7671030956,34.9992986872,100
                135.767103519,34.9993042986,100
                135.7671845855,34.9993044529,100
                135.7671855436,34.9993531354,100
                135.7672139228,34.9993533732,100
                135.7672147058,34.9993550506,100
                135.7672592564,34.9993547133,100
                135.7672730603,34.9997089965,100
                135.7675185875,34.9997161539,100
                135.767534511,34.9999572617,100
                135.7676082786,35.0000947931,100
                135.7676628139,35.000196471,100
                135.7678890575,35.0006017331,100
                135.7679291221,35.0006734974,100
                135.7678880835,35.0006891252,100
                135.767947569,35.0008058269,100
                135.7679582611,35.0008268058,100
                135.7680131827,35.0009346666,100
                135.7678214103,35.000946347,100
                135.7675191251,35.0009647887,100
                135.7672036146,35.0009839797,100
                135.7672080116,35.0010712495,100
                135.7675272866,35.0010603052,100
                135.7677317758,35.0010533687,100
                135.7677298373,35.0014216381,100
                135.7677298844,35.0014231849,100
                135.7677299752,35.0014263411,100
                135.7677310096,35.0014616439,100
                135.7677383901,35.0017123143,100
                135.7677503777,35.0021199787,100
                135.7676071353,35.0021304122,100
                135.7676301251,35.0024227367,100
                135.7679790154,35.0023953112,100
                135.7679811153,35.0025317755,100
                135.7679844542,35.0027487604,100
                135.768559692,35.0027228037,100
                135.7688269804,35.0027323232,100
                135.7692032157,35.0027159403,100
                135.7691793366,35.003324759,100
                135.7688145404,35.0033202688,100
                135.7685806229,35.0033351093,100
                135.7676150281,35.003396739,100
                135.7676232647,35.0037083327,100
                135.7668689534,35.0036926024,100
                135.7668646197,35.0037792923,100
                135.7670289538,35.0037796048,100
                135.7670287306,35.0038584849,100
                135.7671926445,35.003856332,100
                135.7671927301,35.003924437,100
                135.7672159068,35.0039234246,100
                135.7672159745,35.0038994783,100
                135.7672795076,35.0038908663,100
                135.7672794214,35.0039213614,100
                135.7673720741,35.0039215373,100
                135.7673852534,35.0039368454,100
                135.7677091991,35.0039356292,100
                135.7677092566,35.0039152753,100
                135.7677198482,35.003915436,100
                135.7677182694,35.0039595917,100
                135.7678298437,35.0039571273,100
                135.7678296905,35.0040571357,100
                135.767936195,35.0040545202,100
                135.7680415856,35.004051973,100
                135.7681648048,35.0040634748,100
                135.7686936011,35.0040745452,100
                135.768698671,35.0041433638,100
                135.7689420868,35.0041380481,100
                135.7689836908,35.004105588,100
                135.7689875561,35.0040240385,100
                135.7689870752,35.0040045101,100
                135.7689847244,35.0039090653,100
                135.7689861925,35.003908082,100
                135.7690088724,35.0038928838,100
                135.7690236714,35.0038932016,100
                135.7690237503,35.0038932037,100
                135.7690244678,35.0038932186,100
                135.7690280359,35.003896075,100
                135.7691966271,35.0040266861,100
                135.7691987438,35.0039203429,100
                135.7693323432,35.0039234116,100
                135.7696170635,35.0039309894,100
                135.7696186318,35.004020578,100
                135.7699046981,35.0040361871,100
                135.7699285393,35.0040352459,100
                135.7699256475,35.0041201777,100
                135.7699030942,35.0041201354,100
                135.7698879704,35.0043945685,100
                135.7698977285,35.0043945885,100
                135.7698936806,35.0044569798,100
                135.7698929206,35.0044685986,100
                135.7698947392,35.004468673,100
                135.7699722094,35.0044726915,100
                135.7699793383,35.0043948104,100
                135.7699850944,35.0043948212,100
                135.770026713,35.0043949698,100
                135.770324668,35.0043995428,100
                135.7703899657,35.004410159,100
                135.7704047973,35.0042936974,100
                135.7704773705,35.0042967918,100
                135.77047398,35.0040851461,100
                135.7708222598,35.0040745291,100
                135.77080885,35.003918504,100
                135.7709330284,35.0038929591,100
                135.7709151485,35.0037897474,100
                135.770992006,35.0037907367,100
                135.7715632798,35.0038077191,100
                135.7714994433,35.0035171514,100
                135.7714164622,35.0032553534,100
                135.7711909145,35.0026528375,100
                135.7710558696,35.0023541089,100
                135.770957903,35.0021737682,100
                135.7705895117,35.0015604161,100
                135.7705701176,35.0015281271,100
                135.7703831437,35.0012385477,100
                135.7703398316,35.0011714668,100
                135.7700952798,35.0006515254,100
                135.7700248288,35.0005017352,100
                135.769993032,35.0004341327,100
                135.7696276902,34.9996536768,100
                135.7696215726,34.9996406189,100
                135.7696213324,34.9996401733,100
                135.7694910351,34.9993635241,100
                135.7694440333,34.9992637573,100
                135.7694128839,34.9991976364,100
                135.7694106266,34.9991928463,100
                135.7693578951,34.9990791672,100
                135.769345523,34.999052497,100
                135.7692628038,34.9988741699,100
                135.7692361983,34.9988168127,100
                135.7692277974,34.9987987049,100
                135.7690178414,34.9983104949,100
                135.7690161758,34.9983065554,100
                135.7689490045,34.998147748,100
                135.7688222299,34.9978480213,100
                135.7687853407,34.997760808,100
                135.7687397087,34.997652921,100
                135.768733204,34.9976375425,100
                135.7686475142,34.9974417863,100
                135.7685086077,34.9971244587,100
                135.768488957,34.9970742293,100
                135.7684434268,34.9969578535,100
                135.7684279081,34.9969179817,100
              </coordinates>
            </LinearRing>
          </outerBoundaryIs>
        </Polygon>
      </Placemark>
    </Document>
  </Document>
</kml>
