<?xml version="1.0" encoding="UTF-8"?>
<kml xmlns="http://www.opengis.net/kml/2.2">
  <Document id="root_doc">
    <Document id="_4_17______disv4326">
      <name>24_17豊園disv4326</name>
      <Placemark id="_4_17______disv4326.1">
        <visibility>1</visibility>
        <Polygon>
          <extrude>0</extrude>
          <outerBoundaryIs>
            <LinearRing>
              <coordinates>
                135.7596876829,35.0001633233,100
                135.7596835086,35.0003758706,100
                135.7596789541,35.0006089131,100
                135.7601635291,35.0006169765,100
                135.7601825124,35.0007618866,100
                135.7602660905,35.0007620503,100
                135.7602745673,35.000928561,100
                135.760106138,35.0009336546,100
                135.7601016295,35.0010265419,100
                135.7599172516,35.0010296684,100
                135.7599165601,35.001072477,100
                135.7598637641,35.00107278,100
                135.7598390788,35.001072922,100
                135.7598389145,35.0012865142,100
                135.7598293434,35.0013372342,100
                135.7598340563,35.0015764217,100
                135.7599367371,35.0015705661,100
                135.7599364288,35.001676068,100
                135.7599877522,35.0016716611,100
                135.7599869323,35.0017108187,100
                135.7599850397,35.001801809,100
                135.7600932765,35.0017985002,100
                135.7600979841,35.0019523268,100
                135.7601042757,35.002157922,100
                135.7601012864,35.0024935377,100
                135.7597980217,35.0024929444,100
                135.7597955502,35.0027447664,100
                135.7600391041,35.0027419336,100
                135.7600634951,35.0027941694,100
                135.7601720873,35.0027573363,100
                135.7601777179,35.0029177851,100
                135.7601787576,35.0029819575,100
                135.7601494208,35.002982448,100
                135.760137791,35.0029825172,100
                135.7598272289,35.0029843219,100
                135.7598255811,35.0031799375,100
                135.7598206076,35.0033662126,100
                135.759669878,35.0033677482,100
                135.7596680919,35.0036786902,100
                135.7596678683,35.00437749,100
                135.7603517826,35.0043797445,100
                135.7603502713,35.0041863427,100
                135.7604058776,35.0042031437,100
                135.7607861667,35.0041790956,100
                135.7607850604,35.0040603486,100
                135.7608212072,35.0040601803,100
                135.7608224571,35.0040069944,100
                135.7608542287,35.0040070564,100
                135.760855497,35.0039475604,100
                135.760906986,35.0039485622,100
                135.7609070571,35.0039241058,100
                135.7610850921,35.0039223303,100
                135.7610845252,35.0041174881,100
                135.7610847636,35.0041588014,100
                135.7614675073,35.0041563359,100
                135.7614668235,35.0042120452,100
                135.7621909254,35.0042130295,100
                135.762575214,35.004211944,100
                135.7625778789,35.0040448201,100
                135.7628924344,35.004042119,100
                135.7628920772,35.0041660737,100
                135.7629331609,35.0041661532,100
                135.7629333408,35.0042675715,100
                135.7631429678,35.0042625544,100
                135.7631432314,35.0041709964,100
                135.7636274296,35.0041762985,100
                135.7639787976,35.0041783837,100
                135.7639819542,35.0036822169,100
                135.7639820056,35.0034512869,100
                135.7639820317,35.0033272541,100
                135.7639820451,35.0033004184,100
                135.7639835811,35.0031270321,100
                135.7642612709,35.0031278055,100
                135.7644765092,35.0031271664,100
                135.7645013414,35.0031270925,100
                135.7645237368,35.0031270255,100
                135.7645273554,35.0029743974,100
                135.7643311724,35.0029704982,100
                135.7643316081,35.0028035129,100
                135.764255519,35.0028033665,100
                135.764258203,35.0027254739,100
                135.7641448206,35.002726103,100
                135.7641448683,35.0026999041,100
                135.7641469106,35.0025329202,100
                135.7639734259,35.0025306856,100
                135.7639711388,35.0023816963,100
                135.7639708119,35.002360453,100
                135.7639757888,35.0023269379,100
                135.7641931689,35.002322448,100
                135.7642254398,35.0023225811,100
                135.7642237084,35.0022673966,100
                135.7642894433,35.0022666208,100
                135.7642884883,35.0022179393,100
                135.7644224282,35.0022161127,100
                135.764424374,35.0022161374,100
                135.7644243946,35.0022035653,100
                135.7644235649,35.0021792657,100
                135.764422747,35.0021550085,100
                135.7644207491,35.0020957821,100
                135.7644168789,35.0019810661,100
                135.7644165382,35.0019352283,100
                135.7644165199,35.0019327412,100
                135.7644163227,35.0019063388,100
                135.7644162116,35.0018916756,100
                135.7643970847,35.0018913433,100
                135.764396062,35.0017152512,100
                135.7643953371,35.0017103654,100
                135.7643951137,35.0016840245,100
                135.7643964079,35.0016411924,100
                135.764207487,35.0016399292,100
                135.7642067064,35.0015961891,100
                135.764204884,35.0015732119,100
                135.7641359266,35.0015730791,100
                135.7641356398,35.0015611898,100
                135.764068878,35.0015595096,100
                135.7640692838,35.001487309,100
                135.7639855484,35.0014881051,100
                135.7639916941,35.0011913009,100
                135.7639917321,35.001180391,100
                135.7639921868,35.0010562195,100
                135.7643447725,35.0010620389,100
                135.7643540759,35.0003963665,100
                135.7643548918,35.0003379786,100
                135.7642336759,35.0003387306,100
                135.7642332362,35.0000671554,100
                135.7642329788,34.999910168,100
                135.764342725,34.9999093229,100
                135.7643374561,34.9998740988,100
                135.7643910509,34.9998532846,100
                135.7643842833,34.9992799093,100
                135.7643841811,34.9992712457,100
                135.7641927737,34.9992716946,100
                135.7641929944,34.9992248031,100
                135.7640702526,34.9992243194,100
                135.7640377454,34.9992209961,100
                135.7639663331,34.9992617771,100
                135.7637120145,34.9992612862,100
                135.7636650715,34.9992611955,100
                135.7633424288,34.9992628961,100
                135.7629890789,34.9992575638,100
                135.7626454751,34.9992568977,100
                135.7626052304,34.9992411139,100
                135.7625036836,34.9992404662,100
                135.7625027303,34.9992931773,100
                135.76250238,34.9993125831,100
                135.7623580886,34.9993106512,100
                135.762251858,34.9993090296,100
                135.7620216319,34.9993055106,100
                135.7620218335,34.9992857595,100
                135.7620266619,34.9991323742,100
                135.7619128271,34.9991270818,100
                135.761890506,34.9992761375,100
                135.7617410494,34.9992695783,100
                135.7616136708,34.9992639066,100
                135.7615489754,34.9992610338,100
                135.7615579306,34.9991162417,100
                135.7614173017,34.9991175522,100
                135.7614131061,34.9990695999,100
                135.7613550023,34.9990678485,100
                135.7613520287,34.9989069379,100
                135.7610835371,34.998893407,100
                135.7606835882,34.9988732522,100
                135.7606578724,34.9988719336,100
                135.7602750486,34.9988714651,100
                135.7597067403,34.998877957,100
                135.7596876829,35.0001633233,100
              </coordinates>
            </LinearRing>
          </outerBoundaryIs>
        </Polygon>
      </Placemark>
    </Document>
  </Document>
</kml>
