<?xml version="1.0" encoding="UTF-8"?>
<kml xmlns="http://www.opengis.net/kml/2.2">
  <Document id="root_doc">
    <Document id="_4_18______disv4326">
      <name>24_18開智disv4326</name>
      <Placemark id="_4_18______disv4326.1">
        <visibility>1</visibility>
        <Polygon>
          <extrude>0</extrude>
          <outerBoundaryIs>
            <LinearRing>
              <coordinates>
                135.765647981,34.9992962805,100
                135.7656467124,34.9992158487,100
                135.765543561,34.9992158613,100
                135.7654999771,34.9992155676,100
                135.7654921787,34.999158575,100
                135.7653971587,34.9991583928,100
                135.7653777413,34.9993042141,100
                135.7651370069,34.9993125553,100
                135.7651371411,34.9992655805,100
                135.7647295732,34.9992683179,100
                135.7647189888,34.9992804119,100
                135.7643842833,34.9992799093,100
                135.7643910509,34.9998532846,100
                135.7643374561,34.9998740988,100
                135.764342725,34.9999093229,100
                135.7642329788,34.999910168,100
                135.7642332362,35.0000671554,100
                135.7642336759,35.0003387306,100
                135.7643548918,35.0003379786,100
                135.7643540759,35.0003963665,100
                135.7643447725,35.0010620389,100
                135.7639921868,35.0010562195,100
                135.7639917321,35.001180391,100
                135.7639916941,35.0011913009,100
                135.7639855484,35.0014881051,100
                135.7640692838,35.001487309,100
                135.764068878,35.0015595096,100
                135.7641356398,35.0015611898,100
                135.7641359266,35.0015730791,100
                135.764204884,35.0015732119,100
                135.7642067064,35.0015961891,100
                135.764207487,35.0016399292,100
                135.7643964079,35.0016411924,100
                135.7643951137,35.0016840245,100
                135.7643953371,35.0017103654,100
                135.764396062,35.0017152512,100
                135.7643970847,35.0018913433,100
                135.7644162116,35.0018916756,100
                135.7644163227,35.0019063388,100
                135.7644165199,35.0019327412,100
                135.7644165382,35.0019352283,100
                135.7644168789,35.0019810661,100
                135.7644207491,35.0020957821,100
                135.764422747,35.0021550085,100
                135.7644235649,35.0021792657,100
                135.7644243946,35.0022035653,100
                135.764424374,35.0022161374,100
                135.7644224282,35.0022161127,100
                135.7642884883,35.0022179393,100
                135.7642894433,35.0022666208,100
                135.7642237084,35.0022673966,100
                135.7642254398,35.0023225811,100
                135.7641931689,35.002322448,100
                135.7639757888,35.0023269379,100
                135.7639708119,35.002360453,100
                135.7639711388,35.0023816963,100
                135.7639734259,35.0025306856,100
                135.7641469106,35.0025329202,100
                135.7641448683,35.0026999041,100
                135.7641448206,35.002726103,100
                135.764258203,35.0027254739,100
                135.764255519,35.0028033665,100
                135.7643316081,35.0028035129,100
                135.7643311724,35.0029704982,100
                135.7645273554,35.0029743974,100
                135.7645237368,35.0031270255,100
                135.7645013414,35.0031270925,100
                135.7644765092,35.0031271664,100
                135.7642612709,35.0031278055,100
                135.7639835811,35.0031270321,100
                135.7639820451,35.0033004184,100
                135.7639820317,35.0033272541,100
                135.7639820056,35.0034512869,100
                135.7639819542,35.0036822169,100
                135.7639787976,35.0041783837,100
                135.7644389703,35.0041749734,100
                135.7648990677,35.0041747301,100
                135.7652449261,35.0041804639,100
                135.7659604534,35.0041792964,100
                135.7661194571,35.0041807268,100
                135.7661183196,35.0040538819,100
                135.7663496012,35.0040493226,100
                135.7665504521,35.0040453387,100
                135.7665942346,35.0040444366,100
                135.7666024904,35.0040445883,100
                135.7666006175,35.0039622432,100
                135.7666760376,35.0039622058,100
                135.7666783137,35.0038232382,100
                135.7666784162,35.0038170406,100
                135.7667639727,35.0038146675,100
                135.7667644666,35.0037833281,100
                135.7667630384,35.003690781,100
                135.7667659485,35.0036907865,100
                135.7668689534,35.0036926024,100
                135.7676232647,35.0037083327,100
                135.7676150281,35.003396739,100
                135.7685806229,35.0033351093,100
                135.7688145404,35.0033202688,100
                135.7691793366,35.003324759,100
                135.7692032157,35.0027159403,100
                135.7688269804,35.0027323232,100
                135.768559692,35.0027228037,100
                135.7679844542,35.0027487604,100
                135.7679811153,35.0025317755,100
                135.7679790154,35.0023953112,100
                135.7676301251,35.0024227367,100
                135.7676071353,35.0021304122,100
                135.7677503777,35.0021199787,100
                135.7677383901,35.0017123143,100
                135.7677310096,35.0014616439,100
                135.7677299752,35.0014263411,100
                135.7677298844,35.0014231849,100
                135.7677298373,35.0014216381,100
                135.7677317758,35.0010533687,100
                135.7675272866,35.0010603052,100
                135.7672080116,35.0010712495,100
                135.7672036146,35.0009839797,100
                135.7675191251,35.0009647887,100
                135.7678214103,35.000946347,100
                135.7680131827,35.0009346666,100
                135.7679582611,35.0008268058,100
                135.767947569,35.0008058269,100
                135.7678880835,35.0006891252,100
                135.7679291221,35.0006734974,100
                135.7678890575,35.0006017331,100
                135.7676628139,35.000196471,100
                135.7676082786,35.0000947931,100
                135.767534511,34.9999572617,100
                135.7675185875,34.9997161539,100
                135.7672730603,34.9997089965,100
                135.7672592564,34.9993547133,100
                135.7672147058,34.9993550506,100
                135.7672139228,34.9993533732,100
                135.7671855436,34.9993531354,100
                135.7671845855,34.9993044529,100
                135.767103519,34.9993042986,100
                135.7671030956,34.9992986872,100
                135.7671014076,34.9992763486,100
                135.7670602347,34.999275868,100
                135.7670093875,34.9992752727,100
                135.7670108918,34.9991310372,100
                135.7670327652,34.9991302469,100
                135.767175807,34.9991210112,100
                135.7671740689,34.9990093076,100
                135.7669006411,34.9990096327,100
                135.766681985,34.9990044967,100
                135.7665530003,34.9990066458,100
                135.766555964,34.9991613833,100
                135.7664951865,34.9991649302,100
                135.7664943887,34.9992955034,100
                135.7662216057,34.9993022368,100
                135.7662219138,34.9991937773,100
                135.7661314974,34.9991924072,100
                135.7660956662,34.9991921555,100
                135.7660958023,34.9992240326,100
                135.7660632376,34.9992239703,100
                135.766060052,34.9992983372,100
                135.7658817033,34.999293558,100
                135.765647981,34.9992962805,100
              </coordinates>
            </LinearRing>
          </outerBoundaryIs>
        </Polygon>
      </Placemark>
    </Document>
  </Document>
</kml>
