<?xml version="1.0" encoding="UTF-8"?>
<kml xmlns="http://www.opengis.net/kml/2.2">
  <Document id="root_doc">
    <Document id="_4_11______disv4326">
      <name>24_11光徳disv4326</name>
      <Placemark id="_4_11______disv4326.1">
        <visibility>1</visibility>
        <Polygon>
          <extrude>0</extrude>
          <outerBoundaryIs>
            <LinearRing>
              <coordinates>
                135.7379282765,34.9936587934,100
                135.7371677536,34.993643776,100
                135.7371676514,34.9938711214,100
                135.7371587876,34.9938730033,100
                135.7363147289,34.9938868184,100
                135.7362836516,34.994153379,100
                135.7362731102,34.9942438031,100
                135.7362748451,34.994424739,100
                135.7362393302,34.9951894511,100
                135.7362605234,34.9953665559,100
                135.7362753421,34.9956039349,100
                135.7362624905,34.9958427324,100
                135.7362813191,34.9960038441,100
                135.7362759007,34.9962401228,100
                135.7362473926,34.9972486069,100
                135.7360922633,34.9975913317,100
                135.7360466957,34.9976963128,100
                135.7361348448,34.9982539508,100
                135.7363303295,34.998708712,100
                135.7368483846,34.9987098311,100
                135.7371633434,34.9987105101,100
                135.7374509144,34.9987111296,100
                135.7378079605,34.9987118979,100
                135.7382451722,34.9987155141,100
                135.7390560254,34.9987222525,100
                135.7393407347,34.9987281438,100
                135.7395006877,34.9987314412,100
                135.7395016983,34.9987184861,100
                135.7395008641,34.9985700564,100
                135.7395006265,34.9985278556,100
                135.7394997791,34.9983771678,100
                135.739499191,34.9982726139,100
                135.7394990071,34.9982397792,100
                135.7394984343,34.9981381849,100
                135.7394978465,34.9980335402,100
                135.739497826,34.9980297447,100
                135.7395098605,34.9980297011,100
                135.7395702346,34.9980294256,100
                135.7399361626,34.9980277541,100
                135.7401449333,34.9980268,100
                135.7401559968,34.9980267498,100
                135.7405023686,34.9980251648,100
                135.7407111386,34.9980242091,100
                135.7407532013,34.9980243651,100
                135.7407531848,34.9980297073,100
                135.7407510127,34.9987572083,100
                135.7410248156,34.9987613116,100
                135.7411373356,34.9987629594,100
                135.7412027201,34.9987642952,100
                135.7415735467,34.9987718428,100
                135.7419344456,34.9987791577,100
                135.7426788839,34.998806296,100
                135.7431477883,34.998829188,100
                135.7436353315,34.9988241571,100
                135.7438249115,34.9988088497,100
                135.7444299813,34.9987849062,100
                135.7460651795,34.9988024079,100
                135.7464272385,34.9988083026,100
                135.7480529568,34.9988034276,100
                135.7480452594,34.9987734804,100
                135.7480120459,34.9981390542,100
                135.7479835835,34.9975953517,100
                135.747943425,34.997594565,100
                135.747938761,34.9973774924,100
                135.7479801176,34.997378282,100
                135.7479631225,34.9972271057,100
                135.7479817169,34.9971493197,100
                135.7479738429,34.9966910573,100
                135.7480003395,34.9966909029,100
                135.7480030836,34.9966137486,100
                135.7480145775,34.9965422163,100
                135.7479824689,34.9965263035,100
                135.7479687317,34.9962955482,100
                135.7479798152,34.9959125996,100
                135.747980456,34.995890463,100
                135.7479832303,34.9955923414,100
                135.7480003806,34.995518427,100
                135.7481728777,34.9955031462,100
                135.7481732503,34.9952970708,100
                135.7481630508,34.9952252823,100
                135.7481136121,34.9952208325,100
                135.7481178424,34.9950282313,100
                135.7481266169,34.9950279357,100
                135.7481364661,34.9948158217,100
                135.7481239004,34.994815727,100
                135.7481245316,34.9947682148,100
                135.7481247739,34.9946888837,100
                135.7480499057,34.9946887293,100
                135.7480503337,34.9946733777,100
                135.7480239574,34.9946719136,100
                135.748026037,34.9945663441,100
                135.747996141,34.994567762,100
                135.7479911677,34.9944516136,100
                135.7479879545,34.9943767404,100
                135.7479316868,34.9943752152,100
                135.7479612113,34.9940117896,100
                135.7479452102,34.9939826693,100
                135.7479349752,34.9939640548,100
                135.747602869,34.9938823054,100
                135.7475739934,34.9939502096,100
                135.7469747421,34.9939581255,100
                135.7469672927,34.9938198569,100
                135.7469641176,34.9934109368,100
                135.7468606075,34.9933337433,100
                135.7468552438,34.9930944827,100
                135.7462917094,34.993108385,100
                135.7461509845,34.9930988871,100
                135.7459218809,34.9930970618,100
                135.7459222871,34.9929651653,100
                135.7455228999,34.9929643333,100
                135.7454775723,34.9929642388,100
                135.7452924611,34.9929638527,100
                135.745210777,34.9929636833,100
                135.7451401631,34.9929487171,100
                135.7451374052,34.9929278037,100
                135.745044976,34.9929270258,100
                135.7450434252,34.9930607278,100
                135.7450481791,34.9931788996,100
                135.7449994548,34.9931811924,100
                135.7449831179,34.9936909967,100
                135.7445776088,34.9936766966,100
                135.7445777667,34.9936805706,100
                135.7443487138,34.9936709345,100
                135.7437001457,34.9936516856,100
                135.7433824042,34.993649891,100
                135.7428589275,34.9936468869,100
                135.7428134464,34.9936469324,100
                135.7428117843,34.9938490027,100
                135.7426544445,34.9938480245,100
                135.7414895575,34.9938550712,100
                135.7408688571,34.9938593889,100
                135.7408108901,34.9939089173,100
                135.740771014,34.9940645516,100
                135.7392446707,34.9940764413,100
                135.7392348366,34.9938572448,100
                135.7392269604,34.9936813663,100
                135.7379282765,34.9936587934,100
              </coordinates>
            </LinearRing>
          </outerBoundaryIs>
        </Polygon>
      </Placemark>
    </Document>
  </Document>
</kml>
