<?xml version="1.0" encoding="UTF-8"?>
<kml xmlns="http://www.opengis.net/kml/2.2">
  <Document id="root_doc">
    <Document id="_4_13______disv4326">
      <name>24_13醒泉disv4326</name>
      <Placemark id="_4_13______disv4326.1">
        <visibility>1</visibility>
        <Polygon>
          <extrude>0</extrude>
          <outerBoundaryIs>
            <LinearRing>
              <coordinates>
                135.7523125327,34.9937279125,100
                135.752328653,34.9934977829,100
                135.7522457536,34.9933745741,100
                135.7522471955,34.9932928079,100
                135.752156906,34.9932788911,100
                135.752160015,34.9929142144,100
                135.7507176223,34.9929045188,100
                135.7495503681,34.9928967784,100
                135.7495498369,34.993099333,100
                135.7494253637,34.9931256303,100
                135.7494254606,34.9935515169,100
                135.7495428338,34.9935551552,100
                135.7495394773,34.9937495165,100
                135.7495343956,34.9940436057,100
                135.7494685639,34.9940435583,100
                135.7494608012,34.9941756053,100
                135.7494579929,34.9942233771,100
                135.7494571229,34.9942381699,100
                135.7494572171,34.994342694,100
                135.7495412401,34.9943435606,100
                135.7495395841,34.9944988723,100
                135.749539584,34.9944989147,100
                135.7495393803,34.9945241346,100
                135.7495495709,34.99452427,100
                135.7495495354,34.9945240481,100
                135.749715175,34.9945257262,100
                135.7497144404,34.9945829184,100
                135.7497036466,34.994583047,100
                135.7497054489,34.9947110639,100
                135.7495905597,34.9947117293,100
                135.7495914685,34.9947937671,100
                135.7494820146,34.9947947951,100
                135.7495061689,34.9952599568,100
                135.7495065737,34.9952677802,100
                135.7495379112,34.9952664507,100
                135.7495471131,34.9952660943,100
                135.7495477185,34.9953062403,100
                135.7495489348,34.9953868651,100
                135.749549353,34.9953893964,100
                135.7495736422,34.995389542,100
                135.7495757866,34.9955627117,100
                135.7496365432,34.9955619151,100
                135.7496418102,34.9960317291,100
                135.7496310862,34.9961172446,100
                135.7496297692,34.9961277309,100
                135.7496294869,34.9963373379,100
                135.7496287396,34.9963561712,100
                135.7496269116,34.9964021078,100
                135.7496322229,34.9965464443,100
                135.7496308514,34.9968292344,100
                135.7496307229,34.9968556759,100
                135.7496354747,34.9969491767,100
                135.7496356361,34.9969662209,100
                135.7496338612,34.9970307542,100
                135.7496293293,34.9971954284,100
                135.7496332824,34.9972707827,100
                135.7496338771,34.9972821208,100
                135.7496388763,34.9975906939,100
                135.7496361651,34.9975906499,100
                135.7496384565,34.9984978548,100
                135.74985699,34.9985083028,100
                135.7498884261,34.9985213261,100
                135.7506150743,34.9985564757,100
                135.7506298136,34.9985779719,100
                135.7506355812,34.998586384,100
                135.7507409678,34.9985878062,100
                135.7507420138,34.9984967554,100
                135.7507423381,34.9984967577,100
                135.7507782347,34.9984963803,100
                135.7510905194,34.9984990883,100
                135.7511948898,34.9984999914,100
                135.7513202176,34.9985010767,100
                135.7518785565,34.9985378488,100
                135.7518817156,34.9985827181,100
                135.7521741058,34.9986023273,100
                135.7521391897,34.9988000923,100
                135.7520968294,34.999039959,100
                135.7523569765,34.9990437399,100
                135.7523921598,34.9988634148,100
                135.7525247044,34.9988672884,100
                135.7525277224,34.9989565427,100
                135.7525256206,34.9991286714,100
                135.752525295,34.9991553497,100
                135.7525884773,34.9991540927,100
                135.7525889815,34.9989864159,100
                135.7527424297,34.9989873818,100
                135.7527356691,34.999189789,100
                135.7530553343,34.9991836037,100
                135.7530536837,34.9992485367,100
                135.7532544162,34.9992453497,100
                135.7532567911,34.9991464019,100
                135.7533231958,34.9991499859,100
                135.7533228629,34.9991196346,100
                135.7533915891,34.9991205579,100
                135.7533950197,34.9990436869,100
                135.7533959876,34.9988662334,100
                135.7534112345,34.9988667561,100
                135.7534319691,34.9988667979,100
                135.753679314,34.9988625064,100
                135.7538769344,34.9988590766,100
                135.7538791587,34.9989798453,100
                135.7538787858,34.9990432413,100
                135.7538784836,34.999094396,100
                135.7539481832,34.9990955911,100
                135.753948027,34.9991478224,100
                135.7539018441,34.9991471627,100
                135.7538781756,34.9991468245,100
                135.7538776513,34.9992360282,100
                135.7540960417,34.9992390109,100
                135.7540959018,34.9992330302,100
                135.7541172678,34.9990929888,100
                135.7543665923,34.9990903208,100
                135.7543933615,34.9991826369,100
                135.7547748049,34.9991811491,100
                135.7549209743,34.9991806104,100
                135.7549208603,34.9991416638,100
                135.7549500865,34.9991395551,100
                135.7549587995,34.999138926,100
                135.7550196516,34.9991371993,100
                135.7550165943,34.9990172229,100
                135.7551838782,34.9990152504,100
                135.7551833712,34.999002937,100
                135.7551818207,34.9988699634,100
                135.7551816565,34.998658958,100
                135.7551831115,34.9985886417,100
                135.7551838221,34.9985543402,100
                135.7553057462,34.9985546884,100
                135.7554585152,34.9985557694,100
                135.7555587569,34.9985559699,100
                135.7556312051,34.9985561148,100
                135.7556286544,34.9984610335,100
                135.7556198984,34.998134573,100
                135.7555927503,34.9981330391,100
                135.7552755609,34.9981356447,100
                135.7552113116,34.9981345295,100
                135.7551941004,34.9980727995,100
                135.7551987058,34.997639809,100
                135.7552016165,34.9974093008,100
                135.7554756491,34.9974074515,100
                135.7554751752,34.997304626,100
                135.7556266988,34.9973037554,100
                135.7556251654,34.9971400515,100
                135.7556058852,34.9970324675,100
                135.755608623,34.9967520934,100
                135.7555075933,34.9967509053,100
                135.7554576276,34.9967029134,100
                135.7551870451,34.9967057523,100
                135.7551873529,34.9962783885,100
                135.7555797329,34.9962717083,100
                135.7555838564,34.996043103,100
                135.7555718397,34.9959258285,100
                135.7555647228,34.9959255177,100
                135.7554080657,34.9959270074,100
                135.7554061887,34.9958215286,100
                135.755406128,34.9958188918,100
                135.7551783212,34.9958191009,100
                135.7551743708,34.9952415726,100
                135.7555632447,34.9952324199,100
                135.7555635657,34.9952104466,100
                135.7555701914,34.9947523875,100
                135.7555707234,34.9947154462,100
                135.7555715124,34.9946606207,100
                135.7555848289,34.9941609511,100
                135.7551753987,34.9941628783,100
                135.7550229742,34.9941618328,100
                135.7550159854,34.9941617847,100
                135.7547700045,34.9941602354,100
                135.7544212444,34.994157562,100
                135.7544212868,34.9941579142,100
                135.7540726348,34.9941557483,100
                135.7540525194,34.9941556231,100
                135.7537422384,34.9941571111,100
                135.7534648834,34.9941584535,100
                135.753410006,34.9941586526,100
                135.7531720894,34.9941595121,100
                135.7531396909,34.9941596287,100
                135.7529744718,34.9941602099,100
                135.7523053268,34.9941532915,100
                135.7523125327,34.9937279125,100
              </coordinates>
            </LinearRing>
          </outerBoundaryIs>
        </Polygon>
      </Placemark>
    </Document>
  </Document>
</kml>
