<?xml version="1.0" encoding="UTF-8"?>
<kml xmlns="http://www.opengis.net/kml/2.2">
  <Document id="root_doc">
    <Document id="_4_20______disv4326">
      <name>24_20有隣disv4326</name>
      <Placemark id="_4_20______disv4326.1">
        <visibility>1</visibility>
        <Polygon>
          <extrude>0</extrude>
          <outerBoundaryIs>
            <LinearRing>
              <coordinates>
                135.7644219028,34.9960442582,100
                135.7634107392,34.9960830131,100
                135.7625777775,34.9961149227,100
                135.7625471359,34.9961161303,100
                135.7618354836,34.9961419313,100
                135.7610593793,34.9961699269,100
                135.7610557934,34.99638825,100
                135.761052982,34.9965602326,100
                135.7611132723,34.9965589898,100
                135.7612246086,34.996556695,100
                135.7612296447,34.996590299,100
                135.7612844176,34.996590406,100
                135.7612843208,34.9966237612,100
                135.7612514262,34.9966236969,100
                135.7612522477,34.9967129527,100
                135.7614511432,34.9967134076,100
                135.7614578356,34.9967661132,100
                135.761458809,34.9967990771,100
                135.7614590009,34.9968055366,100
                135.7614616938,34.9968964153,100
                135.761459127,34.99701459,100
                135.7614570755,34.9971088912,100
                135.761453073,34.9972936897,100
                135.7614626671,34.9973717434,100
                135.7614596144,34.9973723069,100
                135.761459533,34.9974003409,100
                135.761414618,34.9974007308,100
                135.7614144712,34.9974512954,100
                135.7613457586,34.9974528604,100
                135.7613177286,34.9974534919,100
                135.7612303626,34.9974554534,100
                135.7612399601,34.9976576034,100
                135.7612396366,34.9978279012,100
                135.7612416802,34.9978469023,100
                135.7614072535,34.997850413,100
                135.7613938536,34.9978888412,100
                135.7614036518,34.9981400108,100
                135.7614725187,34.998138572,100
                135.7614788841,34.9982819887,100
                135.761556668,34.9982803367,100
                135.7615561638,34.998264224,100
                135.7615526579,34.9981523167,100
                135.761637016,34.9981506781,100
                135.761637232,34.9981578023,100
                135.761640203,34.9982552458,100
                135.7616406093,34.9982733028,100
                135.7616243315,34.9982732711,100
                135.7616344587,34.998411825,100
                135.7616337419,34.9985238902,100
                135.7614958272,34.9985240775,100
                135.7614902329,34.9985341605,100
                135.7614901914,34.9985484653,100
                135.7614900972,34.9985809368,100
                135.7614900377,34.9986014206,100
                135.7614897256,34.9987089653,100
                135.761491143,34.9987426751,100
                135.761377346,34.9987404393,100
                135.7613702771,34.9988979751,100
                135.761369842,34.9989078354,100
                135.7613520287,34.9989069379,100
                135.7613550023,34.9990678485,100
                135.7614131061,34.9990695999,100
                135.7614173017,34.9991175522,100
                135.7615579306,34.9991162417,100
                135.7615489754,34.9992610338,100
                135.7616136708,34.9992639066,100
                135.7617410494,34.9992695783,100
                135.761890506,34.9992761375,100
                135.7619128271,34.9991270818,100
                135.7620266619,34.9991323742,100
                135.7620218335,34.9992857595,100
                135.7620216319,34.9993055106,100
                135.762251858,34.9993090296,100
                135.7623580886,34.9993106512,100
                135.76250238,34.9993125831,100
                135.7625027303,34.9992931773,100
                135.7625036836,34.9992404662,100
                135.7626052304,34.9992411139,100
                135.7626454751,34.9992568977,100
                135.7629890789,34.9992575638,100
                135.7633424288,34.9992628961,100
                135.7636650715,34.9992611955,100
                135.7637120145,34.9992612862,100
                135.7639663331,34.9992617771,100
                135.7640377454,34.9992209961,100
                135.7640702526,34.9992243194,100
                135.7641929944,34.9992248031,100
                135.7641927737,34.9992716946,100
                135.7643841811,34.9992712457,100
                135.7643842833,34.9992799093,100
                135.7647189888,34.9992804119,100
                135.7647295732,34.9992683179,100
                135.7651371411,34.9992655805,100
                135.7651370069,34.9993125553,100
                135.7653777413,34.9993042141,100
                135.7653971587,34.9991583928,100
                135.7654921787,34.999158575,100
                135.7654999771,34.9992155676,100
                135.765543561,34.9992158613,100
                135.7656467124,34.9992158487,100
                135.765647981,34.9992962805,100
                135.7658817033,34.999293558,100
                135.766060052,34.9992983372,100
                135.7660632376,34.9992239703,100
                135.7660958023,34.9992240326,100
                135.7660956662,34.9991921555,100
                135.7661314974,34.9991924072,100
                135.7662219138,34.9991937773,100
                135.7662216057,34.9993022368,100
                135.7664943887,34.9992955034,100
                135.7664951865,34.9991649302,100
                135.766555964,34.9991613833,100
                135.7665530003,34.9990066458,100
                135.766681985,34.9990044967,100
                135.7669006411,34.9990096327,100
                135.7671740689,34.9990093076,100
                135.7671727368,34.9989658967,100
                135.7671554582,34.9989659837,100
                135.7671547247,34.998841223,100
                135.7672112648,34.9988426236,100
                135.7672658763,34.99884339,100
                135.7672672458,34.9987414357,100
                135.7673054283,34.9987426319,100
                135.7675404914,34.998740896,100
                135.7675418394,34.9987408986,100
                135.7672785068,34.9979946959,100
                135.7675171934,34.9979977563,100
                135.7676453205,34.9979984658,100
                135.7676372631,34.9979167799,100
                135.7675195649,34.997915781,100
                135.7674369384,34.9979139336,100
                135.767437091,34.9978599149,100
                135.7673714358,34.9978562686,100
                135.7673464304,34.9978569677,100
                135.7673483169,34.9977844581,100
                135.7673500275,34.9977487957,100
                135.7673550693,34.9976436835,100
                135.7677096974,34.99759541,100
                135.7676905939,34.9975028296,100
                135.7676705644,34.9974057399,100
                135.7675398835,34.9967724263,100
                135.7675336846,34.996742392,100
                135.7674586533,34.9963703845,100
                135.7675286083,34.9963506561,100
                135.7674060689,34.995769525,100
                135.7678991911,34.9956795394,100
                135.7677236315,34.9951591586,100
                135.7672069983,34.9952269839,100
                135.7672719271,34.9953502179,100
                135.7673054063,34.9954881106,100
                135.7672968147,34.9955299291,100
                135.7670660584,34.9955691448,100
                135.7671530359,34.9957917627,100
                135.7670397488,34.9958017183,100
                135.7670139858,34.9958029374,100
                135.7662675053,34.9958891248,100
                135.7661749477,34.995911556,100
                135.7660077065,34.9959236315,100
                135.7650863285,34.9959906028,100
                135.7644219028,34.9960442582,100
              </coordinates>
            </LinearRing>
          </outerBoundaryIs>
        </Polygon>
      </Placemark>
    </Document>
  </Document>
</kml>
