<?xml version="1.0" encoding="UTF-8"?>
<kml xmlns="http://www.opengis.net/kml/2.2">
  <Document id="root_doc">
    <Document id="_4_23______disv4326">
      <name>24_23崇仁disv4326</name>
      <Placemark id="_4_23______disv4326.1">
        <visibility>1</visibility>
        <Polygon>
          <extrude>0</extrude>
          <outerBoundaryIs>
            <LinearRing>
              <coordinates>
                135.7680340883,34.9843206417,100
                135.7681412565,34.9835095808,100
                135.768163857,34.983338554,100
                135.7683735166,34.9831487978,100
                135.7688510438,34.9827165745,100
                135.7685720117,34.9827380157,100
                135.7681642161,34.9827914669,100
                135.768138902,34.982710285,100
                135.7680107879,34.9822992309,100
                135.7679263454,34.9820439774,100
                135.7668446588,34.9820186591,100
                135.7668393842,34.9826506742,100
                135.766812057,34.9830928424,100
                135.7668860664,34.9831179165,100
                135.7668913074,34.9831179975,100
                135.7668902883,34.983311603,100
                135.7668856396,34.9834578747,100
                135.7668580898,34.983471837,100
                135.7668580202,34.9834728301,100
                135.7668394388,34.9834736598,100
                135.7668070494,34.9838591151,100
                135.7668359835,34.9838601369,100
                135.7668434224,34.9839528352,100
                135.7667629886,34.9839526806,100
                135.766578745,34.9840930426,100
                135.766547969,34.9840604454,100
                135.7665065642,34.9840943833,100
                135.7662715932,34.9841009028,100
                135.7658576652,34.9841716604,100
                135.7652092188,34.9843070399,100
                135.7651655346,34.9843151246,100
                135.76504807,34.9843370119,100
                135.7647583418,34.9843710318,100
                135.7644143498,34.9843715617,100
                135.7643211881,34.9843708175,100
                135.7637158777,34.9843676683,100
                135.7627259807,34.9843624982,100
                135.7627224608,34.9844261591,100
                135.7627169327,34.9845259038,100
                135.7629426846,34.9845263448,100
                135.7629537337,34.9845382029,100
                135.7629590474,34.984552435,100
                135.7629630948,34.9846678347,100
                135.7629881908,34.9847012378,100
                135.7629922597,34.9848094246,100
                135.7627037685,34.9847634251,100
                135.7627008636,34.9848157999,100
                135.7627358626,34.9850010272,100
                135.7627434083,34.9851211927,100
                135.7627428206,34.9855767972,100
                135.7627426838,34.9856758201,100
                135.7625994028,34.9860880428,100
                135.7625994059,34.9860892913,100
                135.7625995546,34.9861537528,100
                135.7625998978,34.9863015845,100
                135.7626063532,34.9864070995,100
                135.7626210664,34.9866479957,100
                135.7626223271,34.9866686334,100
                135.7626320541,34.9867969748,100
                135.7626670602,34.9872618051,100
                135.7626907867,34.9878103458,100
                135.7626966001,34.9879447436,100
                135.7626453362,34.9879463339,100
                135.7626143781,34.98794733,100
                135.7626203346,34.9880330539,100
                135.7623689703,34.9880448884,100
                135.7623758947,34.9881291979,100
                135.7623925502,34.9883320031,100
                135.7624214583,34.9883298763,100
                135.7624245307,34.9883503298,100
                135.7625039055,34.9888789619,100
                135.7627533679,34.9888755042,100
                135.7638208685,34.9888607475,100
                135.7638628475,34.9888654547,100
                135.7639155892,34.9888665105,100
                135.7640007945,34.9888666756,100
                135.7640865876,34.9888635037,100
                135.7641342563,34.9888608707,100
                135.7642132499,34.9888605929,100
                135.7646551381,34.9888600381,100
                135.7648451502,34.9888598027,100
                135.7648993693,34.9888597352,100
                135.7648987461,34.9888681855,100
                135.7650261166,34.9888635718,100
                135.7650310545,34.9887749112,100
                135.765031516,34.9887483885,100
                135.7651620446,34.9887488973,100
                135.7651792773,34.9887495754,100
                135.765194442,34.9887531013,100
                135.7652027786,34.9887550404,100
                135.765206643,34.9887559392,100
                135.7652341857,34.9887700809,100
                135.7652421347,34.9887750444,100
                135.7652501489,34.9887810298,100
                135.7652591209,34.9887875854,100
                135.7652733357,34.9887985849,100
                135.7652927598,34.9888173218,100
                135.7653098209,34.9888347825,100
                135.765312656,34.9888390797,100
                135.7653137324,34.9888453924,100
                135.7653136513,34.98885462,100
                135.7654759903,34.9888533119,100
                135.7658131492,34.9888531574,100
                135.7658308899,34.9888531492,100
                135.7660748854,34.9888529843,100
                135.7672335599,34.9888707701,100
                135.7672463147,34.988407936,100
                135.7672893854,34.9879294554,100
                135.7672942506,34.98788115,100
                135.7673059502,34.9877458789,100
                135.7673411845,34.9875500836,100
                135.7673988201,34.9873213718,100
                135.7676925167,34.9864015009,100
                135.767693968,34.9863946704,100
                135.7678608169,34.9856180943,100
                135.7680224373,34.9844089353,100
                135.7680340883,34.9843206417,100
              </coordinates>
            </LinearRing>
          </outerBoundaryIs>
        </Polygon>
      </Placemark>
    </Document>
  </Document>
</kml>
