<?xml version="1.0" encoding="UTF-8"?>
<kml xmlns="http://www.opengis.net/kml/2.2">
  <Document id="root_doc">
    <Document id="_4_21______disv4326">
      <name>24_21稚松disv4326</name>
      <Placemark id="_4_21______disv4326.1">
        <visibility>1</visibility>
        <Polygon>
          <extrude>0</extrude>
          <outerBoundaryIs>
            <LinearRing>
              <coordinates>
                135.7616357257,34.9921746761,100
                135.7616357627,34.9920036098,100
                135.7614613177,34.9919991921,100
                135.761458578,34.9920587693,100
                135.7610660502,34.9920589161,100
                135.7610298881,34.9920094749,100
                135.7607121782,34.992009767,100
                135.7607096525,34.9920762473,100
                135.7607026922,34.9920890094,100
                135.7602976786,34.9920881916,100
                135.7602943233,34.9921336773,100
                135.7601876803,34.9921305801,100
                135.759857745,34.9921409174,100
                135.759830298,34.9921405822,100
                135.7598291137,34.9925133066,100
                135.7598289461,34.9925658311,100
                135.7597606866,34.992562528,100
                135.7596689223,34.9925629107,100
                135.7596398634,34.9926667362,100
                135.7592422928,34.9926614461,100
                135.7592226794,34.9926447867,100
                135.7584891279,34.9926657351,100
                135.7581986904,34.9926651608,100
                135.758189743,34.9932813447,100
                135.7581892997,34.9933118243,100
                135.7581652723,34.9933121999,100
                135.7575419903,34.993309909,100
                135.7574570748,34.9933088238,100
                135.7571166587,34.9933075138,100
                135.7571072469,34.9937122531,100
                135.7570906892,34.9937112342,100
                135.7570919056,34.9938082365,100
                135.7570922139,34.9938328687,100
                135.7570863526,34.9941870456,100
                135.7576027733,34.9941877898,100
                135.7576069847,34.9942982313,100
                135.7576218884,34.9943049164,100
                135.757723656,34.9943040959,100
                135.7579357237,34.9943021363,100
                135.7579310147,34.9941856925,100
                135.7579306183,34.9941759169,100
                135.7580477941,34.9941752339,100
                135.7580490671,34.9941752408,100
                135.7581872219,34.994177538,100
                135.7585703195,34.9941838235,100
                135.7586029079,34.9941843583,100
                135.7586655182,34.9941853854,100
                135.7592562015,34.9941865503,100
                135.7597438103,34.9941844809,100
                135.7599893245,34.9941829218,100
                135.7601387808,34.9941823643,100
                135.7602861202,34.9941818145,100
                135.7606780847,34.9941803295,100
                135.7606940242,34.9941802903,100
                135.7610506628,34.9941864112,100
                135.7610741105,34.9941868796,100
                135.7614552637,34.9941947387,100
                135.7614470582,34.9952227063,100
                135.7614469959,34.99522989,100
                135.7614503399,34.9955368981,100
                135.7614510851,34.9956045116,100
                135.7614498545,34.9956746561,100
                135.7614445133,34.9959816467,100
                135.7610622438,34.9959946341,100
                135.7610593793,34.9961699269,100
                135.7618354836,34.9961419313,100
                135.7625471359,34.9961161303,100
                135.7625777775,34.9961149227,100
                135.7634107392,34.9960830131,100
                135.7644219028,34.9960442582,100
                135.7650863285,34.9959906028,100
                135.7660077065,34.9959236315,100
                135.7661749477,34.995911556,100
                135.7662675053,34.9958891248,100
                135.7658730487,34.9952975413,100
                135.7653433227,34.9945009598,100
                135.7652449742,34.9942969492,100
                135.7650724282,34.9940175083,100
                135.7650179295,34.9939292964,100
                135.7650153369,34.9936536327,100
                135.7650150127,34.9936524458,100
                135.7648267403,34.993286997,100
                135.7648324574,34.9929770597,100
                135.7648332152,34.9929381338,100
                135.7650189902,34.9929344331,100
                135.7650228113,34.9927230702,100
                135.7650249189,34.992606937,100
                135.7650272064,34.9924808032,100
                135.7650306355,34.9922908631,100
                135.7645131853,34.9922979653,100
                135.7644417458,34.9922989542,100
                135.764143441,34.9922915463,100
                135.7641164213,34.9922909306,100
                135.7637269385,34.9922884866,100
                135.7633124275,34.9922850068,100
                135.762227858,34.9922821225,100
                135.762102331,34.9922832875,100
                135.7618698936,34.9922856511,100
                135.7616303714,34.9922780436,100
                135.7616357257,34.9921746761,100
              </coordinates>
            </LinearRing>
          </outerBoundaryIs>
        </Polygon>
      </Placemark>
    </Document>
  </Document>
</kml>
