<?xml version="1.0" encoding="UTF-8"?>
<kml xmlns="http://www.opengis.net/kml/2.2">
  <Document id="root_doc">
    <Document id="_4_22______disv4326">
      <name>24_22菊浜disv4326</name>
      <Placemark id="_4_22______disv4326.1">
        <visibility>1</visibility>
        <Polygon>
          <extrude>0</extrude>
          <outerBoundaryIs>
            <LinearRing>
              <coordinates>
                135.7653098209,34.9888347825,100
                135.7652927598,34.9888173218,100
                135.7652733357,34.9887985849,100
                135.7652591209,34.9887875854,100
                135.7652501489,34.9887810298,100
                135.7652421347,34.9887750444,100
                135.7652341857,34.9887700809,100
                135.765206643,34.9887559392,100
                135.7652027786,34.9887550404,100
                135.765194442,34.9887531013,100
                135.7651792773,34.9887495754,100
                135.7651620446,34.9887488973,100
                135.765031516,34.9887483885,100
                135.7650310545,34.9887749112,100
                135.7650261166,34.9888635718,100
                135.7648987461,34.9888681855,100
                135.7648993693,34.9888597352,100
                135.7648451502,34.9888598027,100
                135.764841711,34.9891660217,100
                135.7648766502,34.9891664094,100
                135.765017992,34.9891687951,100
                135.7650226013,34.9892105684,100
                135.765028994,34.9892714313,100
                135.765036414,34.9897219806,100
                135.7650352326,34.9903078056,100
                135.7650355273,34.9904292251,100
                135.7650319796,34.9907645303,100
                135.7650296609,34.9909847571,100
                135.7650273999,34.9911994905,100
                135.7650240898,34.9915118369,100
                135.7650272568,34.9916465735,100
                135.7650301827,34.9922043623,100
                135.7651792769,34.9922022823,100
                135.7651779443,34.9922852175,100
                135.7651779825,34.9922917443,100
                135.7650306355,34.9922908631,100
                135.7650272064,34.9924808032,100
                135.7650249189,34.992606937,100
                135.7650228113,34.9927230702,100
                135.7650189902,34.9929344331,100
                135.7648332152,34.9929381338,100
                135.7648324574,34.9929770597,100
                135.7648267403,34.993286997,100
                135.7650150127,34.9936524458,100
                135.7650153369,34.9936536327,100
                135.7650179295,34.9939292964,100
                135.7650724282,34.9940175083,100
                135.7652449742,34.9942969492,100
                135.7653433227,34.9945009598,100
                135.7658730487,34.9952975413,100
                135.7662675053,34.9958891248,100
                135.7670139858,34.9958029374,100
                135.7670397488,34.9958017183,100
                135.7671530359,34.9957917627,100
                135.7670660584,34.9955691448,100
                135.7672968147,34.9955299291,100
                135.7673054063,34.9954881106,100
                135.7672719271,34.9953502179,100
                135.7672069983,34.9952269839,100
                135.7677236315,34.9951591586,100
                135.7676265295,34.9946691551,100
                135.7676121461,34.9945965725,100
                135.7675586232,34.9942377064,100
                135.7675143438,34.9939695001,100
                135.7673577947,34.9927980446,100
                135.7673069025,34.9924327026,100
                135.7672221872,34.9918243896,100
                135.7672096281,34.9917341463,100
                135.7671835596,34.9914956952,100
                135.7671543362,34.9904670985,100
                135.7671663955,34.9903635197,100
                135.7671840785,34.9899133728,100
                135.767200816,34.9894799862,100
                135.7672163279,34.989282675,100
                135.7672299475,34.9890516242,100
                135.7672335599,34.9888707701,100
                135.7660748854,34.9888529843,100
                135.7658308899,34.9888531492,100
                135.7658131492,34.9888531574,100
                135.7654759903,34.9888533119,100
                135.7653136513,34.98885462,100
                135.7653137324,34.9888453924,100
                135.765312656,34.9888390797,100
                135.7653098209,34.9888347825,100
              </coordinates>
            </LinearRing>
          </outerBoundaryIs>
        </Polygon>
      </Placemark>
    </Document>
  </Document>
</kml>
