<?xml version="1.0" encoding="UTF-8"?>
<kml xmlns="http://www.opengis.net/kml/2.2">
  <Document id="root_doc">
    <Document id="_6_04_________disv4326">
      <name>26_04東梅逕disv4326</name>
      <Placemark id="_6_04_________disv4326.1">
        <visibility>1</visibility>
        <Polygon>
          <extrude>0</extrude>
          <outerBoundaryIs>
            <LinearRing>
              <coordinates>
                135.7498314881,34.9843141215,100
                135.7498307852,34.9842846097,100
                135.749851991,34.983752842,100
                135.7498292352,34.9835951753,100
                135.7498167618,34.9834329512,100
                135.7498245604,34.9833586643,100
                135.7498194087,34.9830884867,100
                135.7498060329,34.9830879734,100
                135.7497868831,34.9826681407,100
                135.7499033392,34.9826650993,100
                135.7500749746,34.9826606169,100
                135.7500729637,34.9826011144,100
                135.7500592072,34.9825965364,100
                135.749998035,34.9825761771,100
                135.74977862,34.9825031504,100
                135.7497592948,34.9823741967,100
                135.7497068395,34.9823013253,100
                135.7496530735,34.9822266344,100
                135.7496033212,34.9821575184,100
                135.7496025147,34.9821269273,100
                135.7495979891,34.9819552693,100
                135.7495958453,34.981873978,100
                135.7495741363,34.9818739957,100
                135.749678485,34.9818191334,100
                135.7497175628,34.9816165885,100
                135.7497405185,34.981113841,100
                135.7497263979,34.9811140971,100
                135.7497270352,34.9810904028,100
                135.7496700853,34.981088483,100
                135.7496777763,34.9809021985,100
                135.7496843913,34.9806588113,100
                135.7496893561,34.980511566,100
                135.7497261654,34.980504215,100
                135.7497474423,34.9804999657,100
                135.7497414224,34.9804014234,100
                135.7497362529,34.9803168002,100
                135.749731644,34.9802421798,100
                135.7497308428,34.9802286106,100
                135.7497301578,34.9802170329,100
                135.7497297993,34.9802111464,100
                135.7497292177,34.9802016428,100
                135.7497289546,34.9801973339,100
                135.7497278132,34.9801786524,100
                135.7497276336,34.9801756951,100
                135.7497276896,34.9801622746,100
                135.7497277211,34.980156938,100
                135.7497278111,34.9801413442,100
                135.7497278896,34.9801277785,100
                135.7497279709,34.98011352,100
                135.749728092,34.9800927089,100
                135.7497282716,34.9800616423,100
                135.7497283806,34.9800426206,100
                135.7497286006,34.980004636,100
                135.7497287916,34.9799715434,100
                135.7497289829,34.9799383876,100
                135.7497291597,34.9799077985,100
                135.7497293621,34.9798727461,100
                135.7497297212,34.9798106364,100
                135.7497296666,34.9797551232,100
                135.7497289736,34.9796942907,100
                135.749728396,34.9796436976,100
                135.7497281261,34.9796200119,100
                135.7497273426,34.9795513231,100
                135.7497248575,34.979370268,100
                135.7492691043,34.9793520727,100
                135.7492243846,34.9818958154,100
                135.7491555677,34.981957933,100
                135.748949454,34.9819773002,100
                135.7489371156,34.9826878354,100
                135.7489387011,34.9828066841,100
                135.7489391469,34.9830012491,100
                135.7489391668,34.9830098701,100
                135.7491286354,34.9830156919,100
                135.7492521977,34.9830314026,100
                135.7492549984,34.9830668343,100
                135.7492884011,34.9834875772,100
                135.7492658082,34.9834881647,100
                135.7492851328,34.9842834906,100
                135.7492864835,34.9843392029,100
                135.7490237322,34.9843458475,100
                135.7488735733,34.9843459613,100
                135.74886239,34.9843459609,100
                135.7488603598,34.9844626255,100
                135.7488539811,34.985197847,100
                135.7488720124,34.9851982919,100
                135.7490278946,34.9852021344,100
                135.7497636099,34.985210969,100
                135.7498300549,34.9852119497,100
                135.7501159428,34.9852163388,100
                135.7503640993,34.9852189593,100
                135.7503617128,34.9849821004,100
                135.7502508718,34.984954195,100
                135.750126458,34.9849156974,100
                135.750060307,34.9849378182,100
                135.749843616,34.9849228655,100
                135.7497615745,34.9849150911,100
                135.7497701752,34.9843916083,100
                135.7498327216,34.9843658185,100
                135.7498314881,34.9843141215,100
              </coordinates>
            </LinearRing>
          </outerBoundaryIs>
        </Polygon>
      </Placemark>
    </Document>
  </Document>
</kml>
