<?xml version="1.0" encoding="UTF-8"?>
<kml xmlns="http://www.opengis.net/kml/2.2">
  <Document id="root_doc">
    <Document id="_6_08______disv4326">
      <name>26_08陶化disv4326</name>
      <Placemark id="_6_08______disv4326.1">
        <visibility>1</visibility>
        <Polygon>
          <extrude>0</extrude>
          <outerBoundaryIs>
            <LinearRing>
              <coordinates>
                135.7640649043,34.9721632872,100
                135.7631263321,34.9712000455,100
                135.7627345298,34.9708220665,100
                135.7623547133,34.9713019171,100
                135.7619974428,34.9722840297,100
                135.761875987,34.9726178983,100
                135.7618282103,34.9732853859,100
                135.7618140918,34.9741660533,100
                135.7618128425,34.9742445769,100
                135.7618094302,34.9744590223,100
                135.7618181113,34.9748062461,100
                135.761824877,34.9750766948,100
                135.7618252946,34.9750934639,100
                135.7618255837,34.9751050845,100
                135.7618507459,34.9760804131,100
                135.7618649971,34.9766125913,100
                135.7618718614,34.9768693832,100
                135.7618860843,34.977042803,100
                135.7618916933,34.9771112194,100
                135.7618939202,34.9771383884,100
                135.7618962566,34.9771667753,100
                135.7618355397,34.9777423292,100
                135.7618317584,34.9777782402,100
                135.7615261149,34.978338242,100
                135.7614812397,34.978433021,100
                135.7614094203,34.9785914863,100
                135.7613189948,34.9789399318,100
                135.761201852,34.979391363,100
                135.7611530467,34.9796163589,100
                135.7611109242,34.9807649053,100
                135.761769534,34.9807749373,100
                135.7626903444,34.9807897757,100
                135.7630550267,34.9807961945,100
                135.7634383193,34.9808029313,100
                135.7641788283,34.9808158558,100
                135.7657271421,34.9808880947,100
                135.7660035036,34.9809010947,100
                135.7660480452,34.9802664777,100
                135.7675167251,34.9803412871,100
                135.7675217957,34.9800445821,100
                135.7675391752,34.9797679014,100
                135.7675681914,34.979491385,100
                135.7676334131,34.9789898477,100
                135.7676637614,34.9787565764,100
                135.7676861076,34.9785540676,100
                135.7677075434,34.9783403578,100
                135.7677578913,34.9779285933,100
                135.7677240838,34.9775016682,100
                135.7676820447,34.9770965591,100
                135.7676342855,34.9768923118,100
                135.7676227497,34.9768429767,100
                135.7675719178,34.9766944976,100
                135.7671485,34.9760090892,100
                135.7670126086,34.9758358463,100
                135.7668156553,34.9755847555,100
                135.7667742949,34.9755343068,100
                135.7665310648,34.9752376338,100
                135.7665252165,34.9752305027,100
                135.7664448372,34.975132462,100
                135.7663075951,34.9749650628,100
                135.7658565992,34.9744174544,100
                135.7657846283,34.9743314709,100
                135.7656892943,34.9742439906,100
                135.7653761675,34.9739099077,100
                135.7650650875,34.9735708985,100
                135.7647266734,34.9731790862,100
                135.7640649043,34.9721632872,100
              </coordinates>
            </LinearRing>
          </outerBoundaryIs>
        </Polygon>
      </Placemark>
    </Document>
  </Document>
</kml>
