<?xml version="1.0" encoding="UTF-8"?>
<kml xmlns="http://www.opengis.net/kml/2.2">
  <Document id="root_doc">
    <Document id="_6_02_________disv4326">
      <name>26_02南大内disv4326</name>
      <Placemark id="_6_02_________disv4326.1">
        <visibility>1</visibility>
        <MultiGeometry>
          <Polygon>
            <extrude>0</extrude>
            <outerBoundaryIs>
              <LinearRing>
                <coordinates>
                  135.7462930055,34.9792039431,100
                  135.7473712013,34.9792704786,100
                  135.7480537989,34.9793076664,100
                  135.7485137306,34.9793218548,100
                  135.7484840233,34.979094448,100
                  135.7484719812,34.9790023721,100
                  135.7477375746,34.9789651507,100
                  135.7477107145,34.9789634726,100
                  135.7462125245,34.9788698702,100
                  135.7462113475,34.9789538195,100
                  135.7458868609,34.9789296926,100
                  135.744652457,34.978837814,100
                  135.7433417801,34.9787365368,100
                  135.7433043264,34.9787353313,100
                  135.7427707547,34.9787184328,100
                  135.7427299503,34.9788802644,100
                  135.7427175936,34.9790225755,100
                  135.7426692158,34.9792465798,100
                  135.7427238359,34.9793757213,100
                  135.7428453029,34.9794854242,100
                  135.7428645444,34.9794893383,100
                  135.7429963291,34.979507223,100
                  135.7429909112,34.980075224,100
                  135.7429872037,34.9804646556,100
                  135.7429869798,34.9804881428,100
                  135.7429853677,34.9806561133,100
                  135.7423858453,34.9806554852,100
                  135.7423477301,34.9817209299,100
                  135.7423499004,34.9817867149,100
                  135.7423622927,34.9821636786,100
                  135.742315264,34.9829995752,100
                  135.7423510901,34.9842690681,100
                  135.7423500781,34.9843058301,100
                  135.7423289471,34.9845173555,100
                  135.7428157748,34.9846490271,100
                  135.7436866541,34.9848508753,100
                  135.7439668261,34.9849123132,100
                  135.7444464446,34.9850033253,100
                  135.7444481629,34.9843417865,100
                  135.7445832005,34.9843411537,100
                  135.7445858891,34.984273758,100
                  135.7445974343,34.9839846701,100
                  135.7446116219,34.9836292433,100
                  135.7446346174,34.9830535323,100
                  135.7450597101,34.9830422359,100
                  135.7455673877,34.9830286445,100
                  135.7461943405,34.9830120583,100
                  135.7462161193,34.9824669813,100
                  135.7462202201,34.9823643745,100
                  135.7462406081,34.9818546505,100
                  135.7462541621,34.9811866568,100
                  135.7462624905,34.9807231087,100
                  135.7462739421,34.9800851144,100
                  135.7462742495,34.9800692333,100
                  135.7462823291,34.9796506202,100
                  135.7462831977,34.9796055808,100
                  135.7462930055,34.9792039431,100
                </coordinates>
              </LinearRing>
            </outerBoundaryIs>
          </Polygon>
          <Polygon>
            <extrude>0</extrude>
            <outerBoundaryIs>
              <LinearRing>
                <coordinates>
                  135.7476811903,34.9848614397,100
                  135.7476639965,34.9851684754,100
                  135.7488539811,34.985197847,100
                  135.7488603598,34.9844626255,100
                  135.74886239,34.9843459609,100
                  135.7486665937,34.9843459575,100
                  135.7486664012,34.9848528362,100
                  135.7476811903,34.9848614397,100
                </coordinates>
              </LinearRing>
            </outerBoundaryIs>
          </Polygon>
        </MultiGeometry>
      </Placemark>
    </Document>
  </Document>
</kml>
