<?xml version="1.0" encoding="UTF-8"?>
<kml xmlns="http://www.opengis.net/kml/2.2">
  <Document id="root_doc">
    <Document id="_6_01____________disv4326">
      <name>26_01九条塔南disv4326</name>
      <Placemark id="_6_01____________disv4326.1">
        <visibility>1</visibility>
        <Polygon>
          <extrude>0</extrude>
          <outerBoundaryIs>
            <LinearRing>
              <coordinates>
                135.7429081729,34.9733375872,100
                135.7428759178,34.973337797,100
                135.7425484596,34.9733399267,100
                135.742480823,34.974489821,100
                135.7424713212,34.9746091783,100
                135.742480898,34.9749089448,100
                135.7425966078,34.9756418628,100
                135.7425966229,34.9756441166,100
                135.7425981508,34.9759034562,100
                135.7425994847,34.9761299166,100
                135.7426009325,34.9763758135,100
                135.7426037501,34.9768525594,100
                135.7426042065,34.9769297451,100
                135.7426065615,34.9771784357,100
                135.742618746,34.978338428,100
                135.7426244388,34.9788821545,100
                135.7427299503,34.9788802644,100
                135.7427707547,34.9787184328,100
                135.7433043264,34.9787353313,100
                135.7433417801,34.9787365368,100
                135.744652457,34.978837814,100
                135.7458868609,34.9789296926,100
                135.7462113475,34.9789538195,100
                135.7462125245,34.9788698702,100
                135.7477107145,34.9789634726,100
                135.7477375746,34.9789651507,100
                135.7484719812,34.9790023721,100
                135.7484840233,34.979094448,100
                135.7485137306,34.9793218548,100
                135.7492691043,34.9793520727,100
                135.7497248575,34.979370268,100
                135.7497525945,34.9793713752,100
                135.7498490029,34.9793752179,100
                135.7498699386,34.9793760525,100
                135.749906835,34.9793775372,100
                135.7511616465,34.9793603793,100
                135.7515852748,34.9793680026,100
                135.7522316052,34.9793796677,100
                135.7525679581,34.9793857025,100
                135.7525638827,34.9790326316,100
                135.752554411,34.9782105616,100
                135.7525463352,34.9775134473,100
                135.7525446305,34.9773666709,100
                135.7525437961,34.9772944803,100
                135.7525218891,34.9767677031,100
                135.7525010784,34.9763112859,100
                135.7524998047,34.9762833519,100
                135.7524987282,34.9762597282,100
                135.7524908157,34.9760860356,100
                135.7524900117,34.9760683565,100
                135.752467977,34.9755851745,100
                135.7524534943,34.9752674432,100
                135.7524392974,34.974579048,100
                135.7524338425,34.9742538701,100
                135.7524174477,34.9732748831,100
                135.752281685,34.9732668603,100
                135.7522671248,34.9726581183,100
                135.7522604637,34.9723795613,100
                135.7522336294,34.9712575124,100
                135.7506235144,34.9712811923,100
                135.7490267452,34.9713045974,100
                135.7489086252,34.9713063248,100
                135.7486134082,34.9713106443,100
                135.7486046629,34.9727864606,100
                135.7486015881,34.9733031898,100
                135.748518195,34.9733036365,100
                135.7482219631,34.9733052222,100
                135.7466936459,34.9733130396,100
                135.7460519166,34.9733163535,100
                135.7459379017,34.9733170322,100
                135.7438770834,34.9733309624,100
                135.7429081729,34.9733375872,100
              </coordinates>
            </LinearRing>
          </outerBoundaryIs>
        </Polygon>
      </Placemark>
    </Document>
  </Document>
</kml>
