<?xml version="1.0" encoding="UTF-8"?>
<kml xmlns="http://www.opengis.net/kml/2.2">
  <Document id="root_doc">
    <Document id="_6_05______disv4326">
      <name>26_05九条disv4326</name>
      <Placemark id="_6_05______disv4326.1">
        <visibility>1</visibility>
        <Polygon>
          <extrude>0</extrude>
          <outerBoundaryIs>
            <LinearRing>
              <coordinates>
                135.7521028926,34.9806203544,100
                135.7521033049,34.9805932399,100
                135.7521036079,34.9805644784,100
                135.7521039733,34.9805296299,100
                135.75210434,34.9804947819,100
                135.7521045836,34.9804715292,100
                135.7521055697,34.9804492733,100
                135.7521069892,34.9804193663,100
                135.7521078892,34.9804003841,100
                135.7521081118,34.9803956977,100
                135.7521196947,34.9803689031,100
                135.7521197478,34.980369936,100
                135.7521283788,34.9803508231,100
                135.752147223,34.9803145055,100
                135.7521936881,34.980252562,100
                135.7524298951,34.9802335326,100
                135.7525187053,34.9796881671,100
                135.7525634034,34.9794136532,100
                135.7525679581,34.9793857025,100
                135.7522316052,34.9793796677,100
                135.7515852748,34.9793680026,100
                135.7511616465,34.9793603793,100
                135.749906835,34.9793775372,100
                135.7498699386,34.9793760525,100
                135.7498490029,34.9793752179,100
                135.7497525945,34.9793713752,100
                135.7497248575,34.979370268,100
                135.7497273426,34.9795513231,100
                135.7497281261,34.9796200119,100
                135.749728396,34.9796436976,100
                135.7497289736,34.9796942907,100
                135.7497296666,34.9797551232,100
                135.7497297212,34.9798106364,100
                135.7497293621,34.9798727461,100
                135.7497291597,34.9799077985,100
                135.7497289829,34.9799383876,100
                135.7497287916,34.9799715434,100
                135.7497286006,34.980004636,100
                135.7497283806,34.9800426206,100
                135.7497282716,34.9800616423,100
                135.749728092,34.9800927089,100
                135.7497279709,34.98011352,100
                135.7497278896,34.9801277785,100
                135.7497278111,34.9801413442,100
                135.7497277211,34.980156938,100
                135.7497276896,34.9801622746,100
                135.7497276336,34.9801756951,100
                135.7497278132,34.9801786524,100
                135.7497289546,34.9801973339,100
                135.7497292177,34.9802016428,100
                135.7497297993,34.9802111464,100
                135.7497301578,34.9802170329,100
                135.7497308428,34.9802286106,100
                135.749731644,34.9802421798,100
                135.7497362529,34.9803168002,100
                135.7497414224,34.9804014234,100
                135.7497474423,34.9804999657,100
                135.7497261654,34.980504215,100
                135.7496893561,34.980511566,100
                135.7496843913,34.9806588113,100
                135.7496777763,34.9809021985,100
                135.7496700853,34.981088483,100
                135.7497270352,34.9810904028,100
                135.7497263979,34.9811140971,100
                135.7497405185,34.981113841,100
                135.7497175628,34.9816165885,100
                135.749678485,34.9818191334,100
                135.7495741363,34.9818739957,100
                135.7495958453,34.981873978,100
                135.7495979891,34.9819552693,100
                135.7496025147,34.9821269273,100
                135.7496033212,34.9821575184,100
                135.7496530735,34.9822266344,100
                135.7497068395,34.9823013253,100
                135.7497592948,34.9823741967,100
                135.74977862,34.9825031504,100
                135.749998035,34.9825761771,100
                135.7500592072,34.9825965364,100
                135.7500729637,34.9826011144,100
                135.7500749746,34.9826606169,100
                135.7499033392,34.9826650993,100
                135.7497868831,34.9826681407,100
                135.7498060329,34.9830879734,100
                135.7498194087,34.9830884867,100
                135.7498245604,34.9833586643,100
                135.7498167618,34.9834329512,100
                135.7498292352,34.9835951753,100
                135.749851991,34.983752842,100
                135.7498307852,34.9842846097,100
                135.7498314881,34.9843141215,100
                135.7498327216,34.9843658185,100
                135.7497701752,34.9843916083,100
                135.7497615745,34.9849150911,100
                135.749843616,34.9849228655,100
                135.750060307,34.9849378182,100
                135.750126458,34.9849156974,100
                135.7502508718,34.984954195,100
                135.7503617128,34.9849821004,100
                135.7503640993,34.9852189593,100
                135.7505557563,34.9852209702,100
                135.7507476928,34.985222982,100
                135.7511360288,34.9852291273,100
                135.7511582557,34.9852294537,100
                135.7513088161,34.9852318733,100
                135.7522493542,34.9852467442,100
                135.7523239401,34.984531194,100
                135.7523269845,34.9844223165,100
                135.7523284515,34.9842897007,100
                135.7523332494,34.9838531899,100
                135.7523370988,34.9835041503,100
                135.7523364718,34.9834495663,100
                135.7523317712,34.983041067,100
                135.7523330302,34.9830350127,100
                135.752450878,34.9824454064,100
                135.7525079024,34.9818846936,100
                135.7522006777,34.9818718864,100
                135.7522297831,34.9815543804,100
                135.7521760312,34.98143109,100
                135.7522329936,34.9814255712,100
                135.752240703,34.9812732488,100
                135.7522271207,34.9812727982,100
                135.7521697634,34.9810745642,100
                135.7521454434,34.9810769876,100
                135.7521088128,34.9808915214,100
                135.7520554627,34.9808972675,100
                135.7520284179,34.9809003506,100
                135.7520292926,34.9808804693,100
                135.7520323862,34.9808102317,100
                135.7520610096,34.9807378153,100
                135.7520765335,34.9806985363,100
                135.75210188,34.9806472024,100
                135.7521020555,34.9806390649,100
                135.7521028926,34.9806203544,100
              </coordinates>
            </LinearRing>
          </outerBoundaryIs>
        </Polygon>
      </Placemark>
    </Document>
  </Document>
</kml>
