<?xml version="1.0" encoding="UTF-8"?>
<kml xmlns="http://www.opengis.net/kml/2.2">
  <Document id="root_doc">
    <Document id="_6_06____________disv4326">
      <name>26_06九条弘道disv4326</name>
      <Placemark id="_6_06____________disv4326.1">
        <visibility>1</visibility>
        <Polygon>
          <extrude>0</extrude>
          <outerBoundaryIs>
            <LinearRing>
              <coordinates>
                135.7522604637,34.9723795613,100
                135.7522671248,34.9726581183,100
                135.752281685,34.9732668603,100
                135.7524174477,34.9732748831,100
                135.7524338425,34.9742538701,100
                135.7524392974,34.974579048,100
                135.7524534943,34.9752674432,100
                135.752467977,34.9755851745,100
                135.7524900117,34.9760683565,100
                135.7524908157,34.9760860356,100
                135.7524987282,34.9762597282,100
                135.7524998047,34.9762833519,100
                135.7525010784,34.9763112859,100
                135.7525218891,34.9767677031,100
                135.7525437961,34.9772944803,100
                135.7525446305,34.9773666709,100
                135.7525463352,34.9775134473,100
                135.752554411,34.9782105616,100
                135.7525638827,34.9790326316,100
                135.7525679581,34.9793857025,100
                135.7525634034,34.9794136532,100
                135.7525187053,34.9796881671,100
                135.7524298951,34.9802335326,100
                135.7521936881,34.980252562,100
                135.752147223,34.9803145055,100
                135.7521283788,34.9803508231,100
                135.7521197478,34.980369936,100
                135.7521196947,34.9803689031,100
                135.7521081118,34.9803956977,100
                135.7521078892,34.9804003841,100
                135.7521069892,34.9804193663,100
                135.7521055697,34.9804492733,100
                135.7521045836,34.9804715292,100
                135.75210434,34.9804947819,100
                135.7521039733,34.9805296299,100
                135.7521036079,34.9805644784,100
                135.7521033049,34.9805932399,100
                135.7521028926,34.9806203544,100
                135.7521020555,34.9806390649,100
                135.75210188,34.9806472024,100
                135.7520765335,34.9806985363,100
                135.7520610096,34.9807378153,100
                135.7520323862,34.9808102317,100
                135.7520292926,34.9808804693,100
                135.7520284179,34.9809003506,100
                135.7520554627,34.9808972675,100
                135.7521088128,34.9808915214,100
                135.7521454434,34.9810769876,100
                135.7521697634,34.9810745642,100
                135.7522271207,34.9812727982,100
                135.752240703,34.9812732488,100
                135.7522329936,34.9814255712,100
                135.7521760312,34.98143109,100
                135.7522297831,34.9815543804,100
                135.7522006777,34.9818718864,100
                135.7525079024,34.9818846936,100
                135.752450878,34.9824454064,100
                135.7523330302,34.9830350127,100
                135.7523317712,34.983041067,100
                135.7523364718,34.9834495663,100
                135.7523370988,34.9835041503,100
                135.7523332494,34.9838531899,100
                135.7523284515,34.9842897007,100
                135.7523269845,34.9844223165,100
                135.7523239401,34.984531194,100
                135.7522493542,34.9852467442,100
                135.7533333263,34.9852650674,100
                135.7534719344,34.9852726719,100
                135.7536235876,34.9852810071,100
                135.7538651638,34.9852882553,100
                135.755122304,34.98502294,100
                135.7552800284,34.9849469103,100
                135.755309753,34.9849939462,100
                135.7567708342,34.9847776184,100
                135.7567674829,34.9844059568,100
                135.7567709664,34.984298629,100
                135.7568037138,34.9832878222,100
                135.7567742522,34.9832821997,100
                135.7567722802,34.9830660487,100
                135.7567718255,34.9830172397,100
                135.7567655252,34.9823265268,100
                135.756762507,34.9819946578,100
                135.7567241636,34.9819827493,100
                135.755987481,34.9819686737,100
                135.7558574847,34.9819661602,100
                135.7553966261,34.9819573502,100
                135.7554105823,34.9811839228,100
                135.7554302247,34.9808157576,100
                135.7554381296,34.9806675197,100
                135.7555040495,34.9794325322,100
                135.7552614539,34.9794209897,100
                135.7550681634,34.9794200301,100
                135.7550685574,34.9790764617,100
                135.7549722807,34.979073545,100
                135.7547754891,34.9790755448,100
                135.7546700427,34.9790766009,100
                135.7545881495,34.9790800036,100
                135.7545842816,34.9790205078,100
                135.7545742044,34.9788594398,100
                135.7544772948,34.9788412614,100
                135.7544561439,34.9785162585,100
                135.7544526464,34.9784623725,100
                135.7543577011,34.9784649295,100
                135.7543539309,34.9784007173,100
                135.7543539417,34.9783971117,100
                135.7543518424,34.9783664564,100
                135.7542999277,34.9783681325,100
                135.7542992645,34.9783681538,100
                135.7542987346,34.9783602382,100
                135.7542972247,34.9783377385,100
                135.7542971658,34.9783368684,100
                135.7542971446,34.9783365619,100
                135.7542970141,34.9783346062,100
                135.7542968355,34.9783319608,100
                135.7542967516,34.9783307006,100
                135.7542966486,34.978329173,100
                135.7542965807,34.978328156,100
                135.7542964905,34.9783268183,100
                135.754296413,34.9783256549,100
                135.7542963324,34.9783244597,100
                135.7542962575,34.9783233486,100
                135.7542961813,34.9783222001,100
                135.7542961622,34.9783219051,100
                135.7542961179,34.9783212695,100
                135.7542961394,34.9783140577,100
                135.7542929989,34.9782653704,100
                135.7543466724,34.9782636752,100
                135.7543508102,34.9782637408,100
                135.7543507993,34.9782635884,100
                135.7543447401,34.9781762277,100
                135.7543981808,34.978172745,100
                135.7543965418,34.9781430761,100
                135.754411618,34.9781375426,100
                135.7543989328,34.9779844765,100
                135.7544197901,34.9778170412,100
                135.7544177526,34.9774979982,100
                135.7545603026,34.9774925092,100
                135.7545709363,34.97733118,100
                135.7545706293,34.9771444044,100
                135.7544267544,34.9771279876,100
                135.7544330474,34.9767404344,100
                135.7544818039,34.976687641,100
                135.7544816782,34.9764170569,100
                135.7543480819,34.976404533,100
                135.7543295653,34.9760884851,100
                135.7538752228,34.9760851048,100
                135.7538781328,34.9757579717,100
                135.753878114,34.9756914171,100
                135.7537438127,34.9756867794,100
                135.7537409999,34.9757267064,100
                135.7535087076,34.9757208147,100
                135.753504806,34.9752449233,100
                135.7535033395,34.9750673012,100
                135.7535021579,34.9749239065,100
                135.753457748,34.974351659,100
                135.7534374692,34.9740905402,100
                135.7534081028,34.9737122815,100
                135.7533928426,34.9733087676,100
                135.7533663718,34.9726090804,100
                135.7533607357,34.9724603247,100
                135.7533592762,34.9723602438,100
                135.7533422201,34.9711808181,100
                135.7522336294,34.9712575124,100
                135.7522604637,34.9723795613,100
              </coordinates>
            </LinearRing>
          </outerBoundaryIs>
        </Polygon>
      </Placemark>
    </Document>
  </Document>
</kml>
