<?xml version="1.0" encoding="UTF-8"?>
<kml xmlns="http://www.opengis.net/kml/2.2">
  <Document id="root_doc">
    <Document id="_6_09______disv4326">
      <name>26_09東和disv4326</name>
      <Placemark id="_6_09______disv4326.1">
        <visibility>1</visibility>
        <Polygon>
          <extrude>0</extrude>
          <outerBoundaryIs>
            <LinearRing>
              <coordinates>
                135.7584715821,34.9711114703,100
                135.7576063066,34.9711148177,100
                135.7570411275,34.9711196756,100
                135.7563359058,34.971125658,100
                135.7551683917,34.9711355646,100
                135.7533422201,34.9711808181,100
                135.7533592762,34.9723602438,100
                135.7533607357,34.9724603247,100
                135.7533663718,34.9726090804,100
                135.7533928426,34.9733087676,100
                135.7534081028,34.9737122815,100
                135.7534374692,34.9740905402,100
                135.753457748,34.974351659,100
                135.7535021579,34.9749239065,100
                135.7535033395,34.9750673012,100
                135.753504806,34.9752449233,100
                135.7535087076,34.9757208147,100
                135.7537409999,34.9757267064,100
                135.7537438127,34.9756867794,100
                135.753878114,34.9756914171,100
                135.7538781328,34.9757579717,100
                135.7538752228,34.9760851048,100
                135.7543295653,34.9760884851,100
                135.7543480819,34.976404533,100
                135.7544816782,34.9764170569,100
                135.7544818039,34.976687641,100
                135.7544330474,34.9767404344,100
                135.7544267544,34.9771279876,100
                135.7545706293,34.9771444044,100
                135.7545709363,34.97733118,100
                135.7545603026,34.9774925092,100
                135.7544177526,34.9774979982,100
                135.7544197901,34.9778170412,100
                135.7543989328,34.9779844765,100
                135.754411618,34.9781375426,100
                135.7543965418,34.9781430761,100
                135.7543981808,34.978172745,100
                135.7543447401,34.9781762277,100
                135.7543507993,34.9782635884,100
                135.7543508102,34.9782637408,100
                135.7543466724,34.9782636752,100
                135.7542929989,34.9782653704,100
                135.7542961394,34.9783140577,100
                135.7542961179,34.9783212695,100
                135.7542961622,34.9783219051,100
                135.7542961813,34.9783222001,100
                135.7542962575,34.9783233486,100
                135.7542963324,34.9783244597,100
                135.754296413,34.9783256549,100
                135.7542964905,34.9783268183,100
                135.7542965807,34.978328156,100
                135.7542966486,34.978329173,100
                135.7542967516,34.9783307006,100
                135.7542968355,34.9783319608,100
                135.7542970141,34.9783346062,100
                135.7542971446,34.9783365619,100
                135.7542971658,34.9783368684,100
                135.7542972247,34.9783377385,100
                135.7542987346,34.9783602382,100
                135.7542992645,34.9783681538,100
                135.7542999277,34.9783681325,100
                135.7543518424,34.9783664564,100
                135.7543539417,34.9783971117,100
                135.7543539309,34.9784007173,100
                135.7543577011,34.9784649295,100
                135.7544526464,34.9784623725,100
                135.7544561439,34.9785162585,100
                135.7544772948,34.9788412614,100
                135.7545742044,34.9788594398,100
                135.7545842816,34.9790205078,100
                135.7545881495,34.9790800036,100
                135.7546700427,34.9790766009,100
                135.7547754891,34.9790755448,100
                135.7549722807,34.979073545,100
                135.7550685574,34.9790764617,100
                135.7550681634,34.9794200301,100
                135.7552614539,34.9794209897,100
                135.7555040495,34.9794325322,100
                135.7554381296,34.9806675197,100
                135.7567848222,34.9806553474,100
                135.7568013085,34.980759334,100
                135.7581193359,34.9807397652,100
                135.7582229385,34.9807401816,100
                135.7597509855,34.9807450292,100
                135.7607102182,34.9807588321,100
                135.7611109242,34.9807649053,100
                135.7611530467,34.9796163589,100
                135.761201852,34.979391363,100
                135.7613189948,34.9789399318,100
                135.7614094203,34.9785914863,100
                135.7614812397,34.978433021,100
                135.7615261149,34.978338242,100
                135.7618317584,34.9777782402,100
                135.7618355397,34.9777423292,100
                135.7618962566,34.9771667753,100
                135.7618939202,34.9771383884,100
                135.7618916933,34.9771112194,100
                135.7618860843,34.977042803,100
                135.7618718614,34.9768693832,100
                135.7618649971,34.9766125913,100
                135.7618507459,34.9760804131,100
                135.7618255837,34.9751050845,100
                135.7618252946,34.9750934639,100
                135.761824877,34.9750766948,100
                135.7618181113,34.9748062461,100
                135.7618094302,34.9744590223,100
                135.7618128425,34.9742445769,100
                135.7618140918,34.9741660533,100
                135.7618282103,34.9732853859,100
                135.761875987,34.9726178983,100
                135.7619974428,34.9722840297,100
                135.7623547133,34.9713019171,100
                135.7606078166,34.9708198437,100
                135.7597440226,34.9705814928,100
                135.759722931,34.9710676116,100
                135.759534396,34.9711073112,100
                135.7591150206,34.9711090152,100
                135.7584715821,34.9711114703,100
              </coordinates>
            </LinearRing>
          </outerBoundaryIs>
        </Polygon>
      </Placemark>
    </Document>
  </Document>
</kml>
