<?xml version="1.0" encoding="UTF-8"?>
<kml xmlns="http://www.opengis.net/kml/2.2">
  <Document id="root_doc">
    <Document id="_6_07______disv4326">
      <name>26_07山王disv4326</name>
      <Placemark id="_6_07______disv4326.1">
        <visibility>1</visibility>
        <Polygon>
          <extrude>0</extrude>
          <outerBoundaryIs>
            <LinearRing>
              <coordinates>
                135.7554302247,34.9808157576,100
                135.7554105823,34.9811839228,100
                135.7553966261,34.9819573502,100
                135.7558574847,34.9819661602,100
                135.755987481,34.9819686737,100
                135.7567241636,34.9819827493,100
                135.756762507,34.9819946578,100
                135.7567655252,34.9823265268,100
                135.7567718255,34.9830172397,100
                135.7567722802,34.9830660487,100
                135.7567742522,34.9832821997,100
                135.7568037138,34.9832878222,100
                135.7567709664,34.984298629,100
                135.7567674829,34.9844059568,100
                135.7575540615,34.9844089992,100
                135.7580422639,34.9844061647,100
                135.7580661573,34.9843347263,100
                135.7582003557,34.984334992,100
                135.7582408281,34.9843146471,100
                135.7582666233,34.9843015983,100
                135.7582675813,34.9842961776,100
                135.7596836055,34.9842867174,100
                135.7597595349,34.9842910929,100
                135.7599990036,34.9843050187,100
                135.7608438381,34.9843540147,100
                135.7611472327,34.984381023,100
                135.7627224608,34.9844261591,100
                135.7627259807,34.9843624982,100
                135.7637158777,34.9843676683,100
                135.7643211881,34.9843708175,100
                135.7644143498,34.9843715617,100
                135.7647583418,34.9843710318,100
                135.76504807,34.9843370119,100
                135.7651655346,34.9843151246,100
                135.7652092188,34.9843070399,100
                135.7658576652,34.9841716604,100
                135.7662715932,34.9841009028,100
                135.7665065642,34.9840943833,100
                135.766547969,34.9840604454,100
                135.766578745,34.9840930426,100
                135.7667629886,34.9839526806,100
                135.7668434224,34.9839528352,100
                135.7668359835,34.9838601369,100
                135.7668070494,34.9838591151,100
                135.7668394388,34.9834736598,100
                135.7668580202,34.9834728301,100
                135.7668580898,34.983471837,100
                135.7668856396,34.9834578747,100
                135.7668902883,34.983311603,100
                135.7668913074,34.9831179975,100
                135.7668860664,34.9831179165,100
                135.766812057,34.9830928424,100
                135.7668393842,34.9826506742,100
                135.7668446588,34.9820186591,100
                135.7679263454,34.9820439774,100
                135.7678273092,34.9817446775,100
                135.7677313816,34.9814362288,100
                135.7676650054,34.9812227731,100
                135.7675156685,34.9807160351,100
                135.7675167251,34.9803412871,100
                135.7660480452,34.9802664777,100
                135.7660035036,34.9809010947,100
                135.7657271421,34.9808880947,100
                135.7641788283,34.9808158558,100
                135.7634383193,34.9808029313,100
                135.7630550267,34.9807961945,100
                135.7626903444,34.9807897757,100
                135.761769534,34.9807749373,100
                135.7611109242,34.9807649053,100
                135.7607102182,34.9807588321,100
                135.7597509855,34.9807450292,100
                135.7582229385,34.9807401816,100
                135.7581193359,34.9807397652,100
                135.7568013085,34.980759334,100
                135.7567848222,34.9806553474,100
                135.7554381296,34.9806675197,100
                135.7554302247,34.9808157576,100
              </coordinates>
            </LinearRing>
          </outerBoundaryIs>
        </Polygon>
      </Placemark>
    </Document>
  </Document>
</kml>
