<?xml version="1.0" encoding="UTF-8"?>
<kml xmlns="http://www.opengis.net/kml/2.2">
  <Document id="root_doc">
    <Document id="_6_11______disv4326">
      <name>26_11久世disv4326</name>
      <Placemark id="_6_11______disv4326.1">
        <visibility>1</visibility>
        <Polygon>
          <extrude>0</extrude>
          <outerBoundaryIs>
            <LinearRing>
              <coordinates>
                135.7169031457,34.9505449202,100
                135.7168802878,34.9507348149,100
                135.7167714709,34.9507328039,100
                135.7162866525,34.9507121116,100
                135.7158056719,34.950714244,100
                135.7157563286,34.9517155575,100
                135.715386496,34.9517497777,100
                135.7150980373,34.9517506619,100
                135.7148116672,34.9517914117,100
                135.7146975304,34.9518314335,100
                135.7146674708,34.9518419283,100
                135.7146449483,34.9518497642,100
                135.7144004853,34.951753767,100
                135.714284328,34.9517339188,100
                135.7138316695,34.9517627313,100
                135.7136673442,34.9519718048,100
                135.7136279426,34.9519938989,100
                135.7132930564,34.9520262922,100
                135.7133008766,34.9523976812,100
                135.7132625191,34.9524393562,100
                135.7132672495,34.9527886932,100
                135.7129529863,34.9528178942,100
                135.7126758107,34.9527963671,100
                135.7125238854,34.9527845673,100
                135.712402214,34.9527837797,100
                135.7121498095,34.9527821457,100
                135.7121467173,34.9532349938,100
                135.7121462711,34.9532466136,100
                135.7121350235,34.95353908,100
                135.7120927943,34.9537804838,100
                135.7109315174,34.9538001623,100
                135.7109008702,34.9538006539,100
                135.7108316765,34.9539286721,100
                135.7108645713,34.9547088936,100
                135.7108709166,34.9548593452,100
                135.7108538565,34.955155671,100
                135.7108218438,34.955396956,100
                135.7099337011,34.9553853598,100
                135.709926345,34.9553852016,100
                135.7095023115,34.9553796944,100
                135.7095207595,34.9556411008,100
                135.7095228391,34.9556704741,100
                135.7095502743,34.9560600116,100
                135.7095944459,34.9565387523,100
                135.7095928752,34.956745246,100
                135.7095925218,34.9568532135,100
                135.7095910632,34.9572929685,100
                135.7096747121,34.9572903488,100
                135.7096943676,34.957709941,100
                135.7097020734,34.9578745519,100
                135.709584472,34.9578742743,100
                135.7095842701,34.9578833592,100
                135.7095828653,34.9580666122,100
                135.7095838011,34.9581666941,100
                135.7095883435,34.9586518905,100
                135.7095886405,34.9586834434,100
                135.7095965319,34.9595291738,100
                135.7095975624,34.9596638365,100
                135.7096053984,34.9606924716,100
                135.7096079529,34.9612007203,100
                135.7096081577,34.9612415419,100
                135.7096087521,34.9613598998,100
                135.7096103334,34.961675179,100
                135.7096123119,34.9620667009,100
                135.7096152913,34.9626567645,100
                135.7088275587,34.9626675094,100
                135.7074866558,34.9626410879,100
                135.7061181609,34.9626141075,100
                135.7060845607,34.962613444,100
                135.7060832414,34.9626296957,100
                135.7060029227,34.9636189084,100
                135.7058531296,34.9636235518,100
                135.7048273594,34.9636293328,100
                135.7048255059,34.964555262,100
                135.7048454633,34.966094681,100
                135.7048571596,34.9674416683,100
                135.704851427,34.9687152252,100
                135.7063756217,34.9687283144,100
                135.7094948926,34.9687548132,100
                135.711564464,34.9685604494,100
                135.7117693524,34.9685412106,100
                135.7120318852,34.9685399259,100
                135.7140669356,34.9685302455,100
                135.7141320871,34.9685050427,100
                135.7142177975,34.968509961,100
                135.7143853468,34.9685888804,100
                135.714606814,34.968606439,100
                135.7147250972,34.9685931915,100
                135.7150595488,34.9685329771,100
                135.7155304423,34.9685351962,100
                135.7156434777,34.9685244706,100
                135.7157352696,34.9685082732,100
                135.7163420082,34.9685915863,100
                135.71641628,34.968601759,100
                135.7165670473,34.9685964728,100
                135.7168214752,34.9685635362,100
                135.7168985946,34.9685535018,100
                135.7170024756,34.9685551494,100
                135.7170226151,34.9685453363,100
                135.7173317671,34.9685530206,100
                135.717693616,34.9685437819,100
                135.7178887498,34.9685304269,100
                135.7182308175,34.9685071256,100
                135.7186730726,34.9685282119,100
                135.718832716,34.968535691,100
                135.7192706942,34.9685374682,100
                135.7195265976,34.9685869312,100
                135.7196698856,34.9685990907,100
                135.7201207726,34.9685715961,100
                135.7211405012,34.9685377857,100
                135.7220573737,34.9684963394,100
                135.7219843515,34.967283446,100
                135.7219540715,34.9672559094,100
                135.7221814096,34.964890544,100
                135.7221928732,34.9647712675,100
                135.7221955084,34.9647634558,100
                135.7225260035,34.9637797386,100
                135.7225830617,34.9636098901,100
                135.7228424507,34.9628377532,100
                135.7228459066,34.9628274789,100
                135.7234457709,34.961951139,100
                135.7238090727,34.9615119138,100
                135.7242328107,34.9609995757,100
                135.7249868723,34.9600541297,100
                135.725234893,34.9598070551,100
                135.7252046406,34.959784097,100
                135.7258809368,34.9589310853,100
                135.7262985278,34.9585183833,100
                135.7264373037,34.958380947,100
                135.7274020231,34.9574255148,100
                135.7274612087,34.9573711181,100
                135.7275187546,34.9573182276,100
                135.7284797939,34.9564348428,100
                135.7288572021,34.956093387,100
                135.7291926178,34.9557679662,100
                135.7293451248,34.955619977,100
                135.7300549961,34.9549692171,100
                135.7302956849,34.9546838704,100
                135.7308241504,34.9540191134,100
                135.7310881453,34.9536999395,100
                135.7315115796,34.9531880635,100
                135.7321721669,34.9523652616,100
                135.7328025956,34.9515390072,100
                135.7306405879,34.9504973447,100
                135.7299706344,34.9508338168,100
                135.7297050989,34.9509671741,100
                135.7296213452,34.9509578341,100
                135.7295300017,34.9509476321,100
                135.7295097322,34.9506593875,100
                135.7294840494,34.9506327084,100
                135.7291689388,34.9506360999,100
                135.7288906853,34.950649362,100
                135.7283907272,34.950646005,100
                135.7277128241,34.9506314764,100
                135.7276961517,34.9505959429,100
                135.7277090541,34.9502888273,100
                135.7276932941,34.949758738,100
                135.7276749901,34.9496922118,100
                135.7276259943,34.9496669594,100
                135.7273362183,34.9496754184,100
                135.7266168016,34.9496964156,100
                135.7264744064,34.9497223688,100
                135.7254655083,34.9497136431,100
                135.724268713,34.9497032199,100
                135.7241555162,34.9497126849,100
                135.7241437659,34.9491609857,100
                135.7241352034,34.9487586742,100
                135.7235946004,34.9487641527,100
                135.7232268703,34.9487551568,100
                135.7229784189,34.948785165,100
                135.72294518,34.9488072044,100
                135.7223278744,34.9488118712,100
                135.7222943092,34.9485892396,100
                135.7222819365,34.9482369248,100
                135.7223923985,34.9482256938,100
                135.7224270247,34.9481655549,100
                135.7224303613,34.9480291413,100
                135.7223896002,34.9478750919,100
                135.7222644331,34.9477736027,100
                135.7222990928,34.9476581066,100
                135.7226666517,34.9476590048,100
                135.7230649876,34.9476698349,100
                135.7233918447,34.9476787178,100
                135.7234173222,34.9476395635,100
                135.7233964372,34.9475268299,100
                135.7232408155,34.9474464025,100
                135.7231654089,34.9471822639,100
                135.7232029509,34.9469242955,100
                135.7231129766,34.9468508471,100
                135.723051928,34.9467333755,100
                135.7231836295,34.9465769661,100
                135.7232222067,34.9465176803,100
                135.7233156188,34.9464562642,100
                135.7236399711,34.946165907,100
                135.723708375,34.9461272537,100
                135.7237480204,34.9460421934,100
                135.7237347283,34.9458377783,100
                135.7237633961,34.9457547353,100
                135.7241195163,34.9457591237,100
                135.7242440297,34.9456352349,100
                135.7243666265,34.9454561256,100
                135.7243774753,34.9453295877,100
                135.7242792237,34.9450804004,100
                135.7243173684,34.9448264485,100
                135.7243180986,34.9446886237,100
                135.7245964,34.9446740318,100
                135.7246618124,34.9445622672,100
                135.7245932919,34.9444742911,100
                135.7244651965,34.9443868162,100
                135.7244642543,34.944224197,100
                135.7246373666,34.9441005591,100
                135.7245964252,34.9440466606,100
                135.7245721818,34.9437515143,100
                135.7246464385,34.9436419535,100
                135.7247974408,34.9435310126,100
                135.7247991812,34.9434174169,100
                135.724696092,34.9432165384,100
                135.7247180789,34.9431233408,100
                135.7248883825,34.9428246116,100
                135.7249325866,34.942665755,100
                135.7246373583,34.9427589798,100
                135.7245480231,34.9427788529,100
                135.7242652359,34.9427747038,100
                135.7241772929,34.9427935237,100
                135.7241102081,34.9428356311,100
                135.7238652829,34.9428200845,100
                135.723609694,34.9428292342,100
                135.7231919577,34.9428271757,100
                135.7231531819,34.9428109619,100
                135.7230161229,34.9428168534,100
                135.7228054096,34.9427566604,100
                135.7225355069,34.9427617615,100
                135.7221907163,34.9427822587,100
                135.7209479313,34.9427675562,100
                135.7202574188,34.9427800804,100
                135.7201379931,34.9427502317,100
                135.7197614479,34.9426560613,100
                135.7193415194,34.9426641229,100
                135.7192520503,34.9427363193,100
                135.7191302564,34.9426410357,100
                135.7189587161,34.9425750785,100
                135.7185891867,34.9424682445,100
                135.7184215589,34.9424149718,100
                135.7182779112,34.9423078057,100
                135.718209338,34.9423527227,100
                135.7182215834,34.942780948,100
                135.7183173745,34.9427811664,100
                135.7182746932,34.9432656081,100
                135.7183013952,34.9437953518,100
                135.7182458957,34.9437988177,100
                135.7182563134,34.9447583412,100
                135.7179685724,34.9447696571,100
                135.7168912253,34.9447969152,100
                135.716882352,34.945704087,100
                135.716882155,34.9457245103,100
                135.7168752897,34.946861358,100
                135.7168704608,34.9477806542,100
                135.7165525108,34.9477867571,100
                135.7165564388,34.948016927,100
                135.7168294897,34.9480344563,100
                135.7168296481,34.9481528476,100
                135.7168304431,34.9487163506,100
                135.7170213831,34.9487273526,100
                135.7171301031,34.9488276113,100
                135.7170906984,34.9488513958,100
                135.7169872498,34.9489830016,100
                135.7169479398,34.9490865827,100
                135.7169555255,34.9491705513,100
                135.7170236944,34.9492793094,100
                135.7171341043,34.9493159031,100
                135.7173890714,34.9493518423,100
                135.7173663967,34.9494877181,100
                135.7174457332,34.9496269967,100
                135.7174799287,34.9499379485,100
                135.7172999787,34.9500536032,100
                135.7173773391,34.9505388239,100
                135.7169031457,34.9505449202,100
              </coordinates>
            </LinearRing>
          </outerBoundaryIs>
        </Polygon>
      </Placemark>
    </Document>
  </Document>
</kml>
