<?xml version="1.0" encoding="UTF-8"?>
<kml xmlns="http://www.opengis.net/kml/2.2">
  <Document id="root_doc">
    <Document id="_6_13_________disv4326">
      <name>26_13吉祥院disv4326</name>
      <Placemark id="_6_13_________disv4326.1">
        <visibility>1</visibility>
        <Polygon>
          <extrude>0</extrude>
          <outerBoundaryIs>
            <LinearRing>
              <coordinates>
                135.7302733756,34.9683110325,100
                135.7302747011,34.9683307558,100
                135.7282694841,34.9683911175,100
                135.7278885267,34.9684025967,100
                135.7273158817,34.9684199161,100
                135.7265441915,34.9684430567,100
                135.7265778433,34.9697136835,100
                135.7248191256,34.9697415767,100
                135.7248198679,34.9699132859,100
                135.7250492538,34.9706197872,100
                135.7250827171,34.971142591,100
                135.7252637703,34.9714449993,100
                135.725293972,34.9715949412,100
                135.725233488,34.9716381196,100
                135.7251811824,34.9718547838,100
                135.7260065344,34.9729573769,100
                135.7266384245,34.9729453373,100
                135.726644613,34.9733087675,100
                135.7266631452,34.9743970863,100
                135.7266675953,34.9746580375,100
                135.727292474,34.9750080564,100
                135.7276458111,34.9752059877,100
                135.7279603139,34.9753821631,100
                135.7282547345,34.9755470887,100
                135.7284479791,34.9756553368,100
                135.7292482068,34.9760938421,100
                135.7293157469,34.9761308959,100
                135.7296551792,34.9763166646,100
                135.729803414,34.9763979147,100
                135.7306616322,34.9768680206,100
                135.7309331439,34.9770167307,100
                135.7315601477,34.9773823685,100
                135.7322264439,34.9777709076,100
                135.7328519224,34.9781356193,100
                135.732831814,34.9785820976,100
                135.7328286571,34.9786523095,100
                135.7328009917,34.9792666047,100
                135.732772382,34.979901675,100
                135.7333184534,34.9799168105,100
                135.7333269303,34.9797215991,100
                135.7333312732,34.9796214578,100
                135.7333747432,34.9786203273,100
                135.734064856,34.9786564786,100
                135.7349799338,34.9787043847,100
                135.734985139,34.9781386361,100
                135.7349853938,34.9779167834,100
                135.7349856501,34.9777146514,100
                135.7354079804,34.9777171871,100
                135.7354169755,34.9777172391,100
                135.7354929196,34.977717676,100
                135.7355650573,34.9777180908,100
                135.7355646942,34.9777856318,100
                135.7355888016,34.9777965213,100
                135.735641465,34.9778203084,100
                135.7357103597,34.9778208262,100
                135.7357161971,34.9777161285,100
                135.735748582,34.9777164176,100
                135.7359632366,34.9777213893,100
                135.7361532499,34.9777232367,100
                135.7366021063,34.9777256852,100
                135.7367119704,34.9777282364,100
                135.7369999849,34.9777349233,100
                135.7371819519,34.9777391887,100
                135.7374816289,34.9777461014,100
                135.7377782566,34.9777771642,100
                135.7383291843,34.9778371549,100
                135.7383371,34.9775669341,100
                135.7383396537,34.9774797482,100
                135.7380737925,34.9774745299,100
                135.7380669159,34.9771642746,100
                135.7382952619,34.9771334931,100
                135.738302966,34.9767777014,100
                135.7382789951,34.9767748328,100
                135.7382748912,34.97660354,100
                135.7382697274,34.9763880852,100
                135.7384348778,34.9763919606,100
                135.7384353137,34.976109681,100
                135.7384353931,34.9760570704,100
                135.7384354291,34.97603342,100
                135.7384356557,34.9758856835,100
                135.7384357409,34.975830148,100
                135.7384359869,34.9756630204,100
                135.7382766419,34.9756558543,100
                135.7382693682,34.9752836104,100
                135.7383259496,34.9752815501,100
                135.7383422891,34.9745255969,100
                135.7392457104,34.9745204184,100
                135.7399379944,34.9745164752,100
                135.7401901375,34.9745150382,100
                135.740889164,34.9745109609,100
                135.7414015717,34.9745079627,100
                135.7413978913,34.9743703363,100
                135.7413958974,34.973295442,100
                135.7411885247,34.9732925371,100
                135.7411770719,34.9728883906,100
                135.741171751,34.9727005441,100
                135.7411680304,34.9725693272,100
                135.7411652932,34.9724723398,100
                135.741160552,34.9723047082,100
                135.741149585,34.9719164093,100
                135.7411494517,34.9719113381,100
                135.7411404878,34.9715946693,100
                135.7411087573,34.9704737913,100
                135.7410131955,34.9704366124,100
                135.7406037616,34.9704606733,100
                135.740234666,34.9700453403,100
                135.7400207677,34.969666327,100
                135.7399530429,34.9694608803,100
                135.739195768,34.9694455977,100
                135.7386602237,34.9703734844,100
                135.7385193038,34.9705858781,100
                135.7384999217,34.9703206001,100
                135.7373363164,34.9703325345,100
                135.7370069742,34.9704487374,100
                135.7366109921,34.9704592211,100
                135.7363050255,34.9704673624,100
                135.7353607732,34.97049236,100
                135.7350724126,34.9704999735,100
                135.7341887667,34.9705234088,100
                135.7341853804,34.9703106338,100
                135.734181727,34.9700809557,100
                135.7341732607,34.9695477137,100
                135.7341732041,34.9695448964,100
                135.7341655133,34.9690625065,100
                135.7341650859,34.9690356019,100
                135.7341525922,34.9682494705,100
                135.7341520667,34.9682164053,100
                135.7328424356,34.968248347,100
                135.7302733756,34.9683110325,100
              </coordinates>
            </LinearRing>
          </outerBoundaryIs>
        </Polygon>
      </Placemark>
    </Document>
  </Document>
</kml>
