<?xml version="1.0" encoding="UTF-8"?>
<kml xmlns="http://www.opengis.net/kml/2.2">
  <Document id="root_doc">
    <Document id="_6_12______disv4326">
      <name>26_12祥栄disv4326</name>
      <Placemark id="_6_12______disv4326.1">
        <visibility>1</visibility>
        <Polygon>
          <extrude>0</extrude>
          <outerBoundaryIs>
            <LinearRing>
              <coordinates>
                135.7274020231,34.9574255148,100
                135.7264373037,34.958380947,100
                135.7262985278,34.9585183833,100
                135.7258809368,34.9589310853,100
                135.7252046406,34.959784097,100
                135.725234893,34.9598070551,100
                135.7249868723,34.9600541297,100
                135.7242328107,34.9609995757,100
                135.7238090727,34.9615119138,100
                135.7234457709,34.961951139,100
                135.7228459066,34.9628274789,100
                135.7228424507,34.9628377532,100
                135.7225830617,34.9636098901,100
                135.7225260035,34.9637797386,100
                135.7221955084,34.9647634558,100
                135.7221928732,34.9647712675,100
                135.7221814096,34.964890544,100
                135.7219540715,34.9672559094,100
                135.7219843515,34.967283446,100
                135.7220573737,34.9684963394,100
                135.7238477694,34.9685249006,100
                135.7241689764,34.9685300618,100
                135.7243466685,34.9685327862,100
                135.7246219631,34.9687951923,100
                135.7245789112,34.9690609675,100
                135.7244488886,34.9692029434,100
                135.7248191256,34.9697415767,100
                135.7265778433,34.9697136835,100
                135.7265441915,34.9684430567,100
                135.7273158817,34.9684199161,100
                135.7278885267,34.9684025967,100
                135.7282694841,34.9683911175,100
                135.7302747011,34.9683307558,100
                135.7302733756,34.9683110325,100
                135.7328424356,34.968248347,100
                135.7341520667,34.9682164053,100
                135.7341525922,34.9682494705,100
                135.7341650859,34.9690356019,100
                135.7341655133,34.9690625065,100
                135.7341732041,34.9695448964,100
                135.7341732607,34.9695477137,100
                135.734181727,34.9700809557,100
                135.7341853804,34.9703106338,100
                135.7341887667,34.9705234088,100
                135.7350724126,34.9704999735,100
                135.7353607732,34.97049236,100
                135.7363050255,34.9704673624,100
                135.7366109921,34.9704592211,100
                135.7370069742,34.9704487374,100
                135.7373363164,34.9703325345,100
                135.7384999217,34.9703206001,100
                135.7385193038,34.9705858781,100
                135.7386602237,34.9703734844,100
                135.739195768,34.9694455977,100
                135.7399530429,34.9694608803,100
                135.7398053686,34.9690129868,100
                135.7398055883,34.9689348102,100
                135.7398065123,34.9686092876,100
                135.7399354758,34.9682414993,100
                135.7401494549,34.9674266661,100
                135.7399764999,34.9674135489,100
                135.7384200368,34.9672954131,100
                135.7383741762,34.9657869259,100
                135.7383449007,34.964824514,100
                135.7366350152,34.9648659655,100
                135.7366244871,34.9648660462,100
                135.7366252487,34.964862342,100
                135.7366347526,34.9648161002,100
                135.7363656226,34.9647295985,100
                135.7361829362,34.9646708802,100
                135.7358482689,34.9645340268,100
                135.7358251963,34.9645267465,100
                135.7357705951,34.9645095172,100
                135.7357938725,34.9644203191,100
                135.7357980211,34.9643961097,100
                135.7357799856,34.9643094045,100
                135.735588418,34.9642864502,100
                135.7356273162,34.9640988396,100
                135.7351839211,34.9641101291,100
                135.7352124088,34.9637038115,100
                135.7356645875,34.963795932,100
                135.7356409649,34.9628752935,100
                135.7357869837,34.9626230504,100
                135.7357689631,34.9622055741,100
                135.7360090887,34.9622518765,100
                135.7359355473,34.9606673942,100
                135.7350004059,34.9604344135,100
                135.7335192911,34.9600654493,100
                135.7325538417,34.9599903092,100
                135.7319530827,34.9578318609,100
                135.7317556998,34.9571226195,100
                135.731771783,34.956839807,100
                135.7318022555,34.956766767,100
                135.7322024611,34.9561925782,100
                135.7339691757,34.9540856262,100
                135.7331032795,34.9539643667,100
                135.7327145372,34.953910064,100
                135.7310881453,34.9536999395,100
                135.7308241504,34.9540191134,100
                135.7302956849,34.9546838704,100
                135.7300549961,34.9549692171,100
                135.7293451248,34.955619977,100
                135.7291926178,34.9557679662,100
                135.7288572021,34.956093387,100
                135.7284797939,34.9564348428,100
                135.7275187546,34.9573182276,100
                135.7274612087,34.9573711181,100
                135.7274020231,34.9574255148,100
              </coordinates>
            </LinearRing>
          </outerBoundaryIs>
        </Polygon>
      </Placemark>
    </Document>
  </Document>
</kml>
