<?xml version="1.0" encoding="UTF-8"?>
<kml xmlns="http://www.opengis.net/kml/2.2">
  <Document id="root_doc">
    <Document id="_6_10_________disv4326">
      <name>26_10上鳥羽disv4326</name>
      <Placemark id="_6_10_________disv4326.1">
        <visibility>1</visibility>
        <Polygon>
          <extrude>0</extrude>
          <outerBoundaryIs>
            <LinearRing>
              <coordinates>
                135.7413571399,34.9489959027,100
                135.7409753799,34.9485217924,100
                135.7408390726,34.9483411981,100
                135.7407984289,34.948205885,100
                135.7407849156,34.9481495119,100
                135.7406899083,34.9478901247,100
                135.7406129434,34.9477031085,100
                135.7405967465,34.9476639843,100
                135.7405267309,34.9473931008,100
                135.7404861188,34.9472131343,100
                135.7403768085,34.9468414502,100
                135.7403651397,34.9464280005,100
                135.7405287988,34.9456993332,100
                135.7412826046,34.9443461753,100
                135.7406462033,34.9442730334,100
                135.7400569866,34.9442103428,100
                135.740198301,34.9436137597,100
                135.7400039866,34.9434489561,100
                135.73975178,34.9435712371,100
                135.7396104615,34.9436884762,100
                135.7392026432,34.9423413263,100
                135.7391732628,34.9422442804,100
                135.7374579352,34.9417870225,100
                135.7367954758,34.9440656046,100
                135.7367470509,34.9445038567,100
                135.7366781089,34.9451439888,100
                135.7366604803,34.9453458737,100
                135.736396425,34.9458095018,100
                135.7350566524,34.9481933778,100
                135.7350503302,34.9482046327,100
                135.7341827423,34.9496334715,100
                135.7336961525,34.9502493208,100
                135.7328025956,34.9515390072,100
                135.7321721669,34.9523652616,100
                135.7315115796,34.9531880635,100
                135.7310881453,34.9536999395,100
                135.7327145372,34.953910064,100
                135.7331032795,34.9539643667,100
                135.7339691757,34.9540856262,100
                135.7322024611,34.9561925782,100
                135.7318022555,34.956766767,100
                135.731771783,34.956839807,100
                135.7317556998,34.9571226195,100
                135.7319530827,34.9578318609,100
                135.7325538417,34.9599903092,100
                135.7335192911,34.9600654493,100
                135.7350004059,34.9604344135,100
                135.7359355473,34.9606673942,100
                135.7360090887,34.9622518765,100
                135.7357689631,34.9622055741,100
                135.7357869837,34.9626230504,100
                135.7356409649,34.9628752935,100
                135.7356645875,34.963795932,100
                135.7352124088,34.9637038115,100
                135.7351839211,34.9641101291,100
                135.7356273162,34.9640988396,100
                135.735588418,34.9642864502,100
                135.7357799856,34.9643094045,100
                135.7357980211,34.9643961097,100
                135.7357938725,34.9644203191,100
                135.7357705951,34.9645095172,100
                135.7358251963,34.9645267465,100
                135.7358482689,34.9645340268,100
                135.7361829362,34.9646708802,100
                135.7363656226,34.9647295985,100
                135.7366347526,34.9648161002,100
                135.7366252487,34.964862342,100
                135.7366244871,34.9648660462,100
                135.7366350152,34.9648659655,100
                135.7383449007,34.964824514,100
                135.7383741762,34.9657869259,100
                135.7384200368,34.9672954131,100
                135.7399764999,34.9674135489,100
                135.7401494549,34.9674266661,100
                135.7399354758,34.9682414993,100
                135.7398065123,34.9686092876,100
                135.7398055883,34.9689348102,100
                135.7398053686,34.9690129868,100
                135.7399530429,34.9694608803,100
                135.7400207677,34.969666327,100
                135.740234666,34.9700453403,100
                135.7406037616,34.9704606733,100
                135.7410131955,34.9704366124,100
                135.7411087573,34.9704737913,100
                135.7411404878,34.9715946693,100
                135.7411494517,34.9719113381,100
                135.741149585,34.9719164093,100
                135.741160552,34.9723047082,100
                135.7411652932,34.9724723398,100
                135.7411680304,34.9725693272,100
                135.741171751,34.9727005441,100
                135.7411770719,34.9728883906,100
                135.7411885247,34.9732925371,100
                135.7413958974,34.973295442,100
                135.7413978913,34.9743703363,100
                135.7421782297,34.9743711433,100
                135.7423577472,34.9744875193,100
                135.742480823,34.974489821,100
                135.7425484596,34.9733399267,100
                135.7428759178,34.973337797,100
                135.7429081729,34.9733375872,100
                135.7438770834,34.9733309624,100
                135.7459379017,34.9733170322,100
                135.7460519166,34.9733163535,100
                135.7466936459,34.9733130396,100
                135.7482219631,34.9733052222,100
                135.748518195,34.9733036365,100
                135.7486015881,34.9733031898,100
                135.7486046629,34.9727864606,100
                135.7486134082,34.9713106443,100
                135.7489086252,34.9713063248,100
                135.7490267452,34.9713045974,100
                135.7506235144,34.9712811923,100
                135.7522336294,34.9712575124,100
                135.7533422201,34.9711808181,100
                135.7551683917,34.9711355646,100
                135.7563359058,34.971125658,100
                135.7570411275,34.9711196756,100
                135.7576063066,34.9711148177,100
                135.7584715821,34.9711114703,100
                135.7591150206,34.9711090152,100
                135.759534396,34.9711073112,100
                135.759722931,34.9710676116,100
                135.7597440226,34.9705814928,100
                135.7606078166,34.9708198437,100
                135.7623547133,34.9713019171,100
                135.7627345298,34.9708220665,100
                135.7612193281,34.9689791637,100
                135.7604955968,34.968152039,100
                135.7603910506,34.9680325276,100
                135.7596307712,34.9671722958,100
                135.7593573498,34.9671747113,100
                135.7590696535,34.9671877318,100
                135.7583577147,34.9672199772,100
                135.7569584817,34.9672833095,100
                135.754992051,34.9673480148,100
                135.7548159619,34.9673383615,100
                135.7547589002,34.967132315,100
                135.7531997618,34.9671232311,100
                135.7529026972,34.9671285419,100
                135.7529093364,34.967249199,100
                135.7527450685,34.967249497,100
                135.7526487743,34.9672497235,100
                135.7523754655,34.9672502919,100
                135.7521095988,34.9672508749,100
                135.7520387673,34.9672117831,100
                135.7520235375,34.9662577997,100
                135.7520091791,34.9658259742,100
                135.7519639658,34.9644662622,100
                135.7519817613,34.9644443955,100
                135.7520612931,34.9643466633,100
                135.7520588547,34.9642673565,100
                135.7520330393,34.9634286422,100
                135.752030525,34.9633467888,100
                135.752026873,34.9632279092,100
                135.7520207654,34.9630297107,100
                135.7523245985,34.9626110046,100
                135.7524134239,34.962247917,100
                135.7525595592,34.9618805815,100
                135.7525787667,34.96172765,100
                135.7525111814,34.9616771556,100
                135.752126672,34.961403385,100
                135.7520881732,34.9610633483,100
                135.7520846774,34.9610303801,100
                135.7520626678,34.9608351077,100
                135.7520623254,34.9608351769,100
                135.7519304876,34.9608662468,100
                135.7518316563,34.9608880874,100
                135.7517848398,34.9607793198,100
                135.7517446975,34.9607230897,100
                135.7517353598,34.9607100082,100
                135.7517045079,34.9606667923,100
                135.7515247864,34.9607680634,100
                135.7514829426,34.9607916416,100
                135.7513617897,34.960657972,100
                135.7516282628,34.9605023529,100
                135.7514990411,34.9603526382,100
                135.7513481629,34.9601903406,100
                135.7513127301,34.9601522365,100
                135.751283032,34.9601278064,100
                135.7512764821,34.9601224408,100
                135.7511882381,34.9600500692,100
                135.751092187,34.9599712719,100
                135.7510616562,34.9599462071,100
                135.7508269033,34.9597535922,100
                135.7508194795,34.9597472383,100
                135.7506387891,34.9595928361,100
                135.7506464767,34.9595823587,100
                135.7499643833,34.9590122307,100
                135.7491968202,34.9583609966,100
                135.7487503057,34.9576302792,100
                135.7486536552,34.9567789426,100
                135.7469409147,34.955690315,100
                135.7464145507,34.9555151108,100
                135.7455973472,34.9554069045,100
                135.7455233428,34.9539289288,100
                135.7455052676,34.9535689959,100
                135.7450730669,34.9535254743,100
                135.7442441421,34.9535937993,100
                135.7436016337,34.9535579967,100
                135.7430499131,34.9537933261,100
                135.7430044749,34.9538262609,100
                135.7428147568,34.9540522889,100
                135.7424105175,34.9536408923,100
                135.7421789797,34.9532685294,100
                135.7420705166,34.9529302347,100
                135.7420852332,34.9525922032,100
                135.7422102998,34.9519726882,100
                135.7422671041,34.9512966836,100
                135.7421592604,34.9507555521,100
                135.7418879738,34.9499548883,100
                135.74156157,34.9492780614,100
                135.7413571399,34.9489959027,100
              </coordinates>
            </LinearRing>
          </outerBoundaryIs>
        </Polygon>
      </Placemark>
    </Document>
  </Document>
</kml>
