<?xml version="1.0" encoding="UTF-8"?>
<kml xmlns="http://www.opengis.net/kml/2.2">
  <Document id="root_doc">
    <Document id="_6_14______disv4326">
      <name>26_14祥豊disv4326</name>
      <Placemark id="_6_14______disv4326.1">
        <visibility>1</visibility>
        <Polygon>
          <extrude>0</extrude>
          <outerBoundaryIs>
            <LinearRing>
              <coordinates>
                135.7252637703,34.9714449993,100
                135.7250827171,34.971142591,100
                135.7250492538,34.9706197872,100
                135.7248198679,34.9699132859,100
                135.7248191256,34.9697415767,100
                135.7244488886,34.9692029434,100
                135.7245789112,34.9690609675,100
                135.7246219631,34.9687951923,100
                135.7243466685,34.9685327862,100
                135.7241689764,34.9685300618,100
                135.7238477694,34.9685249006,100
                135.7220573737,34.9684963394,100
                135.7219055952,34.9704287966,100
                135.721886276,34.9706676499,100
                135.7218023308,34.9717044637,100
                135.7216422623,34.9727203289,100
                135.7215474436,34.9734754697,100
                135.7215217021,34.9735999307,100
                135.7214684497,34.9737575014,100
                135.7213463809,34.97399267,100
                135.7211329713,34.9742862282,100
                135.7210193786,34.9744424647,100
                135.7205773585,34.9750763093,100
                135.72044355,34.97521961,100
                135.7197520887,34.9759598652,100
                135.7185216805,34.977329716,100
                135.7178572289,34.9778595782,100
                135.7171264986,34.9785464818,100
                135.7160248672,34.9794387395,100
                135.715920347,34.9797707118,100
                135.7159174873,34.9797790956,100
                135.715851201,34.9799733879,100
                135.7158233194,34.9801198162,100
                135.7158365486,34.9802550711,100
                135.7159045412,34.9803904531,100
                135.7159999926,34.9805033612,100
                135.7160133759,34.9805935417,100
                135.7159716497,34.9807850127,100
                135.7159711884,34.9809202359,100
                135.716025337,34.9811006604,100
                135.7162030386,34.9815350574,100
                135.7166059058,34.9815961364,100
                135.7166778335,34.981607008,100
                135.7169197286,34.9816357795,100
                135.7178391007,34.9817451236,100
                135.7176974543,34.9823591516,100
                135.7176721383,34.9824688227,100
                135.7176699887,34.9824781843,100
                135.7175763229,34.9828841342,100
                135.7175513765,34.9829922561,100
                135.7178396982,34.9830328538,100
                135.718869036,34.9831777687,100
                135.718758111,34.9841663415,100
                135.7200834013,34.9841377536,100
                135.7200824114,34.9842031098,100
                135.7200821616,34.9842201531,100
                135.7200731139,34.9848174434,100
                135.7200718226,34.9849024486,100
                135.7200701165,34.9850153434,100
                135.7201600883,34.9851323906,100
                135.720217708,34.9851430871,100
                135.7202734021,34.9852680145,100
                135.7205894296,34.9852793,100
                135.7206615521,34.9852840423,100
                135.720679423,34.9853200724,100
                135.7207125776,34.9855065045,100
                135.7209066172,34.985506101,100
                135.721458615,34.9855048222,100
                135.722910676,34.9858450504,100
                135.7232385024,34.9858414249,100
                135.7241492997,34.9858330575,100
                135.7244779474,34.9858204167,100
                135.7246467938,34.9858244584,100
                135.7248882531,34.9858079575,100
                135.7250905302,34.9858017212,100
                135.7251439393,34.9857786699,100
                135.7253574301,34.9856866759,100
                135.7256788332,34.9855481579,100
                135.7258379476,34.9854672383,100
                135.7258588047,34.9854677076,100
                135.726073343,34.9854727658,100
                135.7265724775,34.9854788119,100
                135.7265742959,34.9854788159,100
                135.7268971968,34.9854894679,100
                135.7269143609,34.9855131704,100
                135.7269332513,34.9855392709,100
                135.7272132249,34.9855208087,100
                135.7272266621,34.9859638393,100
                135.7278935149,34.9859143332,100
                135.7279493088,34.9858297301,100
                135.7279599456,34.9857429848,100
                135.7282122216,34.9857486871,100
                135.7282058509,34.9857996632,100
                135.728473359,34.9858122299,100
                135.7284822082,34.9855260246,100
                135.7289875033,34.9855191154,100
                135.7294924273,34.9855210069,100
                135.7301371709,34.9855189788,100
                135.730130278,34.9846767318,100
                135.7301298176,34.9846204957,100
                135.7301271285,34.984242706,100
                135.7301262197,34.9841140301,100
                135.7303206494,34.9841130721,100
                135.7303203786,34.9840645142,100
                135.7303199213,34.9839825994,100
                135.7303790565,34.9839828634,100
                135.7303793894,34.9839828646,100
                135.7303795468,34.9839200931,100
                135.7305381292,34.9839195316,100
                135.7305384852,34.9839171725,100
                135.7305329635,34.983732988,100
                135.7305308199,34.9835822633,100
                135.7304738081,34.9835821378,100
                135.7304686312,34.9832064423,100
                135.7305513893,34.9831970037,100
                135.7305515032,34.9831003653,100
                135.7305515358,34.9830722548,100
                135.7305512158,34.9829867672,100
                135.7305511787,34.9829769675,100
                135.7309155372,34.9829719237,100
                135.7309159745,34.9830695035,100
                135.7310667889,34.9830709854,100
                135.7310720748,34.9830710372,100
                135.7310736552,34.983018524,100
                135.7310740259,34.9830062233,100
                135.731075365,34.9829617462,100
                135.7310757212,34.9829499204,100
                135.7310769304,34.9829097557,100
                135.7310772422,34.9828993318,100
                135.7310773195,34.9828968201,100
                135.731078098,34.9828968246,100
                135.7313608982,34.9828983869,100
                135.7313894665,34.9823922035,100
                135.7318121132,34.9824085535,100
                135.7317911098,34.9831170279,100
                135.7326639451,34.9831159787,100
                135.732679213,34.982119717,100
                135.7333100413,34.9824663376,100
                135.7333262398,34.9817246812,100
                135.7332060927,34.9816799785,100
                135.7326421988,34.9813692107,100
                135.7311005635,34.9805241334,100
                135.7312974653,34.9798531613,100
                135.7327192281,34.9798999391,100
                135.732772382,34.979901675,100
                135.7328009917,34.9792666047,100
                135.7328286571,34.9786523095,100
                135.732831814,34.9785820976,100
                135.7328519224,34.9781356193,100
                135.7322264439,34.9777709076,100
                135.7315601477,34.9773823685,100
                135.7309331439,34.9770167307,100
                135.7306616322,34.9768680206,100
                135.729803414,34.9763979147,100
                135.7296551792,34.9763166646,100
                135.7293157469,34.9761308959,100
                135.7292482068,34.9760938421,100
                135.7284479791,34.9756553368,100
                135.7282547345,34.9755470887,100
                135.7279603139,34.9753821631,100
                135.7276458111,34.9752059877,100
                135.727292474,34.9750080564,100
                135.7266675953,34.9746580375,100
                135.7266631452,34.9743970863,100
                135.726644613,34.9733087675,100
                135.7266384245,34.9729453373,100
                135.7260065344,34.9729573769,100
                135.7251811824,34.9718547838,100
                135.725233488,34.9716381196,100
                135.725293972,34.9715949412,100
                135.7252637703,34.9714449993,100
              </coordinates>
            </LinearRing>
          </outerBoundaryIs>
        </Polygon>
      </Placemark>
    </Document>
  </Document>
</kml>
