<?xml version="1.0" encoding="UTF-8"?>
<kml xmlns="http://www.opengis.net/kml/2.2">
  <Document id="root_doc">
    <Document id="_6_15______disv4326">
      <name>26_15唐橋disv4326</name>
      <Placemark id="_6_15______disv4326.1">
        <visibility>1</visibility>
        <Polygon>
          <extrude>0</extrude>
          <outerBoundaryIs>
            <LinearRing>
              <coordinates>
                135.7384348778,34.9763919606,100
                135.7382697274,34.9763880852,100
                135.7382748912,34.97660354,100
                135.7382789951,34.9767748328,100
                135.738302966,34.9767777014,100
                135.7382952619,34.9771334931,100
                135.7380669159,34.9771642746,100
                135.7380737925,34.9774745299,100
                135.7383396537,34.9774797482,100
                135.7383371,34.9775669341,100
                135.7383291843,34.9778371549,100
                135.7377782566,34.9777771642,100
                135.7374816289,34.9777461014,100
                135.7371819519,34.9777391887,100
                135.7369999849,34.9777349233,100
                135.7367119704,34.9777282364,100
                135.7366021063,34.9777256852,100
                135.7361532499,34.9777232367,100
                135.7359632366,34.9777213893,100
                135.735748582,34.9777164176,100
                135.7357161971,34.9777161285,100
                135.7357103597,34.9778208262,100
                135.735641465,34.9778203084,100
                135.7355888016,34.9777965213,100
                135.7355646942,34.9777856318,100
                135.7355650573,34.9777180908,100
                135.7354929196,34.977717676,100
                135.7354169755,34.9777172391,100
                135.7354079804,34.9777171871,100
                135.7349856501,34.9777146514,100
                135.7349853938,34.9779167834,100
                135.734985139,34.9781386361,100
                135.7349799338,34.9787043847,100
                135.734064856,34.9786564786,100
                135.7333747432,34.9786203273,100
                135.7333312732,34.9796214578,100
                135.7333269303,34.9797215991,100
                135.7333184534,34.9799168105,100
                135.732772382,34.979901675,100
                135.7327192281,34.9798999391,100
                135.7312974653,34.9798531613,100
                135.7311005635,34.9805241334,100
                135.7326421988,34.9813692107,100
                135.7332060927,34.9816799785,100
                135.7333262398,34.9817246812,100
                135.7335767317,34.9818360818,100
                135.7348698587,34.9824110581,100
                135.7350324501,34.9824833902,100
                135.73625534,34.982858537,100
                135.737057185,34.9831045135,100
                135.7391156652,34.9836501047,100
                135.739823877,34.983837829,100
                135.7409594292,34.9841463976,100
                135.7413582051,34.9842547876,100
                135.7414034579,34.9842670671,100
                135.742028665,34.984436151,100
                135.7423289471,34.9845173555,100
                135.7423500781,34.9843058301,100
                135.7423510901,34.9842690681,100
                135.742315264,34.9829995752,100
                135.7423622927,34.9821636786,100
                135.7423499004,34.9817867149,100
                135.7423477301,34.9817209299,100
                135.7423858453,34.9806554852,100
                135.7429853677,34.9806561133,100
                135.7429869798,34.9804881428,100
                135.7429872037,34.9804646556,100
                135.7429909112,34.980075224,100
                135.7429963291,34.979507223,100
                135.7428645444,34.9794893383,100
                135.7428453029,34.9794854242,100
                135.7427238359,34.9793757213,100
                135.7426692158,34.9792465798,100
                135.7427175936,34.9790225755,100
                135.7427299503,34.9788802644,100
                135.7426244388,34.9788821545,100
                135.742618746,34.978338428,100
                135.7426065615,34.9771784357,100
                135.7426042065,34.9769297451,100
                135.7426037501,34.9768525594,100
                135.7426009325,34.9763758135,100
                135.7425994847,34.9761299166,100
                135.7425981508,34.9759034562,100
                135.7425966229,34.9756441166,100
                135.7425966078,34.9756418628,100
                135.742480898,34.9749089448,100
                135.7424713212,34.9746091783,100
                135.742480823,34.974489821,100
                135.7423577472,34.9744875193,100
                135.7421782297,34.9743711433,100
                135.7413978913,34.9743703363,100
                135.7414015717,34.9745079627,100
                135.740889164,34.9745109609,100
                135.7401901375,34.9745150382,100
                135.7399379944,34.9745164752,100
                135.7392457104,34.9745204184,100
                135.7383422891,34.9745255969,100
                135.7383259496,34.9752815501,100
                135.7382693682,34.9752836104,100
                135.7382766419,34.9756558543,100
                135.7384359869,34.9756630204,100
                135.7384357409,34.975830148,100
                135.7384356557,34.9758856835,100
                135.7384354291,34.97603342,100
                135.7384353931,34.9760570704,100
                135.7384353137,34.976109681,100
                135.7384348778,34.9763919606,100
              </coordinates>
            </LinearRing>
          </outerBoundaryIs>
        </Polygon>
      </Placemark>
    </Document>
  </Document>
</kml>
