<?xml version="1.0" encoding="UTF-8"?>
<kml xmlns="http://www.opengis.net/kml/2.2">
  <Document id="root_doc">
    <Document id="_8_01______disv4326">
      <name>28_01太秦disv4326</name>
      <Placemark id="_8_01______disv4326.1">
        <visibility>1</visibility>
        <Polygon>
          <extrude>0</extrude>
          <outerBoundaryIs>
            <LinearRing>
              <coordinates>
                135.7084593695,35.0056887313,100
                135.7083296478,35.0057622315,100
                135.7076059234,35.0057676918,100
                135.7074235785,35.0057690887,100
                135.7073400306,35.0057469863,100
                135.7068359083,35.0058829054,100
                135.7068451322,35.0059971617,100
                135.7068942489,35.0066047208,100
                135.7069022118,35.0067000993,100
                135.7066200591,35.0067144963,100
                135.7065507721,35.0067196836,100
                135.7065519182,35.0067279963,100
                135.7066140158,35.0073247405,100
                135.7066725859,35.0079575353,100
                135.7078052904,35.0079529153,100
                135.7078418617,35.0079527917,100
                135.708345953,35.0079807538,100
                135.7085466429,35.0079788364,100
                135.7085318502,35.0082050872,100
                135.7083044804,35.0082051803,100
                135.7082471942,35.0088598135,100
                135.707838662,35.0088697564,100
                135.7077863529,35.0088685643,100
                135.7072112977,35.0088554419,100
                135.706798339,35.0088409327,100
                135.7068867193,35.0090150308,100
                135.7069890869,35.0091685268,100
                135.7072960057,35.0095657702,100
                135.7074491198,35.0097174145,100
                135.7073848996,35.0097951552,100
                135.7071472599,35.0100715099,100
                135.7070201817,35.0101753692,100
                135.7068897612,35.0102444289,100
                135.7067593925,35.0102982762,100
                135.7066497231,35.0103268188,100
                135.7066283888,35.0103324019,100
                135.7064398448,35.010353431,100
                135.7061656749,35.0103574227,100
                135.7059447973,35.0103476664,100
                135.7059126383,35.0103462511,100
                135.7058893158,35.0103452091,100
                135.705524257,35.0103140484,100
                135.7052959936,35.0103227264,100
                135.7050537159,35.0104449698,100
                135.7049727919,35.0104600573,100
                135.7045344353,35.0104720017,100
                135.7043408797,35.0104772753,100
                135.7043389073,35.0104773294,100
                135.7042366218,35.0104801159,100
                135.7042205715,35.0104805702,100
                135.7041701263,35.0104818564,100
                135.7041155703,35.0104833115,100
                135.7040974668,35.0104837944,100
                135.7037500255,35.0104690801,100
                135.7034676546,35.0104562136,100
                135.7032579328,35.0104569737,100
                135.7030680322,35.0104734862,100
                135.7028410343,35.0105175168,100
                135.7028071484,35.0105259564,100
                135.702659739,35.0105627846,100
                135.7021846825,35.0106684001,100
                135.7020578581,35.0106765431,100
                135.7017769473,35.0106388846,100
                135.7017228515,35.0106258646,100
                135.7012044412,35.0107127072,100
                135.7011475027,35.0107284146,100
                135.7008852925,35.0108686303,100
                135.7007048206,35.010940378,100
                135.6999245364,35.0112901145,100
                135.69987644,35.0113283093,100
                135.6998427474,35.0113659062,100
                135.6997497489,35.011534071,100
                135.699733763,35.0115582589,100
                135.6996809112,35.0116380638,100
                135.6996080421,35.0117145095,100
                135.6995025033,35.011806298,100
                135.6993214994,35.0119638211,100
                135.6991883935,35.0120153284,100
                135.6993114064,35.0121428213,100
                135.6994338692,35.0122286205,100
                135.6994926013,35.012296304,100
                135.6995790374,35.0125136413,100
                135.6999980478,35.0125121336,100
                135.7001081948,35.012511769,100
                135.7002750438,35.0124914725,100
                135.7004909244,35.0124652378,100
                135.7005051815,35.012463512,100
                135.7007363114,35.0124099892,100
                135.7009296195,35.0124046869,100
                135.7011760674,35.0124286696,100
                135.7013900836,35.0124494745,100
                135.7013969956,35.0124497736,100
                135.7015196253,35.0124547201,100
                135.7017492878,35.0124388701,100
                135.7017728752,35.0125802045,100
                135.701874032,35.0129242744,100
                135.7019862346,35.0133738711,100
                135.7020619452,35.0136185776,100
                135.7021246664,35.0137442309,100
                135.7021467683,35.0137808362,100
                135.7022256291,35.0139116001,100
                135.7023297959,35.0143158425,100
                135.7023453174,35.0143760749,100
                135.7024141719,35.0146340746,100
                135.7024913313,35.0149759037,100
                135.7019557366,35.0150541825,100
                135.7019046801,35.0151231475,100
                135.7022061655,35.0152343108,100
                135.7030194926,35.0158256898,100
                135.7029281485,35.0158913877,100
                135.702665641,35.0161273141,100
                135.7026091139,35.0162414087,100
                135.7025887852,35.016341366,100
                135.7024874903,35.0168394599,100
                135.702452129,35.0170422033,100
                135.7024468581,35.0172279061,100
                135.7024572019,35.0174628754,100
                135.7024589029,35.0175013326,100
                135.7032060461,35.0175084302,100
                135.7032896075,35.0180231014,100
                135.7040604012,35.0179057354,100
                135.704337479,35.0178567545,100
                135.7042759687,35.0177493461,100
                135.7041814073,35.0175842474,100
                135.704179557,35.0175810033,100
                135.7041642015,35.0175542045,100
                135.7041583934,35.0175384148,100
                135.7042968906,35.0174896621,100
                135.7043187582,35.01747901,100
                135.7044167793,35.0174313566,100
                135.7044807702,35.0173481256,100
                135.7048719625,35.0169279161,100
                135.7050309287,35.0167506126,100
                135.7051715054,35.0167599661,100
                135.7051853283,35.0167609144,100
                135.7052851728,35.0167711556,100
                135.7056550767,35.0168089503,100
                135.7060655887,35.0168562077,100
                135.7061415977,35.0168649818,100
                135.7067589239,35.0169646381,100
                135.707373535,35.0170575239,100
                135.7074502198,35.0170693278,100
                135.7081864739,35.0171825022,100
                135.7091823901,35.0173355869,100
                135.7091341479,35.0179378358,100
                135.709141954,35.018090963,100
                135.709655964,35.0181296518,100
                135.7101659999,35.0181098072,100
                135.7104196949,35.0181225241,100
                135.7108309171,35.0181516008,100
                135.7109089057,35.0181579129,100
                135.7117602447,35.0181599993,100
                135.7118340145,35.01800143,100
                135.7119772048,35.0177646397,100
                135.712545177,35.0178659165,100
                135.7126136941,35.0178755857,100
                135.7135262953,35.0180405616,100
                135.7140917081,35.0181407696,100
                135.7142867948,35.0181753132,100
                135.7145854601,35.0177350673,100
                135.714672524,35.0176045578,100
                135.7150164749,35.0170889171,100
                135.7150644277,35.0170170523,100
                135.7155296268,35.0163231604,100
                135.7157615894,35.0159452936,100
                135.7162048668,35.0152440228,100
                135.7162972188,35.0150550687,100
                135.7163849348,35.0148013108,100
                135.7164359085,35.0146405733,100
                135.7165653063,35.0142324645,100
                135.7166983784,35.0136764654,100
                135.7167582842,35.0133134099,100
                135.7167729041,35.0131627987,100
                135.7167892526,35.012994233,100
                135.7168072531,35.0126683364,100
                135.716461645,35.0122106002,100
                135.7163572074,35.0120443594,100
                135.7162391691,35.0115740521,100
                135.7162117018,35.0115220927,100
                135.7161809747,35.0114639785,100
                135.7167086228,35.0114685134,100
                135.716728064,35.0108076111,100
                135.7167321182,35.0106696992,100
                135.7167335243,35.0106219515,100
                135.7167468449,35.0101689174,100
                135.7167494884,35.0100791268,100
                135.7167470071,35.0100159468,100
                135.7167413197,35.0098448637,100
                135.716741031,35.009836021,100
                135.7167320967,35.0095667907,100
                135.7167311384,35.0095379128,100
                135.7167190018,35.0091956029,100
                135.7167334429,35.008914768,100
                135.7167371485,35.0088139936,100
                135.7167189414,35.0086945753,100
                135.7166619245,35.0085533053,100
                135.7165905199,35.0083767871,100
                135.7164112102,35.0084463765,100
                135.7163205853,35.0081658614,100
                135.7162914017,35.0081326225,100
                135.7162622317,35.0080903682,100
                135.7162331621,35.0080178998,100
                135.7161966723,35.0079756286,100
                135.7161785402,35.0079213566,100
                135.7161384742,35.0078549201,100
                135.7161240953,35.0077734721,100
                135.7160812829,35.0075779335,100
                135.7161091485,35.0075765896,100
                135.7160555742,35.0073626447,100
                135.7160059627,35.0071964594,100
                135.7159790301,35.0067515719,100
                135.7160504483,35.0064376267,100
                135.7160599495,35.006100649,100
                135.7160543992,35.0059787252,100
                135.7159345764,35.005670604,100
                135.7152416903,35.0056706128,100
                135.7151636456,35.0056333154,100
                135.7150411391,35.0055718284,100
                135.7150151696,35.0047621941,100
                135.7150051603,35.0046049043,100
                135.7144005362,35.00470808,100
                135.7138370948,35.0046283767,100
                135.7133208746,35.0046728762,100
                135.7132142161,35.0046820636,100
                135.7131862318,35.0045393807,100
                135.7130776128,35.0045333515,100
                135.7128995396,35.0044953245,100
                135.712807791,35.0044556694,100
                135.7125239849,35.004486766,100
                135.7123711701,35.0044837311,100
                135.7122662366,35.0045066553,100
                135.7120558148,35.0045226399,100
                135.7118487009,35.0045712407,100
                135.7114353288,35.0046139325,100
                135.711090447,35.0046713621,100
                135.7108677262,35.0046602717,100
                135.7105099517,35.0046709764,100
                135.7103223767,35.0045907367,100
                135.7099111565,35.0045996228,100
                135.7099512999,35.0049593939,100
                135.7099361242,35.0055031336,100
                135.7099852282,35.0055899471,100
                135.7099897571,35.0056958119,100
                135.7084593695,35.0056887313,100
              </coordinates>
            </LinearRing>
          </outerBoundaryIs>
        </Polygon>
      </Placemark>
    </Document>
  </Document>
</kml>
