<?xml version="1.0" encoding="UTF-8"?>
<kml xmlns="http://www.opengis.net/kml/2.2">
  <Document id="root_doc">
    <Document id="_8_08____________disv4326">
      <name>28_08西院第一disv4326</name>
      <Placemark id="_8_08____________disv4326.1">
        <visibility>1</visibility>
        <Polygon>
          <extrude>0</extrude>
          <outerBoundaryIs>
            <LinearRing>
              <coordinates>
                135.7255038006,34.9986700814,100
                135.7255124928,34.9999065494,100
                135.7255031085,35.0005816592,100
                135.7254949641,35.0008262122,100
                135.7254915129,35.0009299044,100
                135.7254833886,35.0014369027,100
                135.7254765879,35.0022812587,100
                135.7254723343,35.002809254,100
                135.7254678226,35.0033683786,100
                135.725466944,35.0034145069,100
                135.7255758023,35.0034644748,100
                135.7256032887,35.0040280371,100
                135.725637851,35.004736557,100
                135.7256417584,35.0048167137,100
                135.7256767731,35.005421071,100
                135.7257246324,35.0054566746,100
                135.7257296944,35.0055484552,100
                135.7257155312,35.0055483529,100
                135.7256455385,35.0055479134,100
                135.7256452236,35.0056428512,100
                135.7256698058,35.0056434698,100
                135.7256730161,35.0057983498,100
                135.7257336322,35.0058001763,100
                135.725906239,35.0058052822,100
                135.7259123255,35.0061251134,100
                135.7259330935,35.0063927182,100
                135.7259846905,35.0066625761,100
                135.7258151565,35.0066795208,100
                135.7257171086,35.0066662013,100
                135.7257131376,35.0068440948,100
                135.7256832678,35.0083397223,100
                135.7271212957,35.0083396371,100
                135.7278746106,35.008333714,100
                135.7282442265,35.0083312976,100
                135.7285726636,35.0083568196,100
                135.7288099846,35.0083752369,100
                135.7292988371,35.0083862524,100
                135.7300256277,35.0084026535,100
                135.7308461315,35.0084116495,100
                135.7319029176,35.008423203,100
                135.732636069,35.0084385449,100
                135.7326373435,35.0082430369,100
                135.7328226873,35.0082482326,100
                135.7328193867,35.0075747128,100
                135.7328228002,35.0073857599,100
                135.7328196099,35.0071681274,100
                135.7328559671,35.0071677844,100
                135.7328725947,35.007167609,100
                135.7328717023,35.0068611002,100
                135.7328716202,35.0068335628,100
                135.7328731181,35.0068335661,100
                135.732896357,35.006833617,100
                135.7328952072,35.0065606312,100
                135.7328952026,35.0065487991,100
                135.7328925303,35.006455334,100
                135.7328882023,35.0063045367,100
                135.7328841047,35.0061621203,100
                135.7328629896,35.006160665,100
                135.7328593734,35.0061603759,100
                135.7328581232,35.0061300882,100
                135.7328522895,35.0059885836,100
                135.7328522503,35.0059874566,100
                135.7328404716,35.0054281545,100
                135.7328403396,35.0054222388,100
                135.7328382906,35.005337535,100
                135.7328333181,35.005132056,100
                135.732833673,35.0051215621,100
                135.7328398055,35.0049397003,100
                135.7328577428,35.0044077465,100
                135.7328311565,35.004357684,100
                135.7328322915,35.0043373325,100
                135.7328340416,35.004305643,100
                135.732838108,35.0042326172,100
                135.7328689271,35.0042308533,100
                135.732877488,35.0041313564,100
                135.7329379443,35.0041292349,100
                135.7329378866,35.004120501,100
                135.7329511565,35.0041197561,100
                135.7329551806,35.0038676283,100
                135.7329362129,35.0038635723,100
                135.7328506364,35.0038454258,100
                135.7328509437,35.0038432434,100
                135.7328152134,35.0038418269,100
                135.7328267454,35.0036768369,100
                135.7328894874,35.0035631609,100
                135.7326978014,35.00357718,100
                135.7319610517,35.0035688043,100
                135.7318947845,35.003568025,100
                135.7312908504,35.0035736697,100
                135.7312054742,35.0035730592,100
                135.7310623452,35.0035721103,100
                135.7309582491,35.0035639226,100
                135.7309566856,35.0033539705,100
                135.730940874,35.0033405547,100
                135.730767546,35.0032696728,100
                135.7305478886,35.0031798147,100
                135.7303303232,35.0030655912,100
                135.7301628687,35.0029526055,100
                135.730024188,35.0028415144,100
                135.730012213,35.002596607,100
                135.7300088023,35.0025268742,100
                135.729998813,35.0023228195,100
                135.7303648261,35.0023212339,100
                135.7303745349,35.0020998266,100
                135.7305543191,35.0020993072,100
                135.7305486986,35.0019657614,100
                135.7303744261,35.0019623491,100
                135.730380661,35.0017826281,100
                135.7303072243,35.0017826768,100
                135.7299724356,35.0017833464,100
                135.7290666714,35.0017847921,100
                135.7290367952,35.0019955895,100
                135.7287121573,35.0019997996,100
                135.7287116705,35.0020831864,100
                135.728968331,35.0020843195,100
                135.7290155293,35.0020858323,100
                135.7290648315,35.002131157,100
                135.7290642908,35.0022962412,100
                135.7289746548,35.0022963241,100
                135.7285175927,35.0022986897,100
                135.7285128318,35.00205415,100
                135.7282987981,35.0020390249,100
                135.7283038912,35.0012765734,100
                135.7279879807,35.0009635178,100
                135.7271804741,35.000207988,100
                135.726842467,34.9999150229,100
                135.7261250939,34.9992337088,100
                135.7255160249,34.9986811656,100
                135.7255038006,34.9986700814,100
              </coordinates>
            </LinearRing>
          </outerBoundaryIs>
        </Polygon>
      </Placemark>
    </Document>
  </Document>
</kml>
