<?xml version="1.0" encoding="UTF-8"?>
<kml xmlns="http://www.opengis.net/kml/2.2">
  <Document id="root_doc">
    <Document id="_8_03_________disv4326">
      <name>28_03嵯峨野disv4326</name>
      <Placemark id="_8_03_________disv4326.1">
        <visibility>1</visibility>
        <Polygon>
          <extrude>0</extrude>
          <outerBoundaryIs>
            <LinearRing>
              <coordinates>
                135.6956001592,35.0068854084,100
                135.6955446388,35.0065353162,100
                135.6954223401,35.0065655085,100
                135.6952873149,35.006633841,100
                135.6950884384,35.0067130721,100
                135.6942629746,35.0066600332,100
                135.6941590436,35.0062849599,100
                135.6940821914,35.0062928674,100
                135.6937805715,35.0061556288,100
                135.6936792197,35.0061459386,100
                135.6933159678,35.0062104605,100
                135.6928501581,35.0063188838,100
                135.69247669,35.0064486639,100
                135.6922568409,35.0064988921,100
                135.6921694945,35.0064577546,100
                135.6915428466,35.0066804253,100
                135.6913922327,35.0068020986,100
                135.6913441789,35.0070163585,100
                135.6913463547,35.0071435559,100
                135.6913651805,35.0073216436,100
                135.6914481762,35.0075243307,100
                135.6914353627,35.0075743725,100
                135.6912017611,35.0081853779,100
                135.6908840494,35.0090542159,100
                135.6908925565,35.0090964938,100
                135.6909023322,35.0094957711,100
                135.6908960238,35.0096483014,100
                135.6907790935,35.0098986581,100
                135.6912278341,35.0100627557,100
                135.6915354274,35.0101510691,100
                135.691848881,35.0102005216,100
                135.691880737,35.0100998903,100
                135.6920501644,35.0101563043,100
                135.692116267,35.0101966846,100
                135.6922064613,35.0102958606,100
                135.6924932634,35.0106851973,100
                135.6926658233,35.0108429641,100
                135.6928862263,35.0110145137,100
                135.6929388151,35.0111038058,100
                135.6929725388,35.0112307299,100
                135.6929885124,35.0113485245,100
                135.6928836982,35.0117594153,100
                135.692785435,35.011923122,100
                135.6926960701,35.0120200158,100
                135.6925529925,35.012137833,100
                135.6921163293,35.0124185143,100
                135.6919609868,35.0125311594,100
                135.6919337872,35.0125712335,100
                135.6918601237,35.0126797169,100
                135.691791554,35.0128227912,100
                135.6917086239,35.0128914598,100
                135.6911895592,35.0131158708,100
                135.6909570807,35.0131953602,100
                135.6911561822,35.0132328357,100
                135.6912845844,35.0132111859,100
                135.6914193607,35.0131676493,100
                135.6916841676,35.0131450379,100
                135.6918824538,35.0131281066,100
                135.6920481533,35.0130742035,100
                135.6920730769,35.0134728424,100
                135.6922768991,35.0134688465,100
                135.6922913289,35.0137113741,100
                135.6922773515,35.013711339,100
                135.6920173977,35.0137106868,100
                135.6920474378,35.014335047,100
                135.6920478913,35.0143444869,100
                135.6919160312,35.0143473992,100
                135.6919012859,35.0143477247,100
                135.6917161308,35.0143566267,100
                135.6918440542,35.0147307701,100
                135.6918989515,35.0150718415,100
                135.6919104815,35.0153641394,100
                135.6919074861,35.0155292109,100
                135.6919044902,35.0156940718,100
                135.6919204792,35.0162977346,100
                135.6919328869,35.0164815783,100
                135.6919747432,35.017190031,100
                135.6919750466,35.0172291178,100
                135.6919796024,35.0178115546,100
                135.6919836628,35.0181664425,100
                135.691991766,35.0185960622,100
                135.6919452706,35.0188608886,100
                135.6918789359,35.0190224201,100
                135.6917527043,35.0193297238,100
                135.6914992877,35.0199467228,100
                135.6918658369,35.0199684927,100
                135.6920913257,35.0199717362,100
                135.6925087741,35.0199988443,100
                135.6927524077,35.0200146685,100
                135.6930609883,35.0200736849,100
                135.6932355265,35.0200572204,100
                135.6933608212,35.0200454219,100
                135.6935785271,35.0200063874,100
                135.6938329621,35.0199556839,100
                135.6942173003,35.0198791065,100
                135.6947823896,35.019853262,100
                135.6957661481,35.0198483175,100
                135.6957263484,35.0196436296,100
                135.6957321414,35.0194026445,100
                135.6956511506,35.0189240358,100
                135.6956203901,35.0186366896,100
                135.6955889671,35.0184872369,100
                135.6955909341,35.0181471522,100
                135.6965547864,35.0180727796,100
                135.6965055044,35.0178562366,100
                135.6964788934,35.0175626326,100
                135.6964242719,35.0174012209,100
                135.6963491804,35.0172312358,100
                135.6964681781,35.0171897677,100
                135.6969022538,35.0171033022,100
                135.6971365533,35.0170480338,100
                135.6978041984,35.0169805958,100
                135.6979826339,35.0169493444,100
                135.6981660596,35.01691726,100
                135.6984162918,35.016846887,100
                135.6986797833,35.0167496432,100
                135.6988049183,35.0166799472,100
                135.6988206235,35.0167569628,100
                135.6989160592,35.0167090253,100
                135.6991103784,35.0166763324,100
                135.6992678947,35.0167644714,100
                135.6992771742,35.0170657099,100
                135.6992569245,35.0171720749,100
                135.6992521188,35.0175909608,100
                135.7004979761,35.0174204862,100
                135.7005431246,35.0174292597,100
                135.700561043,35.0176985447,100
                135.7005650498,35.0179324424,100
                135.7005675947,35.0180804148,100
                135.7009360217,35.0180599065,100
                135.7012788266,35.0180408839,100
                135.7013003759,35.017941353,100
                135.701750398,35.0179061819,100
                135.7017943287,35.0177606457,100
                135.7020739045,35.0177017465,100
                135.7024583079,35.0175771814,100
                135.7024589029,35.0175013326,100
                135.7024572019,35.0174628754,100
                135.7024468581,35.0172279061,100
                135.702452129,35.0170422033,100
                135.7024874903,35.0168394599,100
                135.7025887852,35.016341366,100
                135.7026091139,35.0162414087,100
                135.702665641,35.0161273141,100
                135.7029281485,35.0158913877,100
                135.7030194926,35.0158256898,100
                135.7022061655,35.0152343108,100
                135.7019046801,35.0151231475,100
                135.7019557366,35.0150541825,100
                135.7024913313,35.0149759037,100
                135.7024141719,35.0146340746,100
                135.7023453174,35.0143760749,100
                135.7023297959,35.0143158425,100
                135.7022256291,35.0139116001,100
                135.7021467683,35.0137808362,100
                135.7021246664,35.0137442309,100
                135.7020619452,35.0136185776,100
                135.7019862346,35.0133738711,100
                135.701874032,35.0129242744,100
                135.7017728752,35.0125802045,100
                135.7017492878,35.0124388701,100
                135.7015196253,35.0124547201,100
                135.7013969956,35.0124497736,100
                135.7013900836,35.0124494745,100
                135.7011760674,35.0124286696,100
                135.7009296195,35.0124046869,100
                135.7007363114,35.0124099892,100
                135.7005051815,35.012463512,100
                135.7004909244,35.0124652378,100
                135.7002750438,35.0124914725,100
                135.7001081948,35.012511769,100
                135.6999980478,35.0125121336,100
                135.6995790374,35.0125136413,100
                135.6994926013,35.012296304,100
                135.6994338692,35.0122286205,100
                135.6993114064,35.0121428213,100
                135.6991883935,35.0120153284,100
                135.6988271847,35.0121408574,100
                135.6983047574,35.0121524598,100
                135.6982519127,35.0121535973,100
                135.6975051669,35.0121821091,100
                135.6976375209,35.0120210173,100
                135.6976790689,35.0119316075,100
                135.6977264719,35.0117560808,100
                135.697767068,35.0112726267,100
                135.697764379,35.0111071156,100
                135.6978199013,35.0108072302,100
                135.698123574,35.0108172759,100
                135.6984096738,35.010776005,100
                135.6993629004,35.0105707979,100
                135.6993292091,35.0102915392,100
                135.699320347,35.0101276322,100
                135.6992916,35.0101179835,100
                135.6993061477,35.0097791914,100
                135.6993535459,35.009761912,100
                135.6994569348,35.0096377198,100
                135.6994872998,35.0096256109,100
                135.6995647724,35.0095948126,100
                135.6996619773,35.0094758162,100
                135.6997157449,35.009401858,100
                135.699676709,35.0094026074,100
                135.6996206337,35.0094071892,100
                135.6996198763,35.0093838053,100
                135.6996263192,35.008584677,100
                135.6995823902,35.0085725262,100
                135.6994099472,35.0085500595,100
                135.6992145274,35.0085094368,100
                135.6990979997,35.0085050655,100
                135.6993399375,35.0080723877,100
                135.6990307754,35.0079449301,100
                135.6988165936,35.0078380581,100
                135.6987658905,35.0078349756,100
                135.698684679,35.007869849,100
                135.6984992893,35.0079012964,100
                135.6982652985,35.0079279063,100
                135.6980678355,35.0079304479,100
                135.6979302149,35.0080008892,100
                135.6979075748,35.0080124535,100
                135.6978530417,35.008085423,100
                135.6977800117,35.0081145877,100
                135.6977697821,35.0081007261,100
                135.6978980806,35.0077729055,100
                135.6979434955,35.0077157701,100
                135.697987502,35.0076855847,100
                135.6980299258,35.0076597718,100
                135.6981369463,35.0075947484,100
                135.69843122,35.007432855,100
                135.6981371522,35.0074336103,100
                135.6979056294,35.007416912,100
                135.6975553434,35.0074877443,100
                135.6973989938,35.0074951049,100
                135.6971997741,35.0074701047,100
                135.696993166,35.007428747,100
                135.6967751758,35.0074044051,100
                135.6964876671,35.0073898215,100
                135.6962188766,35.007330562,100
                135.6958421818,35.007227793,100
                135.6956404219,35.0071835577,100
                135.6955845475,35.0071777148,100
                135.6956001592,35.0068854084,100
              </coordinates>
            </LinearRing>
          </outerBoundaryIs>
        </Polygon>
      </Placemark>
    </Document>
  </Document>
</kml>
