<?xml version="1.0" encoding="UTF-8"?>
<kml xmlns="http://www.opengis.net/kml/2.2">
  <Document id="root_doc">
    <Document id="_8_07_________disv4326">
      <name>28_07山ノ内disv4326</name>
      <Placemark id="_8_07_________disv4326.1">
        <visibility>1</visibility>
        <Polygon>
          <extrude>0</extrude>
          <outerBoundaryIs>
            <LinearRing>
              <coordinates>
                135.7218406896,35.000848191,100
                135.7213023751,35.0008488709,100
                135.721302292,35.0008598554,100
                135.7212949454,35.0011290178,100
                135.7196851771,35.0011218923,100
                135.719656742,35.0024672262,100
                135.7196385004,35.0028811635,100
                135.719642838,35.0029904083,100
                135.7196409633,35.0031075973,100
                135.7196398122,35.0035361531,100
                135.7190559523,35.0035467162,100
                135.7188580924,35.0035502763,100
                135.7182681343,35.0035608927,100
                135.7177698232,35.0035713653,100
                135.7168814132,35.0035726241,100
                135.7165451602,35.0035862127,100
                135.7151782824,35.003614803,100
                135.7156106064,35.0047478037,100
                135.7159345764,35.005670604,100
                135.7160543992,35.0059787252,100
                135.7160599495,35.006100649,100
                135.7160504483,35.0064376267,100
                135.7159790301,35.0067515719,100
                135.7160059627,35.0071964594,100
                135.7160555742,35.0073626447,100
                135.7161091485,35.0075765896,100
                135.7160812829,35.0075779335,100
                135.7161240953,35.0077734721,100
                135.7161384742,35.0078549201,100
                135.7161785402,35.0079213566,100
                135.7161966723,35.0079756286,100
                135.7162331621,35.0080178998,100
                135.7162622317,35.0080903682,100
                135.7162914017,35.0081326225,100
                135.7163205853,35.0081658614,100
                135.7164112102,35.0084463765,100
                135.7165905199,35.0083767871,100
                135.7166619245,35.0085533053,100
                135.7167189414,35.0086945753,100
                135.7167371485,35.0088139936,100
                135.7167334429,35.008914768,100
                135.7173724643,35.008686369,100
                135.7177526943,35.0085908315,100
                135.7183325522,35.0084528615,100
                135.718321571,35.0091131732,100
                135.7178150416,35.0090954536,100
                135.7177235752,35.0090529854,100
                135.7177195384,35.0091645346,100
                135.7174301085,35.0091638659,100
                135.717444533,35.0092322148,100
                135.7174483724,35.0093135805,100
                135.717453636,35.0094251397,100
                135.7174563247,35.0096317091,100
                135.717461379,35.0100200662,100
                135.7174856057,35.0100763945,100
                135.7174604865,35.0102812824,100
                135.7173867745,35.0104097147,100
                135.7170147688,35.0106259139,100
                135.7167335243,35.0106219515,100
                135.7167321182,35.0106696992,100
                135.716728064,35.0108076111,100
                135.7175614468,35.0108169993,100
                135.7183701367,35.0108261042,100
                135.7194950545,35.0108499608,100
                135.7198830765,35.0108564853,100
                135.7199626406,35.0110029476,100
                135.7200083864,35.0110871441,100
                135.7201177192,35.0112703677,100
                135.720143821,35.0113799438,100
                135.7201992259,35.0116124131,100
                135.7202066988,35.0116437712,100
                135.7201889875,35.0117749375,100
                135.7201074185,35.0118888954,100
                135.7200882287,35.0119157031,100
                135.7200723789,35.0119955319,100
                135.7206967911,35.0120160472,100
                135.721155247,35.0120422379,100
                135.7218085951,35.0120494322,100
                135.7218874471,35.0119057271,100
                135.7226191921,35.0118903496,100
                135.7226915766,35.0118491032,100
                135.7227882957,35.0118453088,100
                135.7242170053,35.0117889674,100
                135.7242291066,35.0115098174,100
                135.7242168977,35.0110060842,100
                135.7241729802,35.0108794252,100
                135.7241685176,35.0108120848,100
                135.7241552728,35.0106768319,100
                135.7241371671,35.0106261527,100
                135.7241921822,35.0106142339,100
                135.7241968486,35.0105304344,100
                135.7242044578,35.0102253553,100
                135.7241787078,35.0102205778,100
                135.7241056088,35.0102070315,100
                135.7241102278,35.010080129,100
                135.7241438565,35.0099296287,100
                135.724135671,35.0098362221,100
                135.724116505,35.009817177,100
                135.7241002326,35.0097684603,100
                135.7240578298,35.0096701015,100
                135.7241247983,35.0096675234,100
                135.7241369628,35.0096670552,100
                135.724136692,35.0096613906,100
                135.7241302826,35.0095274505,100
                135.7241192407,35.0092959266,100
                135.7241165893,35.0089552578,100
                135.7241707621,35.0086185899,100
                135.7241063949,35.008329053,100
                135.7244061713,35.0083312096,100
                135.7247656874,35.008334275,100
                135.7254602886,35.0083397137,100
                135.7256832678,35.0083397223,100
                135.7257131376,35.0068440948,100
                135.7257171086,35.0066662013,100
                135.7258151565,35.0066795208,100
                135.7259846905,35.0066625761,100
                135.7259330935,35.0063927182,100
                135.7259123255,35.0061251134,100
                135.725906239,35.0058052822,100
                135.7257336322,35.0058001763,100
                135.7256730161,35.0057983498,100
                135.7256698058,35.0056434698,100
                135.7256452236,35.0056428512,100
                135.7256455385,35.0055479134,100
                135.7257155312,35.0055483529,100
                135.7257296944,35.0055484552,100
                135.7257246324,35.0054566746,100
                135.7256767731,35.005421071,100
                135.7256417584,35.0048167137,100
                135.725637851,35.004736557,100
                135.7256032887,35.0040280371,100
                135.7255758023,35.0034644748,100
                135.725466944,35.0034145069,100
                135.7254678226,35.0033683786,100
                135.7254723343,35.002809254,100
                135.7254765879,35.0022812587,100
                135.7254833886,35.0014369027,100
                135.7242510071,35.0014418745,100
                135.7242633602,35.0008229746,100
                135.7226054859,35.0008315468,100
                135.7218406896,35.000848191,100
              </coordinates>
            </LinearRing>
          </outerBoundaryIs>
        </Polygon>
      </Placemark>
    </Document>
  </Document>
</kml>
