<?xml version="1.0" encoding="UTF-8"?>
<kml xmlns="http://www.opengis.net/kml/2.2">
  <Document id="root_doc">
    <Document id="_8_04_________disv4326">
      <name>28_04常磐野disv4326</name>
      <Placemark id="_8_04_________disv4326.1">
        <visibility>1</visibility>
        <Polygon>
          <extrude>0</extrude>
          <outerBoundaryIs>
            <LinearRing>
              <coordinates>
                135.6988049183,35.0166799472,100
                135.6986797833,35.0167496432,100
                135.6984162918,35.016846887,100
                135.6981660596,35.01691726,100
                135.6979826339,35.0169493444,100
                135.6978041984,35.0169805958,100
                135.6971365533,35.0170480338,100
                135.6969022538,35.0171033022,100
                135.6964681781,35.0171897677,100
                135.6963491804,35.0172312358,100
                135.6964242719,35.0174012209,100
                135.6964788934,35.0175626326,100
                135.6965055044,35.0178562366,100
                135.6965547864,35.0180727796,100
                135.6955909341,35.0181471522,100
                135.6955889671,35.0184872369,100
                135.6956203901,35.0186366896,100
                135.6956511506,35.0189240358,100
                135.6957321414,35.0194026445,100
                135.6957263484,35.0196436296,100
                135.6957661481,35.0198483175,100
                135.6957366964,35.0199528983,100
                135.6958090489,35.0202214718,100
                135.6958590441,35.0204070282,100
                135.6959796831,35.0203753552,100
                135.6960194943,35.0207158239,100
                135.6961004047,35.0207140525,100
                135.6961138261,35.0208929689,100
                135.6961668614,35.0209976126,100
                135.6962701964,35.0212175285,100
                135.6954618492,35.0216475125,100
                135.6952405914,35.0217773193,100
                135.6949353585,35.0220476985,100
                135.6948148238,35.0221544453,100
                135.695006114,35.0224580366,100
                135.6950836319,35.022460202,100
                135.6950115901,35.022769897,100
                135.694964978,35.0227744288,100
                135.6949350846,35.022905065,100
                135.6947555297,35.0232902702,100
                135.6947120303,35.0234760863,100
                135.6946616868,35.0236663926,100
                135.6946248027,35.0237367969,100
                135.6946127811,35.02376374,100
                135.6945955363,35.0238023602,100
                135.6944930758,35.0240319042,100
                135.6944250148,35.0242667456,100
                135.6944146378,35.0245531428,100
                135.6945188009,35.0248378541,100
                135.6945946245,35.0250251658,100
                135.694701087,35.0250953651,100
                135.6948745352,35.0250698819,100
                135.694996594,35.0250725104,100
                135.6950424657,35.0250319897,100
                135.69517216,35.0247480734,100
                135.6951424572,35.0246485582,100
                135.6949666584,35.0245344509,100
                135.6949631015,35.0244776786,100
                135.6952612537,35.0243996162,100
                135.6953623904,35.0244048688,100
                135.6954967186,35.0245388731,100
                135.6953299615,35.0252361678,100
                135.6955598335,35.0252734333,100
                135.6958417149,35.0253190683,100
                135.695875381,35.0254638778,100
                135.6960072274,35.0254882914,100
                135.6961500566,35.0255704827,100
                135.6962412158,35.0256229652,100
                135.6962740564,35.0256510061,100
                135.6964861813,35.0254573688,100
                135.6966776562,35.0252743147,100
                135.6966406418,35.0252535169,100
                135.6964584854,35.0251329176,100
                135.6964296601,35.025096083,100
                135.6964195145,35.025038661,100
                135.696415776,35.0248911793,100
                135.6963510522,35.024763547,100
                135.6961880939,35.0245684128,100
                135.6967091963,35.0245232978,100
                135.6969492213,35.0245240346,100
                135.6971687073,35.0245395793,100
                135.6973105701,35.0245449499,100
                135.6974007247,35.0244593144,100
                135.6974094386,35.0244435578,100
                135.6975545575,35.0243105801,100
                135.6976404572,35.0241757367,100
                135.697640473,35.0241756168,100
                135.6976408647,35.0241751248,100
                135.6976450598,35.0241700788,100
                135.6976522852,35.0241607471,100
                135.6976535133,35.0241585377,100
                135.6976539011,35.0241576677,100
                135.697692428,35.024071212,100
                135.6976864896,35.0240106753,100
                135.6976802947,35.0239635217,100
                135.6976817435,35.0239620513,100
                135.6976626782,35.0236592081,100
                135.6982211119,35.0235234687,100
                135.6983343396,35.0234184611,100
                135.6982383661,35.0228169245,100
                135.698229131,35.0226682318,100
                135.6987172629,35.0225972496,100
                135.6986922947,35.0224549275,100
                135.6990700129,35.0223762057,100
                135.6993894913,35.0223317785,100
                135.6993792827,35.0216991137,100
                135.6995822266,35.0216819363,100
                135.6997818267,35.0216902442,100
                135.7000500836,35.0217522443,100
                135.7002190176,35.0218051969,100
                135.7003060734,35.0218324542,100
                135.7004893708,35.0219210769,100
                135.7005690531,35.0219862763,100
                135.7008675617,35.0220877875,100
                135.7009244891,35.021747204,100
                135.7012757212,35.0217996147,100
                135.7015548616,35.0218060013,100
                135.7018792023,35.0217836227,100
                135.7019760882,35.0218746387,100
                135.7019256039,35.0226830818,100
                135.7022692329,35.0227079346,100
                135.7027809669,35.0227685506,100
                135.7028105765,35.0227732707,100
                135.7031850287,35.0228327054,100
                135.7034519506,35.0229050471,100
                135.7036707413,35.0229221987,100
                135.7037126714,35.0226243265,100
                135.703987035,35.0226504154,100
                135.7040245052,35.0221813948,100
                135.7042534016,35.0221614554,100
                135.7042519651,35.0221322948,100
                135.704639598,35.0220976675,100
                135.7047691323,35.0220853032,100
                135.7048051951,35.0218467153,100
                135.704832077,35.0218467803,100
                135.7052352141,35.0217795804,100
                135.7052462615,35.021814609,100
                135.7057298736,35.0217292901,100
                135.7059042298,35.0221183941,100
                135.7059847521,35.0222981057,100
                135.7067838803,35.0221268462,100
                135.7068073569,35.0221218319,100
                135.7075697354,35.0223425445,100
                135.7075956919,35.0222958433,100
                135.7077926224,35.0223450496,100
                135.7077818003,35.0224216479,100
                135.7076624481,35.0224173481,100
                135.707650989,35.0225102135,100
                135.7079561901,35.022526085,100
                135.707944058,35.0226342313,100
                135.7078748058,35.0226377285,100
                135.7078654579,35.0227750375,100
                135.7079004545,35.0227806145,100
                135.70789253,35.022939478,100
                135.707843185,35.0229603472,100
                135.7078579464,35.0231443374,100
                135.7078320838,35.0232429427,100
                135.7084522231,35.0233316128,100
                135.7084677946,35.0233831313,100
                135.7084545032,35.0234252852,100
                135.7084401088,35.0234708873,100
                135.708403454,35.0234622083,100
                135.7083514339,35.0237010418,100
                135.7085258286,35.0237327973,100
                135.7087047355,35.0237653385,100
                135.7087768287,35.0238068514,100
                135.7088512167,35.0236520901,100
                135.7089141119,35.0235212458,100
                135.7090272234,35.0231405069,100
                135.7091175546,35.0226821035,100
                135.7092034179,35.022398277,100
                135.7093023949,35.022158851,100
                135.7094562285,35.0219131459,100
                135.7095458472,35.0218089155,100
                135.709656759,35.0217051593,100
                135.7098068059,35.0216283293,100
                135.7102714818,35.0214756238,100
                135.7101227599,35.0211685608,100
                135.709899764,35.0211080262,100
                135.7099219087,35.0208535567,100
                135.7100954221,35.0208650973,100
                135.7104706089,35.0208899349,100
                135.7104557374,35.021005329,100
                135.7105024875,35.0210643874,100
                135.7104696488,35.0211032553,100
                135.7103992047,35.021209221,100
                135.7105257327,35.0213881241,100
                135.7106429046,35.0213293151,100
                135.7107134234,35.0212689855,100
                135.7108400893,35.0211573787,100
                135.7109631954,35.0209865338,100
                135.7114064264,35.0210906193,100
                135.711394193,35.021148622,100
                135.7123338153,35.0211918331,100
                135.7125371961,35.0206712251,100
                135.712704184,35.0202623677,100
                135.7127433646,35.0201664687,100
                135.7129368204,35.0198340156,100
                135.7131611592,35.0195071977,100
                135.7135279601,35.0189373172,100
                135.7139540658,35.0188289448,100
                135.7139559348,35.0187900029,100
                135.7139305198,35.0185885908,100
                135.7136876432,35.0186892951,100
                135.7140917081,35.0181407696,100
                135.7135262953,35.0180405616,100
                135.7126136941,35.0178755857,100
                135.712545177,35.0178659165,100
                135.7119772048,35.0177646397,100
                135.7118340145,35.01800143,100
                135.7117602447,35.0181599993,100
                135.7109089057,35.0181579129,100
                135.7108309171,35.0181516008,100
                135.7104196949,35.0181225241,100
                135.7101659999,35.0181098072,100
                135.709655964,35.0181296518,100
                135.709141954,35.018090963,100
                135.7091341479,35.0179378358,100
                135.7091823901,35.0173355869,100
                135.7081864739,35.0171825022,100
                135.7074502198,35.0170693278,100
                135.707373535,35.0170575239,100
                135.7067589239,35.0169646381,100
                135.7061415977,35.0168649818,100
                135.7060655887,35.0168562077,100
                135.7056550767,35.0168089503,100
                135.7052851728,35.0167711556,100
                135.7051853283,35.0167609144,100
                135.7051715054,35.0167599661,100
                135.7050309287,35.0167506126,100
                135.7048719625,35.0169279161,100
                135.7044807702,35.0173481256,100
                135.7044167793,35.0174313566,100
                135.7043187582,35.01747901,100
                135.7042968906,35.0174896621,100
                135.7041583934,35.0175384148,100
                135.7041642015,35.0175542045,100
                135.704179557,35.0175810033,100
                135.7041814073,35.0175842474,100
                135.7042759687,35.0177493461,100
                135.704337479,35.0178567545,100
                135.7040604012,35.0179057354,100
                135.7032896075,35.0180231014,100
                135.7032060461,35.0175084302,100
                135.7024589029,35.0175013326,100
                135.7024583079,35.0175771814,100
                135.7020739045,35.0177017465,100
                135.7017943287,35.0177606457,100
                135.701750398,35.0179061819,100
                135.7013003759,35.017941353,100
                135.7012788266,35.0180408839,100
                135.7009360217,35.0180599065,100
                135.7005675947,35.0180804148,100
                135.7005650498,35.0179324424,100
                135.700561043,35.0176985447,100
                135.7005431246,35.0174292597,100
                135.7004979761,35.0174204862,100
                135.6992521188,35.0175909608,100
                135.6992569245,35.0171720749,100
                135.6992771742,35.0170657099,100
                135.6992678947,35.0167644714,100
                135.6991103784,35.0166763324,100
                135.6989160592,35.0167090253,100
                135.6988206235,35.0167569628,100
                135.6988049183,35.0166799472,100
              </coordinates>
            </LinearRing>
          </outerBoundaryIs>
        </Polygon>
      </Placemark>
    </Document>
  </Document>
</kml>
