<?xml version="1.0" encoding="UTF-8"?>
<kml xmlns="http://www.opengis.net/kml/2.2">
  <Document id="root_doc">
    <Document id="_8_05______disv4326">
      <name>28_05花園disv4326</name>
      <Placemark id="_8_05______disv4326.1">
        <visibility>1</visibility>
        <Polygon>
          <extrude>0</extrude>
          <outerBoundaryIs>
            <LinearRing>
              <coordinates>
                135.714672524,35.0176045578,100
                135.7145854601,35.0177350673,100
                135.7142867948,35.0181753132,100
                135.7154777498,35.0183489562,100
                135.7155057456,35.0192060533,100
                135.7155309931,35.0199793343,100
                135.7155461405,35.0200301476,100
                135.7155872731,35.0201680701,100
                135.7156418011,35.0202692597,100
                135.7157444299,35.0204362707,100
                135.7158109801,35.0204830487,100
                135.7161670314,35.0206143809,100
                135.716400926,35.0205935158,100
                135.7167439051,35.0206363582,100
                135.7168571744,35.0210031957,100
                135.7169663198,35.0209997162,100
                135.7172138677,35.0209919104,100
                135.7175540919,35.0210083346,100
                135.7177102186,35.0210288393,100
                135.7177186687,35.0210299858,100
                135.7177640014,35.0210359357,100
                135.7179396138,35.0210849374,100
                135.7181810812,35.0211031037,100
                135.7188577934,35.0210838916,100
                135.7194871014,35.0210446356,100
                135.7197752102,35.0210051546,100
                135.7202210686,35.0209861083,100
                135.7209365161,35.0209737345,100
                135.7215188785,35.0209940118,100
                135.7217048385,35.0213777039,100
                135.7217906175,35.0216458761,100
                135.7218571677,35.0217196249,100
                135.7219367411,35.0217585423,100
                135.7219691414,35.0217598135,100
                135.7223031795,35.0219620688,100
                135.7223907443,35.022075305,100
                135.7224835188,35.0222744746,100
                135.7226009467,35.0225515228,100
                135.7228229151,35.0230752352,100
                135.7227977683,35.0231258153,100
                135.7227004157,35.0233208184,100
                135.7229597045,35.0235472707,100
                135.7231449762,35.0240756882,100
                135.7232595723,35.0243241358,100
                135.7232610827,35.0244126496,100
                135.7234105393,35.0249919356,100
                135.7234129063,35.0249993535,100
                135.7235909451,35.0250199399,100
                135.7235943831,35.0250863604,100
                135.7237151031,35.0251426952,100
                135.7237089589,35.0253224828,100
                135.7234579342,35.0254774158,100
                135.7233776921,35.0255539992,100
                135.7232460195,35.0256491996,100
                135.7231019839,35.0257354264,100
                135.7230622212,35.0257849877,100
                135.7230485192,35.0259460237,100
                135.7239971508,35.0259593098,100
                135.7239798839,35.0253612708,100
                135.7242525097,35.0253460435,100
                135.7242964469,35.0253920614,100
                135.7244141256,35.0253850743,100
                135.7244728528,35.025771714,100
                135.72506416,35.025775519,100
                135.7250649158,35.0253742237,100
                135.7250645247,35.0252538626,100
                135.7253526198,35.0252465557,100
                135.7253424801,35.0248516452,100
                135.7253424234,35.0248491796,100
                135.725482732,35.0248528771,100
                135.7254813055,35.0248314639,100
                135.7254675211,35.0245286644,100
                135.7254540366,35.0242322745,100
                135.7254321827,35.0236720444,100
                135.7254286705,35.0235820294,100
                135.7255121785,35.0235841195,100
                135.7254959624,35.0228083935,100
                135.7255200985,35.0222815787,100
                135.7269437166,35.0223035176,100
                135.7269578739,35.0216715307,100
                135.7269707903,35.0215257039,100
                135.7269162726,35.0210930855,100
                135.726487187,35.0210893747,100
                135.7258119065,35.0210801771,100
                135.7255769232,35.0210754221,100
                135.7255514924,35.0205994147,100
                135.7255411902,35.0204276177,100
                135.7255379812,35.0202919667,100
                135.7255331974,35.0200887727,100
                135.7255628027,35.0198100866,100
                135.7255858647,35.0195740641,100
                135.7255950359,35.0192033522,100
                135.7255761096,35.0188705371,100
                135.7255844241,35.0185062327,100
                135.725597772,35.0181408822,100
                135.7255999632,35.0180806008,100
                135.725599251,35.0178372707,100
                135.725598949,35.0178252973,100
                135.7255954601,35.0176900678,100
                135.7255854699,35.0173020578,100
                135.7255786839,35.0170058935,100
                135.7255641974,35.0165282884,100
                135.7255528366,35.0161535157,100
                135.7255294446,35.0159216852,100
                135.7251085776,35.0159171101,100
                135.7250155275,35.0159160985,100
                135.7241886691,35.0159071052,100
                135.724175225,35.0160687067,100
                135.7241738656,35.0160850429,100
                135.7241392393,35.0165016159,100
                135.7241276895,35.0166406144,100
                135.7240722015,35.0172349,100
                135.7235694574,35.0172419296,100
                135.7232805879,35.0172460619,100
                135.7225410948,35.0172420546,100
                135.7225281206,35.0177282587,100
                135.722529594,35.0183987348,100
                135.7216405773,35.0184188915,100
                135.7215665041,35.0185839464,100
                135.7215466452,35.0187422931,100
                135.7215315941,35.0189850936,100
                135.7215570132,35.0192098162,100
                135.7215680593,35.0196914963,100
                135.7213087769,35.019702172,100
                135.7210021469,35.0197342903,100
                135.7203724446,35.0197601724,100
                135.7199594851,35.0197668308,100
                135.7194690352,35.0197645759,100
                135.7195374737,35.0189657318,100
                135.7195583076,35.0185218037,100
                135.7194361136,35.018467575,100
                135.7194343187,35.0183717892,100
                135.7194343047,35.0183703801,100
                135.7194330157,35.0183017102,100
                135.7194570941,35.0183015543,100
                135.7195696064,35.0183008976,100
                135.7195647944,35.0182429251,100
                135.7194447362,35.0182474374,100
                135.7194413049,35.0181927777,100
                135.7193171321,35.0181922107,100
                135.7192101315,35.0182592221,100
                135.7190208118,35.0182710409,100
                135.7187024864,35.0180738132,100
                135.7184314815,35.0178957805,100
                135.7182462361,35.0177554135,100
                135.7181934017,35.017696766,100
                135.7181590824,35.0176185819,100
                135.7180836239,35.0176055897,100
                135.7180636622,35.0173458065,100
                135.7180183676,35.0172793596,100
                135.7179484158,35.0172449694,100
                135.7178242348,35.0172100318,100
                135.7177232832,35.0172035301,100
                135.7171327507,35.0171649056,100
                135.7162629034,35.0171332354,100
                135.7158136699,35.0171431755,100
                135.7154897936,35.0171572805,100
                135.7153172758,35.0171942754,100
                135.7153114495,35.017195529,100
                135.7150164749,35.0170889171,100
                135.714672524,35.0176045578,100
              </coordinates>
            </LinearRing>
          </outerBoundaryIs>
        </Polygon>
      </Placemark>
    </Document>
  </Document>
</kml>
