<?xml version="1.0" encoding="UTF-8"?>
<kml xmlns="http://www.opengis.net/kml/2.2">
  <Document id="root_doc">
    <Document id="_8_09____________disv4326">
      <name>28_09西院第二disv4326</name>
      <Placemark id="_8_09____________disv4326.1">
        <visibility>1</visibility>
        <Polygon>
          <extrude>0</extrude>
          <outerBoundaryIs>
            <LinearRing>
              <coordinates>
                135.729277369,34.9938094842,100
                135.7285685429,34.9937968536,100
                135.7285694021,34.9938488816,100
                135.7285325929,34.9942827123,100
                135.7282362389,34.9942833214,100
                135.7279101905,34.9942767516,100
                135.7271201205,34.9942606941,100
                135.7262131847,34.9942523993,100
                135.7256471506,34.9942621185,100
                135.7242736295,34.9942757211,100
                135.7234167314,34.9942821675,100
                135.7226387004,34.9942939984,100
                135.7226297849,34.9944842063,100
                135.7226243458,34.9946005424,100
                135.7226235519,34.9949278936,100
                135.7226231505,34.9950890537,100
                135.7226224974,34.9953513093,100
                135.7226081492,34.9954960785,100
                135.7231657124,34.9960256996,100
                135.7228371025,34.9960210816,100
                135.7226387871,34.9960260544,100
                135.7224379443,34.9960262331,100
                135.7223715303,34.9960262231,100
                135.7221193109,34.9960262838,100
                135.7219664341,34.9960263602,100
                135.721468807,34.9960165713,100
                135.721284555,34.9960129468,100
                135.721233773,34.9960119477,100
                135.7204083838,34.9960095039,100
                135.719642113,34.9960071899,100
                135.7196348831,34.9967202648,100
                135.7196289201,34.9969840068,100
                135.7196171878,34.9975360707,100
                135.7195939259,34.9986299157,100
                135.7195720603,34.9996589704,100
                135.7195667687,34.9999080645,100
                135.7195497928,35.0008510658,100
                135.7195616585,35.0011254121,100
                135.7196851771,35.0011218923,100
                135.7212949454,35.0011290178,100
                135.721302292,35.0008598554,100
                135.7213023751,35.0008488709,100
                135.7218406896,35.000848191,100
                135.7226054859,35.0008315468,100
                135.7242633602,35.0008229746,100
                135.7242510071,35.0014418745,100
                135.7254833886,35.0014369027,100
                135.7254915129,35.0009299044,100
                135.7254949641,35.0008262122,100
                135.7255031085,35.0005816592,100
                135.7255124928,34.9999065494,100
                135.7255038006,34.9986700814,100
                135.7255160249,34.9986811656,100
                135.7261250939,34.9992337088,100
                135.726842467,34.9999150229,100
                135.7271804741,35.000207988,100
                135.7279879807,35.0009635178,100
                135.7283038912,35.0012765734,100
                135.7282987981,35.0020390249,100
                135.7285128318,35.00205415,100
                135.7285175927,35.0022986897,100
                135.7289746548,35.0022963241,100
                135.7290642908,35.0022962412,100
                135.7290648315,35.002131157,100
                135.7290155293,35.0020858323,100
                135.728968331,35.0020843195,100
                135.7287116705,35.0020831864,100
                135.7287121573,35.0019997996,100
                135.7290367952,35.0019955895,100
                135.7290666714,35.0017847921,100
                135.7299724356,35.0017833464,100
                135.7303072243,35.0017826768,100
                135.730380661,35.0017826281,100
                135.7303744261,35.0019623491,100
                135.7305486986,35.0019657614,100
                135.7305543191,35.0020993072,100
                135.7303745349,35.0020998266,100
                135.7303648261,35.0023212339,100
                135.729998813,35.0023228195,100
                135.7300088023,35.0025268742,100
                135.730012213,35.002596607,100
                135.730024188,35.0028415144,100
                135.7301628687,35.0029526055,100
                135.7303303232,35.0030655912,100
                135.7305478886,35.0031798147,100
                135.730767546,35.0032696728,100
                135.730940874,35.0033405547,100
                135.7309566856,35.0033539705,100
                135.7309582491,35.0035639226,100
                135.7310623452,35.0035721103,100
                135.7312054742,35.0035730592,100
                135.7312908504,35.0035736697,100
                135.7318947845,35.003568025,100
                135.7319610517,35.0035688043,100
                135.7326978014,35.00357718,100
                135.7328894874,35.0035631609,100
                135.7329121989,35.003362418,100
                135.732959996,35.0032249746,100
                135.7329985334,35.0027478318,100
                135.733025595,35.0024251851,100
                135.7330266414,35.0024125801,100
                135.733037236,35.0022862535,100
                135.733053997,35.0021050768,100
                135.733054851,35.0020924009,100
                135.7330914065,35.001552783,100
                135.7331014049,35.0013589841,100
                135.7330794998,35.0013105515,100
                135.7330761503,35.0012014501,100
                135.7330584686,35.0012037356,100
                135.7330585365,35.0009642066,100
                135.7330552932,35.0008818679,100
                135.7330434482,35.0005806164,100
                135.732943123,35.0005851864,100
                135.7329547787,34.9999509988,100
                135.7329889702,34.9999513547,100
                135.7329922306,34.9999223456,100
                135.7329252349,34.9999229734,100
                135.7328812616,34.9999234407,100
                135.7328830004,34.9995576359,100
                135.7328037541,34.9995548569,100
                135.7328075244,34.9993682985,100
                135.7328519176,34.9993698047,100
                135.7328515885,34.9990218838,100
                135.7328514101,34.998857995,100
                135.7330417333,34.9988587629,100
                135.7330478968,34.9986263604,100
                135.7329921048,34.9986234924,100
                135.7330008131,34.9983578793,100
                135.733001076,34.9983498603,100
                135.7330152173,34.997918556,100
                135.7330163351,34.9978844625,100
                135.7329502421,34.9978843182,100
                135.732971754,34.9971065457,100
                135.7329933599,34.9971077198,100
                135.7330019617,34.9969485693,100
                135.7330086515,34.9968249099,100
                135.7330147495,34.9967124485,100
                135.7330392547,34.9962597832,100
                135.7331315297,34.9962616748,100
                135.733131248,34.9962165996,100
                135.7331276993,34.9956386506,100
                135.7331288398,34.9952388275,100
                135.7330159956,34.9952398484,100
                135.7330562962,34.9939882019,100
                135.7322627274,34.9939565356,100
                135.7322739774,34.9936664634,100
                135.7318857805,34.9936585708,100
                135.7315200887,34.9936454435,100
                135.7314973185,34.9938195642,100
                135.7314973161,34.99382029,100
                135.7314972776,34.9938321852,100
                135.7307961886,34.9938315464,100
                135.730748793,34.9938308143,100
                135.7307479593,34.9938308016,100
                135.7302170729,34.9938226011,100
                135.7301606479,34.9938216095,100
                135.7301599241,34.9938519105,100
                135.7300709299,34.993852485,100
                135.730072119,34.9938236399,100
                135.7292805741,34.9938095413,100
                135.729277369,34.9938094842,100
              </coordinates>
            </LinearRing>
          </outerBoundaryIs>
        </Polygon>
      </Placemark>
    </Document>
  </Document>
</kml>
