<?xml version="1.0" encoding="UTF-8"?>
<kml xmlns="http://www.opengis.net/kml/2.2">
  <Document id="root_doc">
    <Document id="_8_06______disv4326">
      <name>28_06安井disv4326</name>
      <Placemark id="_8_06______disv4326.1">
        <visibility>1</visibility>
        <MultiGeometry>
          <Polygon>
            <extrude>0</extrude>
            <outerBoundaryIs>
              <LinearRing>
                <coordinates>
                  135.7178150416,35.0090954536,100
                  135.718321571,35.0091131732,100
                  135.7183325522,35.0084528615,100
                  135.7177526943,35.0085908315,100
                  135.7173724643,35.008686369,100
                  135.7167334429,35.008914768,100
                  135.7167190018,35.0091956029,100
                  135.7167311384,35.0095379128,100
                  135.7167320967,35.0095667907,100
                  135.716741031,35.009836021,100
                  135.7167413197,35.0098448637,100
                  135.7167470071,35.0100159468,100
                  135.7167494884,35.0100791268,100
                  135.7167468449,35.0101689174,100
                  135.7167335243,35.0106219515,100
                  135.7170147688,35.0106259139,100
                  135.7173867745,35.0104097147,100
                  135.7174604865,35.0102812824,100
                  135.7174856057,35.0100763945,100
                  135.717461379,35.0100200662,100
                  135.7174563247,35.0096317091,100
                  135.717453636,35.0094251397,100
                  135.7174483724,35.0093135805,100
                  135.717444533,35.0092322148,100
                  135.7174301085,35.0091638659,100
                  135.7177195384,35.0091645346,100
                  135.7177235752,35.0090529854,100
                  135.7178150416,35.0090954536,100
                </coordinates>
              </LinearRing>
            </outerBoundaryIs>
          </Polygon>
          <Polygon>
            <extrude>0</extrude>
            <outerBoundaryIs>
              <LinearRing>
                <coordinates>
                  135.7161809747,35.0114639785,100
                  135.7162117018,35.0115220927,100
                  135.7162391691,35.0115740521,100
                  135.7163572074,35.0120443594,100
                  135.716461645,35.0122106002,100
                  135.7168072531,35.0126683364,100
                  135.7167892526,35.012994233,100
                  135.7167729041,35.0131627987,100
                  135.7167582842,35.0133134099,100
                  135.7166983784,35.0136764654,100
                  135.7165653063,35.0142324645,100
                  135.7164359085,35.0146405733,100
                  135.7163849348,35.0148013108,100
                  135.7162972188,35.0150550687,100
                  135.7162048668,35.0152440228,100
                  135.7157615894,35.0159452936,100
                  135.7155296268,35.0163231604,100
                  135.7150644277,35.0170170523,100
                  135.7150164749,35.0170889171,100
                  135.7153114495,35.017195529,100
                  135.7153172758,35.0171942754,100
                  135.7154897936,35.0171572805,100
                  135.7158136699,35.0171431755,100
                  135.7162629034,35.0171332354,100
                  135.7171327507,35.0171649056,100
                  135.7177232832,35.0172035301,100
                  135.7178242348,35.0172100318,100
                  135.7179484158,35.0172449694,100
                  135.7180183676,35.0172793596,100
                  135.7180636622,35.0173458065,100
                  135.7180836239,35.0176055897,100
                  135.7181590824,35.0176185819,100
                  135.7181934017,35.017696766,100
                  135.7182462361,35.0177554135,100
                  135.7184314815,35.0178957805,100
                  135.7187024864,35.0180738132,100
                  135.7190208118,35.0182710409,100
                  135.7192101315,35.0182592221,100
                  135.7193171321,35.0181922107,100
                  135.7194413049,35.0181927777,100
                  135.7194447362,35.0182474374,100
                  135.7195647944,35.0182429251,100
                  135.7195696064,35.0183008976,100
                  135.7194570941,35.0183015543,100
                  135.7194330157,35.0183017102,100
                  135.7194343047,35.0183703801,100
                  135.7194343187,35.0183717892,100
                  135.7194361136,35.018467575,100
                  135.7195583076,35.0185218037,100
                  135.7195374737,35.0189657318,100
                  135.7194690352,35.0197645759,100
                  135.7199594851,35.0197668308,100
                  135.7203724446,35.0197601724,100
                  135.7210021469,35.0197342903,100
                  135.7213087769,35.019702172,100
                  135.7215680593,35.0196914963,100
                  135.7215570132,35.0192098162,100
                  135.7215315941,35.0189850936,100
                  135.7215466452,35.0187422931,100
                  135.7215665041,35.0185839464,100
                  135.7216405773,35.0184188915,100
                  135.722529594,35.0183987348,100
                  135.7225281206,35.0177282587,100
                  135.7225410948,35.0172420546,100
                  135.7232805879,35.0172460619,100
                  135.7235694574,35.0172419296,100
                  135.7240722015,35.0172349,100
                  135.7241276895,35.0166406144,100
                  135.7241392393,35.0165016159,100
                  135.7241738656,35.0160850429,100
                  135.724175225,35.0160687067,100
                  135.7241886691,35.0159071052,100
                  135.7241580149,35.0153905175,100
                  135.7241239141,35.0150656972,100
                  135.7241249906,35.0150254858,100
                  135.7242209574,35.0150239419,100
                  135.7242541519,35.0150234536,100
                  135.7242530405,35.0137077167,100
                  135.7242074943,35.0136392985,100
                  135.7241792149,35.013596767,100
                  135.7242056348,35.0135355545,100
                  135.7242553372,35.0133720624,100
                  135.7241729385,35.0131817205,100
                  135.7241487859,35.0130382746,100
                  135.7242059814,35.0129315654,100
                  135.7241839225,35.0125905034,100
                  135.7241903104,35.0122342224,100
                  135.7242170687,35.0119814466,100
                  135.7242170053,35.0117889674,100
                  135.7227882957,35.0118453088,100
                  135.7226915766,35.0118491032,100
                  135.7226191921,35.0118903496,100
                  135.7218874471,35.0119057271,100
                  135.7218085951,35.0120494322,100
                  135.721155247,35.0120422379,100
                  135.7206967911,35.0120160472,100
                  135.7200723789,35.0119955319,100
                  135.7200882287,35.0119157031,100
                  135.7201074185,35.0118888954,100
                  135.7201889875,35.0117749375,100
                  135.7202066988,35.0116437712,100
                  135.7201992259,35.0116124131,100
                  135.720143821,35.0113799438,100
                  135.7201177192,35.0112703677,100
                  135.7200083864,35.0110871441,100
                  135.7199626406,35.0110029476,100
                  135.7198830765,35.0108564853,100
                  135.7194950545,35.0108499608,100
                  135.7183701367,35.0108261042,100
                  135.7175614468,35.0108169993,100
                  135.716728064,35.0108076111,100
                  135.7167086228,35.0114685134,100
                  135.7161809747,35.0114639785,100
                </coordinates>
              </LinearRing>
            </outerBoundaryIs>
          </Polygon>
        </MultiGeometry>
      </Placemark>
    </Document>
  </Document>
</kml>
