<?xml version="1.0" encoding="UTF-8"?>
<kml xmlns="http://www.opengis.net/kml/2.2">
  <Document id="root_doc">
    <Document id="_8_02_________disv4326">
      <name>28_02南太秦disv4326</name>
      <Placemark id="_8_02_________disv4326.1">
        <visibility>1</visibility>
        <Polygon>
          <extrude>0</extrude>
          <outerBoundaryIs>
            <LinearRing>
              <coordinates>
                135.7059939452,35.0058731432,100
                135.7059053165,35.0059134268,100
                135.7056638282,35.0059503158,100
                135.7054149932,35.0059592966,100
                135.7053148495,35.0059525762,100
                135.7051180928,35.0059271718,100
                135.7049838987,35.005909876,100
                135.7049133718,35.0059027345,100
                135.7048471406,35.0059817356,100
                135.7048251136,35.0059952048,100
                135.7048086528,35.0059906578,100
                135.7048143653,35.0059251036,100
                135.7045975467,35.0058612664,100
                135.7044661274,35.0057922121,100
                135.704434698,35.0057847415,100
                135.7041529115,35.0059899235,100
                135.7038244769,35.0062061897,100
                135.7037898768,35.0062235723,100
                135.703733625,35.0062517479,100
                135.7036117331,35.0063362491,100
                135.7035641559,35.0063738835,100
                135.7034335371,35.0062667985,100
                135.7032283755,35.006460402,100
                135.7028794766,35.0067485932,100
                135.702844561,35.0067344231,100
                135.7028027639,35.0067298144,100
                135.7026300368,35.006871096,100
                135.7022359283,35.0071501608,100
                135.7019981686,35.007273255,100
                135.7017448389,35.0073517994,100
                135.701411893,35.0074447284,100
                135.7014213661,35.0074705985,100
                135.7011563997,35.0075417899,100
                135.7009737596,35.0076059263,100
                135.7009832787,35.0076246134,100
                135.7008398793,35.0076729991,100
                135.7004092241,35.0078186485,100
                135.7001096707,35.0079333302,100
                135.699722464,35.0080815654,100
                135.6995886598,35.0081030003,100
                135.699490629,35.0081026895,100
                135.6993399375,35.0080723877,100
                135.6990979997,35.0085050655,100
                135.6992145274,35.0085094368,100
                135.6994099472,35.0085500595,100
                135.6995823902,35.0085725262,100
                135.6996263192,35.008584677,100
                135.6996198763,35.0093838053,100
                135.6996206337,35.0094071892,100
                135.699676709,35.0094026074,100
                135.6997157449,35.009401858,100
                135.6996619773,35.0094758162,100
                135.6995647724,35.0095948126,100
                135.6994872998,35.0096256109,100
                135.6994569348,35.0096377198,100
                135.6993535459,35.009761912,100
                135.6993061477,35.0097791914,100
                135.6992916,35.0101179835,100
                135.699320347,35.0101276322,100
                135.6993292091,35.0102915392,100
                135.6993629004,35.0105707979,100
                135.6984096738,35.010776005,100
                135.698123574,35.0108172759,100
                135.6978199013,35.0108072302,100
                135.697764379,35.0111071156,100
                135.697767068,35.0112726267,100
                135.6977264719,35.0117560808,100
                135.6976790689,35.0119316075,100
                135.6976375209,35.0120210173,100
                135.6975051669,35.0121821091,100
                135.6982519127,35.0121535973,100
                135.6983047574,35.0121524598,100
                135.6988271847,35.0121408574,100
                135.6991883935,35.0120153284,100
                135.6993214994,35.0119638211,100
                135.6995025033,35.011806298,100
                135.6996080421,35.0117145095,100
                135.6996809112,35.0116380638,100
                135.699733763,35.0115582589,100
                135.6997497489,35.011534071,100
                135.6998427474,35.0113659062,100
                135.69987644,35.0113283093,100
                135.6999245364,35.0112901145,100
                135.7007048206,35.010940378,100
                135.7008852925,35.0108686303,100
                135.7011475027,35.0107284146,100
                135.7012044412,35.0107127072,100
                135.7017228515,35.0106258646,100
                135.7017769473,35.0106388846,100
                135.7020578581,35.0106765431,100
                135.7021846825,35.0106684001,100
                135.702659739,35.0105627846,100
                135.7028071484,35.0105259564,100
                135.7028410343,35.0105175168,100
                135.7030680322,35.0104734862,100
                135.7032579328,35.0104569737,100
                135.7034676546,35.0104562136,100
                135.7037500255,35.0104690801,100
                135.7040974668,35.0104837944,100
                135.7041155703,35.0104833115,100
                135.7041701263,35.0104818564,100
                135.7042205715,35.0104805702,100
                135.7042366218,35.0104801159,100
                135.7043389073,35.0104773294,100
                135.7043408797,35.0104772753,100
                135.7045344353,35.0104720017,100
                135.7049727919,35.0104600573,100
                135.7050537159,35.0104449698,100
                135.7052959936,35.0103227264,100
                135.705524257,35.0103140484,100
                135.7058893158,35.0103452091,100
                135.7059126383,35.0103462511,100
                135.7059447973,35.0103476664,100
                135.7061656749,35.0103574227,100
                135.7064398448,35.010353431,100
                135.7066283888,35.0103324019,100
                135.7066497231,35.0103268188,100
                135.7067593925,35.0102982762,100
                135.7068897612,35.0102444289,100
                135.7070201817,35.0101753692,100
                135.7071472599,35.0100715099,100
                135.7073848996,35.0097951552,100
                135.7074491198,35.0097174145,100
                135.7072960057,35.0095657702,100
                135.7069890869,35.0091685268,100
                135.7068867193,35.0090150308,100
                135.706798339,35.0088409327,100
                135.7072112977,35.0088554419,100
                135.7077863529,35.0088685643,100
                135.707838662,35.0088697564,100
                135.7082471942,35.0088598135,100
                135.7083044804,35.0082051803,100
                135.7085318502,35.0082050872,100
                135.7085466429,35.0079788364,100
                135.708345953,35.0079807538,100
                135.7078418617,35.0079527917,100
                135.7078052904,35.0079529153,100
                135.7066725859,35.0079575353,100
                135.7066140158,35.0073247405,100
                135.7065519182,35.0067279963,100
                135.7065507721,35.0067196836,100
                135.7066200591,35.0067144963,100
                135.7069022118,35.0067000993,100
                135.7068942489,35.0066047208,100
                135.7068451322,35.0059971617,100
                135.7068359083,35.0058829054,100
                135.7073400306,35.0057469863,100
                135.7074235785,35.0057690887,100
                135.7076059234,35.0057676918,100
                135.7083296478,35.0057622315,100
                135.7084593695,35.0056887313,100
                135.7099897571,35.0056958119,100
                135.7099852282,35.0055899471,100
                135.7099361242,35.0055031336,100
                135.7099512999,35.0049593939,100
                135.7099111565,35.0045996228,100
                135.7094736311,35.0045793585,100
                135.7092456017,35.0045206448,100
                135.7087488928,35.0045962335,100
                135.7085642715,35.0047948959,100
                135.7085140731,35.0048245678,100
                135.7084317677,35.0048327531,100
                135.7083330659,35.0048299122,100
                135.7078998337,35.0048174728,100
                135.7074636354,35.0048693954,100
                135.7074203214,35.0048580941,100
                135.7074116631,35.0048558198,100
                135.7072406856,35.0049111909,100
                135.7072929079,35.0050232961,100
                135.7071703738,35.0050670917,100
                135.7070781647,35.0048748137,100
                135.7070235667,35.0048355254,100
                135.7068205985,35.0048427876,100
                135.7064620711,35.0048354516,100
                135.7064158009,35.0049095714,100
                135.7063216889,35.004952096,100
                135.7063332808,35.0052729239,100
                135.7063813412,35.0057122979,100
                135.7062660554,35.0057337842,100
                135.7060965759,35.0059202243,100
                135.7059939452,35.0058731432,100
              </coordinates>
            </LinearRing>
          </outerBoundaryIs>
        </Polygon>
      </Placemark>
    </Document>
  </Document>
</kml>
