<?xml version="1.0" encoding="UTF-8"?>
<kml xmlns="http://www.opengis.net/kml/2.2">
  <Document id="root_doc">
    <Document id="_8_19______disv4326">
      <name>28_19宕陰disv4326</name>
      <Placemark id="_8_19______disv4326.1">
        <visibility>1</visibility>
        <Polygon>
          <extrude>0</extrude>
          <outerBoundaryIs>
            <LinearRing>
              <coordinates>
                135.6085324701,35.0663719306,100
                135.608365169,35.0655822423,100
                135.6081183612,35.0644819902,100
                135.6078934557,35.0642435723,100
                135.6074848472,35.0639556872,100
                135.6069802726,35.0630648327,100
                135.6064128762,35.0624718282,100
                135.6062739901,35.0623826411,100
                135.6060303842,35.0622958619,100
                135.6057273573,35.0620526097,100
                135.6051178308,35.0617199784,100
                135.6051173181,35.0617196956,100
                135.6049862394,35.0618248441,100
                135.6049206405,35.0618766084,100
                135.6047433792,35.0619584367,100
                135.6045391605,35.0620174995,100
                135.6041646894,35.0621257337,100
                135.6041623698,35.0621270638,100
                135.6041608267,35.0621274819,100
                135.6040612007,35.0621838538,100
                135.603951013,35.0622457557,100
                135.6038839359,35.062310544,100
                135.6037207934,35.0624660852,100
                135.6034920309,35.0626148639,100
                135.603242603,35.0625992636,100
                135.6031573657,35.0625934235,100
                135.6029142348,35.062524036,100
                135.6029136794,35.0625238933,100
                135.6027580018,35.0626140286,100
                135.6026552345,35.0626732068,100
                135.6024424814,35.0629473285,100
                135.6024416198,35.0629483822,100
                135.6023580146,35.0631898218,100
                135.6021582914,35.0637630955,100
                135.6018837479,35.0638925657,100
                135.601699652,35.0641023362,100
                135.6015932134,35.064433216,100
                135.6015935064,35.0644344846,100
                135.6017378331,35.0650193733,100
                135.6019828485,35.0660124432,100
                135.6018785645,35.0662514905,100
                135.6011996068,35.0668646144,100
                135.6011452263,35.0669243014,100
                135.6009721527,35.0671112181,100
                135.600904538,35.06732996,100
                135.6009040601,35.0673315079,100
                135.6008798254,35.0675426453,100
                135.6008640857,35.0676797887,100
                135.6008227815,35.0680368687,100
                135.6007654651,35.0683133963,100
                135.6007215585,35.0685183416,100
                135.6005907043,35.0687859662,100
                135.600512933,35.0689436135,100
                135.6004074636,35.069160753,100
                135.600161453,35.0696639374,100
                135.6000637346,35.0697484141,100
                135.6000634759,35.0697486251,100
                135.6000115336,35.0697643716,100
                135.5998032934,35.0698267945,100
                135.5997942822,35.0698302864,100
                135.5996900087,35.0698710052,100
                135.5993905439,35.0698974218,100
                135.5992292223,35.0699116121,100
                135.5991057928,35.0701568607,100
                135.59928669,35.0706967918,100
                135.5973035948,35.0711134815,100
                135.5959788524,35.0711542601,100
                135.5958992822,35.0712487238,100
                135.5956824993,35.0718203066,100
                135.5952216216,35.0721398653,100
                135.5950789232,35.0723986393,100
                135.5949801277,35.0727091823,100
                135.5947193637,35.0733729501,100
                135.5945300615,35.0736317094,100
                135.5942748925,35.0738454583,100
                135.5933038549,35.0741178209,100
                135.592991162,35.0740886806,100
                135.5926811788,35.0742214634,100
                135.5923711619,35.0745162294,100
                135.5921625983,35.0747704838,100
                135.5919210899,35.0752070375,100
                135.5916247722,35.0755017768,100
                135.5911418919,35.0758280779,100
                135.5906536028,35.0759923749,100
                135.5904174987,35.076527895,100
                135.5903049729,35.0766493585,100
                135.5900086575,35.0768811311,100
                135.5899812,35.0769846388,100
                135.5903143929,35.0773545872,100
                135.5905094649,35.0774811649,100
                135.5906609302,35.077625768,100
                135.5909058238,35.0780095748,100
                135.5909744418,35.0781216434,100
                135.5910541577,35.0783191081,100
                135.5910993366,35.0785107524,100
                135.5911307568,35.078643966,100
                135.5913353903,35.0788130421,100
                135.5915746431,35.0789370897,100
                135.5918436328,35.079076518,100
                135.5919771069,35.0791621099,100
                135.5920413415,35.0792343715,100
                135.5920663694,35.0793008682,100
                135.59166228,35.0798606899,100
                135.5916086958,35.0799724204,100
                135.5916427887,35.0800767672,100
                135.5918284946,35.0802973323,100
                135.5919314915,35.0804569823,100
                135.5919351489,35.0806522905,100
                135.5918627408,35.0808283305,100
                135.5918403251,35.0808829078,100
                135.5917757692,35.0811598964,100
                135.591861273,35.0815905648,100
                135.5920327022,35.081909679,100
                135.5921824004,35.0821884365,100
                135.5924099487,35.0825764039,100
                135.5924600833,35.0826941146,100
                135.59236206,35.0829307774,100
                135.5919263111,35.0838242544,100
                135.591916649,35.0839152847,100
                135.5919988563,35.0840785985,100
                135.5920305434,35.0842019521,100
                135.59195071,35.0844841717,100
                135.59197422,35.0845806653,100
                135.5919862134,35.0845895091,100
                135.5925271469,35.0849636552,100
                135.5925933395,35.0850831784,100
                135.5926656527,35.0855148573,100
                135.5930251955,35.0858162807,100
                135.5933382851,35.0860786736,100
                135.5934790729,35.0861347768,100
                135.5936882322,35.0861557512,100
                135.593694882,35.0864660758,100
                135.5935953089,35.0866950561,100
                135.5935604709,35.0870963008,100
                135.5935549294,35.0871602994,100
                135.593596581,35.08726171,100
                135.5936243074,35.0873291297,100
                135.5936943333,35.0874104211,100
                135.5938042691,35.0875380444,100
                135.5938881377,35.0876354397,100
                135.5941025658,35.0877962963,100
                135.5942723937,35.0879236943,100
                135.5944380817,35.0880479098,100
                135.5945796976,35.0881541563,100
                135.5947735101,35.0883435373,100
                135.5948714409,35.0884392176,100
                135.5950509898,35.0885763648,100
                135.5951660508,35.0886642834,100
                135.595272109,35.088788724,100
                135.5953113796,35.0888347706,100
                135.5953414271,35.0888836754,100
                135.5953441688,35.0888836844,100
                135.5953750863,35.0889297739,100
                135.595443348,35.0890740905,100
                135.5954629362,35.0891154951,100
                135.5955807491,35.0894196314,100
                135.5956668442,35.0896662654,100
                135.5956984687,35.0897429227,100
                135.5957302044,35.0897968321,100
                135.5957822527,35.0898584148,100
                135.5959192001,35.0899826741,100
                135.5962946487,35.0903842806,100
                135.5965183659,35.0906448169,100
                135.5966734743,35.0908577311,100
                135.5967681289,35.0910108658,100
                135.5968379827,35.0911545535,100
                135.5968849756,35.0912689383,100
                135.5969326128,35.0914003689,100
                135.5969650632,35.0914487172,100
                135.5970005504,35.0914805956,100
                135.5970479915,35.0915032875,100
                135.5970936992,35.0915129447,100
                135.5973819939,35.0916051625,100
                135.5975726535,35.0916806508,100
                135.5977144919,35.0917523166,100
                135.5978473408,35.0918403621,100
                135.5979291251,35.0919191552,100
                135.5979863778,35.0920033611,100
                135.5980106756,35.0920545701,100
                135.5980436238,35.0921240478,100
                135.5981154526,35.0924254956,100
                135.5981617441,35.0927542556,100
                135.5981772185,35.0929716413,100
                135.5981917712,35.0931761366,100
                135.5981814493,35.0934737232,100
                135.5981446607,35.0937255875,100
                135.5980905084,35.0939006305,100
                135.5980440365,35.0940121749,100
                135.5979693742,35.0941412323,100
                135.5978439,35.0943581571,100
                135.597707409,35.0943746124,100
                135.5981083222,35.094656643,100
                135.5991647733,35.094526004,100
                135.5996230322,35.0945934174,100
                135.5998891515,35.094773378,100
                135.6001772531,35.0950321446,100
                135.600555897,35.0951647897,100
                135.6007150618,35.0951288264,100
                135.600959333,35.0948678496,100
                135.6013407865,35.0945977374,100
                135.6023286872,35.0942713462,100
                135.6032972711,35.0944220909,100
                135.6039641069,35.09437917,100
                135.6042467437,35.0940753477,100
                135.6045541225,35.0934633512,100
                135.6048916511,35.0930223042,100
                135.6053361877,35.092725269,100
                135.6056379902,35.0929435021,100
                135.6067602621,35.0936002994,100
                135.6078414018,35.0943156185,100
                135.6097183027,35.0949542975,100
                135.6100256672,35.0951522505,100
                135.6104043461,35.0952556354,100
                135.6113593266,35.0957752197,100
                135.6123061191,35.0961439892,100
                135.6134752117,35.096865994,100
                135.6144439513,35.0973203093,100
                135.6151164597,35.0983912424,100
                135.6155281795,35.0988748634,100
                135.6157395656,35.0992551094,100
                135.6160470424,35.1001078488,100
                135.6162871467,35.1006713566,100
                135.61633053,35.1007361123,100
                135.616368798,35.1007790894,100
                135.616408255,35.1008206683,100
                135.6164106337,35.100823175,100
                135.6164203882,35.1008334526,100
                135.6164627318,35.1008173956,100
                135.6164953252,35.1008050368,100
                135.616495559,35.1008049929,100
                135.6164956595,35.100804832,100
                135.6165036467,35.1008019128,100
                135.6165126626,35.1008003689,100
                135.6165306045,35.1007972947,100
                135.6165481557,35.1007942879,100
                135.61656051,35.1007920937,100
                135.6165697901,35.1007905836,100
                135.6165890457,35.100787174,100
                135.6165946091,35.1007864699,100
                135.6166029756,35.1007849048,100
                135.6166031985,35.100784637,100
                135.6166271541,35.1007807561,100
                135.6167713743,35.1007857552,100
                135.6169109448,35.1007904707,100
                135.6169163625,35.1007901448,100
                135.6169276443,35.1007911074,100
                135.6169469293,35.1007914583,100
                135.616981403,35.1007926778,100
                135.6170213096,35.1007975069,100
                135.6170682892,35.1008027755,100
                135.6170789003,35.1008040095,100
                135.6170812707,35.1008042116,100
                135.6171323275,35.1008102191,100
                135.6172490768,35.1008239602,100
                135.6173602033,35.1008371033,100
                135.6174642118,35.1008423037,100
                135.6175672625,35.100847753,100
                135.6176162313,35.1008498392,100
                135.6176812097,35.1008553812,100
                135.6176874245,35.1008494683,100
                135.617840446,35.1007847114,100
                135.6180886119,35.1007016469,100
                135.618181685,35.1006578109,100
                135.6183156093,35.1005664021,100
                135.6183436031,35.1005374987,100
                135.6183550147,35.1005176304,100
                135.6183500362,35.100499598,100
                135.6183513658,35.100498587,100
                135.6183378493,35.1004639136,100
                135.6183133032,35.1004376025,100
                135.6182336881,35.100395619,100
                135.6181221424,35.1003321876,100
                135.6180101285,35.1002500218,100
                135.6178427494,35.1000967887,100
                135.6178225584,35.100081053,100
                135.6177843412,35.100032052,100
                135.6177832632,35.100028906,100
                135.6177806044,35.1000279624,100
                135.6177406566,35.0999487716,100
                135.6177309394,35.099914495,100
                135.6176940262,35.0997685196,100
                135.6176656445,35.0996275707,100
                135.6176616872,35.0996221011,100
                135.6176352994,35.0994917962,100
                135.6176319264,35.0994681739,100
                135.6176358965,35.0993344689,100
                135.6176345697,35.0993211606,100
                135.6176472796,35.099211756,100
                135.6176336352,35.0990836737,100
                135.6176073134,35.0989744308,100
                135.6175832006,35.0988669983,100
                135.6175712449,35.0988208642,100
                135.6174967378,35.0983043529,100
                135.6174337292,35.0978769687,100
                135.6174278861,35.0978635491,100
                135.617358362,35.0977129281,100
                135.6173153247,35.0976453485,100
                135.6171981418,35.0975311681,100
                135.6171513995,35.097401592,100
                135.6171486728,35.097397823,100
                135.6170879417,35.0972046813,100
                135.617016062,35.0968169794,100
                135.6170047046,35.0960893209,100
                135.6171934512,35.0958638463,100
                135.6172646301,35.0950763725,100
                135.6171987209,35.094880249,100
                135.6172020786,35.0948601354,100
                135.6170382847,35.094200747,100
                135.6168045221,35.0932755566,100
                135.6167596649,35.0931504595,100
                135.616666753,35.0927306278,100
                135.616658289,35.0927235649,100
                135.6166536018,35.0927058708,100
                135.6167525596,35.0924617291,100
                135.6167345414,35.092182844,100
                135.6167349813,35.0921809566,100
                135.6167326352,35.0921785977,100
                135.6167240034,35.092077623,100
                135.6168059171,35.0917590913,100
                135.6168450622,35.0917016953,100
                135.6168475546,35.0916976266,100
                135.6169704185,35.0914970342,100
                135.6169702239,35.0914959756,100
                135.6169901051,35.0914640775,100
                135.6170704864,35.0914018375,100
                135.6171589323,35.0913328678,100
                135.6172096953,35.0912939885,100
                135.6172916498,35.0912299332,100
                135.6173576225,35.0911787529,100
                135.6174547906,35.0911033722,100
                135.6175248137,35.091048588,100
                135.617611891,35.0909811229,100
                135.6176494414,35.0909523662,100
                135.6177039166,35.0909105711,100
                135.6177366491,35.0908553304,100
                135.6177647503,35.0908079629,100
                135.6177963845,35.0906880577,100
                135.6178002317,35.0906687075,100
                135.6178018981,35.0906664833,100
                135.6178349346,35.0905447194,100
                135.6178513956,35.0904840489,100
                135.6182227045,35.0903072373,100
                135.6183525361,35.0902477138,100
                135.61847106,35.0901797018,100
                135.618602018,35.0900208551,100
                135.6187245033,35.0898222087,100
                135.6188049308,35.0896543514,100
                135.6188688681,35.0895328117,100
                135.6189398077,35.0893600618,100
                135.6189447702,35.0892878079,100
                135.6189777916,35.0891233927,100
                135.6190011316,35.0888267527,100
                135.6190174781,35.088554904,100
                135.6190243627,35.0881886019,100
                135.6190265937,35.0881582372,100
                135.6192303575,35.0880253408,100
                135.6195565734,35.0877592253,100
                135.6196595341,35.0874589667,100
                135.6197009924,35.0872754953,100
                135.619843639,35.0871757204,100
                135.6198043393,35.0868917846,100
                135.6198870256,35.0865748432,100
                135.6201321659,35.0862750909,100
                135.6204589078,35.0858920653,100
                135.6205641277,35.0850910092,100
                135.6206870777,35.0848576436,100
                135.6215143241,35.0838068265,100
                135.6215655979,35.0837416992,100
                135.6217291534,35.083508457,100
                135.621755458,35.0831535199,100
                135.6226307054,35.0817916314,100
                135.6226378497,35.081765666,100
                135.6227133441,35.0814913055,100
                135.622788046,35.0812123658,100
                135.6228786514,35.0808741045,100
                135.6232543688,35.0803595966,100
                135.6232726496,35.0803156362,100
                135.6234927625,35.0798241716,100
                135.6234943655,35.0794735247,100
                135.6235010423,35.0793573375,100
                135.6234772562,35.0790848789,100
                135.6234766914,35.0790784172,100
                135.6234039164,35.0788228578,100
                135.6233586874,35.0786871102,100
                135.6234628499,35.0784550853,100
                135.6234624906,35.0784494953,100
                135.6235795027,35.078244368,100
                135.6235815333,35.0781715384,100
                135.6235807829,35.0781689451,100
                135.6235503806,35.0778824791,100
                135.623522723,35.0777641258,100
                135.623511112,35.0774350664,100
                135.6235117252,35.0774335755,100
                135.6235106636,35.0774321373,100
                135.6235179304,35.0773656139,100
                135.6235742296,35.0772799958,100
                135.6235759068,35.0772772515,100
                135.6236248917,35.077197073,100
                135.6236950977,35.0770720674,100
                135.6236983638,35.0769289688,100
                135.6236881707,35.0767958716,100
                135.6236701623,35.0766247767,100
                135.623651797,35.0765474263,100
                135.6236497294,35.0765252529,100
                135.6236753435,35.0764437599,100
                135.6236869284,35.0763851205,100
                135.6236920161,35.0763179114,100
                135.6236834117,35.0762528591,100
                135.6236624301,35.076179351,100
                135.6236527131,35.0761253188,100
                135.6236403741,35.0759506352,100
                135.6236338622,35.0758089443,100
                135.6236098234,35.0757358858,100
                135.6235702802,35.0756674368,100
                135.6235617244,35.0756587573,100
                135.6235056462,35.0755500617,100
                135.6234754021,35.0755022648,100
                135.6234665641,35.0754480757,100
                135.6234663198,35.0754477938,100
                135.6234609632,35.0754231596,100
                135.6234561859,35.075401965,100
                135.6234555173,35.0753997709,100
                135.6234644852,35.0753882043,100
                135.6234647795,35.0753880863,100
                135.6234825721,35.0753649064,100
                135.6235432745,35.0752864839,100
                135.6236683278,35.0752085715,100
                135.6237859281,35.0751348102,100
                135.6238708985,35.0750785364,100
                135.6239436657,35.075029876,100
                135.6239960438,35.0749961674,100
                135.6240229999,35.0749775327,100
                135.6240999812,35.0749170604,100
                135.6241488989,35.0748620005,100
                135.6242124998,35.0747895283,100
                135.6242597009,35.0747357423,100
                135.6242844855,35.0747075036,100
                135.6242876977,35.0747014071,100
                135.6242873908,35.0746978419,100
                135.6243021343,35.0746916965,100
                135.6244414227,35.0746398769,100
                135.6245911471,35.0745723579,100
                135.6246398501,35.074549252,100
                135.6246476943,35.0745469876,100
                135.6246483791,35.0745459344,100
                135.624717177,35.0744693232,100
                135.6248172153,35.0743053167,100
                135.6248612347,35.0741921181,100
                135.6248551134,35.0741047396,100
                135.624852955,35.0741026885,100
                135.6248381451,35.0740102182,100
                135.6247221807,35.0738327669,100
                135.6246323165,35.0737077531,100
                135.6245427565,35.0735859259,100
                135.6245326183,35.0735710144,100
                135.6245375588,35.0735629683,100
                135.6246372127,35.0731140421,100
                135.6246724248,35.0729268546,100
                135.6247545359,35.0727351022,100
                135.6247858891,35.0726672818,100
                135.6247903887,35.0726539187,100
                135.6248634556,35.0725180273,100
                135.6248649194,35.0725168328,100
                135.6248642466,35.0725140819,100
                135.624897986,35.0724521846,100
                135.6250467249,35.0723685311,100
                135.6250503315,35.0723655913,100
                135.625125327,35.0723452561,100
                135.6251269507,35.0723436204,100
                135.625224486,35.0723172906,100
                135.6252737898,35.0723032824,100
                135.6254135381,35.0722908296,100
                135.6255163267,35.0722805384,100
                135.6255219505,35.0722792097,100
                135.6255228144,35.072279685,100
                135.6256455535,35.0722683701,100
                135.6257679246,35.0722579227,100
                135.6257811003,35.0722179464,100
                135.6257817551,35.072215961,100
                135.6257819739,35.0722158351,100
                135.6257913906,35.0721876857,100
                135.625798088,35.0721672393,100
                135.6258002917,35.0721608057,100
                135.6258007168,35.0720869634,100
                135.6258007473,35.0720418844,100
                135.6258010608,35.072011403,100
                135.6257847068,35.0719901011,100
                135.6257630809,35.0719617684,100
                135.6257533554,35.071949118,100
                135.6257509117,35.0719459402,100
                135.6257507068,35.0719453701,100
                135.6257487014,35.0719455918,100
                135.6257291167,35.0719140471,100
                135.6256371653,35.0717191394,100
                135.6255000297,35.0715088281,100
                135.6253721013,35.0713147644,100
                135.6253744862,35.0712964671,100
                135.6253738325,35.0712955622,100
                135.6253752662,35.0712937553,100
                135.6253800097,35.0712490022,100
                135.6254248904,35.071198285,100
                135.6254819863,35.0711650294,100
                135.6254835077,35.0708310677,100
                135.6254854767,35.0708267997,100
                135.6254841231,35.0708238062,100
                135.6254932127,35.070712168,100
                135.6255661156,35.0706312069,100
                135.6255795128,35.0706229109,100
                135.6255799069,35.0706220549,100
                135.6255809438,35.0706221527,100
                135.6256655574,35.070570486,100
                135.6257565478,35.0705151953,100
                135.6258593667,35.0704663054,100
                135.6258656902,35.0704638548,100
                135.625925044,35.070433988,100
                135.6259913062,35.070401378,100
                135.6259360306,35.0703022815,100
                135.6258767895,35.0701960751,100
                135.6258276806,35.0701151985,100
                135.6257996385,35.0700698331,100
                135.625732526,35.0699605748,100
                135.6257275582,35.0699472004,100
                135.6257125323,35.0699250442,100
                135.6257125035,35.0699219459,100
                135.625691853,35.0698779543,100
                135.6257284225,35.0697862734,100
                135.6257411322,35.0697693132,100
                135.6258329652,35.0695977771,100
                135.625880671,35.0695160017,100
                135.625909979,35.0694397493,100
                135.6259460957,35.0693195321,100
                135.6259585324,35.0692073612,100
                135.6259465577,35.0691157111,100
                135.6259233994,35.0690402749,100
                135.6258606586,35.0689247225,100
                135.6258218318,35.068847798,100
                135.6258081807,35.068815765,100
                135.6258085377,35.0688093697,100
                135.6258060154,35.0688053939,100
                135.6257713314,35.0686353431,100
                135.6257708574,35.0686330258,100
                135.6257717424,35.0686269266,100
                135.6257858963,35.0683374249,100
                135.6257845391,35.0681306392,100
                135.6257546001,35.067992366,100
                135.625754131,35.0679116238,100
                135.6257551328,35.0679061824,100
                135.6257648911,35.0678531711,100
                135.6258232748,35.0677734475,100
                135.6258985277,35.0677084084,100
                135.6259053637,35.0677000456,100
                135.6260070351,35.0676107926,100
                135.6260573487,35.0675323197,100
                135.6261235894,35.0673189344,100
                135.6262264223,35.0668898151,100
                135.6262931753,35.066586932,100
                135.6263455068,35.0661674361,100
                135.6263634234,35.0660857502,100
                135.6263729687,35.0660650569,100
                135.6264197829,35.0659386441,100
                135.6264669421,35.0658613103,100
                135.6264706539,35.0658532653,100
                135.6265241944,35.0657677361,100
                135.6266244104,35.0656044659,100
                135.6266401435,35.0655776554,100
                135.626660523,35.0655493173,100
                135.6266599876,35.0655465354,100
                135.6267460603,35.0654069707,100
                135.6268989321,35.0651764163,100
                135.6269154156,35.0651586668,100
                135.6264332054,35.0651113433,100
                135.6259422686,35.0650237141,100
                135.6250810445,35.0648395925,100
                135.6244473704,35.0644123398,100
                135.6241099203,35.0640659973,100
                135.6237588674,35.0640347077,100
                135.6228950171,35.0642960903,100
                135.6224534904,35.0642693084,100
                135.6216583325,35.0650257222,100
                135.6209975052,35.0654220256,100
                135.6207397841,35.0657890047,100
                135.6199747119,35.0664148584,100
                135.6196155403,35.0668335691,100
                135.6190864687,35.0680647034,100
                135.6178879908,35.0685737696,100
                135.6175122046,35.0683601187,100
                135.6162065786,35.0678700217,100
                135.6151450948,35.0673258822,100
                135.6147473731,35.0671618756,100
                135.6144154568,35.0669301819,100
                135.6134363465,35.0668630139,100
                135.6127314476,35.0665100603,100
                135.6121609369,35.0658689104,100
                135.6120018437,35.0657924854,100
                135.6108554254,35.0659954247,100
                135.6100326437,35.0659304845,100
                135.6093469942,35.065986897,100
                135.6088259345,35.0661806004,100
                135.6085324701,35.0663719306,100
              </coordinates>
            </LinearRing>
          </outerBoundaryIs>
        </Polygon>
      </Placemark>
    </Document>
  </Document>
</kml>
