<?xml version="1.0" encoding="UTF-8"?>
<kml xmlns="http://www.opengis.net/kml/2.2">
  <Document id="root_doc">
    <Document id="_8_17______disv4326">
      <name>28_17嵯峨disv4326</name>
      <Placemark id="_8_17______disv4326.1">
        <visibility>1</visibility>
        <Polygon>
          <extrude>0</extrude>
          <outerBoundaryIs>
            <LinearRing>
              <coordinates>
                135.6722007406,35.0128349773,100
                135.6719014289,35.0129124018,100
                135.6715893544,35.0130444392,100
                135.6712829313,35.0132079706,100
                135.6709423792,35.0134014792,100
                135.6704952517,35.01367857,100
                135.6701439184,35.0139069073,100
                135.6697066992,35.0142407849,100
                135.6694533173,35.0145809432,100
                135.6692739082,35.0149027838,100
                135.6691290869,35.0151497872,100
                135.6687997374,35.0156499512,100
                135.6685384366,35.0159140981,100
                135.6683657594,35.0160733456,100
                135.6679865031,35.0161965971,100
                135.6676358399,35.0162825321,100
                135.6672956012,35.0163944109,100
                135.6666254995,35.0166293213,100
                135.6664375522,35.0167531708,100
                135.6663071201,35.0168593612,100
                135.666136922,35.0169605821,100
                135.6659473414,35.0170331564,100
                135.6657829415,35.017066856,100
                135.6656170351,35.0170701264,100
                135.6655195845,35.0170557701,100
                135.665162985,35.0170534388,100
                135.6650157354,35.0170847197,100
                135.6647289099,35.0171762472,100
                135.6645844189,35.0172132403,100
                135.6644384406,35.0172321991,100
                135.6640455492,35.0172332851,100
                135.6630013338,35.0172554321,100
                135.6623088613,35.0172743342,100
                135.6619557362,35.0172753139,100
                135.6615406393,35.0173569659,100
                135.6609324672,35.017495469,100
                135.6606392306,35.017541826,100
                135.6602725831,35.0175777637,100
                135.6600825886,35.0175682121,100
                135.6595795295,35.0174885446,100
                135.659430029,35.0174845284,100
                135.6592148015,35.0175008183,100
                135.6588122475,35.0176179167,100
                135.658564601,35.0177204542,100
                135.6583424326,35.0178460232,100
                135.6579944623,35.0181610995,100
                135.6577737187,35.0184217478,100
                135.657617829,35.0186253246,100
                135.6573411812,35.0189418694,100
                135.6571697095,35.0191804726,100
                135.6570419467,35.0193872981,100
                135.656902377,35.0196893749,100
                135.6566980144,35.020054652,100
                135.656656019,35.0201169297,100
                135.6564191867,35.0204680332,100
                135.6561632623,35.0208030944,100
                135.6560686696,35.02111911,100
                135.6556605525,35.0221857539,100
                135.6555274628,35.0230273994,100
                135.6554101659,35.0239974783,100
                135.6553310656,35.0244565776,100
                135.65510161,35.0248161558,100
                135.6547599282,35.0251301974,100
                135.6542480639,35.0254686106,100
                135.653846597,35.0256699365,100
                135.6535822354,35.0258784874,100
                135.6534351467,35.0262202722,100
                135.6533174916,35.0267085615,100
                135.6531518769,35.0274600411,100
                135.6532069694,35.0279555876,100
                135.6532613488,35.028597476,100
                135.6532510457,35.0290140216,100
                135.653216732,35.0292909823,100
                135.6531167237,35.0295428228,100
                135.6529650161,35.0297088771,100
                135.6526182374,35.0299374723,100
                135.6523569321,35.0300784207,100
                135.6519208794,35.0302380209,100
                135.651911748,35.0302413752,100
                135.6508343713,35.0306499158,100
                135.6510124051,35.0312449038,100
                135.6512245177,35.0316104679,100
                135.6515214765,35.032018954,100
                135.651802359,35.0323463325,100
                135.6519117725,35.0324103131,100
                135.6521278498,35.0325365758,100
                135.6522751211,35.0327104603,100
                135.6522877243,35.0329312137,100
                135.6521958225,35.0332033614,100
                135.6519270611,35.0337315653,100
                135.6519059669,35.0337950292,100
                135.6516457277,35.0345772872,100
                135.651656739,35.0351110137,100
                135.6515951011,35.0353629648,100
                135.6513486884,35.0358125658,100
                135.65121387,35.0364291176,100
                135.6512751444,35.0367940354,100
                135.6512304021,35.0369583531,100
                135.6511665258,35.0371157143,100
                135.6510835996,35.0372369628,100
                135.6507482304,35.0373665683,100
                135.6506432771,35.0375080354,100
                135.6504365882,35.037687522,100
                135.6502826812,35.0377410248,100
                135.6500847947,35.0378125007,100
                135.649821079,35.0378791381,100
                135.6493977734,35.038047644,100
                135.6491083373,35.0382840049,100
                135.6488862877,35.0386322575,100
                135.6487664983,35.0388691796,100
                135.6482895245,35.0393143743,100
                135.6480848373,35.0395649936,100
                135.6478973243,35.0397737589,100
                135.6479129781,35.040080795,100
                135.6479117368,35.0403739089,100
                135.6479957462,35.0405695166,100
                135.6480439919,35.0406167018,100
                135.6481813931,35.0408072531,100
                135.648503258,35.0409338278,100
                135.6485366579,35.0410594958,100
                135.6483323437,35.0412263795,100
                135.6478950174,35.0415213967,100
                135.6475668276,35.0416846795,100
                135.6473957312,35.042019133,100
                135.6472752845,35.0424095116,100
                135.6468151201,35.0428826445,100
                135.6465261957,35.0429935044,100
                135.6461864007,35.0430902017,100
                135.6450460765,35.043896305,100
                135.6445177879,35.0444250826,100
                135.6442626467,35.0445638542,100
                135.641970989,35.0447665293,100
                135.6415793671,35.0450723726,100
                135.6409670487,35.0454055252,100
                135.6403034533,35.0458221918,100
                135.6400653972,35.0459331877,100
                135.6396408209,35.0460156722,100
                135.6392156765,35.0462237265,100
                135.6387894379,35.04668299,100
                135.6386188386,35.0468917952,100
                135.6383803738,35.0471004693,100
                135.6381597946,35.0473215918,100
                135.6381588026,35.0473230672,100
                135.6381406684,35.0475881731,100
                135.6378518373,35.0476710543,100
                135.6370362699,35.047905899,100
                135.6369168214,35.0480590042,100
                135.6367126885,35.048170094,100
                135.6362709986,35.0482804043,100
                135.6360138316,35.0482988639,100
                135.6358975422,35.0483071786,100
                135.6356087066,35.0483900542,100
                135.6354717642,35.0486548034,100
                135.6347354606,35.0501598155,100
                135.6344794198,35.0504939355,100
                135.6343089836,35.0506609044,100
                135.6341723182,35.050869879,100
                135.6340862778,35.0511347815,100
                135.6340837552,35.0517069268,100
                135.634065935,35.0519022388,100
                135.6338953099,35.0521110413,100
                135.6332819657,35.0526535477,100
                135.6328903009,35.0529454282,100
                135.632956735,35.0532805801,100
                135.6330739827,35.0536297577,100
                135.6330715757,35.0541740149,100
                135.6332730834,35.0546631017,100
                135.6335077073,35.0553336381,100
                135.6334897633,35.0555569099,100
                135.633488222,35.0559058036,100
                135.6334014337,35.0563381111,100
                135.6333829323,35.0566869541,100
                135.6333642046,35.0570777009,100
                135.6336173798,35.0573993949,100
                135.6336837767,35.0577345459,100
                135.6338525687,35.0579443603,100
                135.633868092,35.0582793597,100
                135.634003109,35.0584472388,100
                135.6341646645,35.0587249934,100
                135.6340523163,35.0589715785,100
                135.6337461134,35.0592520234,100
                135.6335686875,35.0595712359,100
                135.6334115882,35.0596900708,100
                135.6331173248,35.0597971575,100
                135.6327051715,35.0598724103,100
                135.6325809939,35.0599935257,100
                135.6325579337,35.0601915692,100
                135.6327233026,35.0605749788,100
                135.6330155838,35.0608393919,100
                135.6332386289,35.0612071272,100
                135.6332953647,35.0613739987,100
                135.6330786661,35.0618529646,100
                135.6330744568,35.0621140995,100
                135.633212922,35.0623915071,100
                135.6336134585,35.0626193411,100
                135.6336165009,35.0626191389,100
                135.6337973158,35.0624475522,100
                135.6341381235,35.0623743378,100
                135.6343608882,35.0622940087,100
                135.6345620777,35.0621527656,100
                135.6348718186,35.0617259809,100
                135.6352846058,35.0620358322,100
                135.6355769123,35.062291303,100
                135.6357837435,35.062623495,100
                135.6357826825,35.0628625244,100
                135.6356120376,35.0630713272,100
                135.6356617781,35.0633366377,100
                135.6358640964,35.0636443073,100
                135.6366903238,35.064241531,100
                135.6367026991,35.0642517799,100
                135.636723027,35.0642651512,100
                135.6367946186,35.0643169173,100
                135.6368091988,35.0643220314,100
                135.6371822087,35.0645679469,100
                135.6373356513,35.0647929972,100
                135.6378787624,35.0647946078,100
                135.6383881379,35.0647542816,100
                135.638727831,35.0646994373,100
                135.6390230146,35.0646518554,100
                135.6390675426,35.0646446625,100
                135.6394743823,35.0647574912,100
                135.6397283758,35.0648977571,100
                135.6398639764,35.0649400611,100
                135.6401244,35.0649820283,100
                135.6403049621,35.0650111534,100
                135.6405782816,35.0649691376,100
                135.6406616346,35.0649563536,100
                135.6412376157,35.0652092599,100
                135.6412197825,35.0654045736,100
                135.6412859211,35.0658095129,100
                135.6415042605,35.0663404003,100
                135.6417573945,35.0666760944,100
                135.6417206599,35.0673179307,100
                135.6417326647,35.0684623381,100
                135.6417490644,35.0687335309,100
                135.6416114025,35.0690201896,100
                135.641642095,35.0692308574,100
                135.6417502607,35.0695464054,100
                135.6417199676,35.0700800139,100
                135.6419153106,35.070519768,100
                135.641976517,35.0709331425,100
                135.6419437581,35.0713687796,100
                135.6420076018,35.0715891916,100
                135.6420739301,35.0719522255,100
                135.6419885749,35.0720636031,100
                135.6425640103,35.0724560116,100
                135.6426142449,35.0726096897,100
                135.6426638742,35.0725984247,100
                135.6430390466,35.0725132449,100
                135.6435492614,35.0722914761,100
                135.6441957949,35.0719444596,100
                135.6443829409,35.0718473198,100
                135.6445034085,35.0717327322,100
                135.6448085789,35.0715554364,100
                135.6450895692,35.0713588438,100
                135.6451661282,35.071305329,100
                135.6454728043,35.0710410588,100
                135.6458136658,35.0707210368,100
                135.6461538246,35.0705684886,100
                135.6464593572,35.0705693702,100
                135.6468333751,35.0704309316,100
                135.6471230252,35.0701805521,100
                135.647394552,35.0701952813,100
                135.6476151541,35.0702098629,100
                135.647673465,35.0702409482,100
                135.6478522602,35.0703361892,100
                135.6479242685,35.0701490602,100
                135.6480239086,35.0698901052,100
                135.6484328335,35.0695284456,100
                135.649096296,35.0691814614,100
                135.6493685303,35.0690287129,100
                135.6494036576,35.0687497133,100
                135.6495246586,35.0682336917,100
                135.6500049616,35.0670488719,100
                135.6500906551,35.0668537537,100
                135.6506168273,35.0668552598,100
                135.6506268631,35.066856768,100
                135.6514300001,35.0670335091,100
                135.6519053348,35.0672078329,100
                135.6526002032,35.0674610238,100
                135.6529542982,35.0675267527,100
                135.6533781233,35.0676784585,100
                135.653731888,35.0677516495,100
                135.6539519478,35.0676645218,100
                135.6539927509,35.0676270289,100
                135.6540762607,35.0676186739,100
                135.6543994053,35.0674661279,100
                135.654570422,35.0671595503,100
                135.6545915194,35.0670767174,100
                135.6546331804,35.0670384526,100
                135.6547103397,35.0669102119,100
                135.6547212371,35.066608745,100
                135.6549997497,35.0659640687,100
                135.6551491516,35.0657551821,100
                135.6553315966,35.0656129408,100
                135.6553370922,35.0655994343,100
                135.6554489526,35.0650931684,100
                135.6555373831,35.0642386452,100
                135.6558029898,35.064056424,100
                135.6560693044,35.0638737816,100
                135.6565189004,35.0628981519,100
                135.6567105694,35.0627242423,100
                135.657475497,35.0624472847,100
                135.6576878047,35.0624130178,100
                135.6583493884,35.0614728348,100
                135.6581719876,35.0613514875,100
                135.6580747396,35.0611929669,100
                135.6582503619,35.060882876,100
                135.6585876483,35.0602873041,100
                135.6585991193,35.0601484541,100
                135.6586322914,35.0597466921,100
                135.6586784551,35.0594605365,100
                135.6589606127,35.0590638356,100
                135.6590061029,35.0588374703,100
                135.6590460862,35.0587422945,100
                135.6591848603,35.058523162,100
                135.6592960429,35.0582657802,100
                135.6598280625,35.0578660435,100
                135.6602537649,35.0575183401,100
                135.6608252278,35.0573196425,100
                135.6614021092,35.056841223,100
                135.6616783299,35.0565026769,100
                135.66170192,35.0564199209,100
                135.6617605056,35.0563455028,100
                135.6619703936,35.0561902322,100
                135.6620781138,35.0560904562,100
                135.6621154181,35.0560049212,100
                135.6620407217,35.0558768188,100
                135.6619483026,35.0557729643,100
                135.6619051053,35.0556336108,100
                135.6619029486,35.0554794405,100
                135.6619405957,35.0553257336,100
                135.6620223644,35.0550836238,100
                135.662013358,35.0549240121,100
                135.6620689515,35.0547950743,100
                135.6621294839,35.0546946735,100
                135.662279445,35.0543737347,100
                135.6623754465,35.0542329366,100
                135.6625113636,35.0541223221,100
                135.6627394098,35.0539175923,100
                135.6628069027,35.0538369294,100
                135.6629574684,35.0534979624,100
                135.6630636187,35.0533301483,100
                135.6631729996,35.0531205812,100
                135.6631690124,35.0530108461,100
                135.6631018045,35.0527308569,100
                135.6629631584,35.0522907304,100
                135.6629151981,35.0522222845,100
                135.6629280471,35.051978504,100
                135.6632473781,35.0517002911,100
                135.663375559,35.0514738733,100
                135.6636520493,35.0513001938,100
                135.6638442335,35.0509867647,100
                135.6639032287,35.0507248013,100
                135.6640655673,35.0505431982,100
                135.6642497243,35.0503772903,100
                135.6641336894,35.0499356075,100
                135.6640925932,35.0497791481,100
                135.6639989154,35.0497549437,100
                135.6638557691,35.0497178559,100
                135.6636416191,35.0496879662,100
                135.6635477657,35.0497073554,100
                135.6634277223,35.0497064597,100
                135.6629076695,35.049807912,100
                135.6627548087,35.0498222775,100
                135.6622944563,35.0496574698,100
                135.6622275029,35.0495693209,100
                135.6622567204,35.0492389624,100
                135.6622610028,35.0490809379,100
                135.6622615699,35.0489413553,100
                135.6620930111,35.0486617874,100
                135.6620743485,35.0480337457,100
                135.661905579,35.0478065038,100
                135.661778799,35.0476840323,100
                135.6617801746,35.04734592,100
                135.6615391343,35.0469860767,100
                135.6616175966,35.0469184036,100
                135.6617755281,35.0468145415,100
                135.6620950582,35.0466573934,100
                135.6621722784,35.0465998578,100
                135.6623168608,35.0464301093,100
                135.6624120604,35.04626283,100
                135.6624512024,35.0461349741,100
                135.6624549576,35.0459218037,100
                135.6624311776,35.0458308175,100
                135.6628267423,35.0450735638,100
                135.6628189486,35.0448680383,100
                135.662569681,35.0447114236,100
                135.662924435,35.0445304956,100
                135.6632544387,35.044722616,100
                135.663402269,35.0448800761,100
                135.6635709863,35.04512471,100
                135.6635579132,35.0456463216,100
                135.6637428174,35.0457217662,100
                135.6638186707,35.0458059943,100
                135.6638892798,35.045937957,100
                135.6639290773,35.0460762434,100
                135.6639461564,35.046204467,100
                135.6639287049,35.0464222469,100
                135.6639847836,35.0465261398,100
                135.6641424058,35.0467783491,100
                135.6643439808,35.0470416666,100
                135.6644774431,35.047260215,100
                135.6645581798,35.0473601614,100
                135.6646683742,35.0474504706,100
                135.6647860173,35.0475250237,100
                135.6651775563,35.0477316062,100
                135.6659450905,35.0477731553,100
                135.6663866739,35.0477971155,100
                135.6664750543,35.0475991074,100
                135.6665575428,35.0474986935,100
                135.6666385282,35.0473668664,100
                135.6667479613,35.047161802,100
                135.6670771099,35.0472841894,100
                135.6674301861,35.0473929776,100
                135.6675889847,35.0474669374,100
                135.6678288204,35.0475985854,100
                135.6679773459,35.0478537942,100
                135.6681101231,35.0477209799,100
                135.6684195224,35.0474502587,100
                135.6684568395,35.0473645814,100
                135.6684895794,35.0471811383,100
                135.6684937602,35.0470562129,100
                135.6684727626,35.0468245226,100
                135.6685092864,35.0465729174,100
                135.6685441679,35.0464108205,100
                135.6686090621,35.046211549,100
                135.668705732,35.046059338,100
                135.6692112933,35.0456068133,100
                135.6692429955,35.045570348,100
                135.6695628987,35.045202181,100
                135.6697868642,35.0448888264,100
                135.6700600665,35.0441961545,100
                135.6700606414,35.0440522057,100
                135.6703473657,35.0439614291,100
                135.6701593921,35.0432282801,100
                135.6707802188,35.0431253088,100
                135.6709399299,35.0429687624,100
                135.6709887419,35.0426940926,100
                135.6710848793,35.0425242744,100
                135.6711004589,35.0425255137,100
                135.6718005139,35.0425785337,100
                135.6724215921,35.0424101299,100
                135.6729155729,35.0422021548,100
                135.673601171,35.0418115137,100
                135.6736640181,35.0420079587,100
                135.6736628794,35.042295715,100
                135.6735349377,35.0424654496,100
                135.6733430072,35.0427266361,100
                135.6731041345,35.0427914203,100
                135.6731672401,35.0429223703,100
                135.6731824206,35.0431055882,100
                135.6730866233,35.043196954,100
                135.6731174482,35.0434455696,100
                135.6730058248,35.043510695,100
                135.6728616828,35.0437589094,100
                135.672788666,35.0440758402,100
                135.6728433421,35.0441300742,100
                135.6731154265,35.0439557974,100
                135.6738012414,35.0435128308,100
                135.6738334684,35.0434082642,100
                135.6738825332,35.0430682398,100
                135.6739631498,35.042793726,100
                135.6740907823,35.0427024437,100
                135.6742660801,35.0426244596,100
                135.6744419478,35.0424025257,100
                135.6746167802,35.0424422212,100
                135.6747760694,35.0423903209,100
                135.6749199462,35.0422075284,100
                135.6749720136,35.041924838,100
                135.674623347,35.041901862,100
                135.6745085645,35.0418024665,100
                135.6745020996,35.0414174315,100
                135.6745801433,35.0411542488,100
                135.674606816,35.0409376198,100
                135.6749247994,35.0409777682,100
                135.6751472464,35.0410437175,100
                135.6754478074,35.0410121235,100
                135.6756724605,35.0409797641,100
                135.6755297504,35.0408616317,100
                135.675382697,35.0408410266,100
                135.6753389635,35.0408349237,100
                135.6751806289,35.0406513238,100
                135.6751810417,35.0405466723,100
                135.6752072047,35.0405181499,100
                135.6755644707,35.0401290853,100
                135.6766316013,35.0397917714,100
                135.6770135854,35.0397403896,100
                135.6773167864,35.0397667583,100
                135.6774370519,35.0397781347,100
                135.6778078775,35.0397390453,100
                135.6780146375,35.0396723357,100
                135.6783848449,35.0396490183,100
                135.6784576424,35.039668437,100
                135.6785735453,35.0397986088,100
                135.6787510157,35.0401646575,100
                135.6788437687,35.0403304727,100
                135.6790115923,35.0405528975,100
                135.679169778,35.0410337589,100
                135.6792232557,35.0410335483,100
                135.6794823902,35.0410133854,100
                135.6797810697,35.0409486757,100
                135.6798964932,35.0408575669,100
                135.6799426561,35.0407673328,100
                135.6801819265,35.0406205606,100
                135.6804253292,35.0406107069,100
                135.6804773699,35.0405946463,100
                135.6807256267,35.0404647988,100
                135.6809556191,35.0403800468,100
                135.6811831031,35.0403408522,100
                135.6815477385,35.0401705321,100
                135.6816283337,35.0401055289,100
                135.6816630061,35.0400473781,100
                135.6818038868,35.0397117451,100
                135.681848827,35.0396502402,100
                135.6822569882,35.0394122123,100
                135.6824618723,35.0391158326,100
                135.6825999982,35.0390380904,100
                135.6825561698,35.0385264036,100
                135.68261361,35.037973782,100
                135.6826732246,35.0377044188,100
                135.6826720863,35.0374848284,100
                135.682706668,35.0374104082,100
                135.68282275,35.0373192978,100
                135.682859542,35.037271223,100
                135.6829284637,35.0370750552,100
                135.6830954549,35.0370102767,100
                135.6833029104,35.0369441937,100
                135.6839436662,35.0368612789,100
                135.684204386,35.0368828724,100
                135.6843955842,35.036857945,100
                135.6845083468,35.0367826002,100
                135.6848826507,35.0363673583,100
                135.6849960964,35.0362932139,100
                135.6850754853,35.0362630669,100
                135.6851632784,35.0362627314,100
                135.6855340918,35.0363542594,100
                135.6856396885,35.0363505194,100
                135.6858061011,35.0363088359,100
                135.6862175363,35.0361682062,100
                135.6863520922,35.0360652401,100
                135.6865272544,35.0359122372,100
                135.6868388476,35.0353726,100
                135.6869181833,35.0352885053,100
                135.6870489775,35.035200107,100
                135.6872658724,35.0349259382,100
                135.6873461279,35.0348024778,100
                135.687384395,35.0347091932,100
                135.6874659659,35.0345946801,100
                135.6875328161,35.0345336527,100
                135.687643465,35.0344902038,100
                135.6877634917,35.0344795256,100
                135.6878710599,35.0344912109,100
                135.6880263553,35.0345452744,100
                135.6883091216,35.0347255137,100
                135.6883676824,35.0347955258,100
                135.6885397469,35.0349099158,100
                135.6887615867,35.034961472,100
                135.6889456222,35.0350242001,100
                135.6891500833,35.0351145858,100
                135.6893188778,35.0352053031,100
                135.6896607921,35.0351211742,100
                135.6899336751,35.0351144767,100
                135.6899743357,35.0350786642,100
                135.6900015064,35.0348902042,100
                135.6900470792,35.0347205255,100
                135.6900958641,35.0345850106,100
                135.6901512925,35.034487401,100
                135.6905790927,35.0343003148,100
                135.6907186622,35.03414827,100
                135.6907815416,35.0338563046,100
                135.69081334,35.0336150374,100
                135.6909842275,35.0333487001,100
                135.6911237945,35.033196654,100
                135.6910588406,35.0328452774,100
                135.6909788505,35.0325592868,100
                135.6908520294,35.0323969863,100
                135.6907367957,35.032244292,100
                135.6905750539,35.0321295096,100
                135.690471344,35.031986353,100
                135.6902868218,35.0317762972,100
                135.6902408732,35.0316713872,100
                135.6901953062,35.0314712629,100
                135.6901381225,35.0312805455,100
                135.6900821756,35.0307564377,100
                135.6900370775,35.0304324368,100
                135.6900381211,35.0301561599,100
                135.6900390207,35.0299179833,100
                135.6901225281,35.0297300189,100
                135.6902149702,35.0295171465,100
                135.6903853414,35.0292268632,100
                135.6905013311,35.0289846833,100
                135.6906570199,35.028823945,100
                135.6908079787,35.0287195348,100
                135.6910964296,35.0286536435,100
                135.6911304545,35.0286618985,100
                135.6913327822,35.0286949482,100
                135.6915074052,35.028786943,100
                135.6916511532,35.0286303285,100
                135.69179549,35.028316665,100
                135.6919074567,35.0281468698,100
                135.6919306586,35.0281244631,100
                135.691816943,35.0280760744,100
                135.6919664154,35.0278256658,100
                135.6921212968,35.0278787359,100
                135.692179439,35.0277289456,100
                135.6921483674,35.0275325903,100
                135.6920695629,35.0273361856,100
                135.6921818945,35.0270747662,100
                135.6921295332,35.0269903349,100
                135.6921700416,35.0268733888,100
                135.6923416021,35.0268448061,100
                135.6925932967,35.0268293835,100
                135.6933260262,35.0258049809,100
                135.692695488,35.0255425374,100
                135.6924322053,35.0254363059,100
                135.6921168516,35.0253169144,100
                135.6920575599,35.0253054967,100
                135.6916813514,35.0252325015,100
                135.6913497146,35.0252031404,100
                135.6905937729,35.0251698873,100
                135.6900789477,35.025165694,100
                135.6898279897,35.0251748463,100
                135.6894015799,35.02529088,100
                135.6892428789,35.0253493514,100
                135.6887024739,35.0256100986,100
                135.6885992285,35.0256806129,100
                135.6883443235,35.0257421481,100
                135.6882120815,35.0257658254,100
                135.6880443081,35.0260813968,100
                135.6880294571,35.0261536149,100
                135.687606808,35.0261851406,100
                135.6875912671,35.0260393904,100
                135.6875274213,35.0258868266,100
                135.6874897796,35.025839615,100
                135.6872367793,35.0258448128,100
                135.686966266,35.0257954546,100
                135.6860641418,35.0255567901,100
                135.6853557119,35.025368338,100
                135.6847455603,35.0252563367,100
                135.6845029626,35.0252452154,100
                135.684119019,35.0252488662,100
                135.6838560499,35.0252033929,100
                135.6836959232,35.0251538191,100
                135.6834519029,35.0250296582,100
                135.6825508375,35.0246733526,100
                135.6827456675,35.0242351111,100
                135.6832933901,35.0230760001,100
                135.6835421702,35.0225495145,100
                135.6835660373,35.02244922,100
                135.6835768087,35.0222983975,100
                135.683524229,35.0213001221,100
                135.6834129903,35.0211409533,100
                135.6833744091,35.0209782409,100
                135.6833468628,35.0208678837,100
                135.6833138722,35.0207868787,100
                135.6832734169,35.0207823366,100
                135.683301546,35.020709097,100
                135.6837743563,35.0206943401,100
                135.6840445196,35.0206860271,100
                135.684349082,35.0206485057,100
                135.6844680965,35.0206171223,100
                135.6845439841,35.0205971778,100
                135.6849724297,35.0204307412,100
                135.6849998889,35.0204200369,100
                135.6855327027,35.0201954833,100
                135.6857245243,35.0201040007,100
                135.6857218699,35.0198144746,100
                135.6857094594,35.0192001905,100
                135.6857237451,35.0190470508,100
                135.6857466715,35.0188010423,100
                135.6857533396,35.0186472497,100
                135.6857235357,35.0183827253,100
                135.6848977704,35.0184705352,100
                135.6839410995,35.0185804592,100
                135.6839353266,35.0183462793,100
                135.6836412996,35.0183458685,100
                135.6835110186,35.0182970075,100
                135.6833924547,35.0182953609,100
                135.6829524135,35.0182799908,100
                135.6829670566,35.0179257889,100
                135.6829919152,35.0174978785,100
                135.6830088961,35.0173796079,100
                135.6830436199,35.017178563,100
                135.6831419451,35.0168790173,100
                135.6828848934,35.0168432062,100
                135.682368661,35.0167258015,100
                135.6824538639,35.0165324244,100
                135.6826521739,35.0165769565,100
                135.6827283574,35.0165957471,100
                135.6829816646,35.0166473229,100
                135.6830355098,35.0165813339,100
                135.6827841585,35.0165552568,100
                135.6828056391,35.0164744636,100
                135.6828855927,35.0162767061,100
                135.6829469354,35.0159884028,100
                135.6830056511,35.015228946,100
                135.6827513731,35.0152189885,100
                135.6828615405,35.0150725087,100
                135.6826558338,35.0149993654,100
                135.6817358772,35.0148137224,100
                135.6818979787,35.0139205874,100
                135.6819952455,35.0133378596,100
                135.6820835051,35.0126215803,100
                135.6813667435,35.0127149987,100
                135.6806754573,35.0123067699,100
                135.6802118655,35.0120508997,100
                135.6795234782,35.0117799306,100
                135.6786713052,35.011495499,100
                135.6784032311,35.0114000715,100
                135.6777213519,35.0114140512,100
                135.677406474,35.0114921677,100
                135.6768174013,35.0117782282,100
                135.676726273,35.0118224958,100
                135.676332122,35.0120042752,100
                135.6759742033,35.012163473,100
                135.6753628324,35.0123820688,100
                135.6744222409,35.0127309856,100
                135.6734545621,35.0127281919,100
                135.6730727151,35.012757594,100
                135.6725400329,35.012797436,100
                135.6722007406,35.0128349773,100
              </coordinates>
            </LinearRing>
          </outerBoundaryIs>
        </Polygon>
      </Placemark>
    </Document>
  </Document>
</kml>
