<?xml version="1.0" encoding="UTF-8"?>
<kml xmlns="http://www.opengis.net/kml/2.2">
  <Document id="root_doc">
    <Document id="_8_11____________disv4326">
      <name>28_11西京極西disv4326</name>
      <Placemark id="_8_11____________disv4326.1">
        <visibility>1</visibility>
        <Polygon>
          <extrude>0</extrude>
          <outerBoundaryIs>
            <LinearRing>
              <coordinates>
                135.716025337,34.9811006604,100
                135.7159711884,34.9809202359,100
                135.7159716497,34.9807850127,100
                135.7160133759,34.9805935417,100
                135.7159999926,34.9805033612,100
                135.7159045412,34.9803904531,100
                135.7158365486,34.9802550711,100
                135.7158233194,34.9801198162,100
                135.715851201,34.9799733879,100
                135.7159174873,34.9797790956,100
                135.715920347,34.9797707118,100
                135.7160248672,34.9794387395,100
                135.7157013338,34.9797589352,100
                135.7154265563,34.9800400147,100
                135.7151168823,34.9804098243,100
                135.715036303,34.9805211265,100
                135.7149469958,34.9806444512,100
                135.7147469289,34.9809839478,100
                135.7142467702,34.9818899115,100
                135.7138855868,34.9825535693,100
                135.7133974379,34.9834144823,100
                135.7133009393,34.9835930758,100
                135.7131765388,34.9838233699,100
                135.71300911,34.9842037887,100
                135.7127514204,34.9847893677,100
                135.712189011,34.9858357522,100
                135.7121096653,34.9859833963,100
                135.711654439,34.9868575486,100
                135.7111904705,34.9877680177,100
                135.7108956613,34.9883208933,100
                135.7107291167,34.988649897,100
                135.7106850196,34.9887370543,100
                135.710386822,34.9908109754,100
                135.7113387847,34.9906992682,100
                135.7118058869,34.9906527575,100
                135.7119468931,34.9902598844,100
                135.7121411043,34.989781565,100
                135.7123653173,34.9894856562,100
                135.7126957191,34.989638136,100
                135.7128722825,34.9897196132,100
                135.7129717172,34.9897649207,100
                135.7131357478,34.9898396779,100
                135.7131573576,34.9898948039,100
                135.7131106193,34.9899851257,100
                135.7135899604,34.9902156343,100
                135.7142334296,34.9905252635,100
                135.7146704223,34.9907533448,100
                135.7159691573,34.9914631862,100
                135.7170680932,34.9920638112,100
                135.7172648178,34.9921713172,100
                135.7173589945,34.9916389508,100
                135.7172853424,34.9915602527,100
                135.717278201,34.9913956439,100
                135.7172743925,34.9913075996,100
                135.7173130963,34.991131828,100
                135.7175820691,34.9896429473,100
                135.7177712288,34.9885578626,100
                135.7178209583,34.9885553014,100
                135.7178625129,34.9885532138,100
                135.7179307548,34.9882462305,100
                135.7179861063,34.9879172431,100
                135.7181018043,34.9874644402,100
                135.7181744603,34.9871050677,100
                135.7182137412,34.9867004736,100
                135.7182540969,34.9864715311,100
                135.7182817552,34.986314538,100
                135.7183673619,34.9859699131,100
                135.7185131535,34.9854146317,100
                135.7186526369,34.9848834217,100
                135.7187121922,34.9846565649,100
                135.7187580958,34.9844177741,100
                135.7187581113,34.9842171211,100
                135.718758111,34.9841663415,100
                135.718869036,34.9831777687,100
                135.7178396982,34.9830328538,100
                135.7175513765,34.9829922561,100
                135.7175763229,34.9828841342,100
                135.7176699887,34.9824781843,100
                135.7176721383,34.9824688227,100
                135.7176974543,34.9823591516,100
                135.7178391007,34.9817451236,100
                135.7169197286,34.9816357795,100
                135.7166778335,34.981607008,100
                135.7166059058,34.9815961364,100
                135.7162030386,34.9815350574,100
                135.716025337,34.9811006604,100
              </coordinates>
            </LinearRing>
          </outerBoundaryIs>
        </Polygon>
      </Placemark>
    </Document>
  </Document>
</kml>
