<?xml version="1.0" encoding="UTF-8"?>
<kml xmlns="http://www.opengis.net/kml/2.2">
  <Document id="root_doc">
    <Document id="_8_15______disv4326">
      <name>28_15嵐山disv4326</name>
      <Placemark id="_8_15______disv4326.1">
        <visibility>1</visibility>
        <Polygon>
          <extrude>0</extrude>
          <outerBoundaryIs>
            <LinearRing>
              <coordinates>
                135.6869137002,35.0107970964,100
                135.6864453618,35.0110921879,100
                135.6861611772,35.0112623891,100
                135.6850597621,35.0117087494,100
                135.6842137717,35.0120198948,100
                135.6826846245,35.0124649673,100
                135.6820835051,35.0126215803,100
                135.6819952455,35.0133378596,100
                135.6818979787,35.0139205874,100
                135.6817358772,35.0148137224,100
                135.6826558338,35.0149993654,100
                135.6828615405,35.0150725087,100
                135.6827513731,35.0152189885,100
                135.6830056511,35.015228946,100
                135.6829469354,35.0159884028,100
                135.6828855927,35.0162767061,100
                135.6828056391,35.0164744636,100
                135.6827841585,35.0165552568,100
                135.6830355098,35.0165813339,100
                135.6829816646,35.0166473229,100
                135.6827283574,35.0165957471,100
                135.6826521739,35.0165769565,100
                135.6824538639,35.0165324244,100
                135.682368661,35.0167258015,100
                135.6828848934,35.0168432062,100
                135.6831419451,35.0168790173,100
                135.6830436199,35.017178563,100
                135.6830088961,35.0173796079,100
                135.6829919152,35.0174978785,100
                135.6829670566,35.0179257889,100
                135.6829524135,35.0182799908,100
                135.6833924547,35.0182953609,100
                135.6835110186,35.0182970075,100
                135.6836412996,35.0183458685,100
                135.6839353266,35.0183462793,100
                135.6839410995,35.0185804592,100
                135.6848977704,35.0184705352,100
                135.6857235357,35.0183827253,100
                135.6861806337,35.0183645305,100
                135.6865495267,35.0182857537,100
                135.6866742763,35.0182591,100
                135.6867912751,35.0182341166,100
                135.6871668488,35.0181657076,100
                135.6875178311,35.0181642799,100
                135.6882972335,35.0181378859,100
                135.6894830266,35.0180430071,100
                135.6895073379,35.0182866014,100
                135.6897365198,35.0182796474,100
                135.6902223662,35.0182650319,100
                135.6903562758,35.0182609339,100
                135.6906130482,35.0182532024,100
                135.6908741768,35.0182367479,100
                135.6915644616,35.0181929942,100
                135.6919836628,35.0181664425,100
                135.6919796024,35.0178115546,100
                135.6919750466,35.0172291178,100
                135.6919747432,35.017190031,100
                135.6919328869,35.0164815783,100
                135.6919204792,35.0162977346,100
                135.6919044902,35.0156940718,100
                135.6919074861,35.0155292109,100
                135.6919104815,35.0153641394,100
                135.6918989515,35.0150718415,100
                135.6918440542,35.0147307701,100
                135.6917161308,35.0143566267,100
                135.6919012859,35.0143477247,100
                135.6919160312,35.0143473992,100
                135.6920478913,35.0143444869,100
                135.6920474378,35.014335047,100
                135.6920173977,35.0137106868,100
                135.6922773515,35.013711339,100
                135.6922913289,35.0137113741,100
                135.6922768991,35.0134688465,100
                135.6920730769,35.0134728424,100
                135.6920481533,35.0130742035,100
                135.6918824538,35.0131281066,100
                135.6916841676,35.0131450379,100
                135.6914193607,35.0131676493,100
                135.6912845844,35.0132111859,100
                135.6911561822,35.0132328357,100
                135.6909570807,35.0131953602,100
                135.6911895592,35.0131158708,100
                135.6917086239,35.0128914598,100
                135.691791554,35.0128227912,100
                135.6918601237,35.0126797169,100
                135.6919337872,35.0125712335,100
                135.6919609868,35.0125311594,100
                135.6921163293,35.0124185143,100
                135.6925529925,35.012137833,100
                135.6926960701,35.0120200158,100
                135.692785435,35.011923122,100
                135.6928836982,35.0117594153,100
                135.6929885124,35.0113485245,100
                135.6929725388,35.0112307299,100
                135.6929388151,35.0111038058,100
                135.6928862263,35.0110145137,100
                135.6926658233,35.0108429641,100
                135.6924932634,35.0106851973,100
                135.6922064613,35.0102958606,100
                135.692116267,35.0101966846,100
                135.6920501644,35.0101563043,100
                135.691880737,35.0100998903,100
                135.691848881,35.0102005216,100
                135.6915354274,35.0101510691,100
                135.6912278341,35.0100627557,100
                135.6907790935,35.0098986581,100
                135.6908960238,35.0096483014,100
                135.6909023322,35.0094957711,100
                135.6908925565,35.0090964938,100
                135.6908840494,35.0090542159,100
                135.6912017611,35.0081853779,100
                135.6914353627,35.0075743725,100
                135.6914481762,35.0075243307,100
                135.6913651805,35.0073216436,100
                135.6913463547,35.0071435559,100
                135.6913441789,35.0070163585,100
                135.6913922327,35.0068020986,100
                135.6915428466,35.0066804253,100
                135.6914400793,35.0063636666,100
                135.6913536903,35.0063638724,100
                135.6910873605,35.0062839734,100
                135.689607425,35.0062461594,100
                135.6895529232,35.0070329069,100
                135.6895260573,35.0074205415,100
                135.6894262346,35.0080756854,100
                135.6893155234,35.0082766164,100
                135.6891698848,35.0085012639,100
                135.6887315273,35.0091244921,100
                135.6884593328,35.0095332657,100
                135.6883430482,35.0096739666,100
                135.6881842269,35.0098179389,100
                135.6876497159,35.0103025287,100
                135.6869137002,35.0107970964,100
              </coordinates>
            </LinearRing>
          </outerBoundaryIs>
        </Polygon>
      </Placemark>
    </Document>
  </Document>
</kml>
