<?xml version="1.0" encoding="UTF-8"?>
<kml xmlns="http://www.opengis.net/kml/2.2">
  <Document id="root_doc">
    <Document id="_8_10_________disv4326">
      <name>28_10西京極disv4326</name>
      <Placemark id="_8_10_________disv4326.1">
        <visibility>1</visibility>
        <Polygon>
          <extrude>0</extrude>
          <outerBoundaryIs>
            <LinearRing>
              <coordinates>
                135.718758111,34.9841663415,100
                135.7187581113,34.9842171211,100
                135.7187580958,34.9844177741,100
                135.7187121922,34.9846565649,100
                135.7186526369,34.9848834217,100
                135.7185131535,34.9854146317,100
                135.7183673619,34.9859699131,100
                135.7182817552,34.986314538,100
                135.7182540969,34.9864715311,100
                135.7182137412,34.9867004736,100
                135.7181744603,34.9871050677,100
                135.7181018043,34.9874644402,100
                135.7179861063,34.9879172431,100
                135.7179307548,34.9882462305,100
                135.7178625129,34.9885532138,100
                135.7178209583,34.9885553014,100
                135.7177712288,34.9885578626,100
                135.7175820691,34.9896429473,100
                135.7173130963,34.991131828,100
                135.7172743925,34.9913075996,100
                135.717278201,34.9913956439,100
                135.7172853424,34.9915602527,100
                135.7173589945,34.9916389508,100
                135.7172648178,34.9921713172,100
                135.7178078091,34.9924219568,100
                135.7179513397,34.9924881383,100
                135.7181920848,34.9925992654,100
                135.718843379,34.9929330447,100
                135.7191172077,34.9930874188,100
                135.7196634401,34.993395387,100
                135.7197576556,34.993455538,100
                135.7200599626,34.993648499,100
                135.7205676395,34.9940222964,100
                135.7209077972,34.994292603,100
                135.7211779567,34.9945671854,100
                135.7213694264,34.994758413,100
                135.7226387871,34.9960260544,100
                135.7228371025,34.9960210816,100
                135.7231657124,34.9960256996,100
                135.7226081492,34.9954960785,100
                135.7226224974,34.9953513093,100
                135.7226231505,34.9950890537,100
                135.7226235519,34.9949278936,100
                135.7226243458,34.9946005424,100
                135.7226297849,34.9944842063,100
                135.7226387004,34.9942939984,100
                135.7234167314,34.9942821675,100
                135.7242736295,34.9942757211,100
                135.7256471506,34.9942621185,100
                135.7262131847,34.9942523993,100
                135.7271201205,34.9942606941,100
                135.7279101905,34.9942767516,100
                135.7282362389,34.9942833214,100
                135.7285325929,34.9942827123,100
                135.7285694021,34.9938488816,100
                135.7285685429,34.9937968536,100
                135.7285849571,34.9933971318,100
                135.7285948271,34.9933769944,100
                135.7286065854,34.9933530033,100
                135.728628017,34.9924993822,100
                135.728637121,34.9921362011,100
                135.7286541227,34.9917790938,100
                135.7286879127,34.9908290826,100
                135.7287066988,34.9902535785,100
                135.7287237281,34.9891292183,100
                135.7283929026,34.9890849595,100
                135.7279497277,34.9890617905,100
                135.7274074117,34.9890718524,100
                135.7273455888,34.9885560341,100
                135.7271808032,34.9884086817,100
                135.7272519708,34.9880023239,100
                135.7272520357,34.9880019015,100
                135.7271058953,34.9879811514,100
                135.7271255557,34.9877859667,100
                135.7271535766,34.9877879302,100
                135.7271531288,34.9877354601,100
                135.7271513905,34.9875290291,100
                135.7271606892,34.9873259278,100
                135.7271687009,34.9871509342,100
                135.7271880521,34.9867188963,100
                135.7271978155,34.9865536207,100
                135.7271976675,34.9865464366,100
                135.7271871782,34.9860198838,100
                135.7272266621,34.9859638393,100
                135.7272132249,34.9855208087,100
                135.7269332513,34.9855392709,100
                135.7269143609,34.9855131704,100
                135.7268971968,34.9854894679,100
                135.7265742959,34.9854788159,100
                135.7265724775,34.9854788119,100
                135.726073343,34.9854727658,100
                135.7258588047,34.9854677076,100
                135.7258379476,34.9854672383,100
                135.7256788332,34.9855481579,100
                135.7253574301,34.9856866759,100
                135.7251439393,34.9857786699,100
                135.7250905302,34.9858017212,100
                135.7248882531,34.9858079575,100
                135.7246467938,34.9858244584,100
                135.7244779474,34.9858204167,100
                135.7241492997,34.9858330575,100
                135.7232385024,34.9858414249,100
                135.722910676,34.9858450504,100
                135.721458615,34.9855048222,100
                135.7209066172,34.985506101,100
                135.7207125776,34.9855065045,100
                135.720679423,34.9853200724,100
                135.7206615521,34.9852840423,100
                135.7205894296,34.9852793,100
                135.7202734021,34.9852680145,100
                135.720217708,34.9851430871,100
                135.7201600883,34.9851323906,100
                135.7200701165,34.9850153434,100
                135.7200718226,34.9849024486,100
                135.7200731139,34.9848174434,100
                135.7200821616,34.9842201531,100
                135.7200824114,34.9842031098,100
                135.7200834013,34.9841377536,100
                135.718758111,34.9841663415,100
              </coordinates>
            </LinearRing>
          </outerBoundaryIs>
        </Polygon>
      </Placemark>
    </Document>
  </Document>
</kml>
