<?xml version="1.0" encoding="UTF-8"?>
<kml xmlns="http://www.opengis.net/kml/2.2">
  <Document id="root_doc">
    <Document id="_8_18______disv4326">
      <name>28_18水尾disv4326</name>
      <Placemark id="_8_18______disv4326.1">
        <visibility>1</visibility>
        <Polygon>
          <extrude>0</extrude>
          <outerBoundaryIs>
            <LinearRing>
              <coordinates>
                135.6508343713,35.0306499158,100
                135.6507181335,35.030539291,100
                135.6503407449,35.0302524082,100
                135.6497381455,35.0293887072,100
                135.6492441792,35.0287796291,100
                135.6484302256,35.0279422024,100
                135.6479055509,35.0274635181,100
                135.646347815,35.026711592,100
                135.6454950821,35.0259798201,100
                135.6445897438,35.0253558595,100
                135.6438069634,35.0249437486,100
                135.642882454,35.0243197228,100
                135.6421739816,35.0238583808,100
                135.6418068915,35.023742435,100
                135.6403423515,35.0236635413,100
                135.64001657,35.0235139767,100
                135.6392817757,35.0240495257,100
                135.6388665301,35.0242821879,100
                135.638832451,35.0245431639,100
                135.6389816698,35.0249263128,100
                135.6390987954,35.0251156882,100
                135.6390838978,35.0253857359,100
                135.6384783695,35.0252172382,100
                135.6380884053,35.0253151018,100
                135.6379666885,35.0255442656,100
                135.6380099635,35.0256816577,100
                135.6382696038,35.0259075174,100
                135.6382608102,35.0260335574,100
                135.6380675717,35.0263096949,100
                135.6380669607,35.0264492808,100
                135.6381923641,35.0266252304,100
                135.638186373,35.026742194,100
                135.6379492527,35.0270138335,100
                135.6379044201,35.0272319563,100
                135.6379883995,35.0274685623,100
                135.636586018,35.0282202842,100
                135.6364700303,35.028391076,100
                135.6363055397,35.0289914024,100
                135.6361651595,35.0291012012,100
                135.6357696448,35.0292103072,100
                135.6353523629,35.029897698,100
                135.6349722996,35.0302295398,100
                135.634919528,35.0303824206,100
                135.6350827576,35.0306935663,100
                135.6350656813,35.0308285952,100
                135.6346113143,35.0312142315,100
                135.6341413696,35.0314041043,100
                135.6338071699,35.0319139836,100
                135.633907308,35.0322225458,100
                135.6337201963,35.032345796,100
                135.6332814791,35.032297151,100
                135.6330532556,35.0324134458,100
                135.6329802081,35.0328025503,100
                135.6328449764,35.0329845507,100
                135.6322542298,35.033187506,100
                135.6318583363,35.0333753401,100
                135.6316846693,35.0335638448,100
                135.6316646783,35.033746051,100
                135.6311808448,35.0339628464,100
                135.6305086276,35.0339810266,100
                135.6300740183,35.0342272638,100
                135.6300402526,35.0344252046,100
                135.6295260249,35.0346869758,100
                135.6294511437,35.0348690154,100
                135.6294112712,35.0358165015,100
                135.6292685614,35.0364395671,100
                135.6293591756,35.0370362266,100
                135.6281715329,35.0375795647,100
                135.6275945472,35.0377668384,100
                135.6274807866,35.0378534702,100
                135.6274797978,35.0378542419,100
                135.6264400827,35.0380593262,100
                135.6250850503,35.0382235032,100
                135.6250774733,35.0382231273,100
                135.6250640215,35.0382247763,100
                135.6234692134,35.0381478266,100
                135.6225559214,35.0380797229,100
                135.6215380598,35.0380787598,100
                135.6213973462,35.0382425648,100
                135.621385228,35.0385036768,100
                135.6210265352,35.038948239,100
                135.6209648105,35.0392429336,100
                135.6208490888,35.039352936,100
                135.6201862434,35.0397110514,100
                135.6197463918,35.0398987139,100
                135.6195892421,35.0400692967,100
                135.6192028409,35.0405767997,100
                135.6184671368,35.0412611129,100
                135.6178369207,35.0416777707,100
                135.6174676437,35.0420346038,100
                135.6170575706,35.042913534,100
                135.6170622452,35.0430868738,100
                135.6173646992,35.0441480526,100
                135.6175471117,35.044459285,100
                135.6174165888,35.0454043776,100
                135.617410776,35.0460865282,100
                135.6175871654,35.0465079607,100
                135.6176775519,35.0471566064,100
                135.6179188733,35.047787625,100
                135.6179563079,35.0486004848,100
                135.6179455689,35.0491542289,100
                135.6176132574,35.0498262715,100
                135.6177121181,35.0504118407,100
                135.6178948013,35.0506690528,100
                135.6178512565,35.0511866347,100
                135.6179256939,35.0517114879,100
                135.6179256568,35.0523304823,100
                135.617986568,35.0528078244,100
                135.6179223787,35.053048558,100
                135.6178756184,35.0536788102,100
                135.6176327962,35.0539796919,100
                135.6173259774,35.0544694704,100
                135.6172739345,35.0556579134,100
                135.6176492691,35.0560596795,100
                135.617699936,35.0561139263,100
                135.6183586492,35.0566809525,100
                135.6188003519,35.05731026,100
                135.6190456041,35.058893596,100
                135.6192927287,35.0600715566,100
                135.619433281,35.0602493282,100
                135.6191953591,35.0605709357,100
                135.6191791577,35.0607041333,100
                135.619167948,35.0608319944,100
                135.6191883809,35.0609707995,100
                135.6191946347,35.061007653,100
                135.6192791085,35.0611244013,100
                135.6194303123,35.0611653661,100
                135.6198652762,35.0612831308,100
                135.6198692542,35.0612842001,100
                135.6208547405,35.06177834,100
                135.6208560075,35.0617822174,100
                135.6210577071,35.0623907756,100
                135.6211757661,35.0629808343,100
                135.6214294505,35.063312488,100
                135.6221369988,35.0640145815,100
                135.6224534904,35.0642693084,100
                135.6228950171,35.0642960903,100
                135.6237588674,35.0640347077,100
                135.6241099203,35.0640659973,100
                135.6244473704,35.0644123398,100
                135.6250810445,35.0648395925,100
                135.6259422686,35.0650237141,100
                135.6264332054,35.0651113433,100
                135.6269154156,35.0651586668,100
                135.6269396145,35.0651330462,100
                135.6269851069,35.0651060907,100
                135.6270566607,35.0650933026,100
                135.6271740722,35.0650821846,100
                135.6272418449,35.0650859361,100
                135.6273304479,35.0651034304,100
                135.6274995355,35.0651271207,100
                135.6282174214,35.0653213745,100
                135.6282295451,35.0653210035,100
                135.6283841626,35.0653249652,100
                135.6284149531,35.0653158698,100
                135.6285246915,35.0652947072,100
                135.628685285,35.0652462529,100
                135.6290302228,35.0651086404,100
                135.6292891479,35.0649934642,100
                135.6293073604,35.0649808361,100
                135.629312169,35.0649789727,100
                135.6293664674,35.0649334537,100
                135.6294255017,35.0648599131,100
                135.6294778425,35.064732374,100
                135.6295148782,35.0645685546,100
                135.62954087,35.0644592016,100
                135.6295697767,35.064359779,100
                135.6296106301,35.0642674511,100
                135.6296775746,35.0641926665,100
                135.629785018,35.0641042618,100
                135.6300741572,35.0639164024,100
                135.63007979,35.0639119159,100
                135.6300829226,35.0639107011,100
                135.6301548338,35.0638586706,100
                135.6302380739,35.0637973992,100
                135.6302990329,35.0637492516,100
                135.6303274563,35.0637268013,100
                135.6303795676,35.0636765945,100
                135.6304000964,35.0636566999,100
                135.6304165104,35.0636436211,100
                135.6304172559,35.0636436046,100
                135.630453045,35.063620426,100
                135.6304765211,35.0636053954,100
                135.6304982904,35.0635987582,100
                135.6305115653,35.06359471,100
                135.6305304249,35.063589286,100
                135.6305984634,35.0635814956,100
                135.6306564795,35.063579192,100
                135.6307149764,35.0635824521,100
                135.6307407299,35.0635841984,100
                135.6307497425,35.0635865997,100
                135.63075062,35.0635865572,100
                135.630750713,35.0635868579,100
                135.6307979804,35.0635994521,100
                135.6308916745,35.0636244146,100
                135.6309873437,35.063654966,100
                135.6310698413,35.0636819283,100
                135.6311000005,35.0636916236,100
                135.6311391508,35.0637004721,100
                135.6311469397,35.0637031085,100
                135.6311483489,35.0637025505,100
                135.6312727473,35.0637301491,100
                135.6314494209,35.0637501147,100
                135.6316685424,35.0637694436,100
                135.6316735257,35.0637706685,100
                135.6317800535,35.0637709882,100
                135.6317814648,35.0637694969,100
                135.6318524402,35.0637483404,100
                135.6318607505,35.0637438211,100
                135.6318648255,35.0637446487,100
                135.6319868736,35.0636932441,100
                135.6320337611,35.0636686749,100
                135.6321057513,35.0636183134,100
                135.6321432394,35.0635919178,100
                135.63221397,35.0635202233,100
                135.6322308006,35.0635077386,100
                135.6322315159,35.0635059564,100
                135.632279532,35.0634660492,100
                135.6323288493,35.0634428049,100
                135.6324761853,35.0634551013,100
                135.6326819872,35.0634864257,100
                135.6326942389,35.0634868651,100
                135.6327614766,35.063498709,100
                135.6328074764,35.0634859588,100
                135.6331930872,35.0634079369,100
                135.633538174,35.0634423507,100
                135.6338220474,35.0635266558,100
                135.6338037604,35.0630757903,100
                135.6336134585,35.0626193411,100
                135.633212922,35.0623915071,100
                135.6330744568,35.0621140995,100
                135.6330786661,35.0618529646,100
                135.6332953647,35.0613739987,100
                135.6332386289,35.0612071272,100
                135.6330155838,35.0608393919,100
                135.6327233026,35.0605749788,100
                135.6325579337,35.0601915692,100
                135.6325809939,35.0599935257,100
                135.6327051715,35.0598724103,100
                135.6331173248,35.0597971575,100
                135.6334115882,35.0596900708,100
                135.6335686875,35.0595712359,100
                135.6337461134,35.0592520234,100
                135.6340523163,35.0589715785,100
                135.6341646645,35.0587249934,100
                135.634003109,35.0584472388,100
                135.633868092,35.0582793597,100
                135.6338525687,35.0579443603,100
                135.6336837767,35.0577345459,100
                135.6336173798,35.0573993949,100
                135.6333642046,35.0570777009,100
                135.6333829323,35.0566869541,100
                135.6334014337,35.0563381111,100
                135.633488222,35.0559058036,100
                135.6334897633,35.0555569099,100
                135.6335077073,35.0553336381,100
                135.6332730834,35.0546631017,100
                135.6330715757,35.0541740149,100
                135.6330739827,35.0536297577,100
                135.632956735,35.0532805801,100
                135.6328903009,35.0529454282,100
                135.6332819657,35.0526535477,100
                135.6338953099,35.0521110413,100
                135.634065935,35.0519022388,100
                135.6340837552,35.0517069268,100
                135.6340862778,35.0511347815,100
                135.6341723182,35.050869879,100
                135.6343089836,35.0506609044,100
                135.6344794198,35.0504939355,100
                135.6347354606,35.0501598155,100
                135.6354717642,35.0486548034,100
                135.6356087066,35.0483900542,100
                135.6358975422,35.0483071786,100
                135.6360138316,35.0482988639,100
                135.6362709986,35.0482804043,100
                135.6367126885,35.048170094,100
                135.6369168214,35.0480590042,100
                135.6370362699,35.047905899,100
                135.6378518373,35.0476710543,100
                135.6381406684,35.0475881731,100
                135.6381588026,35.0473230672,100
                135.6381597946,35.0473215918,100
                135.6383803738,35.0471004693,100
                135.6386188386,35.0468917952,100
                135.6387894379,35.04668299,100
                135.6392156765,35.0462237265,100
                135.6396408209,35.0460156722,100
                135.6400653972,35.0459331877,100
                135.6403034533,35.0458221918,100
                135.6409670487,35.0454055252,100
                135.6415793671,35.0450723726,100
                135.641970989,35.0447665293,100
                135.6442626467,35.0445638542,100
                135.6445177879,35.0444250826,100
                135.6450460765,35.043896305,100
                135.6461864007,35.0430902017,100
                135.6465261957,35.0429935044,100
                135.6468151201,35.0428826445,100
                135.6472752845,35.0424095116,100
                135.6473957312,35.042019133,100
                135.6475668276,35.0416846795,100
                135.6478950174,35.0415213967,100
                135.6483323437,35.0412263795,100
                135.6485366579,35.0410594958,100
                135.648503258,35.0409338278,100
                135.6481813931,35.0408072531,100
                135.6480439919,35.0406167018,100
                135.6479957462,35.0405695166,100
                135.6479117368,35.0403739089,100
                135.6479129781,35.040080795,100
                135.6478973243,35.0397737589,100
                135.6480848373,35.0395649936,100
                135.6482895245,35.0393143743,100
                135.6487664983,35.0388691796,100
                135.6488862877,35.0386322575,100
                135.6491083373,35.0382840049,100
                135.6493977734,35.038047644,100
                135.649821079,35.0378791381,100
                135.6500847947,35.0378125007,100
                135.6502826812,35.0377410248,100
                135.6504365882,35.037687522,100
                135.6506432771,35.0375080354,100
                135.6507482304,35.0373665683,100
                135.6510835996,35.0372369628,100
                135.6511665258,35.0371157143,100
                135.6512304021,35.0369583531,100
                135.6512751444,35.0367940354,100
                135.65121387,35.0364291176,100
                135.6513486884,35.0358125658,100
                135.6515951011,35.0353629648,100
                135.651656739,35.0351110137,100
                135.6516457277,35.0345772872,100
                135.6519059669,35.0337950292,100
                135.6519270611,35.0337315653,100
                135.6521958225,35.0332033614,100
                135.6522877243,35.0329312137,100
                135.6522751211,35.0327104603,100
                135.6521278498,35.0325365758,100
                135.6519117725,35.0324103131,100
                135.651802359,35.0323463325,100
                135.6515214765,35.032018954,100
                135.6512245177,35.0316104679,100
                135.6510124051,35.0312449038,100
                135.6508343713,35.0306499158,100
              </coordinates>
            </LinearRing>
          </outerBoundaryIs>
        </Polygon>
      </Placemark>
    </Document>
  </Document>
</kml>
