<?xml version="1.0" encoding="UTF-8"?>
<kml xmlns="http://www.opengis.net/kml/2.2">
  <Document id="root_doc">
    <Document id="_8_13______disv4326">
      <name>28_13梅津disv4326</name>
      <Placemark id="_8_13______disv4326.1">
        <visibility>1</visibility>
        <Polygon>
          <extrude>0</extrude>
          <outerBoundaryIs>
            <LinearRing>
              <coordinates>
                135.7041956248,34.9991465852,100
                135.7039988107,34.9991592813,100
                135.7034146769,34.9991826619,100
                135.7025949309,34.9991734231,100
                135.7020693126,34.9991565132,100
                135.7010491909,34.9990743078,100
                135.7002312216,34.9990004049,100
                135.6993360652,34.9988877828,100
                135.6987397042,34.9987849032,100
                135.6980942443,34.9984232153,100
                135.6980025531,34.9982905146,100
                135.6979030442,34.9982004728,100
                135.6977513927,34.9981221354,100
                135.6975326879,34.99803173,100
                135.6966733581,34.9976762703,100
                135.6960890402,34.9977350429,100
                135.6954789433,34.9975369663,100
                135.6951780725,34.9975355864,100
                135.6949278838,34.997541797,100
                135.6944248904,34.9976353445,100
                135.6937067065,34.9978292774,100
                135.6934299244,34.9979147918,100
                135.6930602478,34.9980551488,100
                135.692349553,34.9983550875,100
                135.6917667277,34.9986417516,100
                135.6915222701,34.9987619934,100
                135.690903295,34.9990724374,100
                135.6906424566,34.9992290495,100
                135.6904659238,34.9993854495,100
                135.6903263127,34.9995549023,100
                135.6900138303,34.9999483043,100
                135.6896203959,35.0004435534,100
                135.6896559251,35.0015827592,100
                135.689658656,35.0016700979,100
                135.6896022583,35.0024017117,100
                135.6895935785,35.0028703937,100
                135.6897816553,35.0032379422,100
                135.6897952439,35.0034582028,100
                135.6897564647,35.0036408641,100
                135.6897412434,35.0039373959,100
                135.6896760765,35.0050615334,100
                135.6896500256,35.0055111463,100
                135.690833931,35.0054541243,100
                135.690819049,35.0053712643,100
                135.6909576989,35.0053294966,100
                135.6909713552,35.0053225591,100
                135.690875411,35.004848834,100
                135.690844247,35.0047483262,100
                135.6908006121,35.0045558798,100
                135.6907991799,35.0045496082,100
                135.6907962848,35.0045173446,100
                135.6907354417,35.004411128,100
                135.690625344,35.0042188661,100
                135.6906255871,35.0041542853,100
                135.6905717141,35.0040383667,100
                135.6906148434,35.004024038,100
                135.6906340396,35.0040064789,100
                135.6907314577,35.0039174923,100
                135.6907989158,35.0038749828,100
                135.6908661867,35.0038645877,100
                135.6912163222,35.0038999063,100
                135.6913780947,35.0038710848,100
                135.6919391442,35.0037712857,100
                135.6923092049,35.0036968541,100
                135.6926463287,35.0036239589,100
                135.6930843094,35.003542441,100
                135.6933119814,35.0035322331,100
                135.6933972218,35.0035004009,100
                135.6937697446,35.0034649168,100
                135.6938909286,35.0034919108,100
                135.694418284,35.0035786493,100
                135.6948623201,35.0036183458,100
                135.6956976417,35.0035830866,100
                135.6957779491,35.0034612345,100
                135.6961042213,35.0034745056,100
                135.6965142856,35.0034655165,100
                135.6968679556,35.0034822342,100
                135.6971221603,35.0035070166,100
                135.6976038763,35.0033372065,100
                135.6976364855,35.0033257362,100
                135.6979284975,35.0032227858,100
                135.6979886606,35.0032015941,100
                135.6986435803,35.0032865911,100
                135.6987804109,35.0033004493,100
                135.6991718507,35.0033401449,100
                135.6993871368,35.0033634917,100
                135.6993947731,35.0033642846,100
                135.7000050279,35.0034220506,100
                135.7001459314,35.0034402837,100
                135.7007086089,35.0035129299,100
                135.7009122947,35.0035311749,100
                135.7009536224,35.0035348669,100
                135.7009046045,35.0036750397,100
                135.701070838,35.003701222,100
                135.7010037134,35.0039898121,100
                135.7010518921,35.0039926057,100
                135.7011918607,35.0039682265,100
                135.701310672,35.0037415973,100
                135.7013852606,35.0037429057,100
                135.7014797153,35.0037420087,100
                135.7014785701,35.0037096096,100
                135.7014981191,35.0035703509,100
                135.7015693822,35.0035740456,100
                135.7018456589,35.0035785908,100
                135.7026205492,35.0035549053,100
                135.7027876088,35.0035532682,100
                135.7033302202,35.0035478202,100
                135.7036884003,35.0035249515,100
                135.7038754835,35.0035129368,100
                135.7042046429,35.00350366,100
                135.7048319592,35.0035069312,100
                135.7048989784,35.0035118754,100
                135.7054636333,35.0035535228,100
                135.7060867441,35.0036086125,100
                135.7061967891,35.0036221159,100
                135.706770501,35.0036926484,100
                135.7072022302,35.0037288229,100
                135.7077368681,35.0037574938,100
                135.7077777487,35.0036822331,100
                135.7079413344,35.0037313593,100
                135.7083312227,35.0037276382,100
                135.7094467246,35.0037170431,100
                135.7098673611,35.0037130393,100
                135.7114507589,35.0036634697,100
                135.7130826482,35.0036796312,100
                135.7130860054,35.0037185155,100
                135.71322541,35.0037188422,100
                135.7145826655,35.0036958864,100
                135.7145865662,35.0036326514,100
                135.714593519,35.0036323853,100
                135.7145907528,35.0035036364,100
                135.7145885037,35.0033989037,100
                135.7145852591,35.003247616,100
                135.7145834001,35.0031609148,100
                135.7145802985,35.0030169511,100
                135.7145451888,35.0023643488,100
                135.714520032,35.0018967855,100
                135.7145145018,35.0017940878,100
                135.7145083491,35.0016797679,100
                135.7145008488,35.0015400906,100
                135.713993982,35.0015352458,100
                135.7134683884,35.0015301431,100
                135.7133195732,35.0015286679,100
                135.7127221331,35.0015229706,100
                135.712716302,35.0013716067,100
                135.7127094528,35.0011931946,100
                135.7127041334,35.0010550724,100
                135.7126973041,35.0008775061,100
                135.7126911813,35.000718112,100
                135.7126859627,35.0005821727,100
                135.7126826954,34.999920066,100
                135.7119536946,34.9999269461,100
                135.7114391828,34.9999501727,100
                135.7116040885,34.9994472798,100
                135.7101634483,34.9997046044,100
                135.7090378635,34.9999218161,100
                135.7087086844,34.9990054655,100
                135.7079051743,34.9991606819,100
                135.7078574423,34.9991238041,100
                135.7088374185,34.9980170957,100
                135.7090638547,34.9979084685,100
                135.7092267071,34.9978647661,100
                135.7094979138,34.9978205453,100
                135.7093810329,34.997769772,100
                135.7092039016,34.9977970303,100
                135.7087906326,34.9979476127,100
                135.7076258842,34.9971615389,100
                135.7072626931,34.9975334506,100
                135.7070764324,34.9977398546,100
                135.7068189838,34.9979346789,100
                135.7062748314,34.9982765054,100
                135.7057529233,34.9985659839,100
                135.7057272445,34.9985772657,100
                135.7052210206,34.9987996569,100
                135.7047758403,34.9989793766,100
                135.7045902987,34.9990542884,100
                135.7041956248,34.9991465852,100
              </coordinates>
            </LinearRing>
          </outerBoundaryIs>
        </Polygon>
      </Placemark>
    </Document>
  </Document>
</kml>
