<?xml version="1.0" encoding="UTF-8"?>
<kml xmlns="http://www.opengis.net/kml/2.2">
  <Document id="root_doc">
    <Document id="_8_16______disv4326">
      <name>28_16広沢disv4326</name>
      <Placemark id="_8_16______disv4326.1">
        <visibility>1</visibility>
        <Polygon>
          <extrude>0</extrude>
          <outerBoundaryIs>
            <LinearRing>
              <coordinates>
                135.6875178311,35.0181642799,100
                135.6871668488,35.0181657076,100
                135.6867912751,35.0182341166,100
                135.6866742763,35.0182591,100
                135.6865495267,35.0182857537,100
                135.6861806337,35.0183645305,100
                135.6857235357,35.0183827253,100
                135.6857533396,35.0186472497,100
                135.6857466715,35.0188010423,100
                135.6857237451,35.0190470508,100
                135.6857094594,35.0192001905,100
                135.6857218699,35.0198144746,100
                135.6857245243,35.0201040007,100
                135.6855327027,35.0201954833,100
                135.6849998889,35.0204200369,100
                135.6849724297,35.0204307412,100
                135.6845439841,35.0205971778,100
                135.6844680965,35.0206171223,100
                135.684349082,35.0206485057,100
                135.6840445196,35.0206860271,100
                135.6837743563,35.0206943401,100
                135.683301546,35.020709097,100
                135.6832734169,35.0207823366,100
                135.6833138722,35.0207868787,100
                135.6833468628,35.0208678837,100
                135.6833744091,35.0209782409,100
                135.6834129903,35.0211409533,100
                135.683524229,35.0213001221,100
                135.6835768087,35.0222983975,100
                135.6835660373,35.02244922,100
                135.6835421702,35.0225495145,100
                135.6832933901,35.0230760001,100
                135.6827456675,35.0242351111,100
                135.6825508375,35.0246733526,100
                135.6834519029,35.0250296582,100
                135.6836959232,35.0251538191,100
                135.6838560499,35.0252033929,100
                135.684119019,35.0252488662,100
                135.6845029626,35.0252452154,100
                135.6847455603,35.0252563367,100
                135.6853557119,35.025368338,100
                135.6860641418,35.0255567901,100
                135.686966266,35.0257954546,100
                135.6872367793,35.0258448128,100
                135.6874897796,35.025839615,100
                135.6875274213,35.0258868266,100
                135.6875912671,35.0260393904,100
                135.687606808,35.0261851406,100
                135.6880294571,35.0261536149,100
                135.6880443081,35.0260813968,100
                135.6882120815,35.0257658254,100
                135.6883443235,35.0257421481,100
                135.6885992285,35.0256806129,100
                135.6887024739,35.0256100986,100
                135.6892428789,35.0253493514,100
                135.6894015799,35.02529088,100
                135.6898279897,35.0251748463,100
                135.6900789477,35.025165694,100
                135.6905937729,35.0251698873,100
                135.6913497146,35.0252031404,100
                135.6916813514,35.0252325015,100
                135.6920575599,35.0253054967,100
                135.6921168516,35.0253169144,100
                135.6924322053,35.0254363059,100
                135.692695488,35.0255425374,100
                135.6933260262,35.0258049809,100
                135.69383495,35.0251601008,100
                135.694179047,35.0246264998,100
                135.6942153842,35.0246169429,100
                135.6941576288,35.0244350987,100
                135.6942305389,35.0244555639,100
                135.6942877463,35.0245949394,100
                135.6943278042,35.0245926452,100
                135.6944146378,35.0245531428,100
                135.6944250148,35.0242667456,100
                135.6944930758,35.0240319042,100
                135.6945955363,35.0238023602,100
                135.6946127811,35.02376374,100
                135.6946248027,35.0237367969,100
                135.6946616868,35.0236663926,100
                135.6947120303,35.0234760863,100
                135.6947555297,35.0232902702,100
                135.6949350846,35.022905065,100
                135.694964978,35.0227744288,100
                135.6950115901,35.022769897,100
                135.6950836319,35.022460202,100
                135.695006114,35.0224580366,100
                135.6948148238,35.0221544453,100
                135.6949353585,35.0220476985,100
                135.6952405914,35.0217773193,100
                135.6954618492,35.0216475125,100
                135.6962701964,35.0212175285,100
                135.6961668614,35.0209976126,100
                135.6961138261,35.0208929689,100
                135.6961004047,35.0207140525,100
                135.6960194943,35.0207158239,100
                135.6959796831,35.0203753552,100
                135.6958590441,35.0204070282,100
                135.6958090489,35.0202214718,100
                135.6957366964,35.0199528983,100
                135.6957661481,35.0198483175,100
                135.6947823896,35.019853262,100
                135.6942173003,35.0198791065,100
                135.6938329621,35.0199556839,100
                135.6935785271,35.0200063874,100
                135.6933608212,35.0200454219,100
                135.6932355265,35.0200572204,100
                135.6930609883,35.0200736849,100
                135.6927524077,35.0200146685,100
                135.6925087741,35.0199988443,100
                135.6920913257,35.0199717362,100
                135.6918658369,35.0199684927,100
                135.6914992877,35.0199467228,100
                135.6917527043,35.0193297238,100
                135.6918789359,35.0190224201,100
                135.6919452706,35.0188608886,100
                135.691991766,35.0185960622,100
                135.6919836628,35.0181664425,100
                135.6915644616,35.0181929942,100
                135.6908741768,35.0182367479,100
                135.6906130482,35.0182532024,100
                135.6903562758,35.0182609339,100
                135.6902223662,35.0182650319,100
                135.6897365198,35.0182796474,100
                135.6895073379,35.0182866014,100
                135.6894830266,35.0180430071,100
                135.6882972335,35.0181378859,100
                135.6875178311,35.0181642799,100
              </coordinates>
            </LinearRing>
          </outerBoundaryIs>
        </Polygon>
      </Placemark>
    </Document>
  </Document>
</kml>
