<?xml version="1.0" encoding="UTF-8"?>
<kml xmlns="http://www.opengis.net/kml/2.2">
  <Document id="root_doc">
    <Document id="_8_14_________disv4326">
      <name>28_14北梅津disv4326</name>
      <Placemark id="_8_14_________disv4326.1">
        <visibility>1</visibility>
        <Polygon>
          <extrude>0</extrude>
          <outerBoundaryIs>
            <LinearRing>
              <coordinates>
                135.6986435803,35.0032865911,100
                135.6979886606,35.0032015941,100
                135.6979284975,35.0032227858,100
                135.6976364855,35.0033257362,100
                135.6976038763,35.0033372065,100
                135.6971221603,35.0035070166,100
                135.6968679556,35.0034822342,100
                135.6965142856,35.0034655165,100
                135.6961042213,35.0034745056,100
                135.6957779491,35.0034612345,100
                135.6956976417,35.0035830866,100
                135.6948623201,35.0036183458,100
                135.694418284,35.0035786493,100
                135.6938909286,35.0034919108,100
                135.6937697446,35.0034649168,100
                135.6933972218,35.0035004009,100
                135.6933119814,35.0035322331,100
                135.6930843094,35.003542441,100
                135.6926463287,35.0036239589,100
                135.6923092049,35.0036968541,100
                135.6919391442,35.0037712857,100
                135.6913780947,35.0038710848,100
                135.6912163222,35.0038999063,100
                135.6908661867,35.0038645877,100
                135.6907989158,35.0038749828,100
                135.6907314577,35.0039174923,100
                135.6906340396,35.0040064789,100
                135.6906148434,35.004024038,100
                135.6905717141,35.0040383667,100
                135.6906255871,35.0041542853,100
                135.690625344,35.0042188661,100
                135.6907354417,35.004411128,100
                135.6907962848,35.0045173446,100
                135.6907991799,35.0045496082,100
                135.6908006121,35.0045558798,100
                135.690844247,35.0047483262,100
                135.690875411,35.004848834,100
                135.6909713552,35.0053225591,100
                135.6909576989,35.0053294966,100
                135.690819049,35.0053712643,100
                135.690833931,35.0054541243,100
                135.6896500256,35.0055111463,100
                135.6896284624,35.0058833004,100
                135.689607425,35.0062461594,100
                135.6910873605,35.0062839734,100
                135.6913536903,35.0063638724,100
                135.6914400793,35.0063636666,100
                135.6915428466,35.0066804253,100
                135.6921694945,35.0064577546,100
                135.6922568409,35.0064988921,100
                135.69247669,35.0064486639,100
                135.6928501581,35.0063188838,100
                135.6933159678,35.0062104605,100
                135.6936792197,35.0061459386,100
                135.6937805715,35.0061556288,100
                135.6940821914,35.0062928674,100
                135.6941590436,35.0062849599,100
                135.6942629746,35.0066600332,100
                135.6950884384,35.0067130721,100
                135.6952873149,35.006633841,100
                135.6954223401,35.0065655085,100
                135.6955446388,35.0065353162,100
                135.6956001592,35.0068854084,100
                135.6955845475,35.0071777148,100
                135.6956404219,35.0071835577,100
                135.6958421818,35.007227793,100
                135.6962188766,35.007330562,100
                135.6964876671,35.0073898215,100
                135.6967751758,35.0074044051,100
                135.696993166,35.007428747,100
                135.6971997741,35.0074701047,100
                135.6973989938,35.0074951049,100
                135.6975553434,35.0074877443,100
                135.6979056294,35.007416912,100
                135.6981371522,35.0074336103,100
                135.69843122,35.007432855,100
                135.6981369463,35.0075947484,100
                135.6980299258,35.0076597718,100
                135.697987502,35.0076855847,100
                135.6979434955,35.0077157701,100
                135.6978980806,35.0077729055,100
                135.6977697821,35.0081007261,100
                135.6977800117,35.0081145877,100
                135.6978530417,35.008085423,100
                135.6979075748,35.0080124535,100
                135.6979302149,35.0080008892,100
                135.6980678355,35.0079304479,100
                135.6982652985,35.0079279063,100
                135.6984992893,35.0079012964,100
                135.698684679,35.007869849,100
                135.6987658905,35.0078349756,100
                135.6988165936,35.0078380581,100
                135.6990307754,35.0079449301,100
                135.6993399375,35.0080723877,100
                135.699490629,35.0081026895,100
                135.6995886598,35.0081030003,100
                135.699722464,35.0080815654,100
                135.7001096707,35.0079333302,100
                135.7004092241,35.0078186485,100
                135.7008398793,35.0076729991,100
                135.7009832787,35.0076246134,100
                135.7009737596,35.0076059263,100
                135.7011563997,35.0075417899,100
                135.7014213661,35.0074705985,100
                135.701411893,35.0074447284,100
                135.7017448389,35.0073517994,100
                135.7019981686,35.007273255,100
                135.7022359283,35.0071501608,100
                135.7026300368,35.006871096,100
                135.7028027639,35.0067298144,100
                135.702844561,35.0067344231,100
                135.7028794766,35.0067485932,100
                135.7032283755,35.006460402,100
                135.7034335371,35.0062667985,100
                135.7035641559,35.0063738835,100
                135.7036117331,35.0063362491,100
                135.703733625,35.0062517479,100
                135.7037898768,35.0062235723,100
                135.7038244769,35.0062061897,100
                135.7041529115,35.0059899235,100
                135.704434698,35.0057847415,100
                135.7044661274,35.0057922121,100
                135.7045975467,35.0058612664,100
                135.7048143653,35.0059251036,100
                135.7048086528,35.0059906578,100
                135.7048251136,35.0059952048,100
                135.7048471406,35.0059817356,100
                135.7049133718,35.0059027345,100
                135.7049838987,35.005909876,100
                135.7051180928,35.0059271718,100
                135.7053148495,35.0059525762,100
                135.7054149932,35.0059592966,100
                135.7056638282,35.0059503158,100
                135.7059053165,35.0059134268,100
                135.7059939452,35.0058731432,100
                135.7060965759,35.0059202243,100
                135.7062660554,35.0057337842,100
                135.7063813412,35.0057122979,100
                135.7063332808,35.0052729239,100
                135.7063216889,35.004952096,100
                135.7064158009,35.0049095714,100
                135.7064620711,35.0048354516,100
                135.7068205985,35.0048427876,100
                135.7070235667,35.0048355254,100
                135.7070781647,35.0048748137,100
                135.7071703738,35.0050670917,100
                135.7072929079,35.0050232961,100
                135.7072406856,35.0049111909,100
                135.7074116631,35.0048558198,100
                135.7074203214,35.0048580941,100
                135.7074636354,35.0048693954,100
                135.7078998337,35.0048174728,100
                135.7083330659,35.0048299122,100
                135.7084317677,35.0048327531,100
                135.7085140731,35.0048245678,100
                135.7085642715,35.0047948959,100
                135.7087488928,35.0045962335,100
                135.7092456017,35.0045206448,100
                135.7094736311,35.0045793585,100
                135.7099111565,35.0045996228,100
                135.7103223767,35.0045907367,100
                135.7105099517,35.0046709764,100
                135.7108677262,35.0046602717,100
                135.711090447,35.0046713621,100
                135.7114353288,35.0046139325,100
                135.7118487009,35.0045712407,100
                135.7120558148,35.0045226399,100
                135.7122662366,35.0045066553,100
                135.7123711701,35.0044837311,100
                135.7125239849,35.004486766,100
                135.712807791,35.0044556694,100
                135.7128995396,35.0044953245,100
                135.7130776128,35.0045333515,100
                135.7131862318,35.0045393807,100
                135.7130860054,35.0037185155,100
                135.7130826482,35.0036796312,100
                135.7114507589,35.0036634697,100
                135.7098673611,35.0037130393,100
                135.7094467246,35.0037170431,100
                135.7083312227,35.0037276382,100
                135.7079413344,35.0037313593,100
                135.7077777487,35.0036822331,100
                135.7077368681,35.0037574938,100
                135.7072022302,35.0037288229,100
                135.706770501,35.0036926484,100
                135.7061967891,35.0036221159,100
                135.7060867441,35.0036086125,100
                135.7054636333,35.0035535228,100
                135.7048989784,35.0035118754,100
                135.7048319592,35.0035069312,100
                135.7042046429,35.00350366,100
                135.7038754835,35.0035129368,100
                135.7036884003,35.0035249515,100
                135.7033302202,35.0035478202,100
                135.7027876088,35.0035532682,100
                135.7026205492,35.0035549053,100
                135.7018456589,35.0035785908,100
                135.7015693822,35.0035740456,100
                135.7014981191,35.0035703509,100
                135.7014785701,35.0037096096,100
                135.7014797153,35.0037420087,100
                135.7013852606,35.0037429057,100
                135.701310672,35.0037415973,100
                135.7011918607,35.0039682265,100
                135.7010518921,35.0039926057,100
                135.7010037134,35.0039898121,100
                135.701070838,35.003701222,100
                135.7009046045,35.0036750397,100
                135.7009536224,35.0035348669,100
                135.7009122947,35.0035311749,100
                135.7007086089,35.0035129299,100
                135.7001459314,35.0034402837,100
                135.7000050279,35.0034220506,100
                135.6993947731,35.0033642846,100
                135.6993871368,35.0033634917,100
                135.6991718507,35.0033401449,100
                135.6987804109,35.0033004493,100
                135.6986435803,35.0032865911,100
              </coordinates>
            </LinearRing>
          </outerBoundaryIs>
        </Polygon>
      </Placemark>
    </Document>
  </Document>
</kml>
