<?xml version="1.0" encoding="UTF-8"?>
<kml xmlns="http://www.opengis.net/kml/2.2">
  <Document id="root_doc">
    <Document id="_8_12______disv4326">
      <name>28_12葛野disv4326</name>
      <Placemark id="_8_12______disv4326.1">
        <visibility>1</visibility>
        <Polygon>
          <extrude>0</extrude>
          <outerBoundaryIs>
            <LinearRing>
              <coordinates>
                135.7118058869,34.9906527575,100
                135.7113387847,34.9906992682,100
                135.710386822,34.9908109754,100
                135.7104321515,34.9911747066,100
                135.7103696249,34.9914657825,100
                135.710251068,34.9919153317,100
                135.7100462635,34.9925246214,100
                135.7096736503,34.9935691149,100
                135.7095121911,34.9939510216,100
                135.7093024881,34.994447049,100
                135.7091989549,34.9946919663,100
                135.7089073239,34.9953576712,100
                135.7085374937,34.9959350815,100
                135.7079779124,34.9967632582,100
                135.7076258842,34.9971615389,100
                135.7087906326,34.9979476127,100
                135.7092039016,34.9977970303,100
                135.7093810329,34.997769772,100
                135.7094979138,34.9978205453,100
                135.7092267071,34.9978647661,100
                135.7090638547,34.9979084685,100
                135.7088374185,34.9980170957,100
                135.7078574423,34.9991238041,100
                135.7079051743,34.9991606819,100
                135.7087086844,34.9990054655,100
                135.7090378635,34.9999218161,100
                135.7101634483,34.9997046044,100
                135.7116040885,34.9994472798,100
                135.7114391828,34.9999501727,100
                135.7119536946,34.9999269461,100
                135.7126826954,34.999920066,100
                135.7126859627,35.0005821727,100
                135.7126911813,35.000718112,100
                135.7126973041,35.0008775061,100
                135.7127041334,35.0010550724,100
                135.7127094528,35.0011931946,100
                135.712716302,35.0013716067,100
                135.7127221331,35.0015229706,100
                135.7133195732,35.0015286679,100
                135.7134683884,35.0015301431,100
                135.713993982,35.0015352458,100
                135.7145008488,35.0015400906,100
                135.7145083491,35.0016797679,100
                135.7145145018,35.0017940878,100
                135.714520032,35.0018967855,100
                135.7145451888,35.0023643488,100
                135.7145802985,35.0030169511,100
                135.7145834001,35.0031609148,100
                135.7145852591,35.003247616,100
                135.7145885037,35.0033989037,100
                135.7145907528,35.0035036364,100
                135.714593519,35.0036323853,100
                135.7145865662,35.0036326514,100
                135.7145826655,35.0036958864,100
                135.71322541,35.0037188422,100
                135.7130860054,35.0037185155,100
                135.7131862318,35.0045393807,100
                135.7132142161,35.0046820636,100
                135.7133208746,35.0046728762,100
                135.7138370948,35.0046283767,100
                135.7144005362,35.00470808,100
                135.7150051603,35.0046049043,100
                135.7150151696,35.0047621941,100
                135.7150411391,35.0055718284,100
                135.7151636456,35.0056333154,100
                135.7152416903,35.0056706128,100
                135.7159345764,35.005670604,100
                135.7156106064,35.0047478037,100
                135.7151782824,35.003614803,100
                135.7165451602,35.0035862127,100
                135.7168814132,35.0035726241,100
                135.7177698232,35.0035713653,100
                135.7182681343,35.0035608927,100
                135.7188580924,35.0035502763,100
                135.7190559523,35.0035467162,100
                135.7196398122,35.0035361531,100
                135.7196409633,35.0031075973,100
                135.719642838,35.0029904083,100
                135.7196385004,35.0028811635,100
                135.719656742,35.0024672262,100
                135.7196851771,35.0011218923,100
                135.7195616585,35.0011254121,100
                135.7195497928,35.0008510658,100
                135.7195667687,34.9999080645,100
                135.7195720603,34.9996589704,100
                135.7195939259,34.9986299157,100
                135.7196171878,34.9975360707,100
                135.7196289201,34.9969840068,100
                135.7196348831,34.9967202648,100
                135.719642113,34.9960071899,100
                135.7204083838,34.9960095039,100
                135.721233773,34.9960119477,100
                135.721284555,34.9960129468,100
                135.721468807,34.9960165713,100
                135.7219664341,34.9960263602,100
                135.7221193109,34.9960262838,100
                135.7223715303,34.9960262231,100
                135.7224379443,34.9960262331,100
                135.7226387871,34.9960260544,100
                135.7213694264,34.994758413,100
                135.7211779567,34.9945671854,100
                135.7209077972,34.994292603,100
                135.7205676395,34.9940222964,100
                135.7200599626,34.993648499,100
                135.7197576556,34.993455538,100
                135.7196634401,34.993395387,100
                135.7191172077,34.9930874188,100
                135.718843379,34.9929330447,100
                135.7181920848,34.9925992654,100
                135.7179513397,34.9924881383,100
                135.7178078091,34.9924219568,100
                135.7172648178,34.9921713172,100
                135.7170680932,34.9920638112,100
                135.7159691573,34.9914631862,100
                135.7146704223,34.9907533448,100
                135.7142334296,34.9905252635,100
                135.7135899604,34.9902156343,100
                135.7131106193,34.9899851257,100
                135.7131573576,34.9898948039,100
                135.7131357478,34.9898396779,100
                135.7129717172,34.9897649207,100
                135.7128722825,34.9897196132,100
                135.7126957191,34.989638136,100
                135.7123653173,34.9894856562,100
                135.7121411043,34.989781565,100
                135.7119468931,34.9902598844,100
                135.7118058869,34.9906527575,100
              </coordinates>
            </LinearRing>
          </outerBoundaryIs>
        </Polygon>
      </Placemark>
    </Document>
  </Document>
</kml>
