<?xml version="1.0" encoding="UTF-8"?>
<kml xmlns="http://www.opengis.net/kml/2.2">
  <Document id="root_doc">
    <Document id="_8_20______disv4326">
      <name>28_20高雄disv4326</name>
      <Placemark id="_8_20______disv4326.1">
        <visibility>1</visibility>
        <Polygon>
          <extrude>0</extrude>
          <outerBoundaryIs>
            <LinearRing>
              <coordinates>
                135.679169778,35.0410337589,100
                135.6790115923,35.0405528975,100
                135.6788437687,35.0403304727,100
                135.6787510157,35.0401646575,100
                135.6785735453,35.0397986088,100
                135.6784576424,35.039668437,100
                135.6783848449,35.0396490183,100
                135.6780146375,35.0396723357,100
                135.6778078775,35.0397390453,100
                135.6774370519,35.0397781347,100
                135.6773167864,35.0397667583,100
                135.6770135854,35.0397403896,100
                135.6766316013,35.0397917714,100
                135.6755644707,35.0401290853,100
                135.6752072047,35.0405181499,100
                135.6751810417,35.0405466723,100
                135.6751806289,35.0406513238,100
                135.6753389635,35.0408349237,100
                135.675382697,35.0408410266,100
                135.6755297504,35.0408616317,100
                135.6756724605,35.0409797641,100
                135.6754478074,35.0410121235,100
                135.6751472464,35.0410437175,100
                135.6749247994,35.0409777682,100
                135.674606816,35.0409376198,100
                135.6745801433,35.0411542488,100
                135.6745020996,35.0414174315,100
                135.6745085645,35.0418024665,100
                135.674623347,35.041901862,100
                135.6749720136,35.041924838,100
                135.6749199462,35.0422075284,100
                135.6747760694,35.0423903209,100
                135.6746167802,35.0424422212,100
                135.6744419478,35.0424025257,100
                135.6742660801,35.0426244596,100
                135.6740907823,35.0427024437,100
                135.6739631498,35.042793726,100
                135.6738825332,35.0430682398,100
                135.6738334684,35.0434082642,100
                135.6738012414,35.0435128308,100
                135.6731154265,35.0439557974,100
                135.6728433421,35.0441300742,100
                135.672788666,35.0440758402,100
                135.6728616828,35.0437589094,100
                135.6730058248,35.043510695,100
                135.6731174482,35.0434455696,100
                135.6730866233,35.043196954,100
                135.6731824206,35.0431055882,100
                135.6731672401,35.0429223703,100
                135.6731041345,35.0427914203,100
                135.6733430072,35.0427266361,100
                135.6735349377,35.0424654496,100
                135.6736628794,35.042295715,100
                135.6736640181,35.0420079587,100
                135.673601171,35.0418115137,100
                135.6729155729,35.0422021548,100
                135.6724215921,35.0424101299,100
                135.6718005139,35.0425785337,100
                135.6711004589,35.0425255137,100
                135.6710848793,35.0425242744,100
                135.6709887419,35.0426940926,100
                135.6709399299,35.0429687624,100
                135.6707802188,35.0431253088,100
                135.6701593921,35.0432282801,100
                135.6703473657,35.0439614291,100
                135.6700606414,35.0440522057,100
                135.6700600665,35.0441961545,100
                135.6697868642,35.0448888264,100
                135.6695628987,35.045202181,100
                135.6692429955,35.045570348,100
                135.6692112933,35.0456068133,100
                135.668705732,35.046059338,100
                135.6686090621,35.046211549,100
                135.6685441679,35.0464108205,100
                135.6685092864,35.0465729174,100
                135.6684727626,35.0468245226,100
                135.6684937602,35.0470562129,100
                135.6684895794,35.0471811383,100
                135.6684568395,35.0473645814,100
                135.6684195224,35.0474502587,100
                135.6681101231,35.0477209799,100
                135.6679773459,35.0478537942,100
                135.6678288204,35.0475985854,100
                135.6675889847,35.0474669374,100
                135.6674301861,35.0473929776,100
                135.6670771099,35.0472841894,100
                135.6667479613,35.047161802,100
                135.6666385282,35.0473668664,100
                135.6665575428,35.0474986935,100
                135.6664750543,35.0475991074,100
                135.6663866739,35.0477971155,100
                135.6659450905,35.0477731553,100
                135.6651775563,35.0477316062,100
                135.6647860173,35.0475250237,100
                135.6646683742,35.0474504706,100
                135.6645581798,35.0473601614,100
                135.6644774431,35.047260215,100
                135.6643439808,35.0470416666,100
                135.6641424058,35.0467783491,100
                135.6639847836,35.0465261398,100
                135.6639287049,35.0464222469,100
                135.6639461564,35.046204467,100
                135.6639290773,35.0460762434,100
                135.6638892798,35.045937957,100
                135.6638186707,35.0458059943,100
                135.6637428174,35.0457217662,100
                135.6635579132,35.0456463216,100
                135.6635709863,35.04512471,100
                135.663402269,35.0448800761,100
                135.6632544387,35.044722616,100
                135.662924435,35.0445304956,100
                135.662569681,35.0447114236,100
                135.6628189486,35.0448680383,100
                135.6628267423,35.0450735638,100
                135.6624311776,35.0458308175,100
                135.6624549576,35.0459218037,100
                135.6624512024,35.0461349741,100
                135.6624120604,35.04626283,100
                135.6623168608,35.0464301093,100
                135.6621722784,35.0465998578,100
                135.6620950582,35.0466573934,100
                135.6617755281,35.0468145415,100
                135.6616175966,35.0469184036,100
                135.6615391343,35.0469860767,100
                135.6617801746,35.04734592,100
                135.661778799,35.0476840323,100
                135.661905579,35.0478065038,100
                135.6620743485,35.0480337457,100
                135.6620930111,35.0486617874,100
                135.6622615699,35.0489413553,100
                135.6622610028,35.0490809379,100
                135.6622567204,35.0492389624,100
                135.6622275029,35.0495693209,100
                135.6622944563,35.0496574698,100
                135.6627548087,35.0498222775,100
                135.6629076695,35.049807912,100
                135.6634277223,35.0497064597,100
                135.6635477657,35.0497073554,100
                135.6636416191,35.0496879662,100
                135.6638557691,35.0497178559,100
                135.6639989154,35.0497549437,100
                135.6640925932,35.0497791481,100
                135.6641336894,35.0499356075,100
                135.6642497243,35.0503772903,100
                135.6640655673,35.0505431982,100
                135.6639032287,35.0507248013,100
                135.6638442335,35.0509867647,100
                135.6636520493,35.0513001938,100
                135.663375559,35.0514738733,100
                135.6632473781,35.0517002911,100
                135.6629280471,35.051978504,100
                135.6629151981,35.0522222845,100
                135.6629631584,35.0522907304,100
                135.6631018045,35.0527308569,100
                135.6631690124,35.0530108461,100
                135.6631729996,35.0531205812,100
                135.6630636187,35.0533301483,100
                135.6629574684,35.0534979624,100
                135.6628069027,35.0538369294,100
                135.6627394098,35.0539175923,100
                135.6625113636,35.0541223221,100
                135.6623754465,35.0542329366,100
                135.662279445,35.0543737347,100
                135.6621294839,35.0546946735,100
                135.6620689515,35.0547950743,100
                135.662013358,35.0549240121,100
                135.6620223644,35.0550836238,100
                135.6619405957,35.0553257336,100
                135.6619029486,35.0554794405,100
                135.6619051053,35.0556336108,100
                135.6619483026,35.0557729643,100
                135.6620407217,35.0558768188,100
                135.6621154181,35.0560049212,100
                135.6620781138,35.0560904562,100
                135.6619703936,35.0561902322,100
                135.6617605056,35.0563455028,100
                135.66170192,35.0564199209,100
                135.6616783299,35.0565026769,100
                135.6614021092,35.056841223,100
                135.6608252278,35.0573196425,100
                135.6602537649,35.0575183401,100
                135.6598280625,35.0578660435,100
                135.6592960429,35.0582657802,100
                135.6591848603,35.058523162,100
                135.6590460862,35.0587422945,100
                135.6590061029,35.0588374703,100
                135.6589606127,35.0590638356,100
                135.6586784551,35.0594605365,100
                135.6586322914,35.0597466921,100
                135.6585991193,35.0601484541,100
                135.6585876483,35.0602873041,100
                135.6582503619,35.060882876,100
                135.6580747396,35.0611929669,100
                135.6581719876,35.0613514875,100
                135.6583493884,35.0614728348,100
                135.6576878047,35.0624130178,100
                135.657475497,35.0624472847,100
                135.6567105694,35.0627242423,100
                135.6565189004,35.0628981519,100
                135.6560693044,35.0638737816,100
                135.6558029898,35.064056424,100
                135.6555373831,35.0642386452,100
                135.6554489526,35.0650931684,100
                135.6553370922,35.0655994343,100
                135.6553315966,35.0656129408,100
                135.6551491516,35.0657551821,100
                135.6549997497,35.0659640687,100
                135.6547212371,35.066608745,100
                135.6547103397,35.0669102119,100
                135.6546331804,35.0670384526,100
                135.6545915194,35.0670767174,100
                135.654570422,35.0671595503,100
                135.6543994053,35.0674661279,100
                135.6540762607,35.0676186739,100
                135.6539927509,35.0676270289,100
                135.6539519478,35.0676645218,100
                135.653731888,35.0677516495,100
                135.6533781233,35.0676784585,100
                135.6529542982,35.0675267527,100
                135.6526002032,35.0674610238,100
                135.6519053348,35.0672078329,100
                135.6514300001,35.0670335091,100
                135.6506268631,35.066856768,100
                135.6506168273,35.0668552598,100
                135.6500906551,35.0668537537,100
                135.6500049616,35.0670488719,100
                135.6495246586,35.0682336917,100
                135.6494036576,35.0687497133,100
                135.6493685303,35.0690287129,100
                135.649096296,35.0691814614,100
                135.6484328335,35.0695284456,100
                135.6480239086,35.0698901052,100
                135.6479242685,35.0701490602,100
                135.6478522602,35.0703361892,100
                135.647673465,35.0702409482,100
                135.6476151541,35.0702098629,100
                135.647394552,35.0701952813,100
                135.6471230252,35.0701805521,100
                135.6468333751,35.0704309316,100
                135.6464593572,35.0705693702,100
                135.6461538246,35.0705684886,100
                135.6458136658,35.0707210368,100
                135.6454728043,35.0710410588,100
                135.6451661282,35.071305329,100
                135.6450895692,35.0713588438,100
                135.6448085789,35.0715554364,100
                135.6445034085,35.0717327322,100
                135.6443829409,35.0718473198,100
                135.6441957949,35.0719444596,100
                135.6435492614,35.0722914761,100
                135.6430390466,35.0725132449,100
                135.6426638742,35.0725984247,100
                135.6425646685,35.0727425114,100
                135.6424508441,35.0730473392,100
                135.6421032702,35.0735805847,100
                135.6417152313,35.0740803278,100
                135.641463496,35.0742043172,100
                135.6414491009,35.0745637346,100
                135.641595787,35.0749902472,100
                135.6418126029,35.0753751311,100
                135.641870495,35.0757337034,100
                135.6417673584,35.0761006788,100
                135.6418482996,35.0761677512,100
                135.6421125963,35.0761016878,100
                135.6424175172,35.0760358139,100
                135.6426818334,35.0759698197,100
                135.6430677004,35.0759709445,100
                135.6433313433,35.0760551683,100
                135.643574631,35.076156094,100
                135.6438992762,35.0762238034,100
                135.6442032615,35.0763749069,100
                135.6442837717,35.0765421237,100
                135.6440188066,35.0767584097,100
                135.6440587075,35.0769255082,100
                135.6442818929,35.07697623,100
                135.6440775663,35.0772594575,100
                135.6437106228,35.0775755942,100
                135.6429166852,35.0780073946,100
                135.6422658354,35.0782225522,100
                135.6412686353,35.0786871275,100
                135.6409029877,35.0787027471,100
                135.6405375088,35.0786849839,100
                135.6402521456,35.078917892,100
                135.6399458923,35.0792842668,100
                135.63960018,35.079383467,100
                135.6391736161,35.0793989025,100
                135.6389889105,35.0798323966,100
                135.6386020735,35.0800483102,100
                135.6386003107,35.0804490326,100
                135.6383351149,35.0807153774,100
                135.6379083796,35.0807641894,100
                135.6375823929,35.0809969699,100
                135.6373175406,35.0811798578,100
                135.6369502795,35.0815627344,100
                135.6365636276,35.0817285683,100
                135.6363806975,35.0817614077,100
                135.6359324648,35.0820773465,100
                135.6353621349,35.0824429226,100
                135.634588711,35.08280789,100
                135.6345867806,35.0832419926,100
                135.6338936393,35.083824328,100
                135.6338514994,35.0841580945,100
                135.6336674445,35.0844413642,100
                135.6334834635,35.0847079429,100
                135.6330967149,35.0848904608,100
                135.6329728259,35.0853408898,100
                135.6324632725,35.0857400218,100
                135.6319948461,35.0860224384,100
                135.6319325089,35.0863395223,100
                135.6319110379,35.0865898929,100
                135.6318694565,35.0868068202,100
                135.6317666573,35.0870903264,100
                135.6320301533,35.0872079522,100
                135.632435429,35.087426216,100
                135.6325962038,35.0878107275,100
                135.6326153174,35.0880779084,100
                135.6327568313,35.0882285484,100
                135.6328778157,35.0884292704,100
                135.6327948352,35.0888130531,100
                135.6331375627,35.0893983968,100
                135.6334812938,35.0897499998,100
                135.6336830631,35.0900511772,100
                135.6337018818,35.0903851204,100
                135.6337404565,35.09085272,100
                135.6337592033,35.0912033531,100
                135.6336357562,35.0915536334,100
                135.6337980311,35.0916041895,100
                135.6339802444,35.0917382589,100
                135.6341013076,35.0919222889,100
                135.6343235079,35.0922067647,100
                135.6343427768,35.092440564,100
                135.6344228183,35.0927079257,100
                135.6345026047,35.0930421208,100
                135.6345419563,35.0933260523,100
                135.6345197201,35.0937600878,100
                135.6349245127,35.0940951822,100
                135.6350653008,35.0944127986,100
                135.635224987,35.0950477385,100
                135.635405798,35.0954990728,100
                135.635596342,35.0957357785,100
                135.6355991601,35.0956514168,100
                135.6357827988,35.0959774719,100
                135.6358926856,35.0960255561,100
                135.6359192777,35.0960371928,100
                135.6362313687,35.0956276551,100
                135.6379555928,35.0950749921,100
                135.6389735653,35.0950061193,100
                135.6402355493,35.0950297814,100
                135.6406916668,35.0949730204,100
                135.6414372894,35.0946078287,100
                135.6422732154,35.0943098339,100
                135.6425999693,35.0939100958,100
                135.6435894237,35.0934431301,100
                135.6434642755,35.092196076,100
                135.6434013217,35.0915688234,100
                135.6440469714,35.091465921,100
                135.6441845093,35.0907616375,100
                135.6441605539,35.0895928763,100
                135.6448264054,35.0899525736,100
                135.6455823688,35.0894773815,100
                135.6466507198,35.0888243641,100
                135.6477150027,35.0880392,100
                135.6489121109,35.0875135534,100
                135.6500337735,35.0868669832,100
                135.6505265514,35.0869876484,100
                135.6506717882,35.0879430856,100
                135.6503724791,35.0901503076,100
                135.6511077906,35.0906598294,100
                135.6516633871,35.0913561644,100
                135.6518946006,35.0916459919,100
                135.6523851302,35.0922217802,100
                135.6525231057,35.0923837293,100
                135.6536347075,35.0934911613,100
                135.6538655158,35.0932395511,100
                135.6542411109,35.092769961,100
                135.6543583252,35.0923941488,100
                135.6546427285,35.0922281854,100
                135.6553903479,35.0917918974,100
                135.655405479,35.0915193927,100
                135.6555332006,35.0912313598,100
                135.6558065288,35.0909057073,100
                135.6561971525,35.0907088414,100
                135.6566823066,35.0913212893,100
                135.6569361885,35.0915678594,100
                135.6576737963,35.0921767872,100
                135.6582792953,35.0922384145,100
                135.6585924298,35.0922702776,100
                135.659093896,35.0923916133,100
                135.6591837774,35.0925158838,100
                135.6592197102,35.0929936816,100
                135.6593177916,35.0931247358,100
                135.6598569553,35.0933835745,100
                135.6607882611,35.0936889972,100
                135.6611519972,35.0939156516,100
                135.6613402231,35.0941259018,100
                135.6614344641,35.0944732211,100
                135.6615890627,35.0948231021,100
                135.6620084385,35.0954352069,100
                135.6623853867,35.0957589407,100
                135.6627238771,35.0961003145,100
                135.6628456129,35.096968295,100
                135.663246726,35.0979319104,100
                135.6633856515,35.098126176,100
                135.6635716927,35.0982305681,100
                135.6638815313,35.0982744526,100
                135.6646180268,35.0980541474,100
                135.6650634332,35.0976411979,100
                135.6659005924,35.0969775479,100
                135.666915436,35.0962149351,100
                135.6663878832,35.0957386108,100
                135.6654281867,35.0949451708,100
                135.6662054271,35.0947739817,100
                135.6668914451,35.0946352857,100
                135.6675512487,35.0945682083,100
                135.6675380864,35.0942841463,100
                135.6674457349,35.0938547906,100
                135.6672989353,35.0932758436,100
                135.6670201393,35.0925846305,100
                135.6667861706,35.0922619347,100
                135.6666817014,35.0921178402,100
                135.6672492335,35.0914862618,100
                135.667394507,35.0912337591,100
                135.6672779915,35.0907791957,100
                135.6670605079,35.0903007641,100
                135.6667515765,35.0898659582,100
                135.6668511562,35.0896984056,100
                135.6673886193,35.0894471131,100
                135.6675518016,35.0893841751,100
                135.6678672474,35.088996706,100
                135.6679491943,35.088754594,100
                135.6679349434,35.0885223616,100
                135.6679433934,35.0882543443,100
                135.6678926962,35.0879291921,100
                135.6678112305,35.0876328296,100
                135.6675830253,35.0871428901,100
                135.6674792017,35.0866074426,100
                135.6677893556,35.0863393269,100
                135.6679995987,35.086126083,100
                135.6681773993,35.0857614021,100
                135.6681256563,35.0852289031,100
                135.6681322439,35.0849181258,100
                135.6683603461,35.0843807531,100
                135.6697818198,35.0840859247,100
                135.6703955424,35.0841151201,100
                135.6714190785,35.0853848647,100
                135.6718227316,35.0858795748,100
                135.6721037518,35.0863387401,100
                135.6727212068,35.0871002317,100
                135.6729378979,35.0872295541,100
                135.6739875561,35.0870104632,100
                135.6739418703,35.0868362479,100
                135.6744138458,35.0869558289,100
                135.6747746017,35.0870173607,100
                135.6750297325,35.0870142403,100
                135.6753980475,35.0868483857,100
                135.6756752348,35.0867103866,100
                135.6760568833,35.0864320233,100
                135.6759927443,35.0862216284,100
                135.6759145762,35.0860266898,100
                135.6755934582,35.0855174214,100
                135.6752461151,35.0849513879,100
                135.6748401528,35.0844340725,100
                135.6744150626,35.0840426966,100
                135.6750035487,35.0835803019,100
                135.675276619,35.0836361064,100
                135.6758065935,35.0837361922,100
                135.6764874559,35.0837031482,100
                135.6765203698,35.0826628208,100
                135.6762447757,35.0825957432,100
                135.6757542643,35.082446677,100
                135.6750362669,35.0820307852,100
                135.6742475478,35.0814582797,100
                135.673763583,35.0810006806,100
                135.6736641286,35.0801273279,100
                135.6737847209,35.0794824701,100
                135.6742550715,35.0795457126,100
                135.6745983746,35.0795213527,100
                135.6750825605,35.0794494803,100
                135.6755497705,35.0794022088,100
                135.6758806023,35.0794497882,100
                135.6762846259,35.0792776898,100
                135.6765508786,35.0791350837,100
                135.6769896607,35.0788755357,100
                135.6775365991,35.0786875467,100
                135.6783969344,35.0784634151,100
                135.6794685971,35.0781003923,100
                135.6808407579,35.0776606127,100
                135.6820997294,35.0772553116,100
                135.6829504197,35.0768349834,100
                135.6835030711,35.0763721065,100
                135.6838411899,35.0759399361,100
                135.6846064391,35.0763249866,100
                135.6848771075,35.0764955603,100
                135.6851689985,35.0768309859,100
                135.6853203416,35.0773310565,100
                135.6853697631,35.0778521311,100
                135.6855741385,35.078307898,100
                135.68610001,35.0787345606,100
                135.6865132955,35.0790356432,100
                135.6866493627,35.0792178337,100
                135.6866558744,35.0795626563,100
                135.6865273293,35.0798086044,100
                135.6865435078,35.0800836602,100
                135.6866501758,35.0803600759,100
                135.6868461581,35.0806939776,100
                135.6869977662,35.0809193098,100
                135.6872716687,35.0810674166,100
                135.687594685,35.0812274814,100
                135.687808526,35.0814279716,100
                135.687830204,35.0815638786,100
                135.6881408343,35.0817029937,100
                135.6882101151,35.0817172568,100
                135.6882788352,35.0816812343,100
                135.6883737803,35.081574853,100
                135.6884427013,35.0814515031,100
                135.6888938601,35.0807205099,100
                135.6890266782,35.0805555606,100
                135.6892162447,35.0804961128,100
                135.6893988183,35.0805076368,100
                135.6895437316,35.0804638507,100
                135.6897656412,35.0803700463,100
                135.6899539221,35.0802762271,100
                135.6901003895,35.0801490587,100
                135.6902029127,35.080031286,100
                135.6903363271,35.0799120432,100
                135.69041425,35.0797514584,100
                135.6905547023,35.0795544118,100
                135.6906429376,35.0793735715,100
                135.6906798572,35.0791290044,100
                135.6907604907,35.0789763145,100
                135.691020286,35.0788188688,100
                135.6913568286,35.0784073084,100
                135.6913600714,35.0782441397,100
                135.6913156173,35.0781496549,100
                135.6912448818,35.0777623412,100
                135.6913012362,35.0775144432,100
                135.6916772802,35.0764545653,100
                135.6920246935,35.075689842,100
                135.6921363949,35.0755204683,100
                135.6923799658,35.0753620638,100
                135.6925789196,35.0750776224,100
                135.692701052,35.0748091849,100
                135.6927514819,35.0744823941,100
                135.6928788128,35.0741575581,100
                135.6930502262,35.0738596656,100
                135.6934866335,35.0733063734,100
                135.6936176838,35.0731618378,100
                135.693690406,35.0728979933,100
                135.6937353118,35.0725690048,100
                135.6938796735,35.0723454848,100
                135.6940782687,35.071997939,100
                135.6943071774,35.0716706119,100
                135.6946050926,35.0714060674,100
                135.6949610585,35.0712135038,100
                135.6949184902,35.0709612702,100
                135.6947871119,35.0705337337,100
                135.6945537507,35.0700365001,100
                135.6941803037,35.0695308074,100
                135.6937709289,35.0689846651,100
                135.6934056365,35.0684653962,100
                135.6934463788,35.0683819726,100
                135.6935804549,35.0682914611,100
                135.6938679745,35.0681373884,100
                135.6940261024,35.067925027,100
                135.6941198074,35.0674764309,100
                135.6942149085,35.0672868694,100
                135.6944610448,35.0670990967,100
                135.6945395506,35.066891605,100
                135.6945407978,35.0666122224,100
                135.6946357392,35.0663956863,100
                135.6926736432,35.0655053142,100
                135.6924889961,35.0653170861,100
                135.691807217,35.0649639931,100
                135.6915766438,35.0649175578,100
                135.6910415519,35.0648427393,100
                135.690749648,35.064589654,100
                135.6905090195,35.064163378,100
                135.6903625647,35.064500843,100
                135.6901762514,35.0645306506,100
                135.6901119634,35.0648455072,100
                135.6898582406,35.0651136789,100
                135.6897591942,35.0656173327,100
                135.6896422835,35.0658244415,100
                135.6891328924,35.0659585667,100
                135.688490777,35.064735711,100
                135.6882224009,35.0636735424,100
                135.6880941244,35.0626625118,100
                135.6879478447,35.061894408,100
                135.6878982652,35.061281003,100
                135.6880681759,35.0606961942,100
                135.6880669284,35.0604399788,100
                135.6880015604,35.0599637967,100
                135.6880052378,35.0595885025,100
                135.6882405987,35.0591424623,100
                135.6884126829,35.0586893573,100
                135.6885791709,35.058501535,100
                135.6886519054,35.058360094,100
                135.6887014386,35.0581016146,100
                135.6886756347,35.0580104867,100
                135.6885839007,35.0579071462,100
                135.6884821911,35.0577233533,100
                135.6884401798,35.0575399945,100
                135.6885111713,35.0573207981,100
                135.6885023959,35.0567710249,100
                135.6885465801,35.0563971025,100
                135.6885296867,35.0563048711,100
                135.6884840275,35.0562610885,100
                135.6882409861,35.0560280553,100
                135.6879157435,35.0554176034,100
                135.687763678,35.0551696606,100
                135.6877976865,35.0549630459,100
                135.6877562476,35.0547531377,100
                135.687759139,35.0544965107,100
                135.6877106506,35.0543908153,100
                135.6875650792,35.0542104291,100
                135.6875178916,35.0540946659,100
                135.6875144311,35.0539386623,100
                135.6878715507,35.0538979622,100
                135.6879873773,35.0538791049,100
                135.6884222263,35.0537352168,100
                135.6891161031,35.0536936195,100
                135.689300797,35.0537359986,100
                135.6897074375,35.0537198579,100
                135.6898191159,35.0536937344,100
                135.6899204049,35.0536513865,100
                135.6901262404,35.0535252865,100
                135.6905308217,35.0530831987,100
                135.6906942721,35.0528430401,100
                135.6907340383,35.0526971477,100
                135.6908736648,35.052355796,100
                135.6909493405,35.0521225961,100
                135.6912502518,35.0516676349,100
                135.6914331935,35.0513492811,100
                135.6915908488,35.051052835,100
                135.6917088741,35.05078467,100
                135.6918651382,35.0506278763,100
                135.6919372926,35.050517913,100
                135.6920821397,35.0501236116,100
                135.6921056613,35.0498877432,100
                135.6921322986,35.0497244919,100
                135.692240813,35.0494798944,100
                135.6924428452,35.0488643174,100
                135.6925208515,35.0486885193,100
                135.6926685073,35.0484602195,100
                135.6928938215,35.0482609921,100
                135.6930515048,35.0481125809,100
                135.6932841801,35.0478790726,100
                135.6934159116,35.0477593996,100
                135.6937664728,35.0475149218,100
                135.6942949274,35.0471968737,100
                135.6945715685,35.0469834755,100
                135.6948094356,35.0468331509,100
                135.6948878742,35.0467486261,100
                135.6949620553,35.0466391584,100
                135.6950789574,35.0465691673,100
                135.6952912604,35.0465185724,100
                135.6953493988,35.0464868859,100
                135.6956042002,35.0463016714,100
                135.6957067977,35.0462496729,100
                135.6957367951,35.0462141829,100
                135.6957631397,35.0459996591,100
                135.6958371095,35.0457129974,100
                135.6957971864,35.0455638748,100
                135.6954079667,35.0448813767,100
                135.6951773135,35.0447184635,100
                135.6950558445,35.0447088613,100
                135.6948988757,35.0447285371,100
                135.6947283776,35.0447765604,100
                135.6943460555,35.0449784937,100
                135.694256994,35.0450001714,100
                135.6941574643,35.0449864684,100
                135.6936800587,35.0448560987,100
                135.6936177258,35.0448698154,100
                135.6928130733,35.0453537888,100
                135.6925159345,35.0454535335,100
                135.6923927965,35.0451461606,100
                135.6923313791,35.0450443784,100
                135.6921157908,35.0448660037,100
                135.6920081927,35.0447260047,100
                135.6921018064,35.0444721457,100
                135.6921332745,35.0443198233,100
                135.6922734506,35.0440153054,100
                135.692212089,35.043900848,100
                135.6922281436,35.0437357397,100
                135.6921824313,35.043570475,100
                135.6923222045,35.0433675801,100
                135.6923538601,35.0431644814,100
                135.6925088785,35.0430124033,100
                135.6924791453,35.0427074534,100
                135.6923429374,35.041865797,100
                135.6924210153,35.0417292284,100
                135.6924680089,35.0415515214,100
                135.6925258895,35.0414511708,100
                135.6925923887,35.0413359112,100
                135.6926855919,35.0411964223,100
                135.6928318585,35.0411796088,100
                135.6929931193,35.0411610735,100
                135.6930563408,35.0411264426,100
                135.693268741,35.0410862748,100
                135.6935513971,35.0408476117,100
                135.6937749545,35.0407195078,100
                135.6940646052,35.0406311504,100
                135.694372869,35.0405634747,100
                135.6946519234,35.0405495296,100
                135.6947839797,35.0404904221,100
                135.6952040645,35.0401780828,100
                135.6955485198,35.0399555572,100
                135.6958095492,35.0399055762,100
                135.6959981291,35.0399025985,100
                135.6961794231,35.0399424209,100
                135.6967083889,35.0401007966,100
                135.6967887058,35.0401151532,100
                135.69689838,35.040104089,100
                135.6971415992,35.0400591313,100
                135.6974186958,35.0400636947,100
                135.6975955285,35.0400405418,100
                135.6978279601,35.0399816803,100
                135.6981561663,35.0398481213,100
                135.6981046127,35.0397024924,100
                135.6980901529,35.0395697738,100
                135.6980636206,35.0394842103,100
                135.6978851139,35.0393211519,100
                135.6978306117,35.0392560136,100
                135.6977509318,35.0391150327,100
                135.6977036878,35.0388799031,100
                135.6976871781,35.0386171007,100
                135.6977163129,35.0384301206,100
                135.6978345424,35.0381802598,100
                135.6981527486,35.0378520176,100
                135.6982356594,35.0377120753,100
                135.6982760335,35.0375711812,100
                135.6982775807,35.0374760395,100
                135.6982350911,35.0373568426,100
                135.6981435563,35.0371742821,100
                135.698132691,35.037066221,100
                135.6982424285,35.0368187325,100
                135.6981385695,35.0363884523,100
                135.6981874583,35.0362970893,100
                135.6983147359,35.0362476135,100
                135.6986125774,35.0362830721,100
                135.6987070411,35.0362551354,100
                135.6988667594,35.0361155227,100
                135.6988658567,35.0360755888,100
                135.698809384,35.0359062852,100
                135.6988110988,35.0358415677,100
                135.6989225339,35.0357803612,100
                135.6990816802,35.0357848395,100
                135.699127438,35.035752557,100
                135.6991442811,35.0356956238,100
                135.6991008419,35.0355269863,100
                135.6991477953,35.0354602673,100
                135.6993487515,35.0353413207,100
                135.6993571663,35.0352473224,100
                135.6992965752,35.0352030864,100
                135.699144522,35.0351384116,100
                135.6988964971,35.0350329337,100
                135.6988625231,35.034963761,100
                135.6990417784,35.0346377079,100
                135.6990467559,35.034541448,100
                135.6988652794,35.0342044316,100
                135.6987914014,35.0340006471,100
                135.6987899591,35.0339975442,100
                135.6989201436,35.03391251,100
                135.6988704314,35.0338093529,100
                135.6988659926,35.0338001166,100
                135.6988709728,35.0337720288,100
                135.6990504362,35.0329859514,100
                135.6990368676,35.0329264071,100
                135.6989473773,35.0328828034,100
                135.6989641375,35.0327188219,100
                135.6989834085,35.0325304087,100
                135.6989726303,35.0323112864,100
                135.6988010947,35.0317106185,100
                135.6989055901,35.0316441835,100
                135.6989178286,35.0314632181,100
                135.6986976869,35.0314817592,100
                135.6985469062,35.0315385027,100
                135.6981520161,35.0318328927,100
                135.6981345954,35.0318382025,100
                135.6980592471,35.0318612565,100
                135.6978505065,35.0319274323,100
                135.6977109561,35.0320794893,100
                135.6974562431,35.0320502636,100
                135.6975271297,35.0316693637,100
                135.6978980899,35.0315845744,100
                135.6980020578,35.0316610338,100
                135.6980338666,35.0316492106,100
                135.6982572242,35.031566379,100
                135.698258063,35.0313377773,100
                135.6980603664,35.031556384,100
                135.6979056939,35.0315191672,100
                135.6976206032,35.0314504996,100
                135.697471049,35.0311738458,100
                135.697112269,35.0310967535,100
                135.6966827865,35.0313433734,100
                135.6965045509,35.0311077052,100
                135.6960490069,35.0305053408,100
                135.6959759947,35.0303767013,100
                135.6958793275,35.0300870791,100
                135.6958552204,35.0299493359,100
                135.6958075517,35.0296769501,100
                135.6958602306,35.0296020778,100
                135.6958962385,35.0295197686,100
                135.6960164333,35.0292471673,100
                135.6960418265,35.0291072945,100
                135.6960376136,35.0288225506,100
                135.6959957556,35.028617154,100
                135.6958794772,35.0282591698,100
                135.6958089979,35.0281060995,100
                135.6954375075,35.0276970527,100
                135.6953903986,35.0275061514,100
                135.6950019654,35.0285764305,100
                135.6948281256,35.0290394695,100
                135.6947566509,35.0291378869,100
                135.6946626967,35.029490133,100
                135.694708313,35.0296807495,100
                135.6947306222,35.0299094786,100
                135.6947044548,35.0307191713,100
                135.6946692865,35.0308333839,100
                135.6946686136,35.0310144479,100
                135.6948292085,35.031434026,100
                135.6948402559,35.0315769474,100
                135.6947935799,35.0316721172,100
                135.6947117498,35.0318719217,100
                135.6946037195,35.0321067323,100
                135.6944871207,35.032284687,100
                135.6943595757,35.0324123304,100
                135.694072529,35.0325923919,100
                135.6938452319,35.0329152153,100
                135.6937107984,35.0330407282,100
                135.6936525715,35.0330812876,100
                135.6933480215,35.0331260148,100
                135.6930434784,35.0332784927,100
                135.6926237294,35.0333316597,100
                135.6924427031,35.0333457799,100
                135.6922812435,35.0334281918,100
                135.6918678512,35.0333158715,100
                135.6914789651,35.0332102326,100
                135.6912450449,35.0332012586,100
                135.6911237945,35.033196654,100
                135.6909842275,35.0333487001,100
                135.69081334,35.0336150374,100
                135.6907815416,35.0338563046,100
                135.6907186622,35.03414827,100
                135.6905790927,35.0343003148,100
                135.6901512925,35.034487401,100
                135.6900958641,35.0345850106,100
                135.6900470792,35.0347205255,100
                135.6900015064,35.0348902042,100
                135.6899743357,35.0350786642,100
                135.6899336751,35.0351144767,100
                135.6896607921,35.0351211742,100
                135.6893188778,35.0352053031,100
                135.6891500833,35.0351145858,100
                135.6889456222,35.0350242001,100
                135.6887615867,35.034961472,100
                135.6885397469,35.0349099158,100
                135.6883676824,35.0347955258,100
                135.6883091216,35.0347255137,100
                135.6880263553,35.0345452744,100
                135.6878710599,35.0344912109,100
                135.6877634917,35.0344795256,100
                135.687643465,35.0344902038,100
                135.6875328161,35.0345336527,100
                135.6874659659,35.0345946801,100
                135.687384395,35.0347091932,100
                135.6873461279,35.0348024778,100
                135.6872658724,35.0349259382,100
                135.6870489775,35.035200107,100
                135.6869181833,35.0352885053,100
                135.6868388476,35.0353726,100
                135.6865272544,35.0359122372,100
                135.6863520922,35.0360652401,100
                135.6862175363,35.0361682062,100
                135.6858061011,35.0363088359,100
                135.6856396885,35.0363505194,100
                135.6855340918,35.0363542594,100
                135.6851632784,35.0362627314,100
                135.6850754853,35.0362630669,100
                135.6849960964,35.0362932139,100
                135.6848826507,35.0363673583,100
                135.6845083468,35.0367826002,100
                135.6843955842,35.036857945,100
                135.684204386,35.0368828724,100
                135.6839436662,35.0368612789,100
                135.6833029104,35.0369441937,100
                135.6830954549,35.0370102767,100
                135.6829284637,35.0370750552,100
                135.682859542,35.037271223,100
                135.68282275,35.0373192978,100
                135.682706668,35.0374104082,100
                135.6826720863,35.0374848284,100
                135.6826732246,35.0377044188,100
                135.68261361,35.037973782,100
                135.6825561698,35.0385264036,100
                135.6825999982,35.0390380904,100
                135.6824618723,35.0391158326,100
                135.6822569882,35.0394122123,100
                135.681848827,35.0396502402,100
                135.6818038868,35.0397117451,100
                135.6816630061,35.0400473781,100
                135.6816283337,35.0401055289,100
                135.6815477385,35.0401705321,100
                135.6811831031,35.0403408522,100
                135.6809556191,35.0403800468,100
                135.6807256267,35.0404647988,100
                135.6804773699,35.0405946463,100
                135.6804253292,35.0406107069,100
                135.6801819265,35.0406205606,100
                135.6799426561,35.0407673328,100
                135.6798964932,35.0408575669,100
                135.6797810697,35.0409486757,100
                135.6794823902,35.0410133854,100
                135.6792232557,35.0410335483,100
                135.679169778,35.0410337589,100
              </coordinates>
            </LinearRing>
          </outerBoundaryIs>
        </Polygon>
      </Placemark>
    </Document>
  </Document>
</kml>
