<?xml version="1.0" encoding="UTF-8"?>
<kml xmlns="http://www.opengis.net/kml/2.2">
  <Document id="root_doc">
    <Document id="_8_22______disv4326">
      <name>28_22御室disv4326</name>
      <Placemark id="_8_22______disv4326.1">
        <visibility>1</visibility>
        <Polygon>
          <extrude>0</extrude>
          <outerBoundaryIs>
            <LinearRing>
              <coordinates>
                135.7129368204,35.0198340156,100
                135.7127433646,35.0201664687,100
                135.712704184,35.0202623677,100
                135.7125371961,35.0206712251,100
                135.7123338153,35.0211918331,100
                135.71228205,35.0213798914,100
                135.7121879277,35.0216548274,100
                135.7122409493,35.0217757343,100
                135.7123051358,35.0219856882,100
                135.7123848044,35.0224139306,100
                135.7124206775,35.0228874254,100
                135.7123015332,35.0229838394,100
                135.7120425808,35.0231306308,100
                135.7116643267,35.0232888288,100
                135.7115231061,35.0236757717,100
                135.7112770898,35.0241248632,100
                135.7111524243,35.0242139383,100
                135.7111238096,35.024342188,100
                135.7110782581,35.0244720177,100
                135.7110857149,35.0245069671,100
                135.7110360092,35.0246558715,100
                135.7110493333,35.0248111948,100
                135.7110724512,35.024878789,100
                135.7111811323,35.0249965889,100
                135.7113144433,35.0251172648,100
                135.711360099,35.0251773769,100
                135.7115630453,35.0254554105,100
                135.7115964091,35.0255421151,100
                135.7116132491,35.0256670213,100
                135.711594725,35.0260558746,100
                135.7115807048,35.0263504366,100
                135.7115641775,35.02666436,100
                135.7115382739,35.0268865649,100
                135.7115897265,35.0274092543,100
                135.7116265601,35.027483642,100
                135.7117626643,35.0275958726,100
                135.7117714213,35.0276567422,100
                135.711873823,35.0283680142,100
                135.7123829831,35.0280946268,100
                135.7124872034,35.0280633223,100
                135.7124838444,35.0294269198,100
                135.712486563,35.0297094091,100
                135.7129313369,35.0297092633,100
                135.7128626219,35.0300613063,100
                135.7127732095,35.0304740781,100
                135.7126929645,35.0307686248,100
                135.7124736199,35.0313469437,100
                135.7124011261,35.031455652,100
                135.7122088653,35.0314122363,100
                135.7121800798,35.0314104779,100
                135.712096211,35.0314052084,100
                135.7118293873,35.0314678895,100
                135.7117441196,35.0314835338,100
                135.7115273644,35.0314902727,100
                135.711474722,35.0314919089,100
                135.7115177595,35.0314332745,100
                135.7115244503,35.0314242053,100
                135.711623778,35.0313114066,100
                135.7116322539,35.031250366,100
                135.7115446953,35.0311371235,100
                135.7115392825,35.0311122494,100
                135.7115457629,35.0308318959,100
                135.7115899351,35.0307732648,100
                135.7116258966,35.0307055285,100
                135.7116316198,35.0306422289,100
                135.7116428125,35.0305879558,100
                135.7116432235,35.0304704148,100
                135.7115834249,35.0302781483,100
                135.7115641621,35.0302657773,100
                135.7115641411,35.0302652842,100
                135.7115629474,35.0302650003,100
                135.7115230905,35.0302395519,100
                135.7114431237,35.030239362,100
                135.7113526873,35.0302391471,100
                135.7113132753,35.0302469412,100
                135.7112399112,35.0302614861,100
                135.7109316021,35.0303986481,100
                135.7108130065,35.0305181619,100
                135.7107209998,35.0305934405,100
                135.7107082758,35.030601791,100
                135.7106476915,35.0306285503,100
                135.7105459007,35.030655492,100
                135.71054164,35.0306678071,100
                135.7105212483,35.0307266349,100
                135.7105153672,35.0307435938,100
                135.7104982756,35.0307767945,100
                135.7104793967,35.0308135834,100
                135.7103991674,35.0309603026,100
                135.7103627597,35.0311546645,100
                135.7103348783,35.0312920009,100
                135.7105514177,35.0313094195,100
                135.710722818,35.0331982538,100
                135.7098999365,35.034468342,100
                135.7097962921,35.034545212,100
                135.7096212994,35.0346348002,100
                135.7094038506,35.0347130893,100
                135.7091679062,35.0347851356,100
                135.7085877724,35.0349064323,100
                135.7083084181,35.0349585836,100
                135.7081508598,35.0350981441,100
                135.7080916045,35.0351949093,100
                135.7081167746,35.0354801987,100
                135.7081420582,35.0357333027,100
                135.7081540914,35.0360347582,100
                135.708185772,35.0363254854,100
                135.7082178935,35.0364978258,100
                135.7082694964,35.0367132442,100
                135.7082948236,35.0369555027,100
                135.7082941021,35.0371600909,100
                135.7082541929,35.0373376122,100
                135.7082208943,35.0375043734,100
                135.708201051,35.0375581314,100
                135.7082205716,35.0375958565,100
                135.7082464075,35.0376874739,100
                135.7082528071,35.0377305194,100
                135.7082460279,35.0377950851,100
                135.7082260946,35.0378811693,100
                135.7082586928,35.0379189252,100
                135.7083238893,35.0379890863,100
                135.708389105,35.0380538235,100
                135.7084084898,35.0381238747,100
                135.7084147187,35.0382153735,100
                135.7084272497,35.0383768928,100
                135.7088715013,35.0386040267,100
                135.7089564443,35.0386419083,100
                135.7091330309,35.0386745856,100
                135.7094077596,35.0387236958,100
                135.7096301803,35.0387511305,100
                135.7100486961,35.0388490371,100
                135.710505889,35.0391138758,100
                135.7107355528,35.0389475815,100
                135.7108142263,35.038904667,100
                135.7108854333,35.0388785678,100
                135.7109453006,35.0388565956,100
                135.7110303929,35.0388513757,100
                135.711108955,35.0388462095,100
                135.7111874577,35.0388517491,100
                135.7113377886,35.0389113353,100
                135.7113902641,35.0389216014,100
                135.7114021505,35.038956913,100
                135.7114550668,35.0390623268,100
                135.7115657385,35.0392294308,100
                135.7116763363,35.0394180857,100
                135.7113669674,35.0399233677,100
                135.7110971588,35.0403479643,100
                135.7116333797,35.0404784005,100
                135.7119135326,35.040845074,100
                135.7120565459,35.0411253592,100
                135.712115045,35.0412385329,100
                135.7122323481,35.0413841014,100
                135.7122973803,35.0415027134,100
                135.7123625814,35.0415728017,100
                135.7124147577,35.0416267319,100
                135.7125063646,35.041632371,100
                135.7125653356,35.0416163834,100
                135.7126114481,35.0415303599,100
                135.7126511593,35.0414012211,100
                135.712692597,35.0412497605,100
                135.7127888874,35.0409484198,100
                135.7129274277,35.0406686596,100
                135.7129836271,35.0405749139,100
                135.7130855409,35.0404050033,100
                135.713164822,35.0402112343,100
                135.713250225,35.0401414316,100
                135.7133424955,35.0399800196,100
                135.7134017322,35.0398993099,100
                135.7134805639,35.0398349138,100
                135.7135660224,35.0397489128,100
                135.7136187446,35.0396574117,100
                135.7136715018,35.0395497829,100
                135.7137506873,35.0393829878,100
                135.7137887009,35.0392798315,100
                135.7138102026,35.0392214977,100
                135.7138433847,35.0390976245,100
                135.7138700345,35.0389683835,100
                135.7138769217,35.0388714923,100
                135.7138771268,35.0388121934,100
                135.7138577529,35.0387313686,100
                135.7141919109,35.0387106044,100
                135.7142062929,35.0383335016,100
                135.7138131286,35.0383756781,100
                135.7135788584,35.0379333382,100
                135.7142414457,35.037638612,100
                135.7143651633,35.0378544087,100
                135.7144758903,35.0380377789,100
                135.7144926,35.0380528895,100
                135.7145477236,35.0381025996,100
                135.7146195761,35.0381620678,100
                135.7147438136,35.0382270114,100
                135.7147958814,35.0383186886,100
                135.7148871813,35.0384374319,100
                135.714965101,35.0386369933,100
                135.7150818806,35.0389658786,100
                135.7151402799,35.0391276459,100
                135.7151793249,35.0392031646,100
                135.7152250128,35.0392517254,100
                135.7152838018,35.0393003873,100
                135.7153426858,35.0393220754,100
                135.715434223,35.0393653916,100
                135.7154799482,35.0394031766,100
                135.7155256375,35.0394518082,100
                135.7155647737,35.0395003536,100
                135.7156366838,35.0395436226,100
                135.7157151988,35.0395707798,100
                135.715819973,35.0395818002,100
                135.7159313321,35.0395766378,100
                135.7160194799,35.0395607865,100
                135.7162044986,35.0395135397,100
                135.7165133475,35.0394880624,100
                135.7168015036,35.0394979598,100
                135.7168560571,35.0395082988,100
                135.7168528474,35.0394765992,100
                135.7168321741,35.0392935114,100
                135.7168334903,35.0391591404,100
                135.7168335305,35.0390846283,100
                135.716833592,35.0389353233,100
                135.7168519727,35.038837684,100
                135.7168509218,35.0388382449,100
                135.716866174,35.0387539794,100
                135.7168665237,35.0387520787,100
                135.7168850934,35.0386990905,100
                135.7169493435,35.038515778,100
                135.7170116837,35.0384152836,100
                135.717011899,35.0384149314,100
                135.7170588293,35.0384006742,100
                135.7176515663,35.0382034483,100
                135.7178580134,35.0381361071,100
                135.7179978871,35.0380798784,100
                135.7182936685,35.0378796368,100
                135.7184198737,35.03781415,100
                135.7186344367,35.0377328114,100
                135.7187758979,35.0376124264,100
                135.7188945597,35.0375486834,100
                135.7191617656,35.0374916209,100
                135.7193817151,35.0374311392,100
                135.7196118395,35.0374065284,100
                135.7197367615,35.0366636709,100
                135.7197369798,35.0366624032,100
                135.7199000992,35.0365869299,100
                135.7199013421,35.0365863693,100
                135.7200222854,35.0365758017,100
                135.7200436979,35.0365802879,100
                135.7200755749,35.0365857842,100
                135.7203914384,35.0364007959,100
                135.7205097231,35.0362516226,100
                135.7207595806,35.0361765592,100
                135.7208858241,35.0361679754,100
                135.7211583304,35.0361241611,100
                135.7211796418,35.0361206884,100
                135.721182791,35.0361199922,100
                135.7214037748,35.0360686649,100
                135.7215537943,35.0360173147,100
                135.7218383409,35.0358429563,100
                135.7219727385,35.0357329762,100
                135.7219939464,35.0357154879,100
                135.7219963871,35.035569006,100
                135.7219962644,35.0355673155,100
                135.7219767237,35.0352984522,100
                135.7219256798,35.0350213478,100
                135.7219253225,35.0350193745,100
                135.7217653135,35.0345406002,100
                135.7217647812,35.0345397539,100
                135.7216881233,35.0344195713,100
                135.7214971964,35.0338420569,100
                135.7213852828,35.0333914923,100
                135.7214228177,35.0330893775,100
                135.7220620015,35.0329992157,100
                135.7220159107,35.0317450921,100
                135.7219738153,35.0308372657,100
                135.7219498718,35.0304459205,100
                135.7219908938,35.029863303,100
                135.7220218791,35.0294451799,100
                135.7220196232,35.0293203791,100
                135.7220403249,35.0292554924,100
                135.7220520885,35.0289269081,100
                135.7220581832,35.0287564899,100
                135.7220661874,35.0285908645,100
                135.7221060961,35.0284602437,100
                135.7220840159,35.028228137,100
                135.7220698243,35.0279733685,100
                135.7221590611,35.0278327881,100
                135.7225777834,35.0278290261,100
                135.7231231194,35.027816256,100
                135.7232263729,35.0277716282,100
                135.723226737,35.0277715594,100
                135.7232703578,35.0277588412,100
                135.7233230405,35.0277313535,100
                135.7233509178,35.0276772574,100
                135.7233545418,35.0276305018,100
                135.7233192369,35.0276077445,100
                135.7233189814,35.0276075321,100
                135.7232587845,35.0275778855,100
                135.7230362066,35.0274683567,100
                135.7230342863,35.0274674036,100
                135.7229469929,35.0274240656,100
                135.7229470042,35.0274206851,100
                135.7229470085,35.0274194172,100
                135.7229489212,35.0274041396,100
                135.7229524847,35.0273754829,100
                135.723064201,35.0272223473,100
                135.7231360109,35.0271239126,100
                135.7231362266,35.0271236308,100
                135.7232917542,35.0270320778,100
                135.7233671676,35.0270045708,100
                135.723378375,35.0270004419,100
                135.7233775796,35.0267457741,100
                135.723373749,35.0266048394,100
                135.7233755963,35.0265580797,100
                135.7233528591,35.0265085884,100
                135.7232319005,35.0263503434,100
                135.7231420173,35.026276401,100
                135.7230815252,35.0261882287,100
                135.7230592231,35.0260606342,100
                135.7230485192,35.0259460237,100
                135.7230622212,35.0257849877,100
                135.7231019839,35.0257354264,100
                135.7232460195,35.0256491996,100
                135.7233776921,35.0255539992,100
                135.7234579342,35.0254774158,100
                135.7237089589,35.0253224828,100
                135.7237151031,35.0251426952,100
                135.7235943831,35.0250863604,100
                135.7235909451,35.0250199399,100
                135.7234129063,35.0249993535,100
                135.7234105393,35.0249919356,100
                135.7232610827,35.0244126496,100
                135.7232595723,35.0243241358,100
                135.7231449762,35.0240756882,100
                135.7229597045,35.0235472707,100
                135.7227004157,35.0233208184,100
                135.7227977683,35.0231258153,100
                135.7228229151,35.0230752352,100
                135.7226009467,35.0225515228,100
                135.7224835188,35.0222744746,100
                135.7223907443,35.022075305,100
                135.7223031795,35.0219620688,100
                135.7219691414,35.0217598135,100
                135.7219367411,35.0217585423,100
                135.7218571677,35.0217196249,100
                135.7217906175,35.0216458761,100
                135.7217048385,35.0213777039,100
                135.7215188785,35.0209940118,100
                135.7209365161,35.0209737345,100
                135.7202210686,35.0209861083,100
                135.7197752102,35.0210051546,100
                135.7194871014,35.0210446356,100
                135.7188577934,35.0210838916,100
                135.7181810812,35.0211031037,100
                135.7179396138,35.0210849374,100
                135.7177640014,35.0210359357,100
                135.7177186687,35.0210299858,100
                135.7177102186,35.0210288393,100
                135.7175540919,35.0210083346,100
                135.7172138677,35.0209919104,100
                135.7169663198,35.0209997162,100
                135.7168571744,35.0210031957,100
                135.7167439051,35.0206363582,100
                135.716400926,35.0205935158,100
                135.7161670314,35.0206143809,100
                135.7158109801,35.0204830487,100
                135.7157444299,35.0204362707,100
                135.7156418011,35.0202692597,100
                135.7155872731,35.0201680701,100
                135.7155461405,35.0200301476,100
                135.7155309931,35.0199793343,100
                135.7155057456,35.0192060533,100
                135.7154777498,35.0183489562,100
                135.7142867948,35.0181753132,100
                135.7140917081,35.0181407696,100
                135.7136876432,35.0186892951,100
                135.7139305198,35.0185885908,100
                135.7139559348,35.0187900029,100
                135.7139540658,35.0188289448,100
                135.7135279601,35.0189373172,100
                135.7131611592,35.0195071977,100
                135.7129368204,35.0198340156,100
              </coordinates>
            </LinearRing>
          </outerBoundaryIs>
        </Polygon>
      </Placemark>
    </Document>
  </Document>
</kml>
