<?xml version="1.0" encoding="UTF-8"?>
<kml xmlns="http://www.opengis.net/kml/2.2">
  <Document id="root_doc">
    <Document id="_8_21_________disv4326">
      <name>28_21宇多野disv4326</name>
      <Placemark id="_8_21_________disv4326.1">
        <visibility>1</visibility>
        <Polygon>
          <extrude>0</extrude>
          <outerBoundaryIs>
            <LinearRing>
              <coordinates>
                135.7012757212,35.0217996147,100
                135.7009244891,35.021747204,100
                135.7008675617,35.0220877875,100
                135.7005690531,35.0219862763,100
                135.7004893708,35.0219210769,100
                135.7003060734,35.0218324542,100
                135.7002190176,35.0218051969,100
                135.7000500836,35.0217522443,100
                135.6997818267,35.0216902442,100
                135.6995822266,35.0216819363,100
                135.6993792827,35.0216991137,100
                135.6993894913,35.0223317785,100
                135.6990700129,35.0223762057,100
                135.6986922947,35.0224549275,100
                135.6987172629,35.0225972496,100
                135.698229131,35.0226682318,100
                135.6982383661,35.0228169245,100
                135.6983343396,35.0234184611,100
                135.6982211119,35.0235234687,100
                135.6976626782,35.0236592081,100
                135.6976817435,35.0239620513,100
                135.6976802947,35.0239635217,100
                135.6976864896,35.0240106753,100
                135.697692428,35.024071212,100
                135.6976539011,35.0241576677,100
                135.6976535133,35.0241585377,100
                135.6976522852,35.0241607471,100
                135.6976450598,35.0241700788,100
                135.6976408647,35.0241751248,100
                135.697640473,35.0241756168,100
                135.6976404572,35.0241757367,100
                135.6975545575,35.0243105801,100
                135.6974094386,35.0244435578,100
                135.6974007247,35.0244593144,100
                135.6973105701,35.0245449499,100
                135.6971687073,35.0245395793,100
                135.6969492213,35.0245240346,100
                135.6967091963,35.0245232978,100
                135.6961880939,35.0245684128,100
                135.6963510522,35.024763547,100
                135.696415776,35.0248911793,100
                135.6964195145,35.025038661,100
                135.6964296601,35.025096083,100
                135.6964584854,35.0251329176,100
                135.6966406418,35.0252535169,100
                135.6966776562,35.0252743147,100
                135.6964861813,35.0254573688,100
                135.6962740564,35.0256510061,100
                135.6962412158,35.0256229652,100
                135.6961500566,35.0255704827,100
                135.6960072274,35.0254882914,100
                135.695875381,35.0254638778,100
                135.6958417149,35.0253190683,100
                135.6955598335,35.0252734333,100
                135.6953299615,35.0252361678,100
                135.6954967186,35.0245388731,100
                135.6953623904,35.0244048688,100
                135.6952612537,35.0243996162,100
                135.6949631015,35.0244776786,100
                135.6949666584,35.0245344509,100
                135.6951424572,35.0246485582,100
                135.69517216,35.0247480734,100
                135.6950424657,35.0250319897,100
                135.694996594,35.0250725104,100
                135.6948745352,35.0250698819,100
                135.694701087,35.0250953651,100
                135.6945946245,35.0250251658,100
                135.6945188009,35.0248378541,100
                135.6944146378,35.0245531428,100
                135.6943278042,35.0245926452,100
                135.6942877463,35.0245949394,100
                135.6942305389,35.0244555639,100
                135.6941576288,35.0244350987,100
                135.6942153842,35.0246169429,100
                135.694179047,35.0246264998,100
                135.69383495,35.0251601008,100
                135.6933260262,35.0258049809,100
                135.6925932967,35.0268293835,100
                135.6923416021,35.0268448061,100
                135.6921700416,35.0268733888,100
                135.6921295332,35.0269903349,100
                135.6921818945,35.0270747662,100
                135.6920695629,35.0273361856,100
                135.6921483674,35.0275325903,100
                135.692179439,35.0277289456,100
                135.6921212968,35.0278787359,100
                135.6919664154,35.0278256658,100
                135.691816943,35.0280760744,100
                135.6919306586,35.0281244631,100
                135.6919074567,35.0281468698,100
                135.69179549,35.028316665,100
                135.6916511532,35.0286303285,100
                135.6915074052,35.028786943,100
                135.6913327822,35.0286949482,100
                135.6911304545,35.0286618985,100
                135.6910964296,35.0286536435,100
                135.6908079787,35.0287195348,100
                135.6906570199,35.028823945,100
                135.6905013311,35.0289846833,100
                135.6903853414,35.0292268632,100
                135.6902149702,35.0295171465,100
                135.6901225281,35.0297300189,100
                135.6900390207,35.0299179833,100
                135.6900381211,35.0301561599,100
                135.6900370775,35.0304324368,100
                135.6900821756,35.0307564377,100
                135.6901381225,35.0312805455,100
                135.6901953062,35.0314712629,100
                135.6902408732,35.0316713872,100
                135.6902868218,35.0317762972,100
                135.690471344,35.031986353,100
                135.6905750539,35.0321295096,100
                135.6907367957,35.032244292,100
                135.6908520294,35.0323969863,100
                135.6909788505,35.0325592868,100
                135.6910588406,35.0328452774,100
                135.6911237945,35.033196654,100
                135.6912450449,35.0332012586,100
                135.6914789651,35.0332102326,100
                135.6918678512,35.0333158715,100
                135.6922812435,35.0334281918,100
                135.6924427031,35.0333457799,100
                135.6926237294,35.0333316597,100
                135.6930434784,35.0332784927,100
                135.6933480215,35.0331260148,100
                135.6936525715,35.0330812876,100
                135.6937107984,35.0330407282,100
                135.6938452319,35.0329152153,100
                135.694072529,35.0325923919,100
                135.6943595757,35.0324123304,100
                135.6944871207,35.032284687,100
                135.6946037195,35.0321067323,100
                135.6947117498,35.0318719217,100
                135.6947935799,35.0316721172,100
                135.6948402559,35.0315769474,100
                135.6948292085,35.031434026,100
                135.6946686136,35.0310144479,100
                135.6946692865,35.0308333839,100
                135.6947044548,35.0307191713,100
                135.6947306222,35.0299094786,100
                135.694708313,35.0296807495,100
                135.6946626967,35.029490133,100
                135.6947566509,35.0291378869,100
                135.6948281256,35.0290394695,100
                135.6950019654,35.0285764305,100
                135.6953903986,35.0275061514,100
                135.6954375075,35.0276970527,100
                135.6958089979,35.0281060995,100
                135.6958794772,35.0282591698,100
                135.6959957556,35.028617154,100
                135.6960376136,35.0288225506,100
                135.6960418265,35.0291072945,100
                135.6960164333,35.0292471673,100
                135.6958962385,35.0295197686,100
                135.6958602306,35.0296020778,100
                135.6958075517,35.0296769501,100
                135.6958552204,35.0299493359,100
                135.6958793275,35.0300870791,100
                135.6959759947,35.0303767013,100
                135.6960490069,35.0305053408,100
                135.6965045509,35.0311077052,100
                135.6966827865,35.0313433734,100
                135.697112269,35.0310967535,100
                135.697471049,35.0311738458,100
                135.6976206032,35.0314504996,100
                135.6979056939,35.0315191672,100
                135.6980603664,35.031556384,100
                135.698258063,35.0313377773,100
                135.6982572242,35.031566379,100
                135.6980338666,35.0316492106,100
                135.6980020578,35.0316610338,100
                135.6978980899,35.0315845744,100
                135.6975271297,35.0316693637,100
                135.6974562431,35.0320502636,100
                135.6977109561,35.0320794893,100
                135.6978505065,35.0319274323,100
                135.6980592471,35.0318612565,100
                135.6981345954,35.0318382025,100
                135.6981520161,35.0318328927,100
                135.6985469062,35.0315385027,100
                135.6986976869,35.0314817592,100
                135.6989178286,35.0314632181,100
                135.6989055901,35.0316441835,100
                135.6988010947,35.0317106185,100
                135.6989726303,35.0323112864,100
                135.6989834085,35.0325304087,100
                135.6989641375,35.0327188219,100
                135.6989473773,35.0328828034,100
                135.6990368676,35.0329264071,100
                135.6990504362,35.0329859514,100
                135.6988709728,35.0337720288,100
                135.6988659926,35.0338001166,100
                135.6988704314,35.0338093529,100
                135.6989201436,35.03391251,100
                135.6987899591,35.0339975442,100
                135.6987914014,35.0340006471,100
                135.6988652794,35.0342044316,100
                135.6990467559,35.034541448,100
                135.6990417784,35.0346377079,100
                135.6988625231,35.034963761,100
                135.6988964971,35.0350329337,100
                135.699144522,35.0351384116,100
                135.6992965752,35.0352030864,100
                135.6993571663,35.0352473224,100
                135.6993487515,35.0353413207,100
                135.6991477953,35.0354602673,100
                135.6991008419,35.0355269863,100
                135.6991442811,35.0356956238,100
                135.699127438,35.035752557,100
                135.6990816802,35.0357848395,100
                135.6989225339,35.0357803612,100
                135.6988110988,35.0358415677,100
                135.698809384,35.0359062852,100
                135.6988658567,35.0360755888,100
                135.6988667594,35.0361155227,100
                135.6987070411,35.0362551354,100
                135.6986125774,35.0362830721,100
                135.6983147359,35.0362476135,100
                135.6981874583,35.0362970893,100
                135.6981385695,35.0363884523,100
                135.6982424285,35.0368187325,100
                135.698132691,35.037066221,100
                135.6981435563,35.0371742821,100
                135.6982350911,35.0373568426,100
                135.6982775807,35.0374760395,100
                135.6982760335,35.0375711812,100
                135.6982356594,35.0377120753,100
                135.6981527486,35.0378520176,100
                135.6978345424,35.0381802598,100
                135.6977163129,35.0384301206,100
                135.6976871781,35.0386171007,100
                135.6977036878,35.0388799031,100
                135.6977509318,35.0391150327,100
                135.6978306117,35.0392560136,100
                135.6978851139,35.0393211519,100
                135.6980636206,35.0394842103,100
                135.6980901529,35.0395697738,100
                135.6981046127,35.0397024924,100
                135.6981561663,35.0398481213,100
                135.6978279601,35.0399816803,100
                135.6975955285,35.0400405418,100
                135.6974186958,35.0400636947,100
                135.6971415992,35.0400591313,100
                135.69689838,35.040104089,100
                135.6967887058,35.0401151532,100
                135.6967083889,35.0401007966,100
                135.6961794231,35.0399424209,100
                135.6959981291,35.0399025985,100
                135.6958095492,35.0399055762,100
                135.6955485198,35.0399555572,100
                135.6952040645,35.0401780828,100
                135.6947839797,35.0404904221,100
                135.6946519234,35.0405495296,100
                135.694372869,35.0405634747,100
                135.6940646052,35.0406311504,100
                135.6937749545,35.0407195078,100
                135.6935513971,35.0408476117,100
                135.693268741,35.0410862748,100
                135.6930563408,35.0411264426,100
                135.6929931193,35.0411610735,100
                135.6928318585,35.0411796088,100
                135.6926855919,35.0411964223,100
                135.6925923887,35.0413359112,100
                135.6925258895,35.0414511708,100
                135.6924680089,35.0415515214,100
                135.6924210153,35.0417292284,100
                135.6923429374,35.041865797,100
                135.6924791453,35.0427074534,100
                135.6925088785,35.0430124033,100
                135.6923538601,35.0431644814,100
                135.6923222045,35.0433675801,100
                135.6921824313,35.043570475,100
                135.6922281436,35.0437357397,100
                135.692212089,35.043900848,100
                135.6922734506,35.0440153054,100
                135.6921332745,35.0443198233,100
                135.6921018064,35.0444721457,100
                135.6920081927,35.0447260047,100
                135.6921157908,35.0448660037,100
                135.6923313791,35.0450443784,100
                135.6923927965,35.0451461606,100
                135.6925159345,35.0454535335,100
                135.6928130733,35.0453537888,100
                135.6936177258,35.0448698154,100
                135.6936800587,35.0448560987,100
                135.6941574643,35.0449864684,100
                135.694256994,35.0450001714,100
                135.6943460555,35.0449784937,100
                135.6947283776,35.0447765604,100
                135.6948988757,35.0447285371,100
                135.6950558445,35.0447088613,100
                135.6951773135,35.0447184635,100
                135.6954079667,35.0448813767,100
                135.6957971864,35.0455638748,100
                135.6958371095,35.0457129974,100
                135.6957631397,35.0459996591,100
                135.6957367951,35.0462141829,100
                135.6957067977,35.0462496729,100
                135.6956042002,35.0463016714,100
                135.6953493988,35.0464868859,100
                135.6952912604,35.0465185724,100
                135.6950789574,35.0465691673,100
                135.6949620553,35.0466391584,100
                135.6948878742,35.0467486261,100
                135.6948094356,35.0468331509,100
                135.6945715685,35.0469834755,100
                135.6942949274,35.0471968737,100
                135.6937664728,35.0475149218,100
                135.6934159116,35.0477593996,100
                135.6932841801,35.0478790726,100
                135.6930515048,35.0481125809,100
                135.6928938215,35.0482609921,100
                135.6926685073,35.0484602195,100
                135.6925208515,35.0486885193,100
                135.6924428452,35.0488643174,100
                135.692240813,35.0494798944,100
                135.6921322986,35.0497244919,100
                135.6921056613,35.0498877432,100
                135.6920821397,35.0501236116,100
                135.6919372926,35.050517913,100
                135.6918651382,35.0506278763,100
                135.6917088741,35.05078467,100
                135.6915908488,35.051052835,100
                135.6914331935,35.0513492811,100
                135.6912502518,35.0516676349,100
                135.6909493405,35.0521225961,100
                135.6908736648,35.052355796,100
                135.6907340383,35.0526971477,100
                135.6906942721,35.0528430401,100
                135.6905308217,35.0530831987,100
                135.6901262404,35.0535252865,100
                135.6899204049,35.0536513865,100
                135.6898191159,35.0536937344,100
                135.6897074375,35.0537198579,100
                135.689300797,35.0537359986,100
                135.6891161031,35.0536936195,100
                135.6884222263,35.0537352168,100
                135.6879873773,35.0538791049,100
                135.6878715507,35.0538979622,100
                135.6875144311,35.0539386623,100
                135.6875178916,35.0540946659,100
                135.6875650792,35.0542104291,100
                135.6877106506,35.0543908153,100
                135.687759139,35.0544965107,100
                135.6877562476,35.0547531377,100
                135.6877976865,35.0549630459,100
                135.687763678,35.0551696606,100
                135.6879157435,35.0554176034,100
                135.6882409861,35.0560280553,100
                135.6884840275,35.0562610885,100
                135.6885296867,35.0563048711,100
                135.6885465801,35.0563971025,100
                135.6885023959,35.0567710249,100
                135.6885111713,35.0573207981,100
                135.6884401798,35.0575399945,100
                135.6884821911,35.0577233533,100
                135.6885839007,35.0579071462,100
                135.6886756347,35.0580104867,100
                135.6887014386,35.0581016146,100
                135.6886519054,35.058360094,100
                135.6885791709,35.058501535,100
                135.6884126829,35.0586893573,100
                135.6882405987,35.0591424623,100
                135.6880052378,35.0595885025,100
                135.6880015604,35.0599637967,100
                135.6880669284,35.0604399788,100
                135.6880681759,35.0606961942,100
                135.6878982652,35.061281003,100
                135.6879478447,35.061894408,100
                135.6880941244,35.0626625118,100
                135.6882224009,35.0636735424,100
                135.688490777,35.064735711,100
                135.6891328924,35.0659585667,100
                135.6896422835,35.0658244415,100
                135.6897591942,35.0656173327,100
                135.6898582406,35.0651136789,100
                135.6901119634,35.0648455072,100
                135.6901762514,35.0645306506,100
                135.6903625647,35.064500843,100
                135.6905090195,35.064163378,100
                135.690749648,35.064589654,100
                135.6910415519,35.0648427393,100
                135.6915766438,35.0649175578,100
                135.691807217,35.0649639931,100
                135.6924889961,35.0653170861,100
                135.6926736432,35.0655053142,100
                135.6946357392,35.0663956863,100
                135.6948981801,35.066176333,100
                135.6952549399,35.0661346216,100
                135.6955548101,35.0662350302,100
                135.6957269197,35.0665791481,100
                135.6958121127,35.0671015815,100
                135.6958071871,35.0677121744,100
                135.6960612464,35.0684841326,100
                135.6964589946,35.0694177292,100
                135.6966803533,35.0697256988,100
                135.696828131,35.0696306397,100
                135.6972973504,35.0695614562,100
                135.697641,35.0696347839,100
                135.6979600097,35.0697171339,100
                135.6982438219,35.0698965145,100
                135.6984445291,35.0699386356,100
                135.6987078986,35.0698926682,100
                135.6988618255,35.069919319,100
                135.6990373592,35.0698759501,100
                135.6992368433,35.0696950244,100
                135.6995187161,35.0695138796,100
                135.69988879,35.0693933093,100
                135.7003580236,35.0693309452,100
                135.7004727908,35.0692246719,100
                135.7005572462,35.0691027604,100
                135.7006168917,35.0689605739,100
                135.7005667049,35.0688210751,100
                135.700513456,35.0686230426,100
                135.7005562013,35.068404331,100
                135.7009447894,35.0681552037,100
                135.701231982,35.0679448425,100
                135.7014634034,35.0675813041,100
                135.7015727029,35.0674818485,100
                135.7018413886,35.0674020829,100
                135.7019972532,35.0672821059,100
                135.7020864215,35.0670160404,100
                135.702183847,35.0667521079,100
                135.7022822258,35.0666638934,100
                135.702674897,35.0666626043,100
                135.7029111222,35.0666753679,100
                135.7030813345,35.0666681088,100
                135.703170824,35.0664604275,100
                135.7031667238,35.0662126557,100
                135.7032563642,35.0660343429,100
                135.7034725762,35.0659007091,100
                135.7036755039,35.0658527521,100
                135.7037131898,35.0657106516,100
                135.7036986193,35.0655575786,100
                135.7037030398,35.0653637743,100
                135.7036318093,35.0648931475,100
                135.7035314334,35.0646140106,100
                135.7035386486,35.0644292277,100
                135.7035824729,35.0639063434,100
                135.7035178554,35.0636406751,100
                135.7040490482,35.0633618171,100
                135.7042898432,35.0632078192,100
                135.7045329933,35.0629817084,100
                135.7048387211,35.0626518003,100
                135.7051414991,35.0622834312,100
                135.7054662089,35.0619128614,100
                135.7056995817,35.0619053311,100
                135.705996364,35.0619448585,100
                135.7066940503,35.0619854287,100
                135.706987396,35.0619010644,100
                135.7071325973,35.0618419754,100
                135.7073265737,35.0616633498,100
                135.7077032249,35.0612496554,100
                135.7081044919,35.0608202419,100
                135.7086353038,35.0604759334,100
                135.7090790701,35.0602829031,100
                135.7093211563,35.0603653918,100
                135.7095580102,35.0604930833,100
                135.7098551162,35.0605912656,100
                135.7100561391,35.0606963998,100
                135.7101424869,35.0609191571,100
                135.7101847218,35.0611060326,100
                135.7103364634,35.0612385155,100
                135.7105573281,35.0613653886,100
                135.710663373,35.0611618928,100
                135.7108594931,35.060845223,100
                135.7110048991,35.0602919366,100
                135.7108949032,35.0597463545,100
                135.7105264658,35.058624198,100
                135.7100238326,35.057579401,100
                135.7098022368,35.0572260988,100
                135.7093160548,35.0567001077,100
                135.7092190715,35.0565379614,100
                135.7092044105,35.0563598144,100
                135.7092150904,35.0563125829,100
                135.7092688355,35.0560752297,100
                135.7092269564,35.0559468094,100
                135.7090118146,35.0557740277,100
                135.7089641878,35.055593689,100
                135.7089072602,35.0552148626,100
                135.7088538428,35.0549826751,100
                135.7089979024,35.0546910267,100
                135.7091149704,35.05449425,100
                135.7090675101,35.0543456048,100
                135.7090009808,35.0542307181,100
                135.7089311239,35.0540031397,100
                135.7088689845,35.0536762771,100
                135.7088757918,35.0534032444,100
                135.7090091901,35.0531771392,100
                135.7091816696,35.0530703634,100
                135.7096020004,35.0530889028,100
                135.7099174988,35.0530200066,100
                135.7100325405,35.0529585893,100
                135.7101989613,35.052745807,100
                135.7104282618,35.0524787358,100
                135.7105924502,35.0523651785,100
                135.7110263175,35.0523476216,100
                135.7117376407,35.0523379774,100
                135.7119026447,35.0523779495,100
                135.7121520427,35.0527966631,100
                135.7123482451,35.0530213665,100
                135.7126563333,35.0531127364,100
                135.71285925,35.0532165335,100
                135.712924496,35.0532950739,100
                135.7130543867,35.0534151079,100
                135.7132294275,35.0534756675,100
                135.7134406994,35.0534731396,100
                135.7136237182,35.0534123704,100
                135.7138610261,35.0534037762,100
                135.7140270799,35.0534255078,100
                135.7141499185,35.0534618566,100
                135.7143000631,35.0534218554,100
                135.7141623472,35.0531613726,100
                135.7141070166,35.0530883507,100
                135.7140447982,35.0529258011,100
                135.7140572771,35.0527717371,100
                135.7140321583,35.0525365247,100
                135.713988471,35.0523778208,100
                135.7138221531,35.0521164983,100
                135.7137967367,35.0520177005,100
                135.7138189566,35.0518821822,100
                135.7139045381,35.0517137131,100
                135.7139258164,35.0516343223,100
                135.7139438981,35.0514078737,100
                135.7139788105,35.0512357636,100
                135.7139557181,35.050997105,100
                135.7139878937,35.0508244244,100
                135.7140981025,35.0504800176,100
                135.7142153822,35.0500775964,100
                135.7142209748,35.0500078868,100
                135.7141862108,35.049937872,100
                135.7141356606,35.0497764054,100
                135.7140683372,35.0496549019,100
                135.7140083648,35.0495124997,100
                135.713980064,35.0493936235,100
                135.7139587311,35.0492032805,100
                135.7139319883,35.0491107481,100
                135.7139072772,35.0489255382,100
                135.7137676856,35.0484903962,100
                135.7137238864,35.0483147902,100
                135.7136919094,35.048076181,100
                135.7136589516,35.0477123502,100
                135.7136836181,35.0475442301,100
                135.713847594,35.0472528407,100
                135.7138716843,35.0471830345,100
                135.7138659507,35.0469768828,100
                135.7138303566,35.0468872165,100
                135.7138617407,35.04678813,100
                135.7138345437,35.0467220053,100
                135.7137808006,35.0465869416,100
                135.713673638,35.0466201414,100
                135.7136297697,35.046607995,100
                135.7135146468,35.046497506,100
                135.7133376538,35.0464356059,100
                135.7132091086,35.0463000835,100
                135.7131067981,35.0461996954,100
                135.7130803469,35.0461282211,100
                135.7130909049,35.0460535231,100
                135.7130403647,35.0458342367,100
                135.7135229754,35.0456536057,100
                135.7131138873,35.0455731284,100
                135.7129846445,35.0455345814,100
                135.7128397399,35.0454683197,100
                135.712705173,35.0453909555,100
                135.7126507879,35.0452874403,100
                135.7126034952,35.0451142204,100
                135.7125085912,35.0448603907,100
                135.7124363268,35.0445916112,100
                135.712380049,35.0444481599,100
                135.7123459457,35.0442260234,100
                135.7123464141,35.0439130472,100
                135.7122628239,35.0437498116,100
                135.7121356077,35.043905083,100
                135.7120909994,35.043933641,100
                135.7119272106,35.0439797338,100
                135.7118537914,35.0440251258,100
                135.7118104535,35.044082844,100
                135.7116863982,35.0440986063,100
                135.7117357025,35.0441597839,100
                135.711757859,35.0442522365,100
                135.7117658276,35.0443862771,100
                135.7118015618,35.0446128545,100
                135.7117841176,35.0447836691,100
                135.7117360881,35.0448599676,100
                135.7116054545,35.0452593277,100
                135.7115857308,35.0452731543,100
                135.7114738468,35.045131895,100
                135.7114768982,35.0450602787,100
                135.7115593124,35.044792572,100
                135.7114532084,35.044602731,100
                135.7113916342,35.0445356089,100
                135.7113526571,35.0444292422,100
                135.7113222388,35.0442928236,100
                135.7113087057,35.0441402475,100
                135.7113205299,35.0440036471,100
                135.7112597306,35.0437946166,100
                135.7112113999,35.0437242163,100
                135.7111410529,35.043674539,100
                135.7111221158,35.0436166026,100
                135.7111309623,35.0434434447,100
                135.7112016124,35.0432223311,100
                135.7111868595,35.0431373612,100
                135.7111220846,35.0430675556,100
                135.7110569054,35.0429178135,100
                135.7110290952,35.0424827209,100
                135.7109439721,35.0423611025,100
                135.7109041789,35.0422007868,100
                135.7108620458,35.0421152588,100
                135.71078293,35.0420329533,100
                135.7106811542,35.0419719326,100
                135.710788786,35.0417418927,100
                135.7109114981,35.0416990131,100
                135.7110353361,35.0417200836,100
                135.7113627933,35.0418435457,100
                135.7116861838,35.0419547429,100
                135.7118461954,35.0420023784,100
                135.7119666039,35.0420246371,100
                135.7120111871,35.0420028406,100
                135.7120436378,35.0419243217,100
                135.7121826348,35.0419202142,100
                135.7122806551,35.0418856545,100
                135.7125030984,35.0418947737,100
                135.7125536787,35.0419213739,100
                135.712651198,35.0420188646,100
                135.7127481273,35.042095014,100
                135.7128710922,35.0421701679,100
                135.713013925,35.0422329741,100
                135.7131493147,35.0422754795,100
                135.7133989767,35.0423318469,100
                135.7132129619,35.0424666978,100
                135.7135233154,35.0427773083,100
                135.7139253854,35.0425307054,100
                135.713988552,35.0426635384,100
                135.7141235707,35.0428071754,100
                135.7144691533,35.0430290576,100
                135.7146939873,35.04294768,100
                135.7149191582,35.0427814378,100
                135.7149749349,35.0426922669,100
                135.7149964741,35.0426046365,100
                135.7149767687,35.042377534,100
                135.7149361449,35.0422565856,100
                135.714904589,35.0420890365,100
                135.7149032524,35.0418929649,100
                135.7149195739,35.0417350363,100
                135.7151682788,35.0411243847,100
                135.7152357478,35.0408345947,100
                135.7152517058,35.0405958145,100
                135.7152775381,35.0404548105,100
                135.7153323608,35.0402566168,100
                135.7153936351,35.0401618244,100
                135.7155125499,35.0400329399,100
                135.715636871,35.0399187173,100
                135.7159608678,35.0396786146,100
                135.7160194799,35.0395607865,100
                135.7159313321,35.0395766378,100
                135.715819973,35.0395818002,100
                135.7157151988,35.0395707798,100
                135.7156366838,35.0395436226,100
                135.7155647737,35.0395003536,100
                135.7155256375,35.0394518082,100
                135.7154799482,35.0394031766,100
                135.715434223,35.0393653916,100
                135.7153426858,35.0393220754,100
                135.7152838018,35.0393003873,100
                135.7152250128,35.0392517254,100
                135.7151793249,35.0392031646,100
                135.7151402799,35.0391276459,100
                135.7150818806,35.0389658786,100
                135.714965101,35.0386369933,100
                135.7148871813,35.0384374319,100
                135.7147958814,35.0383186886,100
                135.7147438136,35.0382270114,100
                135.7146195761,35.0381620678,100
                135.7145477236,35.0381025996,100
                135.7144926,35.0380528895,100
                135.7144758903,35.0380377789,100
                135.7143651633,35.0378544087,100
                135.7142414457,35.037638612,100
                135.7135788584,35.0379333382,100
                135.7138131286,35.0383756781,100
                135.7142062929,35.0383335016,100
                135.7141919109,35.0387106044,100
                135.7138577529,35.0387313686,100
                135.7138771268,35.0388121934,100
                135.7138769217,35.0388714923,100
                135.7138700345,35.0389683835,100
                135.7138433847,35.0390976245,100
                135.7138102026,35.0392214977,100
                135.7137887009,35.0392798315,100
                135.7137506873,35.0393829878,100
                135.7136715018,35.0395497829,100
                135.7136187446,35.0396574117,100
                135.7135660224,35.0397489128,100
                135.7134805639,35.0398349138,100
                135.7134017322,35.0398993099,100
                135.7133424955,35.0399800196,100
                135.713250225,35.0401414316,100
                135.713164822,35.0402112343,100
                135.7130855409,35.0404050033,100
                135.7129836271,35.0405749139,100
                135.7129274277,35.0406686596,100
                135.7127888874,35.0409484198,100
                135.712692597,35.0412497605,100
                135.7126511593,35.0414012211,100
                135.7126114481,35.0415303599,100
                135.7125653356,35.0416163834,100
                135.7125063646,35.041632371,100
                135.7124147577,35.0416267319,100
                135.7123625814,35.0415728017,100
                135.7122973803,35.0415027134,100
                135.7122323481,35.0413841014,100
                135.712115045,35.0412385329,100
                135.7120565459,35.0411253592,100
                135.7119135326,35.040845074,100
                135.7116333797,35.0404784005,100
                135.7110971588,35.0403479643,100
                135.7113669674,35.0399233677,100
                135.7116763363,35.0394180857,100
                135.7115657385,35.0392294308,100
                135.7114550668,35.0390623268,100
                135.7114021505,35.038956913,100
                135.7113902641,35.0389216014,100
                135.7113377886,35.0389113353,100
                135.7111874577,35.0388517491,100
                135.711108955,35.0388462095,100
                135.7110303929,35.0388513757,100
                135.7109453006,35.0388565956,100
                135.7108854333,35.0388785678,100
                135.7108142263,35.038904667,100
                135.7107355528,35.0389475815,100
                135.710505889,35.0391138758,100
                135.7100486961,35.0388490371,100
                135.7096301803,35.0387511305,100
                135.7094077596,35.0387236958,100
                135.7091330309,35.0386745856,100
                135.7089564443,35.0386419083,100
                135.7088715013,35.0386040267,100
                135.7084272497,35.0383768928,100
                135.7084147187,35.0382153735,100
                135.7084084898,35.0381238747,100
                135.708389105,35.0380538235,100
                135.7083238893,35.0379890863,100
                135.7082586928,35.0379189252,100
                135.7082260946,35.0378811693,100
                135.7082460279,35.0377950851,100
                135.7082528071,35.0377305194,100
                135.7082464075,35.0376874739,100
                135.7082205716,35.0375958565,100
                135.708201051,35.0375581314,100
                135.7082208943,35.0375043734,100
                135.7082541929,35.0373376122,100
                135.7082941021,35.0371600909,100
                135.7082948236,35.0369555027,100
                135.7082694964,35.0367132442,100
                135.7082178935,35.0364978258,100
                135.708185772,35.0363254854,100
                135.7081540914,35.0360347582,100
                135.7081420582,35.0357333027,100
                135.7081167746,35.0354801987,100
                135.7080916045,35.0351949093,100
                135.7081508598,35.0350981441,100
                135.7083084181,35.0349585836,100
                135.7085877724,35.0349064323,100
                135.7091679062,35.0347851356,100
                135.7094038506,35.0347130893,100
                135.7096212994,35.0346348002,100
                135.7097962921,35.034545212,100
                135.7098999365,35.034468342,100
                135.710722818,35.0331982538,100
                135.7105514177,35.0313094195,100
                135.7103348783,35.0312920009,100
                135.7103627597,35.0311546645,100
                135.7103991674,35.0309603026,100
                135.7104793967,35.0308135834,100
                135.7104982756,35.0307767945,100
                135.7105153672,35.0307435938,100
                135.7105212483,35.0307266349,100
                135.71054164,35.0306678071,100
                135.7105459007,35.030655492,100
                135.7106476915,35.0306285503,100
                135.7107082758,35.030601791,100
                135.7107209998,35.0305934405,100
                135.7108130065,35.0305181619,100
                135.7109316021,35.0303986481,100
                135.7112399112,35.0302614861,100
                135.7113132753,35.0302469412,100
                135.7113526873,35.0302391471,100
                135.7114431237,35.030239362,100
                135.7115230905,35.0302395519,100
                135.7115629474,35.0302650003,100
                135.7115641411,35.0302652842,100
                135.7115641621,35.0302657773,100
                135.7115834249,35.0302781483,100
                135.7116432235,35.0304704148,100
                135.7116428125,35.0305879558,100
                135.7116316198,35.0306422289,100
                135.7116258966,35.0307055285,100
                135.7115899351,35.0307732648,100
                135.7115457629,35.0308318959,100
                135.7115392825,35.0311122494,100
                135.7115446953,35.0311371235,100
                135.7116322539,35.031250366,100
                135.711623778,35.0313114066,100
                135.7115244503,35.0314242053,100
                135.7115177595,35.0314332745,100
                135.711474722,35.0314919089,100
                135.7115273644,35.0314902727,100
                135.7117441196,35.0314835338,100
                135.7118293873,35.0314678895,100
                135.712096211,35.0314052084,100
                135.7121800798,35.0314104779,100
                135.7122088653,35.0314122363,100
                135.7124011261,35.031455652,100
                135.7124736199,35.0313469437,100
                135.7126929645,35.0307686248,100
                135.7127732095,35.0304740781,100
                135.7128626219,35.0300613063,100
                135.7129313369,35.0297092633,100
                135.712486563,35.0297094091,100
                135.7124838444,35.0294269198,100
                135.7124872034,35.0280633223,100
                135.7123829831,35.0280946268,100
                135.711873823,35.0283680142,100
                135.7117714213,35.0276567422,100
                135.7117626643,35.0275958726,100
                135.7116265601,35.027483642,100
                135.7115897265,35.0274092543,100
                135.7115382739,35.0268865649,100
                135.7115641775,35.02666436,100
                135.7115807048,35.0263504366,100
                135.711594725,35.0260558746,100
                135.7116132491,35.0256670213,100
                135.7115964091,35.0255421151,100
                135.7115630453,35.0254554105,100
                135.711360099,35.0251773769,100
                135.7113144433,35.0251172648,100
                135.7111811323,35.0249965889,100
                135.7110724512,35.024878789,100
                135.7110493333,35.0248111948,100
                135.7110360092,35.0246558715,100
                135.7110857149,35.0245069671,100
                135.7110782581,35.0244720177,100
                135.7111238096,35.024342188,100
                135.7111524243,35.0242139383,100
                135.7112770898,35.0241248632,100
                135.7115231061,35.0236757717,100
                135.7116643267,35.0232888288,100
                135.7120425808,35.0231306308,100
                135.7123015332,35.0229838394,100
                135.7124206775,35.0228874254,100
                135.7123848044,35.0224139306,100
                135.7123051358,35.0219856882,100
                135.7122409493,35.0217757343,100
                135.7121879277,35.0216548274,100
                135.71228205,35.0213798914,100
                135.7123338153,35.0211918331,100
                135.711394193,35.021148622,100
                135.7114064264,35.0210906193,100
                135.7109631954,35.0209865338,100
                135.7108400893,35.0211573787,100
                135.7107134234,35.0212689855,100
                135.7106429046,35.0213293151,100
                135.7105257327,35.0213881241,100
                135.7103992047,35.021209221,100
                135.7104696488,35.0211032553,100
                135.7105024875,35.0210643874,100
                135.7104557374,35.021005329,100
                135.7104706089,35.0208899349,100
                135.7100954221,35.0208650973,100
                135.7099219087,35.0208535567,100
                135.709899764,35.0211080262,100
                135.7101227599,35.0211685608,100
                135.7102714818,35.0214756238,100
                135.7098068059,35.0216283293,100
                135.709656759,35.0217051593,100
                135.7095458472,35.0218089155,100
                135.7094562285,35.0219131459,100
                135.7093023949,35.022158851,100
                135.7092034179,35.022398277,100
                135.7091175546,35.0226821035,100
                135.7090272234,35.0231405069,100
                135.7089141119,35.0235212458,100
                135.7088512167,35.0236520901,100
                135.7087768287,35.0238068514,100
                135.7087047355,35.0237653385,100
                135.7085258286,35.0237327973,100
                135.7083514339,35.0237010418,100
                135.708403454,35.0234622083,100
                135.7084401088,35.0234708873,100
                135.7084545032,35.0234252852,100
                135.7084677946,35.0233831313,100
                135.7084522231,35.0233316128,100
                135.7078320838,35.0232429427,100
                135.7078579464,35.0231443374,100
                135.707843185,35.0229603472,100
                135.70789253,35.022939478,100
                135.7079004545,35.0227806145,100
                135.7078654579,35.0227750375,100
                135.7078748058,35.0226377285,100
                135.707944058,35.0226342313,100
                135.7079561901,35.022526085,100
                135.707650989,35.0225102135,100
                135.7076624481,35.0224173481,100
                135.7077818003,35.0224216479,100
                135.7077926224,35.0223450496,100
                135.7075956919,35.0222958433,100
                135.7075697354,35.0223425445,100
                135.7068073569,35.0221218319,100
                135.7067838803,35.0221268462,100
                135.7059847521,35.0222981057,100
                135.7059042298,35.0221183941,100
                135.7057298736,35.0217292901,100
                135.7052462615,35.021814609,100
                135.7052352141,35.0217795804,100
                135.704832077,35.0218467803,100
                135.7048051951,35.0218467153,100
                135.7047691323,35.0220853032,100
                135.704639598,35.0220976675,100
                135.7042519651,35.0221322948,100
                135.7042534016,35.0221614554,100
                135.7040245052,35.0221813948,100
                135.703987035,35.0226504154,100
                135.7037126714,35.0226243265,100
                135.7036707413,35.0229221987,100
                135.7034519506,35.0229050471,100
                135.7031850287,35.0228327054,100
                135.7028105765,35.0227732707,100
                135.7027809669,35.0227685506,100
                135.7022692329,35.0227079346,100
                135.7019256039,35.0226830818,100
                135.7019760882,35.0218746387,100
                135.7018792023,35.0217836227,100
                135.7015548616,35.0218060013,100
                135.7012757212,35.0217996147,100
              </coordinates>
            </LinearRing>
          </outerBoundaryIs>
        </Polygon>
      </Placemark>
    </Document>
  </Document>
</kml>
