<?xml version="1.0" encoding="UTF-8"?>
<kml xmlns="http://www.opengis.net/kml/2.2">
  <Document id="root_doc">
    <Document id="_0_01_________disv4326">
      <name>30_01嵐山東disv4326</name>
      <Placemark id="_0_01_________disv4326.1">
        <visibility>1</visibility>
        <Polygon>
          <extrude>0</extrude>
          <outerBoundaryIs>
            <LinearRing>
              <coordinates>
                135.6859260712,34.9985604767,100
                135.6855885725,34.9984446731,100
                135.6855288825,34.9984205035,100
                135.6851927965,34.9982662486,100
                135.6840750113,34.997785234,100
                135.683785172,34.9976954652,100
                135.6834840383,34.9973433879,100
                135.6831514897,34.9973935201,100
                135.6828637341,34.9972800896,100
                135.6822172343,34.9963637478,100
                135.6821294502,34.9963788734,100
                135.6815330739,34.9963544358,100
                135.6812594544,34.9964265497,100
                135.6810940105,34.9965827554,100
                135.6807859697,34.9967415474,100
                135.6805126285,34.9969899463,100
                135.6803193084,34.997106357,100
                135.680181961,34.9971563559,100
                135.6799758938,34.997364785,100
                135.6798454026,34.9974126182,100
                135.6796754738,34.9974061887,100
                135.6795993105,34.9974200055,100
                135.6796585297,34.9977526606,100
                135.6797010491,34.9979004635,100
                135.6798499497,34.9982091237,100
                135.6799427682,34.9985295406,100
                135.6799391438,34.9988237878,100
                135.6798979404,34.9990812437,100
                135.6799299893,34.9992309905,100
                135.6800602264,34.9996135537,100
                135.6800466663,34.999827203,100
                135.6799455036,35.0002784662,100
                135.6798311873,35.0003971956,100
                135.6796237346,35.0004812428,100
                135.6797227391,35.0005312241,100
                135.6796647231,35.0007368692,100
                135.6797073589,35.0009817956,100
                135.679786061,35.0011080695,100
                135.6800569469,35.0013252757,100
                135.6802116844,35.0014934411,100
                135.6802839966,35.0016729439,100
                135.6802846496,35.0019184638,100
                135.6802339243,35.0020596852,100
                135.6801704869,35.0021406559,100
                135.6802655308,35.0024181146,100
                135.6803109965,35.0024855641,100
                135.6803691544,35.0025133937,100
                135.6804545905,35.0026696173,100
                135.6805970439,35.0027227376,100
                135.6808192184,35.0031483572,100
                135.680879445,35.0032226749,100
                135.6808140219,35.0034168121,100
                135.6807821704,35.0036389253,100
                135.6813215169,35.0037308168,100
                135.6813185214,35.0039120168,100
                135.6810034818,35.004201359,100
                135.6804846524,35.0043393886,100
                135.6799567732,35.0044545745,100
                135.6793666224,35.0038503352,100
                135.6792376018,35.0037604179,100
                135.6791239916,35.0037295576,100
                135.6787714088,35.0036656793,100
                135.6784392533,35.0036253755,100
                135.6781404391,35.0036225545,100
                135.6779293843,35.0036400327,100
                135.6776270932,35.0036941746,100
                135.6774333448,35.0038424773,100
                135.6771121347,35.003805157,100
                135.6769172018,35.0038469722,100
                135.6767948908,35.0039170067,100
                135.6766398622,35.0040676628,100
                135.6765449423,35.0041154434,100
                135.6761678925,35.00427439,100
                135.6757276584,35.0043187978,100
                135.6754946515,35.0043189586,100
                135.675242689,35.0042644198,100
                135.6751332309,35.0043461062,100
                135.6750680681,35.0043741044,100
                135.6748085777,35.0043346158,100
                135.6745690258,35.0042696157,100
                135.6745114516,35.0042727737,100
                135.6744083294,35.0043325028,100
                135.6740904617,35.0046840691,100
                135.6740485639,35.0047001554,100
                135.673719701,35.0046813271,100
                135.6733063707,35.0046965702,100
                135.6732679399,35.0047121724,100
                135.6730763942,35.0048897686,100
                135.6729484304,35.0049803465,100
                135.6727494873,35.0051399634,100
                135.6725478251,35.0053316157,100
                135.6723594157,35.0056592928,100
                135.6722928639,35.005925249,100
                135.6721902671,35.0058853971,100
                135.6719185057,35.0059009222,100
                135.6716100263,35.0059623304,100
                135.6715481787,35.0059890628,100
                135.6714972322,35.005960401,100
                135.6712588052,35.0058979139,100
                135.6711058369,35.0057914336,100
                135.6709571753,35.0057790527,100
                135.6708145468,35.0057935908,100
                135.6706161461,35.0057240986,100
                135.6705637221,35.0056643047,100
                135.6704505234,35.0056829371,100
                135.6702154103,35.0058120111,100
                135.6698506132,35.0058448087,100
                135.6696459933,35.005916007,100
                135.6694635973,35.0060217733,100
                135.6693604914,35.0060952933,100
                135.669236996,35.0062360129,100
                135.6689237069,35.0064593783,100
                135.6686975299,35.006648124,100
                135.6686262944,35.0067993396,100
                135.6685536533,35.0071332327,100
                135.6684683814,35.0073206781,100
                135.6683502518,35.0074890171,100
                135.6683111325,35.0076256034,100
                135.6682961073,35.0077420435,100
                135.6683094458,35.0080623016,100
                135.6682863201,35.0081550572,100
                135.6682356576,35.0082199886,100
                135.6680990031,35.0083015846,100
                135.6679811981,35.0083052721,100
                135.6676887479,35.0082702338,100
                135.667379633,35.0082706431,100
                135.6671978953,35.0082502783,100
                135.6670519284,35.0082902263,100
                135.6669152633,35.008469077,100
                135.6667195349,35.0085521259,100
                135.6665482065,35.0088867999,100
                135.666427771,35.0090107646,100
                135.6661988088,35.0091300593,100
                135.6660972903,35.0091492135,100
                135.6659163723,35.0091583571,100
                135.6657334873,35.0091408046,100
                135.6650469595,35.0088909913,100
                135.6646467169,35.0087921915,100
                135.6643894801,35.0087709773,100
                135.6641464236,35.0088354394,100
                135.6637402244,35.0091047309,100
                135.6635270041,35.0092832224,100
                135.6633268114,35.0095202727,100
                135.6627053633,35.0096523322,100
                135.6625089344,35.0097801635,100
                135.6622989014,35.0099898598,100
                135.661978707,35.0103372784,100
                135.6615688556,35.0106912039,100
                135.661526799,35.0108222867,100
                135.6615278211,35.0110791997,100
                135.6617555709,35.011615988,100
                135.6616721394,35.0117168132,100
                135.6613598803,35.0117514259,100
                135.6611469612,35.0118490685,100
                135.6609237627,35.0120260503,100
                135.6608001644,35.0122086671,100
                135.6606356771,35.0126371638,100
                135.660538782,35.0127843614,100
                135.6603293,35.0128575744,100
                135.6600169701,35.0129030995,100
                135.6594152447,35.0130789362,100
                135.6590962998,35.0131258499,100
                135.6587776997,35.0130894501,100
                135.6583200518,35.0129515233,100
                135.6579056389,35.0127973078,100
                135.6576036816,35.0127528542,100
                135.6571641312,35.012704696,100
                135.6569685213,35.0126337829,100
                135.6564213239,35.0124785502,100
                135.6561231801,35.0123110698,100
                135.6558394311,35.0122939184,100
                135.6554456034,35.0123665245,100
                135.6548747885,35.0122965736,100
                135.6542983154,35.0123863976,100
                135.6540327513,35.0123707033,100
                135.6537136144,35.0122652017,100
                135.6533008506,35.0123666908,100
                135.6526917535,35.0127105072,100
                135.6520557843,35.0131320604,100
                135.651993,35.0131504002,100
                135.6516767887,35.0132429377,100
                135.6516730558,35.0132448982,100
                135.6511393269,35.0135268795,100
                135.651137988,35.0135296926,100
                135.6510422002,35.0137246312,100
                135.650901327,35.0140535286,100
                135.6507765614,35.0141123928,100
                135.6504637822,35.0141666953,100
                135.6503605715,35.0141846341,100
                135.6503216623,35.0142151555,100
                135.650239611,35.0142794958,100
                135.6502258186,35.0143018513,100
                135.6501009535,35.0145045916,100
                135.6500118133,35.0147154649,100
                135.6499533515,35.0148538197,100
                135.6498347588,35.0150107319,100
                135.6497967608,35.0151733025,100
                135.64986213,35.0154165988,100
                135.6496599248,35.0161125087,100
                135.6496547082,35.0161112253,100
                135.649175668,35.0159855256,100
                135.6486420448,35.0157571955,100
                135.6485125429,35.015756816,100
                135.6482141365,35.0159558057,100
                135.6481495742,35.0159988575,100
                135.6481483746,35.0159992759,100
                135.6479367962,35.0160583044,100
                135.6475849182,35.0159403667,100
                135.6475422193,35.0159260155,100
                135.6475402549,35.0159249533,100
                135.6468610745,35.0155642258,100
                135.6468597942,35.0155635184,100
                135.6468114839,35.0155604198,100
                135.6466423616,35.0155492952,100
                135.6466407144,35.0155492904,100
                135.646378252,35.0155852894,100
                135.6458759666,35.0157969331,100
                135.6454204783,35.0159403298,100
                135.6452174726,35.0160490376,100
                135.6451178073,35.0161631876,100
                135.6450105717,35.0162860486,100
                135.6448270861,35.0164877036,100
                135.6448252845,35.0164886133,100
                135.6446880431,35.016557723,100
                135.6444760343,35.0166642209,100
                135.6444332281,35.0166602226,100
                135.6443399586,35.0166514993,100
                135.6440684661,35.0165883091,100
                135.6440150603,35.0165758991,100
                135.6440132431,35.0165754717,100
                135.6438056866,35.0165830337,100
                135.643543008,35.0166682551,100
                135.6432903687,35.0168459728,100
                135.64323827,35.0168825124,100
                135.6432376925,35.0168825811,100
                135.643012399,35.0169037526,100
                135.6427363037,35.0170176664,100
                135.6424100382,35.0172160842,100
                135.6422437,35.0172920788,100
                135.6419179672,35.0172995031,100
                135.6418712798,35.0173267609,100
                135.6417784632,35.0173808574,100
                135.6416550159,35.0175197262,100
                135.6414719277,35.0176230655,100
                135.6403712213,35.0180063928,100
                135.6398596525,35.018059464,100
                135.6390321901,35.0182127318,100
                135.6386100507,35.0183152909,100
                135.6382642065,35.0184372305,100
                135.6375241654,35.0187252634,100
                135.6371254778,35.018798732,100
                135.6371244931,35.0187989398,100
                135.6368679771,35.0188182494,100
                135.6363230584,35.0188279665,100
                135.6362873001,35.018938219,100
                135.6363774572,35.0191475147,100
                135.6365115784,35.0192397506,100
                135.637092343,35.0193908524,100
                135.6376018626,35.019537443,100
                135.6380784364,35.0197154151,100
                135.6384400184,35.01982142,100
                135.6385824335,35.0198777597,100
                135.6387588846,35.0200647746,100
                135.6389053657,35.0202200085,100
                135.6390474691,35.0205148179,100
                135.639285514,35.020796248,100
                135.6393811705,35.0209897854,100
                135.6394709384,35.0214938932,100
                135.63960679,35.0223850703,100
                135.6396444097,35.0229567063,100
                135.6397070743,35.0232221944,100
                135.64001657,35.0235139767,100
                135.6403423515,35.0236635413,100
                135.6418068915,35.023742435,100
                135.6421739816,35.0238583808,100
                135.642882454,35.0243197228,100
                135.6438069634,35.0249437486,100
                135.6445897438,35.0253558595,100
                135.6454950821,35.0259798201,100
                135.646347815,35.026711592,100
                135.6479055509,35.0274635181,100
                135.6484302256,35.0279422024,100
                135.6492441792,35.0287796291,100
                135.6497381455,35.0293887072,100
                135.6503407449,35.0302524082,100
                135.6507181335,35.030539291,100
                135.6508343713,35.0306499158,100
                135.651911748,35.0302413752,100
                135.6519208794,35.0302380209,100
                135.6523569321,35.0300784207,100
                135.6526182374,35.0299374723,100
                135.6529650161,35.0297088771,100
                135.6531167237,35.0295428228,100
                135.653216732,35.0292909823,100
                135.6532510457,35.0290140216,100
                135.6532613488,35.028597476,100
                135.6532069694,35.0279555876,100
                135.6531518769,35.0274600411,100
                135.6533174916,35.0267085615,100
                135.6534351467,35.0262202722,100
                135.6535822354,35.0258784874,100
                135.653846597,35.0256699365,100
                135.6542480639,35.0254686106,100
                135.6547599282,35.0251301974,100
                135.65510161,35.0248161558,100
                135.6553310656,35.0244565776,100
                135.6554101659,35.0239974783,100
                135.6555274628,35.0230273994,100
                135.6556605525,35.0221857539,100
                135.6560686696,35.02111911,100
                135.6561632623,35.0208030944,100
                135.6564191867,35.0204680332,100
                135.656656019,35.0201169297,100
                135.6566980144,35.020054652,100
                135.656902377,35.0196893749,100
                135.6570419467,35.0193872981,100
                135.6571697095,35.0191804726,100
                135.6573411812,35.0189418694,100
                135.657617829,35.0186253246,100
                135.6577737187,35.0184217478,100
                135.6579944623,35.0181610995,100
                135.6583424326,35.0178460232,100
                135.658564601,35.0177204542,100
                135.6588122475,35.0176179167,100
                135.6592148015,35.0175008183,100
                135.659430029,35.0174845284,100
                135.6595795295,35.0174885446,100
                135.6600825886,35.0175682121,100
                135.6602725831,35.0175777637,100
                135.6606392306,35.017541826,100
                135.6609324672,35.017495469,100
                135.6615406393,35.0173569659,100
                135.6619557362,35.0172753139,100
                135.6623088613,35.0172743342,100
                135.6630013338,35.0172554321,100
                135.6640455492,35.0172332851,100
                135.6644384406,35.0172321991,100
                135.6645844189,35.0172132403,100
                135.6647289099,35.0171762472,100
                135.6650157354,35.0170847197,100
                135.665162985,35.0170534388,100
                135.6655195845,35.0170557701,100
                135.6656170351,35.0170701264,100
                135.6657829415,35.017066856,100
                135.6659473414,35.0170331564,100
                135.666136922,35.0169605821,100
                135.6663071201,35.0168593612,100
                135.6664375522,35.0167531708,100
                135.6666254995,35.0166293213,100
                135.6672956012,35.0163944109,100
                135.6676358399,35.0162825321,100
                135.6679865031,35.0161965971,100
                135.6683657594,35.0160733456,100
                135.6685384366,35.0159140981,100
                135.6687997374,35.0156499512,100
                135.6691290869,35.0151497872,100
                135.6692739082,35.0149027838,100
                135.6694533173,35.0145809432,100
                135.6697066992,35.0142407849,100
                135.6701439184,35.0139069073,100
                135.6704952517,35.01367857,100
                135.6709423792,35.0134014792,100
                135.6712829313,35.0132079706,100
                135.6715893544,35.0130444392,100
                135.6719014289,35.0129124018,100
                135.6722007406,35.0128349773,100
                135.6725400329,35.012797436,100
                135.6730727151,35.012757594,100
                135.6734545621,35.0127281919,100
                135.6744222409,35.0127309856,100
                135.6753628324,35.0123820688,100
                135.6759742033,35.012163473,100
                135.676332122,35.0120042752,100
                135.676726273,35.0118224958,100
                135.6768174013,35.0117782282,100
                135.677406474,35.0114921677,100
                135.6777213519,35.0114140512,100
                135.6784032311,35.0114000715,100
                135.6786713052,35.011495499,100
                135.6795234782,35.0117799306,100
                135.6802118655,35.0120508997,100
                135.6806754573,35.0123067699,100
                135.6813667435,35.0127149987,100
                135.6820835051,35.0126215803,100
                135.6826846245,35.0124649673,100
                135.6842137717,35.0120198948,100
                135.6850597621,35.0117087494,100
                135.6861611772,35.0112623891,100
                135.6864453618,35.0110921879,100
                135.6869137002,35.0107970964,100
                135.6876497159,35.0103025287,100
                135.6881842269,35.0098179389,100
                135.6883430482,35.0096739666,100
                135.6884593328,35.0095332657,100
                135.6887315273,35.0091244921,100
                135.6891698848,35.0085012639,100
                135.6893155234,35.0082766164,100
                135.6894262346,35.0080756854,100
                135.6895260573,35.0074205415,100
                135.6895529232,35.0070329069,100
                135.689607425,35.0062461594,100
                135.6896284624,35.0058833004,100
                135.6896500256,35.0055111463,100
                135.6896760765,35.0050615334,100
                135.6897412434,35.0039373959,100
                135.6897564647,35.0036408641,100
                135.6897952439,35.0034582028,100
                135.6897816553,35.0032379422,100
                135.6895935785,35.0028703937,100
                135.6896022583,35.0024017117,100
                135.689658656,35.0016700979,100
                135.6896559251,35.0015827592,100
                135.6896203959,35.0004435534,100
                135.6900138303,34.9999483043,100
                135.689311051,34.9996274874,100
                135.6895437372,34.9992429708,100
                135.6888985817,34.9989585674,100
                135.6887600018,34.9993759298,100
                135.6884274675,34.9992241581,100
                135.6882068823,34.9991235901,100
                135.6881440461,34.9990936387,100
                135.6878116634,34.999145617,100
                135.687449764,34.9991831508,100
                135.6874454787,34.9989988278,100
                135.6875633249,34.9990004651,100
                135.6875574682,34.9988636771,100
                135.6872418483,34.9988511131,100
                135.6872372369,34.9987753192,100
                135.6870247447,34.9987755528,100
                135.6870110307,34.9988877823,100
                135.6869263554,34.9988953842,100
                135.6867089953,34.9988702499,100
                135.6865701973,34.9988358793,100
                135.6864155838,34.9987739997,100
                135.6861926422,34.9986697589,100
                135.6859499408,34.9985681435,100
                135.6859260712,34.9985604767,100
              </coordinates>
            </LinearRing>
          </outerBoundaryIs>
        </Polygon>
      </Placemark>
    </Document>
  </Document>
</kml>
