<?xml version="1.0" encoding="UTF-8"?>
<kml xmlns="http://www.opengis.net/kml/2.2">
  <Document id="root_doc">
    <Document id="_0_09_________disv4326">
      <name>30_09川岡東disv4326</name>
      <Placemark id="_0_09_________disv4326.1">
        <visibility>1</visibility>
        <Polygon>
          <extrude>0</extrude>
          <outerBoundaryIs>
            <LinearRing>
              <coordinates>
                135.7155304423,34.9685351962,100
                135.7150595488,34.9685329771,100
                135.7147250972,34.9685931915,100
                135.714606814,34.968606439,100
                135.7143853468,34.9685888804,100
                135.7142177975,34.968509961,100
                135.7141320871,34.9685050427,100
                135.7140669356,34.9685302455,100
                135.7120318852,34.9685399259,100
                135.7117693524,34.9685412106,100
                135.711564464,34.9685604494,100
                135.7116341837,34.9686995709,100
                135.7118753413,34.9691296853,100
                135.7120148398,34.9693851789,100
                135.712339637,34.9698145737,100
                135.7125972044,34.9701448571,100
                135.7127073765,34.9702770293,100
                135.7130277677,34.9706197841,100
                135.7135163225,34.9711424256,100
                135.7135651751,34.971194686,100
                135.7140007325,34.9715886282,100
                135.7135893302,34.9716541536,100
                135.7132077994,34.9717321629,100
                135.711732194,34.9720338538,100
                135.7117201847,34.9724450633,100
                135.7117058967,34.9729339499,100
                135.7115843996,34.9730272648,100
                135.711535976,34.9730694789,100
                135.7108792493,34.9734844516,100
                135.7108824267,34.9735181237,100
                135.7108718445,34.9737079761,100
                135.7108664853,34.9738782366,100
                135.7108555705,34.9742250293,100
                135.7108633217,34.9742659665,100
                135.7109252266,34.9745930451,100
                135.7109312805,34.9747534972,100
                135.71096048,34.974944782,100
                135.7109466683,34.9751032152,100
                135.7109237576,34.9751344313,100
                135.7108551194,34.9752256871,100
                135.710720639,34.9752064238,100
                135.7106206394,34.9753291573,100
                135.7105303511,34.975525653,100
                135.7104624208,34.9755729624,100
                135.7100139146,34.9756295833,100
                135.7098460816,34.9756850365,100
                135.7095226267,34.9757354732,100
                135.7094006122,34.9757359593,100
                135.7093598264,34.9757157206,100
                135.7093158029,34.9756303261,100
                135.709154527,34.9755783202,100
                135.7090731802,34.9756818698,100
                135.7089447484,34.9757746025,100
                135.7088517865,34.9757921297,100
                135.7086476203,34.9758080556,100
                135.7085779276,34.9758085247,100
                135.7085757249,34.9759614911,100
                135.7086284754,34.9760654289,100
                135.7086497064,34.9761540797,100
                135.7086461999,34.9763682466,100
                135.708585855,34.9765033274,100
                135.708580455,34.9765119769,100
                135.7085622199,34.9766373685,100
                135.7086264148,34.9767229509,100
                135.7091366912,34.9767677567,100
                135.7093445408,34.9768495236,100
                135.7095533432,34.9769524926,100
                135.7099611104,34.9770055043,100
                135.7099629922,34.9770055088,100
                135.7104993578,34.9769988888,100
                135.7105212569,34.9769821784,100
                135.7106108052,34.9769806291,100
                135.7108562278,34.9769926184,100
                135.7114645221,34.9769826418,100
                135.7118713411,34.976975993,100
                135.712245289,34.9769796183,100
                135.7127407263,34.9770308556,100
                135.7128303513,34.9770629695,100
                135.713479717,34.9772957795,100
                135.7137697093,34.9768059164,100
                135.7137802481,34.9767834036,100
                135.7141919976,34.9769357175,100
                135.7145519227,34.9770679767,100
                135.7149929325,34.9772345123,100
                135.7158763712,34.9776553355,100
                135.7158785716,34.9776563976,100
                135.7147666241,34.978450934,100
                135.7146181992,34.9785851079,100
                135.7148787038,34.9785981802,100
                135.7160248672,34.9794387395,100
                135.7171264986,34.9785464818,100
                135.7178572289,34.9778595782,100
                135.7185216805,34.977329716,100
                135.7197520887,34.9759598652,100
                135.72044355,34.97521961,100
                135.7205773585,34.9750763093,100
                135.7210193786,34.9744424647,100
                135.7211329713,34.9742862282,100
                135.7213463809,34.97399267,100
                135.7214684497,34.9737575014,100
                135.7215217021,34.9735999307,100
                135.7215474436,34.9734754697,100
                135.7216422623,34.9727203289,100
                135.7218023308,34.9717044637,100
                135.721886276,34.9706676499,100
                135.7219055952,34.9704287966,100
                135.7220573737,34.9684963394,100
                135.7211405012,34.9685377857,100
                135.7201207726,34.9685715961,100
                135.7196698856,34.9685990907,100
                135.7195265976,34.9685869312,100
                135.7192706942,34.9685374682,100
                135.718832716,34.968535691,100
                135.7186730726,34.9685282119,100
                135.7182308175,34.9685071256,100
                135.7178887498,34.9685304269,100
                135.717693616,34.9685437819,100
                135.7173317671,34.9685530206,100
                135.7170226151,34.9685453363,100
                135.7170024756,34.9685551494,100
                135.7168985946,34.9685535018,100
                135.7168214752,34.9685635362,100
                135.7165670473,34.9685964728,100
                135.71641628,34.968601759,100
                135.7163420082,34.9685915863,100
                135.7157352696,34.9685082732,100
                135.7156434777,34.9685244706,100
                135.7155304423,34.9685351962,100
              </coordinates>
            </LinearRing>
          </outerBoundaryIs>
        </Polygon>
      </Placemark>
    </Document>
  </Document>
</kml>
