<?xml version="1.0" encoding="UTF-8"?>
<kml xmlns="http://www.opengis.net/kml/2.2">
  <Document id="root_doc">
    <Document id="_0_03______disv4326">
      <name>30_03松陽disv4326</name>
      <Placemark id="_0_03______disv4326.1">
        <visibility>1</visibility>
        <Polygon>
          <extrude>0</extrude>
          <outerBoundaryIs>
            <LinearRing>
              <coordinates>
                135.6811394161,34.9750399264,100
                135.6810195398,34.974990313,100
                135.680918672,34.9750096281,100
                135.6808304818,34.9749975657,100
                135.6804959685,34.9750209184,100
                135.6803660135,34.974994521,100
                135.6799050666,34.9749602835,100
                135.6797527693,34.974869736,100
                135.6795720457,34.9747898883,100
                135.6795707881,34.9747054414,100
                135.6791047881,34.9746392123,100
                135.6790602969,34.9748058695,100
                135.6787862484,34.9751262326,100
                135.6787633238,34.9752135727,100
                135.6787712795,34.9753030386,100
                135.6787133079,34.9753702149,100
                135.6786584853,34.9753640848,100
                135.6785944214,34.9754470221,100
                135.678385954,34.9755617637,100
                135.6782956388,34.9755902605,100
                135.6782772378,34.9757692399,100
                135.6783772253,34.9759174741,100
                135.6784213982,34.9761453542,100
                135.6784929675,34.976218788,100
                135.678472749,34.9762920506,100
                135.6785136213,34.9763994209,100
                135.6784902568,34.9766174051,100
                135.6784876774,34.9767321253,100
                135.6783871187,34.9769258907,100
                135.6783441,34.9769597936,100
                135.6781466885,34.9770960441,100
                135.6779891087,34.977093657,100
                135.677771535,34.9773437365,100
                135.6777904027,34.9774047776,100
                135.6776858091,34.9774573924,100
                135.677594812,34.9776399829,100
                135.6774619604,34.9776538588,100
                135.6773168814,34.9780031514,100
                135.6771512807,34.9785148667,100
                135.6771053528,34.9786700387,100
                135.6770593574,34.9789583202,100
                135.6770429099,34.9792402011,100
                135.6771335639,34.9793188279,100
                135.676976336,34.9795505424,100
                135.6770356388,34.9797764213,100
                135.6770332648,34.9798757192,100
                135.6770220113,34.9800088696,100
                135.6770441519,34.9801749269,100
                135.6770426244,34.980193249,100
                135.6772511825,34.9801972302,100
                135.6772281884,34.9804545914,100
                135.6769631742,34.9804426455,100
                135.6768781433,34.9807140601,100
                135.676769003,34.9810898174,100
                135.6767658753,34.9811072103,100
                135.6767566889,34.981158298,100
                135.6767636348,34.9814777755,100
                135.6767628482,34.9818226246,100
                135.6767629587,34.9818365724,100
                135.676762979,34.9818434392,100
                135.6767633765,34.9819777598,100
                135.6766697471,34.9819826484,100
                135.6765929001,34.9819878775,100
                135.6765120638,34.9819964572,100
                135.6764414799,34.9820089785,100
                135.6763702364,34.9820324681,100
                135.6763425201,34.9820460563,100
                135.676277718,34.9820927598,100
                135.6762139705,34.9821493842,100
                135.6761440436,34.9822203914,100
                135.6761063632,34.9822713409,100
                135.6760586486,34.9823779452,100
                135.6760401574,34.9824871452,100
                135.676037812,34.9825761923,100
                135.6760556346,34.9827028038,100
                135.6760784131,34.9827902249,100
                135.6760804025,34.9827978612,100
                135.6761085126,34.9828871365,100
                135.676168593,34.9830660444,100
                135.6762621807,34.983347088,100
                135.6763519043,34.9836267331,100
                135.6764359494,34.9839215106,100
                135.6764521576,34.9839783622,100
                135.6765087901,34.9841927441,100
                135.6765316504,34.9842588923,100
                135.6765681879,34.9843214621,100
                135.676584232,34.9843387085,100
                135.676584987,34.9843395182,100
                135.6765875721,34.9843422982,100
                135.6766182809,34.9843753084,100
                135.6766892769,34.9844268835,100
                135.6768065401,34.9844875752,100
                135.6769361452,34.9845382233,100
                135.6770056519,34.9845535261,100
                135.6770307044,34.9845550965,100
                135.6771481617,34.9845416056,100
                135.6773230083,34.9845077015,100
                135.6774711278,34.9844924606,100
                135.6777789272,34.9844265114,100
                135.6780005198,34.9843420924,100
                135.6780668369,34.9843205065,100
                135.6782110458,34.9842427843,100
                135.6783465293,34.9841698258,100
                135.6784303478,34.9842751983,100
                135.6784756137,34.984330956,100
                135.6784100035,34.984385998,100
                135.6782592538,34.984462295,100
                135.6780967986,34.9845281385,100
                135.6780273693,34.984548033,100
                135.6780851484,34.9847108298,100
                135.6780837016,34.9847852433,100
                135.6780649156,34.98484721,100
                135.6780147171,34.9849386654,100
                135.6778915912,34.9850032157,100
                135.6777042643,34.9850532644,100
                135.6776145312,34.9850729578,100
                135.6772150016,34.9851483818,100
                135.6768671097,34.9852253482,100
                135.6764945715,34.9853077423,100
                135.676332939,34.9853434876,100
                135.6763751086,34.9855096225,100
                135.6762008059,34.9855470196,100
                135.6760934333,34.9855548454,100
                135.6758028186,34.9855685927,100
                135.6757729555,34.985595698,100
                135.675772728,34.9856543628,100
                135.6757725138,34.9857095777,100
                135.6758030724,34.9858173453,100
                135.6759650924,34.9861902011,100
                135.6759250751,34.9861987557,100
                135.6758685088,34.9862159297,100
                135.6755844137,34.9863023591,100
                135.6754108834,34.986403664,100
                135.6753339459,34.9864273319,100
                135.6751539387,34.9864172022,100
                135.675145951,34.986463311,100
                135.6752100969,34.9865603916,100
                135.6752111374,34.986594765,100
                135.6750949685,34.9866384736,100
                135.6750133923,34.9868607489,100
                135.6749641085,34.9869290055,100
                135.6748586697,34.98685639,100
                135.6747802257,34.9868227239,100
                135.6746138924,34.9868923579,100
                135.6743465992,34.9870332075,100
                135.6744337346,34.9871412028,100
                135.67444685,34.9872159668,100
                135.6744811256,34.9872475418,100
                135.6746123107,34.9872907867,100
                135.6747505274,34.9873467985,100
                135.6747870771,34.9875331881,100
                135.6746116028,34.9874691178,100
                135.674419054,34.9874112703,100
                135.6742163048,34.9873793134,100
                135.6739670158,34.9873603309,100
                135.6739096202,34.9874453999,100
                135.6737014498,34.9874426569,100
                135.6735583484,34.9874692475,100
                135.6734249806,34.9875440391,100
                135.6735334879,34.9876088469,100
                135.6736133604,34.9876171619,100
                135.6738923339,34.9876012894,100
                135.6741597267,34.9876623678,100
                135.6743488214,34.9876099105,100
                135.674495832,34.9876384777,100
                135.6746432801,34.9877995991,100
                135.6746752346,34.987947098,100
                135.6748227108,34.9880960338,100
                135.6749263084,34.9882342172,100
                135.6750334021,34.9883109217,100
                135.6753711735,34.9884832562,100
                135.6755464754,34.988591485,100
                135.6757187249,34.9886495573,100
                135.6758569524,34.9886713374,100
                135.6760244716,34.988676081,100
                135.6763133863,34.9887551004,100
                135.676538182,34.9888346525,100
                135.676687666,34.9888717451,100
                135.6767445061,34.9888999984,100
                135.6768051876,34.9889741826,100
                135.6770696253,34.988983901,100
                135.6772080173,34.9889584904,100
                135.6774181287,34.988909535,100
                135.6776266775,34.9888390937,100
                135.6778100707,34.9889039546,100
                135.678019261,34.9889372594,100
                135.6781477336,34.9889590107,100
                135.678294145,34.988896433,100
                135.6784863966,34.988906309,100
                135.6787447026,34.9890121449,100
                135.678961093,34.9890207462,100
                135.6791354175,34.9889649322,100
                135.6793100277,34.988835518,100
                135.6793898415,34.9888157268,100
                135.6800569135,34.9886275333,100
                135.680579993,34.9884360701,100
                135.6807618994,34.9885209246,100
                135.6807541736,34.9884164558,100
                135.6806686304,34.9882367734,100
                135.681113362,34.9881053915,100
                135.6817291961,34.9879088165,100
                135.681962694,34.9876964473,100
                135.6822575751,34.9875712205,100
                135.6823245794,34.9875273061,100
                135.6825522105,34.9871871613,100
                135.6828627586,34.9867861694,100
                135.6830424094,34.9866333834,100
                135.6833473446,34.986438598,100
                135.6835554827,34.9864604116,100
                135.6836418788,34.9864353526,100
                135.6842661874,34.9861403334,100
                135.6844127141,34.9861165577,100
                135.6846916811,34.9861397498,100
                135.6846937973,34.9861400364,100
                135.6851893656,34.9861986407,100
                135.6855083615,34.9861819943,100
                135.6856425412,34.986192763,100
                135.6858073659,34.9862298094,100
                135.685961254,34.9862511223,100
                135.6861857759,34.9862571206,100
                135.6862572887,34.9862753338,100
                135.6863723171,34.9870513378,100
                135.6864656036,34.9873422408,100
                135.6870617316,34.9873437658,100
                135.6871079554,34.9880417699,100
                135.6872081904,34.988040477,100
                135.6875213606,34.9880613484,100
                135.6878459438,34.9880736567,100
                135.6878690706,34.9881359747,100
                135.688038111,34.9883099437,100
                135.6883739358,34.9885077904,100
                135.6885029647,34.9885925635,100
                135.6885906394,34.9886088438,100
                135.6887342178,34.988551034,100
                135.6888627507,34.9885572767,100
                135.6889445904,34.9885895299,100
                135.6889870441,34.9885987941,100
                135.6892605528,34.9885565257,100
                135.6893832336,34.9886057853,100
                135.6896325424,34.9886387449,100
                135.689747486,34.9886689686,100
                135.690067453,34.9886122377,100
                135.6900680092,34.9886122391,100
                135.6903753899,34.9885973811,100
                135.6904700845,34.9886361447,100
                135.6906800891,34.9886071659,100
                135.6908964649,34.9886249667,100
                135.6909696949,34.9886196585,100
                135.6911285576,34.9885591378,100
                135.691184671,34.988563883,100
                135.6915775184,34.9885971029,100
                135.6914436404,34.9885037292,100
                135.6912872225,34.9883388816,100
                135.6912358011,34.9882159942,100
                135.6911812341,34.9879609735,100
                135.6911447531,34.9877097294,100
                135.6910998845,34.9875222043,100
                135.6918061267,34.9875065877,100
                135.6921430722,34.9875134921,100
                135.6929856305,34.9875625131,100
                135.6929853887,34.9871947316,100
                135.692979354,34.9868143281,100
                135.6929800857,34.9861356741,100
                135.6929748911,34.9855200403,100
                135.6929758321,34.9854853216,100
                135.6929998758,34.9846047363,100
                135.6930017798,34.9845351565,100
                135.6930117841,34.98419508,100
                135.6930381366,34.9841554235,100
                135.6933428985,34.9836968485,100
                135.6934195752,34.983625555,100
                135.6935664686,34.9835353509,100
                135.6936580622,34.9831662504,100
                135.6937050936,34.9830062827,100
                135.6938223164,34.9826075239,100
                135.6931584154,34.9825807189,100
                135.6931928694,34.9824613574,100
                135.6932926813,34.9815459582,100
                135.6934134991,34.9807340009,100
                135.6934408079,34.9805505309,100
                135.6934938647,34.9801950669,100
                135.6934987547,34.9801624001,100
                135.693565935,34.9797123146,100
                135.6936267542,34.9793048234,100
                135.6937477774,34.9784939229,100
                135.6939556847,34.9785333892,100
                135.6939941265,34.9785893329,100
                135.694208428,34.9785826402,100
                135.6942098899,34.9785535346,100
                135.694118377,34.9784314629,100
                135.6941498418,34.9783095587,100
                135.6941326479,34.978092524,100
                135.6940498028,34.978091824,100
                135.6938123081,34.9780765809,100
                135.6938690134,34.9777099291,100
                135.6939006961,34.9775051302,100
                135.693927187,34.9773337719,100
                135.6939433894,34.9772493699,100
                135.6932912205,34.9770512399,100
                135.6932817092,34.9768976113,100
                135.6930559593,34.9766388527,100
                135.692931827,34.9766741789,100
                135.6925723085,34.9766513733,100
                135.692514648,34.9764512105,100
                135.6922412072,34.9764750321,100
                135.6916920125,34.9765228101,100
                135.6919521391,34.9769598418,100
                135.6920476275,34.9771976387,100
                135.6915245028,34.9774428219,100
                135.691436213,34.9774334436,100
                135.6913797774,34.977568102,100
                135.6910100882,34.9774661744,100
                135.6906568435,34.9773659077,100
                135.6901719796,34.9770814168,100
                135.6899916012,34.9768652362,100
                135.6899367247,34.9768616467,100
                135.6897047841,34.9768842999,100
                135.6897234346,34.9765860115,100
                135.6889240158,34.976528132,100
                135.6886259206,34.9763422873,100
                135.6882498693,34.9761649069,100
                135.6880457242,34.9760023298,100
                135.6878052804,34.9758453656,100
                135.687705112,34.9758158117,100
                135.6875877033,34.9756889523,100
                135.6874792901,34.9757589629,100
                135.6872729177,34.975631875,100
                135.6871878204,34.9755535527,100
                135.687146038,34.9755151327,100
                135.6871178993,34.9754721691,100
                135.6870080755,34.9754046994,100
                135.6867618551,34.9752775099,100
                135.6865477185,34.9751911087,100
                135.6865384238,34.9751426299,100
                135.6865347948,34.9751237463,100
                135.6865309899,34.9751004241,100
                135.6864552915,34.9750424089,100
                135.6860682467,34.9750552205,100
                135.6858168386,34.9749545674,100
                135.6855833928,34.9749802375,100
                135.6850064155,34.9749609365,100
                135.6845018405,34.9750102035,100
                135.6840884829,34.9749821615,100
                135.6835778847,34.9749656977,100
                135.683128852,34.9749763656,100
                135.6827578207,34.9749954741,100
                135.6826078028,34.9750302287,100
                135.6823680628,34.9750731292,100
                135.6817218937,34.9752178689,100
                135.6815162736,34.9752040214,100
                135.6812628632,34.9751125792,100
                135.6811394161,34.9750399264,100
              </coordinates>
            </LinearRing>
          </outerBoundaryIs>
        </Polygon>
      </Placemark>
    </Document>
  </Document>
</kml>
