<?xml version="1.0" encoding="UTF-8"?>
<kml xmlns="http://www.opengis.net/kml/2.2">
  <Document id="root_doc">
    <Document id="_0_05______disv4326">
      <name>30_05桂徳disv4326</name>
      <Placemark id="_0_05______disv4326.1">
        <visibility>1</visibility>
        <Polygon>
          <extrude>0</extrude>
          <outerBoundaryIs>
            <LinearRing>
              <coordinates>
                135.7035366146,34.98330498,100
                135.7034757621,34.9834883719,100
                135.7033920193,34.9837017107,100
                135.7031775635,34.9840654512,100
                135.7031105505,34.9841523401,100
                135.7030862779,34.9841801708,100
                135.7027510779,34.9845796791,100
                135.7025089476,34.9845688802,100
                135.7023996521,34.9845684738,100
                135.7019972171,34.9849421098,100
                135.7011874798,34.9856947892,100
                135.7010830357,34.9857789084,100
                135.7009557484,34.9858850166,100
                135.7002016658,34.9865467595,100
                135.6998053699,34.9864347245,100
                135.6995851992,34.9869222583,100
                135.6995526838,34.9869155583,100
                135.6994846865,34.986817496,100
                135.6993092131,34.9868185446,100
                135.6993051663,34.9869669996,100
                135.6990041406,34.9869601342,100
                135.6989864641,34.9873563239,100
                135.6991442917,34.987507993,100
                135.6987367831,34.9878611096,100
                135.6991071699,34.9882340244,100
                135.6994413738,34.9885681141,100
                135.6994617314,34.9885884475,100
                135.6999179906,34.9890115747,100
                135.7001345437,34.9892124035,100
                135.7003397542,34.989402711,100
                135.7004292674,34.989485754,100
                135.7009944426,34.9898355452,100
                135.7021106153,34.9904952212,100
                135.7033583422,34.991184362,100
                135.7035867631,34.9912955584,100
                135.7045441259,34.9917729102,100
                135.7046462338,34.9918237944,100
                135.7054245528,34.9921752737,100
                135.7061625572,34.9925002417,100
                135.7061661032,34.9925017996,100
                135.7095121911,34.9939510216,100
                135.7096736503,34.9935691149,100
                135.7100462635,34.9925246214,100
                135.710251068,34.9919153317,100
                135.7103696249,34.9914657825,100
                135.7104321515,34.9911747066,100
                135.710386822,34.9908109754,100
                135.7106850196,34.9887370543,100
                135.7107291167,34.988649897,100
                135.7090619853,34.9878477092,100
                135.7086331016,34.9876406867,100
                135.7082468069,34.9874542591,100
                135.7078556104,34.9872508458,100
                135.7071772722,34.9869075777,100
                135.7069557543,34.9867828838,100
                135.7065401613,34.9865346838,100
                135.7063591067,34.9864076902,100
                135.7062748098,34.9863388938,100
                135.7059804434,34.9860986561,100
                135.7057437324,34.985897154,100
                135.7054123761,34.9855811892,100
                135.7052860852,34.9854440413,100
                135.7051337097,34.9852663351,100
                135.7048089944,34.9848407963,100
                135.704681783,34.9846563891,100
                135.7045183613,34.9844094228,100
                135.7043907579,34.9842032516,100
                135.7043765798,34.9841832855,100
                135.7041911565,34.983915701,100
                135.704095524,34.9837310171,100
                135.7038303223,34.9830866544,100
                135.7035764719,34.9831118186,100
                135.7035366146,34.98330498,100
              </coordinates>
            </LinearRing>
          </outerBoundaryIs>
        </Polygon>
      </Placemark>
    </Document>
  </Document>
</kml>
