<?xml version="1.0" encoding="UTF-8"?>
<kml xmlns="http://www.opengis.net/kml/2.2">
  <Document id="root_doc">
    <Document id="_0_06___disv4326">
      <name>30_06桂disv4326</name>
      <Placemark id="_0_06___disv4326.1">
        <visibility>1</visibility>
        <Polygon>
          <extrude>0</extrude>
          <outerBoundaryIs>
            <LinearRing>
              <coordinates>
                135.6940695178,34.9789381497,100
                135.6940110482,34.9786139589,100
                135.6939941265,34.9785893329,100
                135.6939556847,34.9785333892,100
                135.6937477774,34.9784939229,100
                135.6936267542,34.9793048234,100
                135.693565935,34.9797123146,100
                135.6934987547,34.9801624001,100
                135.6934938647,34.9801950669,100
                135.6934408079,34.9805505309,100
                135.6934134991,34.9807340009,100
                135.6932926813,34.9815459582,100
                135.6931928694,34.9824613574,100
                135.6931584154,34.9825807189,100
                135.6938223164,34.9826075239,100
                135.6937050936,34.9830062827,100
                135.6936580622,34.9831662504,100
                135.6935664686,34.9835353509,100
                135.6934195752,34.983625555,100
                135.6933428985,34.9836968485,100
                135.6930381366,34.9841554235,100
                135.6930117841,34.98419508,100
                135.6930017798,34.9845351565,100
                135.6929998758,34.9846047363,100
                135.6935509387,34.9845866075,100
                135.6936281723,34.9845850401,100
                135.6946675169,34.9845641838,100
                135.6947658759,34.9845194254,100
                135.6947711166,34.9843909048,100
                135.6948609043,34.984349576,100
                135.694949146,34.9843797982,100
                135.6952175823,34.9843743394,100
                135.6954398864,34.9845818133,100
                135.6954689622,34.9846106207,100
                135.6954695789,34.9846112561,100
                135.6962519974,34.9853865816,100
                135.6963152854,34.9854492796,100
                135.6964417893,34.985576577,100
                135.6968810281,34.9860184109,100
                135.6972424288,34.9863819434,100
                135.6977361232,34.986876516,100
                135.6977573107,34.9868978383,100
                135.6981106548,34.9872484582,100
                135.6981331433,34.9872707691,100
                135.6983677256,34.9875000994,100
                135.6987367831,34.9878611096,100
                135.6991442917,34.987507993,100
                135.6989864641,34.9873563239,100
                135.6990041406,34.9869601342,100
                135.6993051663,34.9869669996,100
                135.6993092131,34.9868185446,100
                135.6994846865,34.986817496,100
                135.6995526838,34.9869155583,100
                135.6995851992,34.9869222583,100
                135.6998053699,34.9864347245,100
                135.7002016658,34.9865467595,100
                135.7009557484,34.9858850166,100
                135.7010830357,34.9857789084,100
                135.7011874798,34.9856947892,100
                135.7019972171,34.9849421098,100
                135.7023996521,34.9845684738,100
                135.7025089476,34.9845688802,100
                135.7027510779,34.9845796791,100
                135.7030862779,34.9841801708,100
                135.7031105505,34.9841523401,100
                135.7031775635,34.9840654512,100
                135.7033920193,34.9837017107,100
                135.7034757621,34.9834883719,100
                135.7035366146,34.98330498,100
                135.7035764719,34.9831118186,100
                135.7032027387,34.9831488768,100
                135.7025970227,34.9831681167,100
                135.7025346753,34.9815790841,100
                135.702454927,34.9795558834,100
                135.7020986997,34.979559174,100
                135.7016075149,34.9795680531,100
                135.7014274436,34.9795726157,100
                135.7012926009,34.9795759494,100
                135.7005614279,34.9795945219,100
                135.70015062,34.9796009851,100
                135.6995845407,34.9796098835,100
                135.6995841136,34.9796098824,100
                135.6993694357,34.97961316,100
                135.6985981466,34.9796099297,100
                135.6981747251,34.9796081848,100
                135.6977356033,34.9796119643,100
                135.697286683,34.9796160696,100
                135.6972142702,34.9796167356,100
                135.6969313215,34.9796168814,100
                135.6966566525,34.979617116,100
                135.6963586606,34.979618631,100
                135.6953941229,34.9796215871,100
                135.6941994089,34.9796187491,100
                135.6941877879,34.9790960657,100
                135.6941269151,34.979041824,100
                135.6940695178,34.9789381497,100
              </coordinates>
            </LinearRing>
          </outerBoundaryIs>
        </Polygon>
      </Placemark>
    </Document>
  </Document>
</kml>
