<?xml version="1.0" encoding="UTF-8"?>
<kml xmlns="http://www.opengis.net/kml/2.2">
  <Document id="root_doc">
    <Document id="_0_02______disv4326">
      <name>30_02松尾disv4326</name>
      <Placemark id="_0_02______disv4326.1">
        <visibility>1</visibility>
        <Polygon>
          <extrude>0</extrude>
          <outerBoundaryIs>
            <LinearRing>
              <coordinates>
                135.6858073659,34.9862298094,100
                135.6856425412,34.986192763,100
                135.6855083615,34.9861819943,100
                135.6851893656,34.9861986407,100
                135.6846937973,34.9861400364,100
                135.6846916811,34.9861397498,100
                135.6844127141,34.9861165577,100
                135.6842661874,34.9861403334,100
                135.6836418788,34.9864353526,100
                135.6835554827,34.9864604116,100
                135.6833473446,34.986438598,100
                135.6830424094,34.9866333834,100
                135.6828627586,34.9867861694,100
                135.6825522105,34.9871871613,100
                135.6823245794,34.9875273061,100
                135.6822575751,34.9875712205,100
                135.681962694,34.9876964473,100
                135.6817291961,34.9879088165,100
                135.681113362,34.9881053915,100
                135.6806686304,34.9882367734,100
                135.6807541736,34.9884164558,100
                135.6807618994,34.9885209246,100
                135.680579993,34.9884360701,100
                135.6800569135,34.9886275333,100
                135.6793898415,34.9888157268,100
                135.6793100277,34.988835518,100
                135.6791354175,34.9889649322,100
                135.678961093,34.9890207462,100
                135.6787447026,34.9890121449,100
                135.6784863966,34.988906309,100
                135.678294145,34.988896433,100
                135.6781477336,34.9889590107,100
                135.678019261,34.9889372594,100
                135.6778100707,34.9889039546,100
                135.6776266775,34.9888390937,100
                135.6774181287,34.988909535,100
                135.6772080173,34.9889584904,100
                135.6770696253,34.988983901,100
                135.6768051876,34.9889741826,100
                135.6767445061,34.9888999984,100
                135.676687666,34.9888717451,100
                135.676538182,34.9888346525,100
                135.6763133863,34.9887551004,100
                135.6760244716,34.988676081,100
                135.6758569524,34.9886713374,100
                135.6757187249,34.9886495573,100
                135.6755464754,34.988591485,100
                135.6753711735,34.9884832562,100
                135.6750334021,34.9883109217,100
                135.6749263084,34.9882342172,100
                135.6748227108,34.9880960338,100
                135.6746752346,34.987947098,100
                135.6746432801,34.9877995991,100
                135.674495832,34.9876384777,100
                135.6743488214,34.9876099105,100
                135.6741597267,34.9876623678,100
                135.6738923339,34.9876012894,100
                135.6736133604,34.9876171619,100
                135.6735334879,34.9876088469,100
                135.6734249806,34.9875440391,100
                135.6733517565,34.9874834118,100
                135.6732053926,34.9874593525,100
                135.6730660131,34.987507293,100
                135.6728473997,34.9875691067,100
                135.6725172713,34.9876231541,100
                135.6723235764,34.9877396188,100
                135.6721323901,34.9878377087,100
                135.6720481514,34.987854175,100
                135.6719085218,34.987832813,100
                135.6717410599,34.9877247434,100
                135.6714738808,34.9876733859,100
                135.6713473799,34.9876914995,100
                135.6711941061,34.9877694084,100
                135.6711088182,34.9879352576,100
                135.6711114666,34.9880852856,100
                135.671082035,34.9881199994,100
                135.6709418374,34.9881811805,100
                135.6707726492,34.9881673432,100
                135.6706118193,34.98809204,100
                135.6704269444,34.9879360999,100
                135.6703443895,34.987943625,100
                135.6702026677,34.9879791634,100
                135.6700875992,34.9880481581,100
                135.6698751117,34.9882819818,100
                135.6697784365,34.9884423756,100
                135.6695419218,34.988649017,100
                135.6693230255,34.9887840054,100
                135.6691237455,34.9889676456,100
                135.6690974888,34.9890211025,100
                135.6690903152,34.9891389844,100
                135.6692376525,34.9899039886,100
                135.6692364532,34.9901156317,100
                135.6691902524,34.9902279867,100
                135.6690952971,34.9903643668,100
                135.6688276965,34.9905147147,100
                135.6686872721,34.9905297582,100
                135.6683982574,34.9905161539,100
                135.6681983779,34.990571461,100
                135.6680816745,34.9906882012,100
                135.6679991776,34.9908858178,100
                135.6679214905,34.9915203316,100
                135.6678321444,34.9917968829,100
                135.6676908735,34.9920506832,100
                135.6674144824,34.9924390589,100
                135.6672323333,34.9926522487,100
                135.6669768198,34.9927479689,100
                135.666442279,34.9928495432,100
                135.6660349971,34.9930167534,100
                135.6658396948,34.9931330613,100
                135.6657900735,34.993268715,100
                135.6658730766,34.9934770664,100
                135.6658616333,34.9936013444,100
                135.6658142215,34.9937408068,100
                135.6656655967,34.993843789,100
                135.6655504854,34.9938365003,100
                135.6652827337,34.9936801807,100
                135.665033437,34.9936522375,100
                135.6646120956,34.9935111285,100
                135.6636399204,34.9933429994,100
                135.6633367971,34.9932969428,100
                135.6630563183,34.9932912354,100
                135.6625569983,34.9933545723,100
                135.6622692089,34.9933467299,100
                135.6619750795,34.9934851513,100
                135.6618380137,34.9934982921,100
                135.6617940453,34.9935024653,100
                135.6612819926,34.9934059581,100
                135.6610133144,34.9934185206,100
                135.6606590915,34.9935115526,100
                135.6603585433,34.9938075721,100
                135.6601902698,34.9939915543,100
                135.6596760841,34.9942506304,100
                135.659455869,34.9944118536,100
                135.6593944243,34.9946052179,100
                135.6593085482,34.9948333764,100
                135.6588583339,34.9953146019,100
                135.6585812822,34.9953876243,100
                135.6583242902,34.995285338,100
                135.6580192126,34.9954148322,100
                135.6578022664,34.9954859817,100
                135.6575416907,34.9955165108,100
                135.6571359278,34.9955306371,100
                135.6566257694,34.9955871455,100
                135.6563209276,34.9956895207,100
                135.6560672283,34.9959496586,100
                135.6558058658,34.9961175148,100
                135.6557815807,34.9965247967,100
                135.6558154806,34.9967960387,100
                135.655931906,34.9970724467,100
                135.6557003069,34.9973056025,100
                135.6556380332,34.9974006419,100
                135.6555202197,34.9976335595,100
                135.6554179488,34.997781797,100
                135.6552090256,34.9978866987,100
                135.6545561677,34.9979652523,100
                135.6542659565,34.998136683,100
                135.6540670346,34.9981772403,100
                135.6537526412,34.9980318899,100
                135.65355357,34.9978577842,100
                135.6531404719,34.9977189079,100
                135.6523447402,34.9974132105,100
                135.6520599369,34.9973006202,100
                135.6519243165,34.9972371252,100
                135.6517539966,34.9971574011,100
                135.6514472332,34.9971179189,100
                135.6513838347,34.9970981571,100
                135.6511982516,34.9970404319,100
                135.6507082075,34.9968549851,100
                135.6505910799,34.9968106986,100
                135.6504851518,34.9968048272,100
                135.6504157156,34.9968009628,100
                135.6502262027,34.9968632333,100
                135.6501018408,34.9969407629,100
                135.6500253607,34.996988502,100
                135.6490704652,34.9971603075,100
                135.6481597521,34.9972760356,100
                135.6479294159,34.9972820514,100
                135.6478808005,34.9972727544,100
                135.6475954299,34.9972197327,100
                135.6472804345,34.9971299306,100
                135.6472752631,34.997128437,100
                135.6469931441,34.9970913415,100
                135.6469922129,34.9970939443,100
                135.6469865377,34.9971101266,100
                135.646900178,34.9973556624,100
                135.6468821566,34.9974068803,100
                135.6468816368,34.9974083585,100
                135.6467850452,34.997520477,100
                135.6466430273,34.9975981649,100
                135.6466420614,34.9975987255,100
                135.6461518632,34.9976821542,100
                135.6461509205,34.9976822929,100
                135.6460957947,34.9977243164,100
                135.6459747023,34.9978166427,100
                135.6459790995,34.9979930038,100
                135.6459791353,34.9979946246,100
                135.6460987286,34.998166182,100
                135.6462296074,34.9982860089,100
                135.6461733352,34.9987286161,100
                135.6461721163,34.998738261,100
                135.6460641384,34.9989202081,100
                135.6458554107,34.9989914321,100
                135.6452626152,34.9989935663,100
                135.6452605819,34.9989935603,100
                135.645145642,34.9990430135,100
                135.6450792105,34.9990716237,100
                135.6449596509,34.9991600803,100
                135.6448105978,34.9992704226,100
                135.6448039006,34.9992754032,100
                135.644702557,34.9993124312,100
                135.6445304515,34.999375239,100
                135.6445292094,34.9993756579,100
                135.6444547862,34.9993819181,100
                135.6441452815,34.9994078393,100
                135.6440566856,34.9994211002,100
                135.64376392,34.9994649581,100
                135.6437605412,34.9994645251,100
                135.6437601353,34.9994643836,100
                135.6434133394,34.9994207518,100
                135.6432040265,34.9993937948,100
                135.6431969484,34.9993928584,100
                135.6431026901,34.9994291305,100
                135.6429826691,34.9994753991,100
                135.6428978216,34.9996353687,100
                135.6428468453,34.9997314207,100
                135.6428504985,34.9997326989,100
                135.6438589749,35.0000798504,100
                135.6451346946,35.0008211117,100
                135.6455827608,35.0010704695,100
                135.6458997882,35.0012316203,100
                135.6460525525,35.0013582724,100
                135.6461144627,35.0015499431,100
                135.6460198973,35.0017813699,100
                135.6457070059,35.0023182292,100
                135.6457140671,35.002511853,100
                135.6458228602,35.0026586593,100
                135.6460405952,35.0029229041,100
                135.6462222776,35.0032567642,100
                135.6463245798,35.0035745426,100
                135.6463611951,35.0038719152,100
                135.6462435936,35.0042946873,100
                135.6463627759,35.004533849,100
                135.6465963657,35.0048994068,100
                135.6466559284,35.0050257135,100
                135.6466246568,35.0052169675,100
                135.6466650371,35.005340964,100
                135.6467491729,35.0054853708,100
                135.6466376531,35.0058023115,100
                135.6466579865,35.0060747771,100
                135.6467111489,35.0063564225,100
                135.6466824764,35.00657015,100
                135.6464863319,35.0068305038,100
                135.6464578878,35.0070060617,100
                135.6466207725,35.0072745061,100
                135.6466607878,35.0074638562,100
                135.6466126815,35.0077180224,100
                135.6465106595,35.0078211787,100
                135.6463404156,35.0078699794,100
                135.6461014544,35.0079501988,100
                135.6459938132,35.0080758042,100
                135.6458386613,35.0083567001,100
                135.6455712506,35.0086122657,100
                135.645474405,35.0087649467,100
                135.6454375011,35.0089809034,100
                135.6453351573,35.0091380754,100
                135.6450516789,35.0093328861,100
                135.6447957179,35.0095030574,100
                135.6444656019,35.0097043502,100
                135.6442373818,35.0098227697,100
                135.6441018846,35.0100249147,100
                135.6440949677,35.0102680039,100
                135.6442273009,35.0106039702,100
                135.6442178556,35.0108088103,100
                135.6441291714,35.0109727826,100
                135.6438783444,35.0112059988,100
                135.6436937984,35.0113583492,100
                135.6435642153,35.0114839598,100
                135.6434891249,35.0116659992,100
                135.6434211711,35.0120327157,100
                135.6433222631,35.0125343456,100
                135.6430646556,35.0129859298,100
                135.6429271629,35.0130596133,100
                135.642470939,35.0132605317,100
                135.642146098,35.0134889498,100
                135.6417721199,35.0136878555,100
                135.6413818553,35.0138574154,100
                135.6411040655,35.0144778218,100
                135.6409113087,35.0146256391,100
                135.6404850339,35.0148558696,100
                135.6400979539,35.0149512778,100
                135.639737199,35.0152312802,100
                135.6397416087,35.0154113736,100
                135.6398119962,35.0155625054,100
                135.639882441,35.0157001858,100
                135.6398624592,35.015835133,100
                135.6393136692,35.0163891006,100
                135.6391100975,35.0165076594,100
                135.6389287546,35.0165790976,100
                135.638135666,35.0167246391,100
                135.6377046241,35.0168332235,100
                135.6375916532,35.0169341616,100
                135.6375524314,35.0170735597,100
                135.637585898,35.0174429768,100
                135.6375245882,35.0176116079,100
                135.6371865448,35.0182204979,100
                135.6370670862,35.0184812148,100
                135.6369350279,35.0185617425,100
                135.6366003129,35.0186099749,100
                135.6365586432,35.0187021806,100
                135.6368679771,35.0188182494,100
                135.6371244931,35.0187989398,100
                135.6371254778,35.018798732,100
                135.6375241654,35.0187252634,100
                135.6382642065,35.0184372305,100
                135.6386100507,35.0183152909,100
                135.6390321901,35.0182127318,100
                135.6398596525,35.018059464,100
                135.6403712213,35.0180063928,100
                135.6414719277,35.0176230655,100
                135.6416550159,35.0175197262,100
                135.6417784632,35.0173808574,100
                135.6418712798,35.0173267609,100
                135.6419179672,35.0172995031,100
                135.6422437,35.0172920788,100
                135.6424100382,35.0172160842,100
                135.6427363037,35.0170176664,100
                135.643012399,35.0169037526,100
                135.6432376925,35.0168825811,100
                135.64323827,35.0168825124,100
                135.6432903687,35.0168459728,100
                135.643543008,35.0166682551,100
                135.6438056866,35.0165830337,100
                135.6440132431,35.0165754717,100
                135.6440150603,35.0165758991,100
                135.6440684661,35.0165883091,100
                135.6443399586,35.0166514993,100
                135.6444332281,35.0166602226,100
                135.6444760343,35.0166642209,100
                135.6446880431,35.016557723,100
                135.6448252845,35.0164886133,100
                135.6448270861,35.0164877036,100
                135.6450105717,35.0162860486,100
                135.6451178073,35.0161631876,100
                135.6452174726,35.0160490376,100
                135.6454204783,35.0159403298,100
                135.6458759666,35.0157969331,100
                135.646378252,35.0155852894,100
                135.6466407144,35.0155492904,100
                135.6466423616,35.0155492952,100
                135.6468114839,35.0155604198,100
                135.6468597942,35.0155635184,100
                135.6468610745,35.0155642258,100
                135.6475402549,35.0159249533,100
                135.6475422193,35.0159260155,100
                135.6475849182,35.0159403667,100
                135.6479367962,35.0160583044,100
                135.6481483746,35.0159992759,100
                135.6481495742,35.0159988575,100
                135.6482141365,35.0159558057,100
                135.6485125429,35.015756816,100
                135.6486420448,35.0157571955,100
                135.649175668,35.0159855256,100
                135.6496547082,35.0161112253,100
                135.6496599248,35.0161125087,100
                135.64986213,35.0154165988,100
                135.6497967608,35.0151733025,100
                135.6498347588,35.0150107319,100
                135.6499533515,35.0148538197,100
                135.6500118133,35.0147154649,100
                135.6501009535,35.0145045916,100
                135.6502258186,35.0143018513,100
                135.650239611,35.0142794958,100
                135.6503216623,35.0142151555,100
                135.6503605715,35.0141846341,100
                135.6504637822,35.0141666953,100
                135.6507765614,35.0141123928,100
                135.650901327,35.0140535286,100
                135.6510422002,35.0137246312,100
                135.651137988,35.0135296926,100
                135.6511393269,35.0135268795,100
                135.6516730558,35.0132448982,100
                135.6516767887,35.0132429377,100
                135.651993,35.0131504002,100
                135.6520557843,35.0131320604,100
                135.6526917535,35.0127105072,100
                135.6533008506,35.0123666908,100
                135.6537136144,35.0122652017,100
                135.6540327513,35.0123707033,100
                135.6542983154,35.0123863976,100
                135.6548747885,35.0122965736,100
                135.6554456034,35.0123665245,100
                135.6558394311,35.0122939184,100
                135.6561231801,35.0123110698,100
                135.6564213239,35.0124785502,100
                135.6569685213,35.0126337829,100
                135.6571641312,35.012704696,100
                135.6576036816,35.0127528542,100
                135.6579056389,35.0127973078,100
                135.6583200518,35.0129515233,100
                135.6587776997,35.0130894501,100
                135.6590962998,35.0131258499,100
                135.6594152447,35.0130789362,100
                135.6600169701,35.0129030995,100
                135.6603293,35.0128575744,100
                135.660538782,35.0127843614,100
                135.6606356771,35.0126371638,100
                135.6608001644,35.0122086671,100
                135.6609237627,35.0120260503,100
                135.6611469612,35.0118490685,100
                135.6613598803,35.0117514259,100
                135.6616721394,35.0117168132,100
                135.6617555709,35.011615988,100
                135.6615278211,35.0110791997,100
                135.661526799,35.0108222867,100
                135.6615688556,35.0106912039,100
                135.661978707,35.0103372784,100
                135.6622989014,35.0099898598,100
                135.6625089344,35.0097801635,100
                135.6627053633,35.0096523322,100
                135.6633268114,35.0095202727,100
                135.6635270041,35.0092832224,100
                135.6637402244,35.0091047309,100
                135.6641464236,35.0088354394,100
                135.6643894801,35.0087709773,100
                135.6646467169,35.0087921915,100
                135.6650469595,35.0088909913,100
                135.6657334873,35.0091408046,100
                135.6659163723,35.0091583571,100
                135.6660972903,35.0091492135,100
                135.6661988088,35.0091300593,100
                135.666427771,35.0090107646,100
                135.6665482065,35.0088867999,100
                135.6667195349,35.0085521259,100
                135.6669152633,35.008469077,100
                135.6670519284,35.0082902263,100
                135.6671978953,35.0082502783,100
                135.667379633,35.0082706431,100
                135.6676887479,35.0082702338,100
                135.6679811981,35.0083052721,100
                135.6680990031,35.0083015846,100
                135.6682356576,35.0082199886,100
                135.6682863201,35.0081550572,100
                135.6683094458,35.0080623016,100
                135.6682961073,35.0077420435,100
                135.6683111325,35.0076256034,100
                135.6683502518,35.0074890171,100
                135.6684683814,35.0073206781,100
                135.6685536533,35.0071332327,100
                135.6686262944,35.0067993396,100
                135.6686975299,35.006648124,100
                135.6689237069,35.0064593783,100
                135.669236996,35.0062360129,100
                135.6693604914,35.0060952933,100
                135.6694635973,35.0060217733,100
                135.6696459933,35.005916007,100
                135.6698506132,35.0058448087,100
                135.6702154103,35.0058120111,100
                135.6704505234,35.0056829371,100
                135.6705637221,35.0056643047,100
                135.6706161461,35.0057240986,100
                135.6708145468,35.0057935908,100
                135.6709571753,35.0057790527,100
                135.6711058369,35.0057914336,100
                135.6712588052,35.0058979139,100
                135.6714972322,35.005960401,100
                135.6715481787,35.0059890628,100
                135.6716100263,35.0059623304,100
                135.6719185057,35.0059009222,100
                135.6721902671,35.0058853971,100
                135.6722928639,35.005925249,100
                135.6723594157,35.0056592928,100
                135.6725478251,35.0053316157,100
                135.6727494873,35.0051399634,100
                135.6729484304,35.0049803465,100
                135.6730763942,35.0048897686,100
                135.6732679399,35.0047121724,100
                135.6733063707,35.0046965702,100
                135.673719701,35.0046813271,100
                135.6740485639,35.0047001554,100
                135.6740904617,35.0046840691,100
                135.6744083294,35.0043325028,100
                135.6745114516,35.0042727737,100
                135.6745690258,35.0042696157,100
                135.6748085777,35.0043346158,100
                135.6750680681,35.0043741044,100
                135.6751332309,35.0043461062,100
                135.675242689,35.0042644198,100
                135.6754946515,35.0043189586,100
                135.6757276584,35.0043187978,100
                135.6761678925,35.00427439,100
                135.6765449423,35.0041154434,100
                135.6766398622,35.0040676628,100
                135.6767948908,35.0039170067,100
                135.6769172018,35.0038469722,100
                135.6771121347,35.003805157,100
                135.6774333448,35.0038424773,100
                135.6776270932,35.0036941746,100
                135.6779293843,35.0036400327,100
                135.6781404391,35.0036225545,100
                135.6784392533,35.0036253755,100
                135.6787714088,35.0036656793,100
                135.6791239916,35.0037295576,100
                135.6792376018,35.0037604179,100
                135.6793666224,35.0038503352,100
                135.6799567732,35.0044545745,100
                135.6804846524,35.0043393886,100
                135.6810034818,35.004201359,100
                135.6813185214,35.0039120168,100
                135.6813215169,35.0037308168,100
                135.6807821704,35.0036389253,100
                135.6808140219,35.0034168121,100
                135.680879445,35.0032226749,100
                135.6808192184,35.0031483572,100
                135.6805970439,35.0027227376,100
                135.6804545905,35.0026696173,100
                135.6803691544,35.0025133937,100
                135.6803109965,35.0024855641,100
                135.6802655308,35.0024181146,100
                135.6801704869,35.0021406559,100
                135.6802339243,35.0020596852,100
                135.6802846496,35.0019184638,100
                135.6802839966,35.0016729439,100
                135.6802116844,35.0014934411,100
                135.6800569469,35.0013252757,100
                135.679786061,35.0011080695,100
                135.6797073589,35.0009817956,100
                135.6796647231,35.0007368692,100
                135.6797227391,35.0005312241,100
                135.6796237346,35.0004812428,100
                135.6798311873,35.0003971956,100
                135.6799455036,35.0002784662,100
                135.6800466663,34.999827203,100
                135.6800602264,34.9996135537,100
                135.6799299893,34.9992309905,100
                135.6798979404,34.9990812437,100
                135.6799391438,34.9988237878,100
                135.6799427682,34.9985295406,100
                135.6798499497,34.9982091237,100
                135.6797010491,34.9979004635,100
                135.6796585297,34.9977526606,100
                135.6795993105,34.9974200055,100
                135.6796754738,34.9974061887,100
                135.6798454026,34.9974126182,100
                135.6799758938,34.997364785,100
                135.680181961,34.9971563559,100
                135.6803193084,34.997106357,100
                135.6805126285,34.9969899463,100
                135.6807859697,34.9967415474,100
                135.6810940105,34.9965827554,100
                135.6812594544,34.9964265497,100
                135.6815330739,34.9963544358,100
                135.6821294502,34.9963788734,100
                135.6822172343,34.9963637478,100
                135.6828637341,34.9972800896,100
                135.6831514897,34.9973935201,100
                135.6834840383,34.9973433879,100
                135.683785172,34.9976954652,100
                135.6840750113,34.997785234,100
                135.6851927965,34.9982662486,100
                135.6855288825,34.9984205035,100
                135.6855885725,34.9984446731,100
                135.6859260712,34.9985604767,100
                135.6859499408,34.9985681435,100
                135.6861926422,34.9986697589,100
                135.6864155838,34.9987739997,100
                135.6865701973,34.9988358793,100
                135.6867089953,34.9988702499,100
                135.6869263554,34.9988953842,100
                135.6870110307,34.9988877823,100
                135.6870247447,34.9987755528,100
                135.6872372369,34.9987753192,100
                135.6872418483,34.9988511131,100
                135.6875574682,34.9988636771,100
                135.6875633249,34.9990004651,100
                135.6874454787,34.9989988278,100
                135.687449764,34.9991831508,100
                135.6878116634,34.999145617,100
                135.6881440461,34.9990936387,100
                135.6882068823,34.9991235901,100
                135.6884274675,34.9992241581,100
                135.6887600018,34.9993759298,100
                135.6888985817,34.9989585674,100
                135.6895437372,34.9992429708,100
                135.689311051,34.9996274874,100
                135.6900138303,34.9999483043,100
                135.6903263127,34.9995549023,100
                135.6904659238,34.9993854495,100
                135.6906424566,34.9992290495,100
                135.690903295,34.9990724374,100
                135.6915222701,34.9987619934,100
                135.6917667277,34.9986417516,100
                135.692349553,34.9983550875,100
                135.6930602478,34.9980551488,100
                135.6934299244,34.9979147918,100
                135.6937067065,34.9978292774,100
                135.6944248904,34.9976353445,100
                135.6949278838,34.997541797,100
                135.6951780725,34.9975355864,100
                135.6954789433,34.9975369663,100
                135.6955813846,34.9969583691,100
                135.6956324779,34.9969412396,100
                135.6958257194,34.9968973488,100
                135.6958862009,34.9968531654,100
                135.6959170912,34.9968305975,100
                135.6960647318,34.9963810649,100
                135.6960566699,34.9963802004,100
                135.6961001263,34.9962344495,100
                135.6962437319,34.9957527923,100
                135.6962442309,34.9957511033,100
                135.6954979516,34.9956439648,100
                135.6955607228,34.99534332,100
                135.6956876346,34.994735342,100
                135.6959978232,34.9947718177,100
                135.6962573683,34.9948433821,100
                135.6965651637,34.9948731606,100
                135.6966269758,34.9948790174,100
                135.6966336357,34.9947955763,100
                135.6967991138,34.9944086253,100
                135.696829714,34.9943370048,100
                135.6970294152,34.99386999,100
                135.6970918774,34.9933700289,100
                135.6971443347,34.9929201884,100
                135.6972251797,34.992881017,100
                135.6971247336,34.9927920292,100
                135.6970983885,34.9927767515,100
                135.6966274427,34.9930562473,100
                135.6965878826,34.9930037503,100
                135.6966457564,34.9929455073,100
                135.6967052424,34.9926978852,100
                135.6966720095,34.9926643498,100
                135.6966603717,34.9923952824,100
                135.696638428,34.9921710526,100
                135.6966310539,34.9920874347,100
                135.6966303969,34.9920798971,100
                135.6966240562,34.99176598,100
                135.6966177641,34.9910420243,100
                135.6964766047,34.9910411819,100
                135.6964707569,34.990856151,100
                135.6964039232,34.9908551398,100
                135.6963011231,34.9908901003,100
                135.696193812,34.9908946231,100
                135.6961397622,34.9908442028,100
                135.6961421264,34.9906426408,100
                135.6961144394,34.9906434883,100
                135.6960222222,34.9906455134,100
                135.695584275,34.9906514691,100
                135.6953244313,34.9906473726,100
                135.6951233344,34.9906441963,100
                135.6948330703,34.9906396011,100
                135.6943710613,34.9906323932,100
                135.6938858823,34.9906247731,100
                135.693834384,34.9900058539,100
                135.6938742544,34.989851855,100
                135.6938639599,34.9896965325,100
                135.6938115878,34.9896441432,100
                135.6938723457,34.9896444364,100
                135.6938708302,34.9894987141,100
                135.6938331326,34.9894989726,100
                135.6938025194,34.9894984736,100
                135.6938040345,34.9894360061,100
                135.6939619998,34.9894385846,100
                135.6939711262,34.9893828974,100
                135.693829979,34.9893797276,100
                135.6938261499,34.9892637916,100
                135.6938811966,34.9892639292,100
                135.6938771847,34.9890934107,100
                135.6929581858,34.9890856876,100
                135.6929564725,34.988537744,100
                135.6929856305,34.9875625131,100
                135.6921430722,34.9875134921,100
                135.6918061267,34.9875065877,100
                135.6910998845,34.9875222043,100
                135.6911447531,34.9877097294,100
                135.6911812341,34.9879609735,100
                135.6912358011,34.9882159942,100
                135.6912872225,34.9883388816,100
                135.6914436404,34.9885037292,100
                135.6915775184,34.9885971029,100
                135.691184671,34.988563883,100
                135.6911285576,34.9885591378,100
                135.6909696949,34.9886196585,100
                135.6908964649,34.9886249667,100
                135.6906800891,34.9886071659,100
                135.6904700845,34.9886361447,100
                135.6903753899,34.9885973811,100
                135.6900680092,34.9886122391,100
                135.690067453,34.9886122377,100
                135.689747486,34.9886689686,100
                135.6896325424,34.9886387449,100
                135.6893832336,34.9886057853,100
                135.6892605528,34.9885565257,100
                135.6889870441,34.9885987941,100
                135.6889445904,34.9885895299,100
                135.6888627507,34.9885572767,100
                135.6887342178,34.988551034,100
                135.6885906394,34.9886088438,100
                135.6885029647,34.9885925635,100
                135.6883739358,34.9885077904,100
                135.688038111,34.9883099437,100
                135.6878690706,34.9881359747,100
                135.6878459438,34.9880736567,100
                135.6875213606,34.9880613484,100
                135.6872081904,34.988040477,100
                135.6871079554,34.9880417699,100
                135.6870617316,34.9873437658,100
                135.6864656036,34.9873422408,100
                135.6863723171,34.9870513378,100
                135.6862572887,34.9862753338,100
                135.6861857759,34.9862571206,100
                135.685961254,34.9862511223,100
                135.6858073659,34.9862298094,100
              </coordinates>
            </LinearRing>
          </outerBoundaryIs>
        </Polygon>
      </Placemark>
    </Document>
  </Document>
</kml>
