<?xml version="1.0" encoding="UTF-8"?>
<kml xmlns="http://www.opengis.net/kml/2.2">
  <Document id="root_doc">
    <Document id="_0_07______disv4326">
      <name>30_07桂東disv4326</name>
      <Placemark id="_0_07______disv4326.1">
        <visibility>1</visibility>
        <Polygon>
          <extrude>0</extrude>
          <outerBoundaryIs>
            <LinearRing>
              <coordinates>
                135.708266174,34.9767337869,100
                135.7079184345,34.9768153624,100
                135.7077349591,34.9768838766,100
                135.7073915663,34.9770432142,100
                135.707255986,34.9771235325,100
                135.7070288887,34.9774188637,100
                135.7069793361,34.9775435465,100
                135.706885247,34.9777292548,100
                135.7068249745,34.9777574229,100
                135.7067083348,34.9778954672,100
                135.7067104067,34.9780119619,100
                135.7066231187,34.9780640822,100
                135.7067371763,34.9782709944,100
                135.7066360095,34.9782670899,100
                135.7066212916,34.9782976215,100
                135.7064019199,34.9782863209,100
                135.7064604684,34.9784498567,100
                135.7063538081,34.9785051709,100
                135.7064590941,34.9787182598,100
                135.706335189,34.9787622629,100
                135.7063969663,34.9788719983,100
                135.7062807818,34.9789164432,100
                135.7061429188,34.9789692175,100
                135.7060523948,34.9787981389,100
                135.7059870037,34.9788215761,100
                135.7059318037,34.978715377,100
                135.7056824952,34.9788219734,100
                135.7055789569,34.9788527844,100
                135.7053191797,34.9789068847,100
                135.7051745831,34.9789037913,100
                135.705006724,34.9789823392,100
                135.7048188944,34.9790037203,100
                135.7045879124,34.9791170493,100
                135.7045089473,34.9792219401,100
                135.7043816692,34.9792633278,100
                135.7043702323,34.979194913,100
                135.7042601818,34.9792588793,100
                135.7042001673,34.9793578991,100
                135.703949004,34.9793829997,100
                135.7034492953,34.9794370101,100
                135.7033552311,34.9801048031,100
                135.7033489587,34.9802437458,100
                135.7033151518,34.9806601823,100
                135.7032549021,34.9806629232,100
                135.7031069833,34.9802172429,100
                135.7029538165,34.9799955134,100
                135.7028483175,34.9796119962,100
                135.7027870681,34.979613383,100
                135.7027773632,34.9794749524,100
                135.7027769099,34.9794749711,100
                135.7027705903,34.9794752651,100
                135.7026900828,34.9794752198,100
                135.7025007509,34.9794817638,100
                135.7024909179,34.9794829373,100
                135.7024723776,34.9795013783,100
                135.7024647112,34.9795180553,100
                135.702454927,34.9795558834,100
                135.7025346753,34.9815790841,100
                135.7025970227,34.9831681167,100
                135.7032027387,34.9831488768,100
                135.7035764719,34.9831118186,100
                135.7038303223,34.9830866544,100
                135.704095524,34.9837310171,100
                135.7041911565,34.983915701,100
                135.7043765798,34.9841832855,100
                135.7043907579,34.9842032516,100
                135.7045183613,34.9844094228,100
                135.704681783,34.9846563891,100
                135.7048089944,34.9848407963,100
                135.7051337097,34.9852663351,100
                135.7052860852,34.9854440413,100
                135.7054123761,34.9855811892,100
                135.7057437324,34.985897154,100
                135.7059804434,34.9860986561,100
                135.7062748098,34.9863388938,100
                135.7063591067,34.9864076902,100
                135.7065401613,34.9865346838,100
                135.7069557543,34.9867828838,100
                135.7071772722,34.9869075777,100
                135.7078556104,34.9872508458,100
                135.7082468069,34.9874542591,100
                135.7086331016,34.9876406867,100
                135.7090619853,34.9878477092,100
                135.7107291167,34.988649897,100
                135.7108956613,34.9883208933,100
                135.7111904705,34.9877680177,100
                135.711654439,34.9868575486,100
                135.7121096653,34.9859833963,100
                135.712189011,34.9858357522,100
                135.7127514204,34.9847893677,100
                135.71300911,34.9842037887,100
                135.7131765388,34.9838233699,100
                135.7133009393,34.9835930758,100
                135.7133974379,34.9834144823,100
                135.7138855868,34.9825535693,100
                135.7142467702,34.9818899115,100
                135.7147469289,34.9809839478,100
                135.7149469958,34.9806444512,100
                135.715036303,34.9805211265,100
                135.7151168823,34.9804098243,100
                135.7154265563,34.9800400147,100
                135.7157013338,34.9797589352,100
                135.7160248672,34.9794387395,100
                135.7148787038,34.9785981802,100
                135.7146181992,34.9785851079,100
                135.7147666241,34.978450934,100
                135.7158785716,34.9776563976,100
                135.7158763712,34.9776553355,100
                135.7149929325,34.9772345123,100
                135.7145519227,34.9770679767,100
                135.7141919976,34.9769357175,100
                135.7137802481,34.9767834036,100
                135.7137697093,34.9768059164,100
                135.713479717,34.9772957795,100
                135.7128303513,34.9770629695,100
                135.7127407263,34.9770308556,100
                135.712245289,34.9769796183,100
                135.7118713411,34.976975993,100
                135.7114645221,34.9769826418,100
                135.7108562278,34.9769926184,100
                135.7106108052,34.9769806291,100
                135.7105212569,34.9769821784,100
                135.7104993578,34.9769988888,100
                135.7099629922,34.9770055088,100
                135.7099611104,34.9770055043,100
                135.7095533432,34.9769524926,100
                135.7093445408,34.9768495236,100
                135.7091366912,34.9767677567,100
                135.7086264148,34.9767229509,100
                135.708266174,34.9767337869,100
              </coordinates>
            </LinearRing>
          </outerBoundaryIs>
        </Polygon>
      </Placemark>
    </Document>
  </Document>
</kml>
