<?xml version="1.0" encoding="UTF-8"?>
<kml xmlns="http://www.opengis.net/kml/2.2">
  <Document id="root_doc">
    <Document id="_0_04______disv4326">
      <name>30_04桂川disv4326</name>
      <Placemark id="_0_04______disv4326.1">
        <visibility>1</visibility>
        <Polygon>
          <extrude>0</extrude>
          <outerBoundaryIs>
            <LinearRing>
              <coordinates>
                135.6947711166,34.9843909048,100
                135.6947658759,34.9845194254,100
                135.6946675169,34.9845641838,100
                135.6936281723,34.9845850401,100
                135.6935509387,34.9845866075,100
                135.6929998758,34.9846047363,100
                135.6929758321,34.9854853216,100
                135.6929748911,34.9855200403,100
                135.6929800857,34.9861356741,100
                135.692979354,34.9868143281,100
                135.6929853887,34.9871947316,100
                135.6929856305,34.9875625131,100
                135.6929564725,34.988537744,100
                135.6929581858,34.9890856876,100
                135.6938771847,34.9890934107,100
                135.6938811966,34.9892639292,100
                135.6938261499,34.9892637916,100
                135.693829979,34.9893797276,100
                135.6939711262,34.9893828974,100
                135.6939619998,34.9894385846,100
                135.6938040345,34.9894360061,100
                135.6938025194,34.9894984736,100
                135.6938331326,34.9894989726,100
                135.6938708302,34.9894987141,100
                135.6938723457,34.9896444364,100
                135.6938115878,34.9896441432,100
                135.6938639599,34.9896965325,100
                135.6938742544,34.989851855,100
                135.693834384,34.9900058539,100
                135.6938858823,34.9906247731,100
                135.6943710613,34.9906323932,100
                135.6948330703,34.9906396011,100
                135.6951233344,34.9906441963,100
                135.6953244313,34.9906473726,100
                135.695584275,34.9906514691,100
                135.6960222222,34.9906455134,100
                135.6961144394,34.9906434883,100
                135.6961421264,34.9906426408,100
                135.6961397622,34.9908442028,100
                135.696193812,34.9908946231,100
                135.6963011231,34.9908901003,100
                135.6964039232,34.9908551398,100
                135.6964707569,34.990856151,100
                135.6964766047,34.9910411819,100
                135.6966177641,34.9910420243,100
                135.6966240562,34.99176598,100
                135.6966303969,34.9920798971,100
                135.6966310539,34.9920874347,100
                135.696638428,34.9921710526,100
                135.6966603717,34.9923952824,100
                135.6966720095,34.9926643498,100
                135.6967052424,34.9926978852,100
                135.6966457564,34.9929455073,100
                135.6965878826,34.9930037503,100
                135.6966274427,34.9930562473,100
                135.6970983885,34.9927767515,100
                135.6971247336,34.9927920292,100
                135.6972251797,34.992881017,100
                135.6971443347,34.9929201884,100
                135.6970918774,34.9933700289,100
                135.6970294152,34.99386999,100
                135.696829714,34.9943370048,100
                135.6967991138,34.9944086253,100
                135.6966336357,34.9947955763,100
                135.6966269758,34.9948790174,100
                135.6965651637,34.9948731606,100
                135.6962573683,34.9948433821,100
                135.6959978232,34.9947718177,100
                135.6956876346,34.994735342,100
                135.6955607228,34.99534332,100
                135.6954979516,34.9956439648,100
                135.6962442309,34.9957511033,100
                135.6962437319,34.9957527923,100
                135.6961001263,34.9962344495,100
                135.6960566699,34.9963802004,100
                135.6960647318,34.9963810649,100
                135.6959170912,34.9968305975,100
                135.6958862009,34.9968531654,100
                135.6958257194,34.9968973488,100
                135.6956324779,34.9969412396,100
                135.6955813846,34.9969583691,100
                135.6954789433,34.9975369663,100
                135.6960890402,34.9977350429,100
                135.6966733581,34.9976762703,100
                135.6975326879,34.99803173,100
                135.6977513927,34.9981221354,100
                135.6979030442,34.9982004728,100
                135.6980025531,34.9982905146,100
                135.6980942443,34.9984232153,100
                135.6987397042,34.9987849032,100
                135.6993360652,34.9988877828,100
                135.7002312216,34.9990004049,100
                135.7010491909,34.9990743078,100
                135.7020693126,34.9991565132,100
                135.7025949309,34.9991734231,100
                135.7034146769,34.9991826619,100
                135.7039988107,34.9991592813,100
                135.7041956248,34.9991465852,100
                135.7045902987,34.9990542884,100
                135.7047758403,34.9989793766,100
                135.7052210206,34.9987996569,100
                135.7057272445,34.9985772657,100
                135.7057529233,34.9985659839,100
                135.7062748314,34.9982765054,100
                135.7068189838,34.9979346789,100
                135.7070764324,34.9977398546,100
                135.7072626931,34.9975334506,100
                135.7076258842,34.9971615389,100
                135.7079779124,34.9967632582,100
                135.7085374937,34.9959350815,100
                135.7089073239,34.9953576712,100
                135.7091989549,34.9946919663,100
                135.7093024881,34.994447049,100
                135.7095121911,34.9939510216,100
                135.7061661032,34.9925017996,100
                135.7061625572,34.9925002417,100
                135.7054245528,34.9921752737,100
                135.7046462338,34.9918237944,100
                135.7045441259,34.9917729102,100
                135.7035867631,34.9912955584,100
                135.7033583422,34.991184362,100
                135.7021106153,34.9904952212,100
                135.7009944426,34.9898355452,100
                135.7004292674,34.989485754,100
                135.7003397542,34.989402711,100
                135.7001345437,34.9892124035,100
                135.6999179906,34.9890115747,100
                135.6994617314,34.9885884475,100
                135.6994413738,34.9885681141,100
                135.6991071699,34.9882340244,100
                135.6987367831,34.9878611096,100
                135.6983677256,34.9875000994,100
                135.6981331433,34.9872707691,100
                135.6981106548,34.9872484582,100
                135.6977573107,34.9868978383,100
                135.6977361232,34.986876516,100
                135.6972424288,34.9863819434,100
                135.6968810281,34.9860184109,100
                135.6964417893,34.985576577,100
                135.6963152854,34.9854492796,100
                135.6962519974,34.9853865816,100
                135.6954695789,34.9846112561,100
                135.6954689622,34.9846106207,100
                135.6954398864,34.9845818133,100
                135.6952175823,34.9843743394,100
                135.694949146,34.9843797982,100
                135.6948609043,34.984349576,100
                135.6947711166,34.9843909048,100
              </coordinates>
            </LinearRing>
          </outerBoundaryIs>
        </Polygon>
      </Placemark>
    </Document>
  </Document>
</kml>
