<?xml version="1.0" encoding="UTF-8"?>
<kml xmlns="http://www.opengis.net/kml/2.2">
  <Document id="root_doc">
    <Document id="_0_08______disv4326">
      <name>30_08川岡disv4326</name>
      <Placemark id="_0_08______disv4326.1">
        <visibility>1</visibility>
        <Polygon>
          <extrude>0</extrude>
          <outerBoundaryIs>
            <LinearRing>
              <coordinates>
                135.7047945524,34.9636290622,100
                135.7045135634,34.9636267415,100
                135.704247008,34.9636245391,100
                135.7039843177,34.9636223686,100
                135.7036970791,34.9636199944,100
                135.7036809059,34.9636198642,100
                135.7033930188,34.9636175468,100
                135.7031598805,34.9636156694,100
                135.703142857,34.9641153939,100
                135.7031310862,34.9644611729,100
                135.7030604377,34.9656859773,100
                135.7030015471,34.9667070588,100
                135.7029613434,34.9674039288,100
                135.7029325954,34.9681698464,100
                135.7029251099,34.9685431738,100
                135.7029167953,34.9689572067,100
                135.7029153708,34.9693583677,100
                135.7029147788,34.9695250721,100
                135.7029125017,34.9696180331,100
                135.7029071721,34.9698357161,100
                135.7029065167,34.9699178355,100
                135.7029044043,34.9701870101,100
                135.7029012384,34.9705897163,100
                135.7029024932,34.970633808,100
                135.7029664634,34.9727569084,100
                135.7029686301,34.9728272724,100
                135.7029754599,34.9730478735,100
                135.702476064,34.9730427208,100
                135.7025695312,34.9739511306,100
                135.7020202551,34.9740218476,100
                135.7013072941,34.9741097228,100
                135.7011673684,34.9741269688,100
                135.7002645416,34.974098499,100
                135.7001675082,34.9744338561,100
                135.6996999604,34.9745339196,100
                135.6996055374,34.9745531276,100
                135.6993761611,34.9745553834,100
                135.6989122706,34.9745598811,100
                135.6985964166,34.9745608658,100
                135.6982685962,34.9745821066,100
                135.6980935791,34.9745937187,100
                135.6978563463,34.9746092645,100
                135.6977465731,34.9745941602,100
                135.6973502655,34.9745396309,100
                135.6965399284,34.9745762215,100
                135.6965455708,34.9748132296,100
                135.6965596661,34.9754132491,100
                135.6965620815,34.9756435573,100
                135.6964849332,34.9756412538,100
                135.6964601656,34.975699507,100
                135.6964175014,34.9760315448,100
                135.696449654,34.9761367745,100
                135.6965556586,34.976527284,100
                135.6965564866,34.9765703887,100
                135.696553977,34.9769780252,100
                135.6965523306,34.9771627895,100
                135.6965484855,34.9775941244,100
                135.696480207,34.9776112102,100
                135.6965231264,34.9778913421,100
                135.6964818807,34.9780156179,100
                135.6964807982,34.978313037,100
                135.6965026704,34.9785567756,100
                135.6965056788,34.9786291143,100
                135.6965149057,34.9787737981,100
                135.6967260836,34.9787089633,100
                135.6969058407,34.97864884,100
                135.6969313215,34.9796168814,100
                135.6972142702,34.9796167356,100
                135.697286683,34.9796160696,100
                135.6977356033,34.9796119643,100
                135.6981747251,34.9796081848,100
                135.6985981466,34.9796099297,100
                135.6993694357,34.97961316,100
                135.6995841136,34.9796098824,100
                135.6995845407,34.9796098835,100
                135.70015062,34.9796009851,100
                135.7005614279,34.9795945219,100
                135.7012926009,34.9795759494,100
                135.7014274436,34.9795726157,100
                135.7016075149,34.9795680531,100
                135.7020986997,34.979559174,100
                135.702454927,34.9795558834,100
                135.7024647112,34.9795180553,100
                135.7024723776,34.9795013783,100
                135.7024909179,34.9794829373,100
                135.7025007509,34.9794817638,100
                135.7026900828,34.9794752198,100
                135.7027705903,34.9794752651,100
                135.7027769099,34.9794749711,100
                135.7027773632,34.9794749524,100
                135.7027870681,34.979613383,100
                135.7028483175,34.9796119962,100
                135.7029538165,34.9799955134,100
                135.7031069833,34.9802172429,100
                135.7032549021,34.9806629232,100
                135.7033151518,34.9806601823,100
                135.7033489587,34.9802437458,100
                135.7033552311,34.9801048031,100
                135.7034492953,34.9794370101,100
                135.703949004,34.9793829997,100
                135.7042001673,34.9793578991,100
                135.7042601818,34.9792588793,100
                135.7043702323,34.979194913,100
                135.7043816692,34.9792633278,100
                135.7045089473,34.9792219401,100
                135.7045879124,34.9791170493,100
                135.7048188944,34.9790037203,100
                135.705006724,34.9789823392,100
                135.7051745831,34.9789037913,100
                135.7053191797,34.9789068847,100
                135.7055789569,34.9788527844,100
                135.7056824952,34.9788219734,100
                135.7059318037,34.978715377,100
                135.7059870037,34.9788215761,100
                135.7060523948,34.9787981389,100
                135.7061429188,34.9789692175,100
                135.7062807818,34.9789164432,100
                135.7063969663,34.9788719983,100
                135.706335189,34.9787622629,100
                135.7064590941,34.9787182598,100
                135.7063538081,34.9785051709,100
                135.7064604684,34.9784498567,100
                135.7064019199,34.9782863209,100
                135.7066212916,34.9782976215,100
                135.7066360095,34.9782670899,100
                135.7067371763,34.9782709944,100
                135.7066231187,34.9780640822,100
                135.7067104067,34.9780119619,100
                135.7067083348,34.9778954672,100
                135.7068249745,34.9777574229,100
                135.706885247,34.9777292548,100
                135.7069793361,34.9775435465,100
                135.7070288887,34.9774188637,100
                135.707255986,34.9771235325,100
                135.7073915663,34.9770432142,100
                135.7077349591,34.9768838766,100
                135.7079184345,34.9768153624,100
                135.708266174,34.9767337869,100
                135.7086264148,34.9767229509,100
                135.7085622199,34.9766373685,100
                135.708580455,34.9765119769,100
                135.708585855,34.9765033274,100
                135.7086461999,34.9763682466,100
                135.7086497064,34.9761540797,100
                135.7086284754,34.9760654289,100
                135.7085757249,34.9759614911,100
                135.7085779276,34.9758085247,100
                135.7086476203,34.9758080556,100
                135.7088517865,34.9757921297,100
                135.7089447484,34.9757746025,100
                135.7090731802,34.9756818698,100
                135.709154527,34.9755783202,100
                135.7093158029,34.9756303261,100
                135.7093598264,34.9757157206,100
                135.7094006122,34.9757359593,100
                135.7095226267,34.9757354732,100
                135.7098460816,34.9756850365,100
                135.7100139146,34.9756295833,100
                135.7104624208,34.9755729624,100
                135.7105303511,34.975525653,100
                135.7106206394,34.9753291573,100
                135.710720639,34.9752064238,100
                135.7108551194,34.9752256871,100
                135.7109237576,34.9751344313,100
                135.7109466683,34.9751032152,100
                135.71096048,34.974944782,100
                135.7109312805,34.9747534972,100
                135.7109252266,34.9745930451,100
                135.7108633217,34.9742659665,100
                135.7108555705,34.9742250293,100
                135.7108664853,34.9738782366,100
                135.7108718445,34.9737079761,100
                135.7108824267,34.9735181237,100
                135.7108792493,34.9734844516,100
                135.711535976,34.9730694789,100
                135.7115843996,34.9730272648,100
                135.7117058967,34.9729339499,100
                135.7117201847,34.9724450633,100
                135.711732194,34.9720338538,100
                135.7132077994,34.9717321629,100
                135.7135893302,34.9716541536,100
                135.7140007325,34.9715886282,100
                135.7135651751,34.971194686,100
                135.7135163225,34.9711424256,100
                135.7130277677,34.9706197841,100
                135.7127073765,34.9702770293,100
                135.7125972044,34.9701448571,100
                135.712339637,34.9698145737,100
                135.7120148398,34.9693851789,100
                135.7118753413,34.9691296853,100
                135.7116341837,34.9686995709,100
                135.711564464,34.9685604494,100
                135.7094948926,34.9687548132,100
                135.7063756217,34.9687283144,100
                135.704851427,34.9687152252,100
                135.7048571596,34.9674416683,100
                135.7048454633,34.966094681,100
                135.7048255059,34.964555262,100
                135.7048273594,34.9636293328,100
                135.7047945524,34.9636290622,100
              </coordinates>
            </LinearRing>
          </outerBoundaryIs>
        </Polygon>
      </Placemark>
    </Document>
  </Document>
</kml>
