<?xml version="1.0" encoding="UTF-8"?>
<kml xmlns="http://www.opengis.net/kml/2.2">
  <Document id="root_doc">
    <Document id="_0_10______disv4326">
      <name>30_10樫原disv4326</name>
      <Placemark id="_0_10______disv4326.1">
        <visibility>1</visibility>
        <Polygon>
          <extrude>0</extrude>
          <outerBoundaryIs>
            <LinearRing>
              <coordinates>
                135.6896605428,34.9672294549,100
                135.6894682879,34.9672219247,100
                135.6887277774,34.9669679831,100
                135.6885964151,34.9669666638,100
                135.6883855112,34.9670507831,100
                135.6882733487,34.9670281718,100
                135.6881436209,34.9668919848,100
                135.6880534374,34.9668260459,100
                135.6879597967,34.9667809442,100
                135.687858577,34.9667606141,100
                135.6876088902,34.9667371588,100
                135.6872551469,34.9667490761,100
                135.6870450204,34.9667736118,100
                135.6867107729,34.9668623435,100
                135.6864152107,34.9669408211,100
                135.6862894247,34.9678883284,100
                135.6862107784,34.9685211401,100
                135.6858119938,34.9684615925,100
                135.6854747366,34.9684212875,100
                135.6853844082,34.9684278872,100
                135.685300817,34.9684800715,100
                135.6851483642,34.968733997,100
                135.6849287194,34.9690528968,100
                135.6848036353,34.9693142181,100
                135.6847590057,34.9693798833,100
                135.6846384729,34.9694269011,100
                135.6844037183,34.9694456645,100
                135.6842853359,34.9694433165,100
                135.6841588312,34.9694060147,100
                135.6841287929,34.9693739633,100
                135.6834295558,34.9693223632,100
                135.6829054824,34.9692806516,100
                135.6825114121,34.9693521707,100
                135.6824105351,34.9693705021,100
                135.6822627986,34.9693309599,100
                135.6820524075,34.9692198419,100
                135.6817015895,34.9693745759,100
                135.6815102218,34.9695648698,100
                135.6812126199,34.9695397262,100
                135.6810934949,34.9695642771,100
                135.6809201547,34.969945688,100
                135.6804191637,34.9699810034,100
                135.6803820504,34.9700428142,100
                135.6802553935,34.9703528596,100
                135.6801404195,34.9706500486,100
                135.6800212004,34.9709944848,100
                135.6799024723,34.9714226598,100
                135.6797246769,34.9716467205,100
                135.6788726015,34.9719100704,100
                135.6788264461,34.9720150287,100
                135.6788066132,34.9720658968,100
                135.6788323363,34.9724577559,100
                135.6788784668,34.9726214121,100
                135.678967675,34.9728075771,100
                135.6791735407,34.9728674171,100
                135.6792733296,34.9729220502,100
                135.6792287546,34.9729608096,100
                135.6792466041,34.9732200326,100
                135.6793074573,34.9732481534,100
                135.6791910689,34.9733049642,100
                135.6792432899,34.9734589167,100
                135.6792230841,34.9736016224,100
                135.6792467483,34.9737281027,100
                135.6792431228,34.9738090159,100
                135.6791743724,34.9739320849,100
                135.679306475,34.9742172443,100
                135.6794010223,34.9745347015,100
                135.679261889,34.9745426462,100
                135.6791687083,34.9745768398,100
                135.6791047881,34.9746392123,100
                135.6795707881,34.9747054414,100
                135.6795720457,34.9747898883,100
                135.6797527693,34.974869736,100
                135.6799050666,34.9749602835,100
                135.6803660135,34.974994521,100
                135.6804959685,34.9750209184,100
                135.6808304818,34.9749975657,100
                135.680918672,34.9750096281,100
                135.6810195398,34.974990313,100
                135.6811394161,34.9750399264,100
                135.6812628632,34.9751125792,100
                135.6815162736,34.9752040214,100
                135.6817218937,34.9752178689,100
                135.6823680628,34.9750731292,100
                135.6826078028,34.9750302287,100
                135.6827578207,34.9749954741,100
                135.683128852,34.9749763656,100
                135.6835778847,34.9749656977,100
                135.6840884829,34.9749821615,100
                135.6845018405,34.9750102035,100
                135.6850064155,34.9749609365,100
                135.6855833928,34.9749802375,100
                135.6858168386,34.9749545674,100
                135.6860682467,34.9750552205,100
                135.6864552915,34.9750424089,100
                135.6865309899,34.9751004241,100
                135.6865347948,34.9751237463,100
                135.6865384238,34.9751426299,100
                135.6865477185,34.9751911087,100
                135.6867618551,34.9752775099,100
                135.6870080755,34.9754046994,100
                135.6871178993,34.9754721691,100
                135.687146038,34.9755151327,100
                135.6871878204,34.9755535527,100
                135.6872729177,34.975631875,100
                135.6874792901,34.9757589629,100
                135.6875877033,34.9756889523,100
                135.687705112,34.9758158117,100
                135.6878052804,34.9758453656,100
                135.6880457242,34.9760023298,100
                135.6882498693,34.9761649069,100
                135.6886259206,34.9763422873,100
                135.6889240158,34.976528132,100
                135.6897234346,34.9765860115,100
                135.6897047841,34.9768842999,100
                135.6899367247,34.9768616467,100
                135.6899916012,34.9768652362,100
                135.6901719796,34.9770814168,100
                135.6906568435,34.9773659077,100
                135.6910100882,34.9774661744,100
                135.6913797774,34.977568102,100
                135.691436213,34.9774334436,100
                135.6915245028,34.9774428219,100
                135.6920476275,34.9771976387,100
                135.6919521391,34.9769598418,100
                135.6916920125,34.9765228101,100
                135.6922412072,34.9764750321,100
                135.692514648,34.9764512105,100
                135.6925723085,34.9766513733,100
                135.692931827,34.9766741789,100
                135.6930559593,34.9766388527,100
                135.6932817092,34.9768976113,100
                135.6932912205,34.9770512399,100
                135.6939433894,34.9772493699,100
                135.693927187,34.9773337719,100
                135.6939006961,34.9775051302,100
                135.6938690134,34.9777099291,100
                135.6938123081,34.9780765809,100
                135.6940498028,34.978091824,100
                135.6941326479,34.978092524,100
                135.6941498418,34.9783095587,100
                135.694118377,34.9784314629,100
                135.6942098899,34.9785535346,100
                135.694208428,34.9785826402,100
                135.6939941265,34.9785893329,100
                135.6940110482,34.9786139589,100
                135.6940695178,34.9789381497,100
                135.6941269151,34.979041824,100
                135.6941877879,34.9790960657,100
                135.6941994089,34.9796187491,100
                135.6953941229,34.9796215871,100
                135.6963586606,34.979618631,100
                135.6966566525,34.979617116,100
                135.6969313215,34.9796168814,100
                135.6969058407,34.97864884,100
                135.6967260836,34.9787089633,100
                135.6965149057,34.9787737981,100
                135.6965056788,34.9786291143,100
                135.6965026704,34.9785567756,100
                135.6964807982,34.978313037,100
                135.6964818807,34.9780156179,100
                135.6965231264,34.9778913421,100
                135.696480207,34.9776112102,100
                135.6965484855,34.9775941244,100
                135.6965523306,34.9771627895,100
                135.696553977,34.9769780252,100
                135.6965564866,34.9765703887,100
                135.6965556586,34.976527284,100
                135.696449654,34.9761367745,100
                135.6964175014,34.9760315448,100
                135.6964601656,34.975699507,100
                135.6964849332,34.9756412538,100
                135.6965620815,34.9756435573,100
                135.6965596661,34.9754132491,100
                135.6965455708,34.9748132296,100
                135.6965399284,34.9745762215,100
                135.6973502655,34.9745396309,100
                135.6977465731,34.9745941602,100
                135.6978563463,34.9746092645,100
                135.6980935791,34.9745937187,100
                135.6982685962,34.9745821066,100
                135.6985964166,34.9745608658,100
                135.6989122706,34.9745598811,100
                135.6993761611,34.9745553834,100
                135.6996055374,34.9745531276,100
                135.6996999604,34.9745339196,100
                135.7001675082,34.9744338561,100
                135.7002645416,34.974098499,100
                135.7011673684,34.9741269688,100
                135.7013072941,34.9741097228,100
                135.7020202551,34.9740218476,100
                135.7025695312,34.9739511306,100
                135.702476064,34.9730427208,100
                135.7029754599,34.9730478735,100
                135.7029686301,34.9728272724,100
                135.7029664634,34.9727569084,100
                135.7029024932,34.970633808,100
                135.7029012384,34.9705897163,100
                135.7029044043,34.9701870101,100
                135.7029065167,34.9699178355,100
                135.7029071721,34.9698357161,100
                135.7029125017,34.9696180331,100
                135.7029147788,34.9695250721,100
                135.7029153708,34.9693583677,100
                135.7029167953,34.9689572067,100
                135.7029251099,34.9685431738,100
                135.7029325954,34.9681698464,100
                135.7029613434,34.9674039288,100
                135.7030015471,34.9667070588,100
                135.7030604377,34.9656859773,100
                135.7031310862,34.9644611729,100
                135.703142857,34.9641153939,100
                135.7031598805,34.9636156694,100
                135.7024700536,34.9636850652,100
                135.7024089965,34.963996355,100
                135.702408195,34.9642217265,100
                135.7024817194,34.9644284036,100
                135.7025032967,34.964489165,100
                135.7025405891,34.9654841381,100
                135.702596713,34.9656762638,100
                135.7019339348,34.9656709256,100
                135.7012329474,34.9656504191,100
                135.7012286059,34.9656503387,100
                135.7012301147,34.9656770345,100
                135.7007784338,34.9656548075,100
                135.6999880727,34.9657516923,100
                135.6999624491,34.9664734579,100
                135.7000329072,34.966478067,100
                135.6999613332,34.9667786252,100
                135.6999814232,34.9670754626,100
                135.6999403068,34.9671310711,100
                135.6999201147,34.9673761151,100
                135.6999334082,34.9675991966,100
                135.7001155316,34.9675996412,100
                135.7001156524,34.9676017544,100
                135.7001161559,34.9676102775,100
                135.7001022502,34.9676769405,100
                135.699853797,34.968082991,100
                135.6998728399,34.968218191,100
                135.6998815623,34.9685172543,100
                135.6995941583,34.9685297926,100
                135.6985539836,34.968598167,100
                135.6966544682,34.9686071528,100
                135.69630686,34.9686061508,100
                135.6956904487,34.968542997,100
                135.6948419994,34.9685183507,100
                135.6940482901,34.968509964,100
                135.6938046286,34.968545133,100
                135.693677393,34.9685257994,100
                135.6935909529,34.9685279075,100
                135.6935001698,34.9685301461,100
                135.6934860389,34.9685282087,100
                135.6933996069,34.9685164416,100
                135.6930981994,34.9685271679,100
                135.6930157978,34.9685302013,100
                135.6929173714,34.9685337222,100
                135.6927926529,34.9683633888,100
                135.6927883778,34.968358666,100
                135.6927799014,34.9683238479,100
                135.6927704906,34.9682851985,100
                135.6927235458,34.9681271792,100
                135.6925721355,34.9678532543,100
                135.6924045669,34.9678209996,100
                135.6923465462,34.9677321141,100
                135.6921592473,34.9676385364,100
                135.6919619459,34.9675724716,100
                135.6919251381,34.9675601245,100
                135.6918440047,34.9675330173,100
                135.6916839028,34.9675294457,100
                135.691591618,34.9674809691,100
                135.6910629457,34.9673622343,100
                135.6910484958,34.9673601544,100
                135.6905642644,34.9672891384,100
                135.6903303394,34.9672539668,100
                135.6902181992,34.9672195261,100
                135.6901129178,34.967169397,100
                135.6899248038,34.9671471581,100
                135.6896605428,34.9672294549,100
              </coordinates>
            </LinearRing>
          </outerBoundaryIs>
        </Polygon>
      </Placemark>
    </Document>
  </Document>
</kml>
