<?xml version="1.0" encoding="UTF-8"?>
<kml xmlns="http://www.opengis.net/kml/2.2">
  <Document id="root_doc">
    <Document id="_2_05______disv4326">
      <name>32_05久我disv4326</name>
      <Placemark id="_2_05______disv4326.1">
        <visibility>1</visibility>
        <Polygon>
          <extrude>0</extrude>
          <outerBoundaryIs>
            <LinearRing>
              <coordinates>
                135.7377973484,34.9401138562,100
                135.7378633261,34.939895457,100
                135.7380585564,34.93924934,100
                135.738316692,34.9383949591,100
                135.7383578247,34.9382588383,100
                135.7385313153,34.9376845838,100
                135.7385248743,34.9375130722,100
                135.7385028629,34.9369275396,100
                135.7384899812,34.9365847996,100
                135.738423938,34.9358149024,100
                135.7365013837,34.9358383916,100
                135.736100761,34.935825459,100
                135.7359488633,34.9358205438,100
                135.7357674182,34.9358146472,100
                135.7354965246,34.9358058757,100
                135.7348506479,34.93568374,100
                135.7346454856,34.93566068,100
                135.7343157745,34.9356237869,100
                135.7338772691,34.9355715225,100
                135.7336820351,34.9355687135,100
                135.7336547873,34.9352755102,100
                135.7332298443,34.935300096,100
                135.7332570805,34.93559661,100
                135.7326935008,34.9356370404,100
                135.7326574664,34.9356396251,100
                135.7322464453,34.9356690975,100
                135.7322384701,34.9356696438,100
                135.7318990677,34.9357070137,100
                135.7318823174,34.9356573331,100
                135.7313156538,34.9357577329,100
                135.7312559957,34.9357426802,100
                135.7310525981,34.9357665696,100
                135.7310465287,34.93574265,100
                135.7310147369,34.9355987161,100
                135.7308107241,34.9355800405,100
                135.7307606566,34.9355854249,100
                135.7307711413,34.9357398757,100
                135.7306560206,34.9357561762,100
                135.7304221728,34.9357733491,100
                135.7304557978,34.9360367171,100
                135.7302932912,34.936055452,100
                135.7303032398,34.9360989213,100
                135.7300850332,34.9361449998,100
                135.7300166274,34.9357698002,100
                135.7296105938,34.9357904726,100
                135.7294806675,34.9357970933,100
                135.7295093754,34.9358964472,100
                135.7292018157,34.9359769067,100
                135.7286491929,34.9362149283,100
                135.7288633309,34.936432003,100
                135.728543982,34.9365337745,100
                135.728530321,34.9365530401,100
                135.7283882611,34.9366349617,100
                135.7284311196,34.9366926783,100
                135.7284694497,34.9367300357,100
                135.7285316627,34.9367869641,100
                135.7285556703,34.9368104551,100
                135.7285796747,34.9368348474,100
                135.7286069542,34.9368619511,100
                135.7286174213,34.9368698282,100
                135.728642991,34.9368890738,100
                135.728734004,34.9368405895,100
                135.7288222774,34.9369633831,100
                135.7287444116,34.9370082896,100
                135.7288282272,34.9371180337,100
                135.7288428436,34.9371371708,100
                135.7288446809,34.9371455333,100
                135.7286900915,34.9372200231,100
                135.7285321786,34.9372996225,100
                135.7285407636,34.9373206674,100
                135.7286885522,34.9375312181,100
                135.7289806583,34.9380423911,100
                135.728856133,34.9381098751,100
                135.7288537242,34.9381059572,100
                135.7287864197,34.9381494457,100
                135.7287735566,34.9381577566,100
                135.7286969143,34.9381620981,100
                135.7286577411,34.9381616022,100
                135.7284331052,34.938158822,100
                135.7282768193,34.938159172,100
                135.7281528884,34.9381510024,100
                135.7280273655,34.9381340966,100
                135.7277930928,34.9381026331,100
                135.7277427126,34.9380929172,100
                135.7277330653,34.9381247642,100
                135.7277434746,34.9383772747,100
                135.7277243097,34.9384656917,100
                135.7276819897,34.9385341967,100
                135.7276669606,34.9385345118,100
                135.7276580981,34.9385517145,100
                135.7276090797,34.9386632347,100
                135.7275841886,34.9387284664,100
                135.7275459664,34.9387439556,100
                135.7275010491,34.9387510145,100
                135.7273546272,34.9387983994,100
                135.7272314654,34.9388184044,100
                135.7270099159,34.938810766,100
                135.7267274675,34.9388256522,100
                135.7265211062,34.9388358204,100
                135.7265177018,34.9389874708,100
                135.7265167732,34.9390431776,100
                135.7264883495,34.9398022641,100
                135.7270817502,34.9398001114,100
                135.7275352798,34.9398089197,100
                135.7275707018,34.9397448365,100
                135.7275753608,34.9396727276,100
                135.7279381389,34.9396251344,100
                135.7279563906,34.9397538483,100
                135.7280278587,34.9399087358,100
                135.7281716378,34.9401040668,100
                135.7282491423,34.9401845241,100
                135.7283444542,34.940445461,100
                135.7283710397,34.9404696051,100
                135.7284281744,34.9405214239,100
                135.7284823678,34.9407498735,100
                135.7285918329,34.941257412,100
                135.7286024847,34.9413893489,100
                135.7285536366,34.9415986995,100
                135.7285037653,34.9417011353,100
                135.7280160188,34.9416502757,100
                135.727743332,34.9416453834,100
                135.7274667338,34.9417057678,100
                135.7272761402,34.9417176056,100
                135.7269701433,34.9416786209,100
                135.7264863587,34.9416786845,100
                135.725985254,34.9417056815,100
                135.7256664403,34.9417285719,100
                135.7252723047,34.9417234753,100
                135.7253043855,34.941583324,100
                135.7253269608,34.9412311632,100
                135.7253194379,34.94096169,100
                135.7253308783,34.9408107175,100
                135.7253476383,34.9404122719,100
                135.7253639869,34.9397990198,100
                135.7253665976,34.9392810275,100
                135.7253549238,34.9388424457,100
                135.7253644254,34.9384010937,100
                135.7253230374,34.9381703515,100
                135.7253184557,34.9380542055,100
                135.7253512033,34.9378932083,100
                135.7253535337,34.9377686261,100
                135.7253352486,34.9375605409,100
                135.7253556346,34.9368695456,100
                135.7249873855,34.9368223268,100
                135.7248635046,34.9368432542,100
                135.7246686155,34.9368979021,100
                135.7239729557,34.9368875703,100
                135.7231509188,34.936929284,100
                135.7230981887,34.9369243087,100
                135.722957562,34.9368167369,100
                135.7227981304,34.9367777919,100
                135.7226214625,34.9367590895,100
                135.7224417316,34.9368069348,100
                135.7220802428,34.9367588047,100
                135.721861178,34.936784581,100
                135.7212800287,34.9375968441,100
                135.7207684788,34.9378202794,100
                135.7204642987,34.9378250842,100
                135.7191974419,34.9378450345,100
                135.7188930265,34.9378498271,100
                135.7181265067,34.9384972067,100
                135.718012828,34.9386104769,100
                135.7180731728,34.9397977362,100
                135.71816598,34.9405384189,100
                135.718172441,34.9407216148,100
                135.718184527,34.9410635665,100
                135.7181670052,34.9417666014,100
                135.7181629287,34.9419299832,100
                135.7181731055,34.942082763,100
                135.7182196713,34.9422237236,100
                135.7182779112,34.9423078057,100
                135.7184215589,34.9424149718,100
                135.7185891867,34.9424682445,100
                135.7189587161,34.9425750785,100
                135.7191302564,34.9426410357,100
                135.7192520503,34.9427363193,100
                135.7193415194,34.9426641229,100
                135.7197614479,34.9426560613,100
                135.7201379931,34.9427502317,100
                135.7202574188,34.9427800804,100
                135.7209479313,34.9427675562,100
                135.7221907163,34.9427822587,100
                135.7225355069,34.9427617615,100
                135.7228054096,34.9427566604,100
                135.7230161229,34.9428168534,100
                135.7231531819,34.9428109619,100
                135.7231919577,34.9428271757,100
                135.723609694,34.9428292342,100
                135.7238652829,34.9428200845,100
                135.7241102081,34.9428356311,100
                135.7241772929,34.9427935237,100
                135.7242652359,34.9427747038,100
                135.7245480231,34.9427788529,100
                135.7246373583,34.9427589798,100
                135.7249325866,34.942665755,100
                135.7248883825,34.9428246116,100
                135.7247180789,34.9431233408,100
                135.724696092,34.9432165384,100
                135.7247991812,34.9434174169,100
                135.7247974408,34.9435310126,100
                135.7246464385,34.9436419535,100
                135.7245721818,34.9437515143,100
                135.7245964252,34.9440466606,100
                135.7246373666,34.9441005591,100
                135.7244642543,34.944224197,100
                135.7244651965,34.9443868162,100
                135.7245932919,34.9444742911,100
                135.7246618124,34.9445622672,100
                135.7245964,34.9446740318,100
                135.7243180986,34.9446886237,100
                135.7243173684,34.9448264485,100
                135.7242792237,34.9450804004,100
                135.7243774753,34.9453295877,100
                135.7243666265,34.9454561256,100
                135.7242440297,34.9456352349,100
                135.7241195163,34.9457591237,100
                135.7237633961,34.9457547353,100
                135.7237347283,34.9458377783,100
                135.7237480204,34.9460421934,100
                135.723708375,34.9461272537,100
                135.7236399711,34.946165907,100
                135.7233156188,34.9464562642,100
                135.7232222067,34.9465176803,100
                135.7231836295,34.9465769661,100
                135.723051928,34.9467333755,100
                135.7231129766,34.9468508471,100
                135.7232029509,34.9469242955,100
                135.7231654089,34.9471822639,100
                135.7232408155,34.9474464025,100
                135.7233964372,34.9475268299,100
                135.7234173222,34.9476395635,100
                135.7233918447,34.9476787178,100
                135.7230649876,34.9476698349,100
                135.7226666517,34.9476590048,100
                135.7222990928,34.9476581066,100
                135.7222644331,34.9477736027,100
                135.7223896002,34.9478750919,100
                135.7224303613,34.9480291413,100
                135.7224270247,34.9481655549,100
                135.7223923985,34.9482256938,100
                135.7222819365,34.9482369248,100
                135.7222943092,34.9485892396,100
                135.7223278744,34.9488118712,100
                135.72294518,34.9488072044,100
                135.7229784189,34.948785165,100
                135.7232268703,34.9487551568,100
                135.7235946004,34.9487641527,100
                135.7241352034,34.9487586742,100
                135.7241437659,34.9491609857,100
                135.7241555162,34.9497126849,100
                135.724268713,34.9497032199,100
                135.7254655083,34.9497136431,100
                135.7264744064,34.9497223688,100
                135.7266168016,34.9496964156,100
                135.7273362183,34.9496754184,100
                135.7276259943,34.9496669594,100
                135.7276749901,34.9496922118,100
                135.7276932941,34.949758738,100
                135.7277090541,34.9502888273,100
                135.7276961517,34.9505959429,100
                135.7277128241,34.9506314764,100
                135.7283907272,34.950646005,100
                135.7288906853,34.950649362,100
                135.7291689388,34.9506360999,100
                135.7294840494,34.9506327084,100
                135.7295097322,34.9506593875,100
                135.7295300017,34.9509476321,100
                135.7296213452,34.9509578341,100
                135.7297050989,34.9509671741,100
                135.7299706344,34.9508338168,100
                135.7306405879,34.9504973447,100
                135.7328025956,34.9515390072,100
                135.7336961525,34.9502493208,100
                135.7341827423,34.9496334715,100
                135.7350503302,34.9482046327,100
                135.7350566524,34.9481933778,100
                135.736396425,34.9458095018,100
                135.7366604803,34.9453458737,100
                135.7366781089,34.9451439888,100
                135.7367470509,34.9445038567,100
                135.7367954758,34.9440656046,100
                135.7374579352,34.9417870225,100
                135.737622052,34.9409779998,100
                135.7377973484,34.9401138562,100
              </coordinates>
            </LinearRing>
          </outerBoundaryIs>
        </Polygon>
      </Placemark>
    </Document>
  </Document>
</kml>
