<?xml version="1.0" encoding="UTF-8"?>
<kml xmlns="http://www.opengis.net/kml/2.2">
  <Document id="root_doc">
    <Document id="_2_06____________disv4326">
      <name>32_06久我の杜disv4326</name>
      <Placemark id="_2_06____________disv4326.1">
        <visibility>1</visibility>
        <Polygon>
          <extrude>0</extrude>
          <outerBoundaryIs>
            <LinearRing>
              <coordinates>
                135.7326574664,34.9356396251,100
                135.7326935008,34.9356370404,100
                135.7332570805,34.93559661,100
                135.7332298443,34.935300096,100
                135.7336547873,34.9352755102,100
                135.7336820351,34.9355687135,100
                135.7338772691,34.9355715225,100
                135.7343157745,34.9356237869,100
                135.7346454856,34.93566068,100
                135.7348506479,34.93568374,100
                135.7354965246,34.9358058757,100
                135.7357674182,34.9358146472,100
                135.7359488633,34.9358205438,100
                135.736100761,34.935825459,100
                135.7365013837,34.9358383916,100
                135.738423938,34.9358149024,100
                135.7383050373,34.9353709325,100
                135.7378156472,34.9343358999,100
                135.7372512787,34.9331719868,100
                135.7369479321,34.9326583973,100
                135.7365527273,34.9319892688,100
                135.7357823677,34.93106568,100
                135.735060335,34.9304775292,100
                135.7346444173,34.9300889076,100
                135.7342130647,34.9297018073,100
                135.7337755197,34.9292866638,100
                135.7331420784,34.9286024453,100
                135.7328352215,34.9282685568,100
                135.7318822655,34.9274859503,100
                135.7304728323,34.9295768044,100
                135.7297153363,34.9296659027,100
                135.729766853,34.9302814824,100
                135.7298346669,34.9310916648,100
                135.7298399141,34.93115435,100
                135.7296054667,34.9311550323,100
                135.7291462764,34.9311562761,100
                135.7289927422,34.9314393784,100
                135.7288104315,34.9316308001,100
                135.7287608386,34.9317849107,100
                135.7287600453,34.9319305875,100
                135.7287596628,34.9320001115,100
                135.7285203766,34.9327383634,100
                135.728510646,34.9327518627,100
                135.7284715139,34.9328062111,100
                135.7279583837,34.9328382532,100
                135.7278007383,34.9328362872,100
                135.7277954054,34.9328192337,100
                135.7277930145,34.932811623,100
                135.727438637,34.9328083789,100
                135.7271060188,34.932780887,100
                135.7270400482,34.932785319,100
                135.7267823231,34.9328027784,100
                135.7266294895,34.9328520881,100
                135.7262531513,34.9328756926,100
                135.7254249975,34.9329126621,100
                135.7252820314,34.9329904437,100
                135.7252461563,34.9330099409,100
                135.725258496,34.9333772896,100
                135.7252842149,34.9335196695,100
                135.7253461572,34.9337380442,100
                135.7253353444,34.9337556264,100
                135.7252171651,34.9338114205,100
                135.7250706477,34.9338313782,100
                135.7248634093,34.9338910614,100
                135.724753861,34.9339034938,100
                135.7245403044,34.9338500632,100
                135.7243889978,34.933841605,100
                135.7242470318,34.9338417237,100
                135.7240878801,34.9338524473,100
                135.7240178577,34.9338634352,100
                135.7239655812,34.9338798591,100
                135.7239657877,34.9341475796,100
                135.7239772706,34.934147605,100
                135.723977498,34.9342476615,100
                135.7239759957,34.9343702499,100
                135.7239734549,34.9344766119,100
                135.7239720304,34.934575764,100
                135.7239737326,34.9347226972,100
                135.724003117,34.9347227623,100
                135.724036128,34.9347228353,100
                135.7240366897,34.9348832876,100
                135.7240097945,34.9348838609,100
                135.7240251237,34.9352536439,100
                135.7240254472,34.9353878005,100
                135.7240027067,34.9354628199,100
                135.7238749069,34.935601623,100
                135.7240182025,34.9357027844,100
                135.7239404232,34.9358379656,100
                135.7238232274,34.935931511,100
                135.7234749144,34.9359993349,100
                135.7234306125,34.936032265,100
                135.7234180839,34.9360966041,100
                135.7234761754,34.9362568749,100
                135.7234706654,34.9363453845,100
                135.7234002347,34.9364562161,100
                135.7232710647,34.9365048052,100
                135.7231871208,34.9365514516,100
                135.7232324751,34.9368409366,100
                135.7231509188,34.936929284,100
                135.7239729557,34.9368875703,100
                135.7246686155,34.9368979021,100
                135.7248635046,34.9368432542,100
                135.7249873855,34.9368223268,100
                135.7253556346,34.9368695456,100
                135.7253352486,34.9375605409,100
                135.7253535337,34.9377686261,100
                135.7253512033,34.9378932083,100
                135.7253184557,34.9380542055,100
                135.7253230374,34.9381703515,100
                135.7253644254,34.9384010937,100
                135.7253549238,34.9388424457,100
                135.7253665976,34.9392810275,100
                135.7253639869,34.9397990198,100
                135.7253476383,34.9404122719,100
                135.7253308783,34.9408107175,100
                135.7253194379,34.94096169,100
                135.7253269608,34.9412311632,100
                135.7253043855,34.941583324,100
                135.7252723047,34.9417234753,100
                135.7256664403,34.9417285719,100
                135.725985254,34.9417056815,100
                135.7264863587,34.9416786845,100
                135.7269701433,34.9416786209,100
                135.7272761402,34.9417176056,100
                135.7274667338,34.9417057678,100
                135.727743332,34.9416453834,100
                135.7280160188,34.9416502757,100
                135.7285037653,34.9417011353,100
                135.7285536366,34.9415986995,100
                135.7286024847,34.9413893489,100
                135.7285918329,34.941257412,100
                135.7284823678,34.9407498735,100
                135.7284281744,34.9405214239,100
                135.7283710397,34.9404696051,100
                135.7283444542,34.940445461,100
                135.7282491423,34.9401845241,100
                135.7281716378,34.9401040668,100
                135.7280278587,34.9399087358,100
                135.7279563906,34.9397538483,100
                135.7279381389,34.9396251344,100
                135.7275753608,34.9396727276,100
                135.7275707018,34.9397448365,100
                135.7275352798,34.9398089197,100
                135.7270817502,34.9398001114,100
                135.7264883495,34.9398022641,100
                135.7265167732,34.9390431776,100
                135.7265177018,34.9389874708,100
                135.7265211062,34.9388358204,100
                135.7267274675,34.9388256522,100
                135.7270099159,34.938810766,100
                135.7272314654,34.9388184044,100
                135.7273546272,34.9387983994,100
                135.7275010491,34.9387510145,100
                135.7275459664,34.9387439556,100
                135.7275841886,34.9387284664,100
                135.7276090797,34.9386632347,100
                135.7276580981,34.9385517145,100
                135.7276669606,34.9385345118,100
                135.7276819897,34.9385341967,100
                135.7277243097,34.9384656917,100
                135.7277434746,34.9383772747,100
                135.7277330653,34.9381247642,100
                135.7277427126,34.9380929172,100
                135.7277930928,34.9381026331,100
                135.7280273655,34.9381340966,100
                135.7281528884,34.9381510024,100
                135.7282768193,34.938159172,100
                135.7284331052,34.938158822,100
                135.7286577411,34.9381616022,100
                135.7286969143,34.9381620981,100
                135.7287735566,34.9381577566,100
                135.7287864197,34.9381494457,100
                135.7288537242,34.9381059572,100
                135.728856133,34.9381098751,100
                135.7289806583,34.9380423911,100
                135.7286885522,34.9375312181,100
                135.7285407636,34.9373206674,100
                135.7285321786,34.9372996225,100
                135.7286900915,34.9372200231,100
                135.7288446809,34.9371455333,100
                135.7288428436,34.9371371708,100
                135.7288282272,34.9371180337,100
                135.7287444116,34.9370082896,100
                135.7288222774,34.9369633831,100
                135.728734004,34.9368405895,100
                135.728642991,34.9368890738,100
                135.7286174213,34.9368698282,100
                135.7286069542,34.9368619511,100
                135.7285796747,34.9368348474,100
                135.7285556703,34.9368104551,100
                135.7285316627,34.9367869641,100
                135.7284694497,34.9367300357,100
                135.7284311196,34.9366926783,100
                135.7283882611,34.9366349617,100
                135.728530321,34.9365530401,100
                135.728543982,34.9365337745,100
                135.7288633309,34.936432003,100
                135.7286491929,34.9362149283,100
                135.7292018157,34.9359769067,100
                135.7295093754,34.9358964472,100
                135.7294806675,34.9357970933,100
                135.7296105938,34.9357904726,100
                135.7300166274,34.9357698002,100
                135.7300850332,34.9361449998,100
                135.7303032398,34.9360989213,100
                135.7302932912,34.936055452,100
                135.7304557978,34.9360367171,100
                135.7304221728,34.9357733491,100
                135.7306560206,34.9357561762,100
                135.7307711413,34.9357398757,100
                135.7307606566,34.9355854249,100
                135.7308107241,34.9355800405,100
                135.7310147369,34.9355987161,100
                135.7310465287,34.93574265,100
                135.7310525981,34.9357665696,100
                135.7312559957,34.9357426802,100
                135.7313156538,34.9357577329,100
                135.7318823174,34.9356573331,100
                135.7318990677,34.9357070137,100
                135.7322384701,34.9356696438,100
                135.7322464453,34.9356690975,100
                135.7326574664,34.9356396251,100
              </coordinates>
            </LinearRing>
          </outerBoundaryIs>
        </Polygon>
      </Placemark>
    </Document>
  </Document>
</kml>
