<?xml version="1.0" encoding="UTF-8"?>
<kml xmlns="http://www.opengis.net/kml/2.2">
  <Document id="root_doc">
    <Document id="_2_02______disv4326">
      <name>32_02住吉disv4326</name>
      <Placemark id="_2_02______disv4326.1">
        <visibility>1</visibility>
        <Polygon>
          <extrude>0</extrude>
          <outerBoundaryIs>
            <LinearRing>
              <coordinates>
                135.7516928875,34.9399629824,100
                135.7516931735,34.9399677732,100
                135.7518446501,34.9425894833,100
                135.7518592361,34.9439377145,100
                135.7519482163,34.9458517296,100
                135.7550612684,34.9455272505,100
                135.7550641901,34.9455269455,100
                135.7551070009,34.9455224831,100
                135.7555175975,34.9454797259,100
                135.7555325244,34.9458001411,100
                135.7558482116,34.9457835295,100
                135.7558515194,34.9457711406,100
                135.75603715,34.9457404583,100
                135.7560470225,34.9457430133,100
                135.7562409464,34.9457287583,100
                135.7568784408,34.945641241,100
                135.7570090371,34.9456235423,100
                135.7575445748,34.9455509599,100
                135.7577867065,34.9455209614,100
                135.7577968371,34.9455197064,100
                135.7579251555,34.9454902446,100
                135.7579830697,34.9461907865,100
                135.7580113538,34.9465330628,100
                135.7583801541,34.9465192988,100
                135.7583983519,34.9464128454,100
                135.758787044,34.9463970062,100
                135.7587975526,34.946397297,100
                135.758796877,34.9462487736,100
                135.7587971016,34.9460387434,100
                135.7587990909,34.9458346847,100
                135.7587968022,34.9458130972,100
                135.7587893581,34.9457428569,100
                135.7587766955,34.9456233821,100
                135.758751937,34.9454015756,100
                135.7589676301,34.9453783179,100
                135.75950852,34.9453092551,100
                135.7595512225,34.945286451,100
                135.7600697595,34.9452365587,100
                135.7601526451,34.9452263698,100
                135.7602303108,34.9452168743,100
                135.7602972214,34.9452087425,100
                135.7603081307,34.9453814816,100
                135.7604362452,34.9453846227,100
                135.7604484559,34.9455292391,100
                135.7604674992,34.9457544421,100
                135.7608671651,34.9457364245,100
                135.7608792727,34.9461022625,100
                135.7609853006,34.9462222188,100
                135.7609883773,34.9462153915,100
                135.761271622,34.9460368523,100
                135.7612852298,34.946028275,100
                135.7616283805,34.9458119697,100
                135.7618572354,34.9457050389,100
                135.7621187475,34.9455403184,100
                135.7625449024,34.945271697,100
                135.7625553572,34.9452651058,100
                135.7626866201,34.9451823657,100
                135.762711301,34.9451668088,100
                135.7627572537,34.9451378413,100
                135.763146869,34.9448918706,100
                135.7631519348,34.9448886721,100
                135.7633441522,34.9447838853,100
                135.7633256745,34.9446839115,100
                135.7635888081,34.9446505108,100
                135.7635917627,34.9446900329,100
                135.7637250819,34.9456792666,100
                135.7638795745,34.9456465355,100
                135.7640181732,34.9460502275,100
                135.7640467045,34.9461333204,100
                135.764445001,34.9461159228,100
                135.7645449573,34.9463976948,100
                135.7645486433,34.946409122,100
                135.7647201018,34.9463700174,100
                135.7647324258,34.9464046526,100
                135.7647550506,34.9464007359,100
                135.7648963373,34.946370832,100
                135.7648985503,34.946370363,100
                135.7649796096,34.9463542936,100
                135.765038973,34.9463428332,100
                135.7652595704,34.946294557,100
                135.7655486239,34.9462301406,100
                135.7655497689,34.9462334244,100
                135.765665961,34.9466467197,100
                135.7657795284,34.947050713,100
                135.7661267154,34.9482233341,100
                135.7661466752,34.9482202032,100
                135.7665222556,34.9481619059,100
                135.7668939838,34.9481040925,100
                135.766905736,34.9481023092,100
                135.7669114617,34.9481213527,100
                135.766923392,34.9481628444,100
                135.7669277237,34.9481799815,100
                135.7669559186,34.9482792007,100
                135.7669564076,34.9482810543,100
                135.7669678377,34.9483242986,100
                135.7669775931,34.9483603774,100
                135.7669873521,34.948394653,100
                135.7670025323,34.9484487722,100
                135.7670418021,34.9484407684,100
                135.7670594946,34.948437162,100
                135.7671109787,34.9484264426,100
                135.7671734171,34.9484139421,100
                135.7671942316,34.9484094745,100
                135.7672665295,34.9483942868,100
                135.7672862481,34.9483898171,100
                135.767332257,34.9483799883,100
                135.7673355413,34.9483799946,100
                135.7673432099,34.9483782073,100
                135.7673804563,34.9483701643,100
                135.7677406693,34.948297776,100
                135.7677630493,34.9482786409,100
                135.7678570188,34.9482520776,100
                135.7679347887,34.9482378024,100
                135.7680224827,34.9482285542,100
                135.76803554,34.9482271766,100
                135.7681396001,34.9482075421,100
                135.7681254928,34.9481615389,100
                135.7681113879,34.9481146338,100
                135.7681102976,34.9481128287,100
                135.7681081299,34.9481047108,100
                135.768163997,34.948093098,100
                135.7681673348,34.948091857,100
                135.7682011843,34.9481913199,100
                135.7684037238,34.9481521247,100
                135.7684534499,34.9482505394,100
                135.768663959,34.9481663543,100
                135.7686176157,34.9480736517,100
                135.7686817401,34.9480548137,100
                135.7687014434,34.9481310842,100
                135.7689172634,34.9480783062,100
                135.7688766494,34.9479497662,100
                135.7690349756,34.9479288674,100
                135.7690835806,34.9480705945,100
                135.7691495484,34.9480540269,100
                135.7692539466,34.9480278141,100
                135.7691963274,34.9478274731,100
                135.7695008691,34.9477698065,100
                135.7695320387,34.9477638785,100
                135.7694956586,34.9476323178,100
                135.7698129319,34.9475629828,100
                135.7697872879,34.9474546832,100
                135.7697077508,34.9474597448,100
                135.7696924648,34.9474112602,100
                135.7694846845,34.9474289665,100
                135.7694548757,34.9473262234,100
                135.7688450693,34.9474415547,100
                135.7687478556,34.9471523261,100
                135.7682708772,34.9472682605,100
                135.7683144335,34.9473632824,100
                135.7683737945,34.9475120034,100
                135.7683752296,34.9475150291,100
                135.7676790712,34.9476639588,100
                135.7675452864,34.9476925831,100
                135.7675349693,34.9476606272,100
                135.7674793393,34.9474693033,100
                135.766819535,34.9476007288,100
                135.766782437,34.9476081237,100
                135.7667200604,34.9474054468,100
                135.7667580091,34.9473992376,100
                135.76697691,34.9473504846,100
                135.7670262828,34.9473394882,100
                135.7669235917,34.9468863193,100
                135.7669193564,34.9468340242,100
                135.7668498405,34.9466319543,100
                135.7668129046,34.9465273094,100
                135.7666475613,34.9465648583,100
                135.7666116414,34.9464330079,100
                135.7665790766,34.9464202603,100
                135.7665446533,34.9463041511,100
                135.7664393275,34.9459489498,100
                135.7662784607,34.9459823338,100
                135.7662768725,34.9459754611,100
                135.766276046,34.9459730021,100
                135.7662508111,34.945897882,100
                135.766229108,34.9458275232,100
                135.76621402,34.9457945891,100
                135.7661942478,34.9457643509,100
                135.7661823153,34.9457237603,100
                135.7661747321,34.9456948976,100
                135.7661584709,34.9456362686,100
                135.7661574761,34.9456325433,100
                135.7661411311,34.945571327,100
                135.7661053543,34.9454432447,100
                135.7660728148,34.9453322974,100
                135.766024584,34.9451545644,100
                135.7659961335,34.9451579848,100
                135.7659836186,34.9451254139,100
                135.7659031474,34.9448792479,100
                135.7658696533,34.9447352956,100
                135.7658089239,34.9444173307,100
                135.7658025168,34.9443837945,100
                135.765739851,34.9440780096,100
                135.7656905194,34.944079394,100
                135.7656590907,34.9438450847,100
                135.7656186102,34.9435432168,100
                135.7656176829,34.9435363427,100
                135.7655840134,34.943286999,100
                135.7655819518,34.9432727628,100
                135.7655709204,34.9431966123,100
                135.7655562682,34.9430954134,100
                135.7655491733,34.9430464205,100
                135.7655297746,34.9429549041,100
                135.765522451,34.942831385,100
                135.7655057832,34.9426648132,100
                135.7654813142,34.9424716636,100
                135.7654791833,34.942461505,100
                135.7654748026,34.9424387231,100
                135.7655664832,34.9424395282,100
                135.7657370354,34.9424423522,100
                135.76595375,34.9424436718,100
                135.7659801956,34.9423806179,100
                135.7662068542,34.9423630239,100
                135.7662205441,34.9422827178,100
                135.7662440325,34.9421449358,100
                135.7661525089,34.9421428407,100
                135.7662074274,34.9418576371,100
                135.7662115065,34.9418415793,100
                135.7659272642,34.9418447766,100
                135.7656593759,34.9418426157,100
                135.7655718914,34.9418435289,100
                135.7655694917,34.9417258104,100
                135.7655465184,34.9417266723,100
                135.765400766,34.9417321402,100
                135.7653990872,34.9417159993,100
                135.7653869749,34.9415996244,100
                135.7653782057,34.9414144905,100
                135.7653922629,34.9414024577,100
                135.7653856094,34.9412764489,100
                135.7653551126,34.9412719845,100
                135.7653515868,34.9412714676,100
                135.7653397671,34.9411236229,100
                135.7653469212,34.9411199513,100
                135.7653695524,34.9411083322,100
                135.765357434,34.9409313848,100
                135.7653367119,34.9409322736,100
                135.7652541168,34.9409358197,100
                135.7652579321,34.94097678,100
                135.7649665831,34.9409879086,100
                135.7645933358,34.9410020486,100
                135.7641955563,34.9410193087,100
                135.7638282407,34.9410376829,100
                135.7634760654,34.9410550995,100
                135.7632495874,34.9410663505,100
                135.7630934603,34.9410741467,100
                135.7630778831,34.9409861498,100
                135.7624073921,34.9410241425,100
                135.7623999628,34.9409434862,100
                135.7620098995,34.9409615294,100
                135.76198888,34.9408706348,100
                135.7619506835,34.9408736585,100
                135.7620169842,34.9414255995,100
                135.7618055045,34.9414394835,100
                135.7617461792,34.9409098815,100
                135.7614217048,34.9409307269,100
                135.7614840446,34.9414293465,100
                135.7612812268,34.9414504285,100
                135.7612206578,34.9409307565,100
                135.7610789116,34.9409418868,100
                135.76103414,34.9407589659,100
                135.7609276721,34.9406488878,100
                135.760824722,34.9405957231,100
                135.7606399443,34.940574091,100
                135.7604807855,34.9405811027,100
                135.7603814225,34.9405751315,100
                135.760251875,34.9405295198,100
                135.7601518658,34.9404572741,100
                135.76009008,34.9406072368,100
                135.7600998657,34.9407916383,100
                135.7597348812,34.9408023985,100
                135.7596017615,34.9408016413,100
                135.7590254207,34.9407911218,100
                135.7587048153,34.9407852675,100
                135.7583880732,34.9407794773,100
                135.7583369584,34.9407785433,100
                135.7579391061,34.9407819076,100
                135.7576022825,34.9407847554,100
                135.7576065631,34.9408951866,100
                135.75760671,34.9409001544,100
                135.7575910057,34.9409001227,100
                135.7575909054,34.9409352801,100
                135.757608864,34.9409353389,100
                135.7576225628,34.9412794574,100
                135.757635109,34.9416226205,100
                135.757295727,34.9416301811,100
                135.7571858205,34.9407932683,100
                135.7571637589,34.9407844208,100
                135.7571285953,34.9404890425,100
                135.7570904267,34.9401683748,100
                135.7568979188,34.9401641836,100
                135.7568817772,34.9400665366,100
                135.7562860833,34.9400886445,100
                135.7562635022,34.9398134343,100
                135.7561374618,34.9398119819,100
                135.7557247034,34.9398072013,100
                135.7553068775,34.9398025504,100
                135.7543813564,34.9397934121,100
                135.7536940905,34.9397922896,100
                135.7536299896,34.9385931191,100
                135.7535711486,34.9374680497,100
                135.7535662482,34.9373741595,100
                135.7531279767,34.9373979838,100
                135.7524350171,34.9374357213,100
                135.7524473382,34.9375727292,100
                135.7522193886,34.9375824028,100
                135.7515294454,34.93761155,100
                135.7516053727,34.9386010073,100
                135.7516093683,34.9386529215,100
                135.7516603182,34.9393167394,100
                135.7516928875,34.9399629824,100
              </coordinates>
            </LinearRing>
          </outerBoundaryIs>
        </Polygon>
      </Placemark>
    </Document>
  </Document>
</kml>
