<?xml version="1.0" encoding="UTF-8"?>
<kml xmlns="http://www.opengis.net/kml/2.2">
  <Document id="root_doc">
    <Document id="_2_01______disv4326">
      <name>32_01竹田disv4326</name>
      <Placemark id="_2_01______disv4326.1">
        <visibility>1</visibility>
        <Polygon>
          <extrude>0</extrude>
          <outerBoundaryIs>
            <LinearRing>
              <coordinates>
                135.7492054693,34.9439757962,100
                135.7473747123,34.9440115383,100
                135.7471058035,34.9451815543,100
                135.7481113429,34.9451550745,100
                135.7482122729,34.9462348985,100
                135.7494163844,34.9461169861,100
                135.7495821544,34.9482245112,100
                135.7496246774,34.9487648643,100
                135.7521097588,34.9487100975,100
                135.752214668,34.9504949292,100
                135.7509267872,34.9504508444,100
                135.7502323849,34.9504270709,100
                135.7501008607,34.9504225707,100
                135.7500766114,34.9504217453,100
                135.7498407389,34.9504137173,100
                135.7497318584,34.9504099677,100
                135.7484540095,34.950366159,100
                135.7484178291,34.9515759187,100
                135.7454958565,34.9515145501,100
                135.7455052676,34.9535689959,100
                135.7455233428,34.9539289288,100
                135.7455973472,34.9554069045,100
                135.7464145507,34.9555151108,100
                135.7469409147,34.955690315,100
                135.7486536552,34.9567789426,100
                135.7487503057,34.9576302792,100
                135.7491968202,34.9583609966,100
                135.7499643833,34.9590122307,100
                135.7506464767,34.9595823587,100
                135.7506387891,34.9595928361,100
                135.7508194795,34.9597472383,100
                135.7508269033,34.9597535922,100
                135.7510616562,34.9599462071,100
                135.751092187,34.9599712719,100
                135.7511882381,34.9600500692,100
                135.7512764821,34.9601224408,100
                135.751283032,34.9601278064,100
                135.7513127301,34.9601522365,100
                135.7513481629,34.9601903406,100
                135.7514990411,34.9603526382,100
                135.7516282628,34.9605023529,100
                135.7513617897,34.960657972,100
                135.7514829426,34.9607916416,100
                135.7515247864,34.9607680634,100
                135.7517045079,34.9606667923,100
                135.7517353598,34.9607100082,100
                135.7517446975,34.9607230897,100
                135.7517848398,34.9607793198,100
                135.7518316563,34.9608880874,100
                135.7519304876,34.9608662468,100
                135.7520623254,34.9608351769,100
                135.7520626678,34.9608351077,100
                135.7520846774,34.9610303801,100
                135.7520881732,34.9610633483,100
                135.752126672,34.961403385,100
                135.7525111814,34.9616771556,100
                135.7525787667,34.96172765,100
                135.7525595592,34.9618805815,100
                135.7524134239,34.962247917,100
                135.7523245985,34.9626110046,100
                135.7520207654,34.9630297107,100
                135.752026873,34.9632279092,100
                135.752030525,34.9633467888,100
                135.7520330393,34.9634286422,100
                135.7520588547,34.9642673565,100
                135.7520612931,34.9643466633,100
                135.7519817613,34.9644443955,100
                135.7519639658,34.9644662622,100
                135.7520091791,34.9658259742,100
                135.7520235375,34.9662577997,100
                135.7520387673,34.9672117831,100
                135.7521095988,34.9672508749,100
                135.7523754655,34.9672502919,100
                135.7526487743,34.9672497235,100
                135.7527450685,34.967249497,100
                135.7529093364,34.967249199,100
                135.7529026972,34.9671285419,100
                135.7531997618,34.9671232311,100
                135.7547589002,34.967132315,100
                135.7548159619,34.9673383615,100
                135.754992051,34.9673480148,100
                135.7569584817,34.9672833095,100
                135.7583577147,34.9672199772,100
                135.7583394013,34.9668136436,100
                135.758383977,34.966813381,100
                135.7583810769,34.9663502431,100
                135.7572764027,34.9650694161,100
                135.7583466374,34.9647344931,100
                135.758571922,34.9649868178,100
                135.75873167,34.9649658285,100
                135.7587313529,34.9649658994,100
                135.7588065964,34.9649559366,100
                135.7588024569,34.9649042378,100
                135.7588021853,34.9649008452,100
                135.7588022796,34.9649008201,100
                135.7588014299,34.9648843873,100
                135.7588664678,34.9648776487,100
                135.7588656925,34.9648657883,100
                135.7588650591,34.9648629491,100
                135.7588582247,34.9647981855,100
                135.7588584273,34.9647981408,100
                135.7588566535,34.9647844358,100
                135.7588937178,34.9647782543,100
                135.7588937435,34.9647781443,100
                135.7588977992,34.964777463,100
                135.7588983803,34.9647585466,100
                135.758898854,34.9647565398,100
                135.7589103971,34.9645943511,100
                135.758937438,34.9645822144,100
                135.7589404008,34.9645808861,100
                135.7589404481,34.9645806886,100
                135.7589908252,34.9645552233,100
                135.7589968834,34.96451664,100
                135.7589959595,34.9645169507,100
                135.7590151121,34.9644065133,100
                135.7590741448,34.9644126124,100
                135.7597168444,34.9644774187,100
                135.7601815724,34.9645137657,100
                135.7603011001,34.9644181508,100
                135.7607463195,34.9645982706,100
                135.7609057454,34.9647390179,100
                135.7612194313,34.9647619638,100
                135.7612006962,34.9645744492,100
                135.7611461922,34.9645478608,100
                135.7612591622,34.9643063765,100
                135.7611805051,34.9642449481,100
                135.7612399778,34.9641940061,100
                135.7613988082,34.9643408794,100
                135.7614971632,34.9644029792,100
                135.7614177983,34.9644769823,100
                135.7613308614,34.9644160318,100
                135.7613098742,34.9644705717,100
                135.7613110807,34.9646179091,100
                135.7616178333,34.9646124569,100
                135.7618304131,34.964736688,100
                135.7619157797,34.9646577654,100
                135.7620882963,34.9647607889,100
                135.7621453708,34.9647715352,100
                135.7621149417,34.9645813212,100
                135.7625995329,34.9645180862,100
                135.7626328217,34.9645137421,100
                135.7626189084,34.9644001294,100
                135.7626367775,34.9643052545,100
                135.7626188048,34.9642264405,100
                135.7626522662,34.9642149566,100
                135.7626059459,34.9639502687,100
                135.7626124682,34.9639243487,100
                135.762624626,34.9638760213,100
                135.7626346133,34.9638363203,100
                135.7627029155,34.9638463109,100
                135.7627110165,34.9637998308,100
                135.7628616771,34.9633276974,100
                135.7629096757,34.9631589067,100
                135.7618819428,34.9631828051,100
                135.7618108293,34.9625743116,100
                135.7617710695,34.9622341984,100
                135.7617702389,34.9622270941,100
                135.7616936678,34.9619062155,100
                135.761664632,34.9617845177,100
                135.7616608027,34.9617684648,100
                135.7615566949,34.961332103,100
                135.7615226055,34.9611892078,100
                135.7614220962,34.9607136953,100
                135.7613209721,34.96022987,100
                135.7611256449,34.9592954765,100
                135.7610784834,34.9590874113,100
                135.7610438893,34.9589347268,100
                135.7609255362,34.958412555,100
                135.7608727976,34.9582030707,100
                135.7608424946,34.9580834246,100
                135.7607830076,34.9578486442,100
                135.7606836373,34.9575245512,100
                135.7606425987,34.9574050254,100
                135.761509712,34.9572455948,100
                135.7614448733,34.9570424254,100
                135.761602277,34.9569289904,100
                135.7614679592,34.9568037248,100
                135.7615155685,34.9567150918,100
                135.7614389746,34.9565536463,100
                135.7611586926,34.956541616,100
                135.7611613889,34.9564735174,100
                135.7612434252,34.9563225419,100
                135.7610756819,34.9561498054,100
                135.7608904414,34.9559342144,100
                135.7608421584,34.9558507332,100
                135.7607605437,34.9556520369,100
                135.7607041061,34.9554366994,100
                135.7606764704,34.9552216305,100
                135.7606585273,34.954893051,100
                135.7606542325,34.9548025438,100
                135.7608563649,34.9547927292,100
                135.7608683729,34.9546315443,100
                135.7609549449,34.9545162839,100
                135.7609850961,34.954389221,100
                135.7616990238,34.9544157657,100
                135.7616723528,34.9543573988,100
                135.7616613704,34.95397073,100
                135.7616428385,34.9539680878,100
                135.7616497297,34.9539457158,100
                135.7616925448,34.9538066954,100
                135.7615906206,34.9536964877,100
                135.761387547,34.9534225484,100
                135.7610723315,34.953562081,100
                135.7606473758,34.953557936,100
                135.7605972319,34.9535574841,100
                135.7606892987,34.9528654212,100
                135.7602861243,34.9520099597,100
                135.7601547787,34.9514773904,100
                135.7600255913,34.9509536297,100
                135.7599345267,34.9505843963,100
                135.7595270362,34.9500278944,100
                135.7594496805,34.9500606996,100
                135.7589429629,34.9502756183,100
                135.7587531197,34.9503019292,100
                135.758486476,34.9503388595,100
                135.758516275,34.9505019655,100
                135.7584115765,34.9505013314,100
                135.7577931368,34.9504977572,100
                135.7577311566,34.9500092702,100
                135.7575143668,34.9495842803,100
                135.7574107565,34.9493812322,100
                135.7573069863,34.948760041,100
                135.75715368,34.9489113663,100
                135.7571122931,34.9489522016,100
                135.7569269464,34.9491882591,100
                135.7566198273,34.9491790427,100
                135.756597284,34.9486548574,100
                135.7566007015,34.948408712,100
                135.7566030665,34.9482389808,100
                135.7566067222,34.9479765666,100
                135.7565694469,34.9471516872,100
                135.7569297913,34.9471498827,100
                135.7574039408,34.9471475333,100
                135.757825401,34.9471454285,100
                135.7577455282,34.9468451643,100
                135.7573925339,34.9468344498,100
                135.7574234314,34.9467750689,100
                135.7573436329,34.9465105437,100
                135.7575959684,34.9465072499,100
                135.7577053243,34.946505822,100
                135.7577169258,34.9464217389,100
                135.7577271094,34.9462571207,100
                135.7577382391,34.9460033763,100
                135.7577744923,34.9460044791,100
                135.7577838211,34.9459368615,100
                135.7577644841,34.9459122171,100
                135.7577331844,34.9458667793,100
                135.757782706,34.9455697447,100
                135.7577853451,34.945540865,100
                135.7577867065,34.9455209614,100
                135.7575445748,34.9455509599,100
                135.7570090371,34.9456235423,100
                135.7568784408,34.945641241,100
                135.7562409464,34.9457287583,100
                135.7560470225,34.9457430133,100
                135.75603715,34.9457404583,100
                135.7558515194,34.9457711406,100
                135.7558482116,34.9457835295,100
                135.7555325244,34.9458001411,100
                135.7555175975,34.9454797259,100
                135.7551070009,34.9455224831,100
                135.7550641901,34.9455269455,100
                135.7550612684,34.9455272505,100
                135.7519482163,34.9458517296,100
                135.7518592361,34.9439377145,100
                135.7500898716,34.9439585542,100
                135.7492054693,34.9439757962,100
              </coordinates>
            </LinearRing>
          </outerBoundaryIs>
          <innerBoundaryIs>
            <LinearRing>
              <coordinates>
                135.7610803572,34.9641667171,100
                135.7609038347,34.9640288937,100
                135.7608970708,34.9640235977,100
                135.7609984253,34.963955836,100
                135.7611643686,34.9641206122,100
                135.7610803572,34.9641667171,100
              </coordinates>
            </LinearRing>
          </innerBoundaryIs>
        </Polygon>
      </Placemark>
    </Document>
  </Document>
</kml>
