<?xml version="1.0" encoding="UTF-8"?>
<kml xmlns="http://www.opengis.net/kml/2.2">
  <Document id="root_doc">
    <Document id="_2_07_________disv4326">
      <name>32_07羽束師disv4326</name>
      <Placemark id="_2_07_________disv4326.1">
        <visibility>1</visibility>
        <Polygon>
          <extrude>0</extrude>
          <outerBoundaryIs>
            <LinearRing>
              <coordinates>
                135.729659406,34.9250827455,100
                135.7289812692,34.9242513909,100
                135.7285206813,34.9236946621,100
                135.7282348365,34.9233475446,100
                135.7280346149,34.9231043498,100
                135.7274732166,34.9224230847,100
                135.7269562091,34.9219414153,100
                135.7263072458,34.9213793651,100
                135.7256130153,34.9208214244,100
                135.7247119469,34.9215945406,100
                135.7228168618,34.923234731,100
                135.7224853338,34.9232330454,100
                135.7224624435,34.9231986253,100
                135.7223235034,34.9231867519,100
                135.7222713847,34.9231345173,100
                135.7221613768,34.9230624985,100
                135.7219460574,34.9229556635,100
                135.721731767,34.9229442541,100
                135.7213848634,34.9229683853,100
                135.7209035091,34.9230657284,100
                135.7206799675,34.9230852133,100
                135.7202639553,34.9231015051,100
                135.7201361354,34.923122548,100
                135.7201047144,34.9231276867,100
                135.7196396148,34.9231261169,100
                135.7183777507,34.9231290999,100
                135.7180414266,34.9231405003,100
                135.7178178595,34.9231480772,100
                135.716940058,34.9231132081,100
                135.716821414,34.9232400478,100
                135.7168344754,34.9234676232,100
                135.7168556333,34.9241080528,100
                135.7168068536,34.9241199804,100
                135.7167370816,34.924112071,100
                135.7166339982,34.9240808426,100
                135.7164041256,34.9240557959,100
                135.7161603662,34.9240476194,100
                135.7160788007,34.9240503157,100
                135.7159633995,34.9240774401,100
                135.7162313412,34.9243561797,100
                135.7165698137,34.9246968451,100
                135.7168802578,34.9249758921,100
                135.7168791535,34.9250682173,100
                135.7168432127,34.925094966,100
                135.716765749,34.9250987994,100
                135.7166273113,34.9251038983,100
                135.716481941,34.9251167992,100
                135.7163141662,34.9251114061,100
                135.7162730971,34.9251058169,100
                135.7159800934,34.9250997089,100
                135.7156858805,34.9251221897,100
                135.7155044175,34.9251126089,100
                135.7144940282,34.9251103758,100
                135.7145153465,34.9253534658,100
                135.7145115658,34.9256098077,100
                135.7145040337,34.9258377597,100
                135.7144964049,34.9260690204,100
                135.7144670667,34.9265292562,100
                135.7144653123,34.9265549582,100
                135.7144640645,34.9267329219,100
                135.7144003522,34.9269915171,100
                135.7144079967,34.9270823143,100
                135.7144686315,34.9278017889,100
                135.7144365008,34.9281151089,100
                135.7144100689,34.9283178737,100
                135.7144135901,34.9283823221,100
                135.7144421664,34.9285285225,100
                135.7144747861,34.9287987515,100
                135.7144770025,34.9290203871,100
                135.7144124274,34.929023546,100
                135.7144128091,34.9290242512,100
                135.7144466113,34.9290862345,100
                135.7144388691,34.9292185464,100
                135.7144105735,34.9294660966,100
                135.71433466,34.9296281801,100
                135.7141937242,34.9298427904,100
                135.7141133828,34.9300302168,100
                135.7140349738,34.9302277891,100
                135.7140189433,34.9303081774,100
                135.713998124,34.9304443323,100
                135.7139769675,34.9305544998,100
                135.713609591,34.9307975954,100
                135.7133849267,34.9310133474,100
                135.7133309807,34.931065125,100
                135.7133561779,34.9311363137,100
                135.7141594892,34.9313899654,100
                135.7144223714,34.9314079036,100
                135.7144305086,34.9322745112,100
                135.7144381671,34.9328803306,100
                135.7144382835,34.9328899792,100
                135.7144434527,34.9332983199,100
                135.7144497514,34.9337957515,100
                135.7144501196,34.933825472,100
                135.7144584854,34.9344866991,100
                135.7145019672,34.9346046228,100
                135.7145089293,34.9347284247,100
                135.714461544,34.9347283797,100
                135.7144634194,34.9348766763,100
                135.7144646648,34.934975487,100
                135.7144501734,34.9358131669,100
                135.7144497503,34.9358366876,100
                135.7146592929,34.9358509065,100
                135.715027886,34.9358456325,100
                135.7151978181,34.9358389118,100
                135.7153142623,34.9358433366,100
                135.7153758669,34.9358473517,100
                135.7155806438,34.9358607124,100
                135.7156214704,34.9361719466,100
                135.7156264219,34.9362183682,100
                135.7156598433,34.9365314863,100
                135.71566063,34.9365388124,100
                135.7156612791,34.9368012954,100
                135.7156830214,34.9368018385,100
                135.7166011273,34.9368258539,100
                135.7168438758,34.9367833808,100
                135.7168660566,34.9368633667,100
                135.7168657537,34.936876888,100
                135.7168563002,34.9372892887,100
                135.7168546416,34.9378628448,100
                135.7168546073,34.9378729863,100
                135.7168557441,34.9387018478,100
                135.7169807407,34.9389096127,100
                135.7166703044,34.9390817296,100
                135.7166055269,34.9391177096,100
                135.7165750322,34.9391825031,100
                135.7165739813,34.9392528576,100
                135.7166143877,34.9393871143,100
                135.7167210228,34.9395683572,100
                135.7169281328,34.9397996225,100
                135.7179852944,34.9397978871,100
                135.7180731728,34.9397977362,100
                135.718012828,34.9386104769,100
                135.7181265067,34.9384972067,100
                135.7188930265,34.9378498271,100
                135.7191974419,34.9378450345,100
                135.7204642987,34.9378250842,100
                135.7207684788,34.9378202794,100
                135.7212800287,34.9375968441,100
                135.721861178,34.936784581,100
                135.7220802428,34.9367588047,100
                135.7224417316,34.9368069348,100
                135.7226214625,34.9367590895,100
                135.7227981304,34.9367777919,100
                135.722957562,34.9368167369,100
                135.7230981887,34.9369243087,100
                135.7231509188,34.936929284,100
                135.7232324751,34.9368409366,100
                135.7231871208,34.9365514516,100
                135.7232710647,34.9365048052,100
                135.7234002347,34.9364562161,100
                135.7234706654,34.9363453845,100
                135.7234761754,34.9362568749,100
                135.7234180839,34.9360966041,100
                135.7234306125,34.936032265,100
                135.7234749144,34.9359993349,100
                135.7238232274,34.935931511,100
                135.7239404232,34.9358379656,100
                135.7240182025,34.9357027844,100
                135.7238749069,34.935601623,100
                135.7240027067,34.9354628199,100
                135.7240254472,34.9353878005,100
                135.7240251237,34.9352536439,100
                135.7240097945,34.9348838609,100
                135.7240366897,34.9348832876,100
                135.724036128,34.9347228353,100
                135.724003117,34.9347227623,100
                135.7239737326,34.9347226972,100
                135.7239720304,34.934575764,100
                135.7239734549,34.9344766119,100
                135.7239759957,34.9343702499,100
                135.723977498,34.9342476615,100
                135.7239772706,34.934147605,100
                135.7239657877,34.9341475796,100
                135.7239655812,34.9338798591,100
                135.7240178577,34.9338634352,100
                135.7240878801,34.9338524473,100
                135.7242470318,34.9338417237,100
                135.7243889978,34.933841605,100
                135.7245403044,34.9338500632,100
                135.724753861,34.9339034938,100
                135.7248634093,34.9338910614,100
                135.7250706477,34.9338313782,100
                135.7252171651,34.9338114205,100
                135.7253353444,34.9337556264,100
                135.7253461572,34.9337380442,100
                135.7252842149,34.9335196695,100
                135.725258496,34.9333772896,100
                135.7252461563,34.9330099409,100
                135.7252820314,34.9329904437,100
                135.7254249975,34.9329126621,100
                135.7262531513,34.9328756926,100
                135.7266294895,34.9328520881,100
                135.7267823231,34.9328027784,100
                135.7270400482,34.932785319,100
                135.7271060188,34.932780887,100
                135.727438637,34.9328083789,100
                135.7277930145,34.932811623,100
                135.7277954054,34.9328192337,100
                135.7278007383,34.9328362872,100
                135.7279583837,34.9328382532,100
                135.7284715139,34.9328062111,100
                135.728510646,34.9327518627,100
                135.7285203766,34.9327383634,100
                135.7287596628,34.9320001115,100
                135.7287600453,34.9319305875,100
                135.7287608386,34.9317849107,100
                135.7288104315,34.9316308001,100
                135.7289927422,34.9314393784,100
                135.7291462764,34.9311562761,100
                135.7296054667,34.9311550323,100
                135.7298399141,34.93115435,100
                135.7298346669,34.9310916648,100
                135.729766853,34.9302814824,100
                135.7297153363,34.9296659027,100
                135.7304728323,34.9295768044,100
                135.7318822655,34.9274859503,100
                135.7303101597,34.9257715666,100
                135.7296854402,34.925110338,100
                135.729659406,34.9250827455,100
              </coordinates>
            </LinearRing>
          </outerBoundaryIs>
        </Polygon>
      </Placemark>
    </Document>
  </Document>
</kml>
