<?xml version="1.0" encoding="UTF-8"?>
<kml xmlns="http://www.opengis.net/kml/2.2">
  <Document id="root_doc">
    <Document id="_2_03______disv4326">
      <name>32_03板橋disv4326</name>
      <Placemark id="_2_03______disv4326.1">
        <visibility>1</visibility>
        <Polygon>
          <extrude>0</extrude>
          <outerBoundaryIs>
            <LinearRing>
              <coordinates>
                135.7553428201,34.9325345009,100
                135.7553427339,34.9325269282,100
                135.755326142,34.9325271853,100
                135.7552714082,34.9325279764,100
                135.7551947846,34.9325278222,100
                135.7551685755,34.9325275395,100
                135.7551683249,34.9325105855,100
                135.7551680677,34.9324876601,100
                135.7547735317,34.9324834242,100
                135.7547730834,34.9325065215,100
                135.7547680066,34.9325064689,100
                135.7547575606,34.9338293335,100
                135.754757453,34.9338428562,100
                135.7547538297,34.9343002674,100
                135.7544258765,34.9343236886,100
                135.7544261718,34.9343394647,100
                135.7544302251,34.9345591915,100
                135.7540129549,34.9345713315,100
                135.7540090209,34.9342684756,100
                135.7539935577,34.9336796824,100
                135.75348949,34.9336633062,100
                135.7526721547,34.9336365711,100
                135.7526823774,34.9353169498,100
                135.7520543835,34.9354001753,100
                135.7520628107,34.935694853,100
                135.7513809093,34.9357002137,100
                135.7513983737,34.9364721115,100
                135.7503240473,34.9364977124,100
                135.7503189273,34.9366160179,100
                135.750290555,34.9366608784,100
                135.7498526619,34.9366662817,100
                135.7498396657,34.936606011,100
                135.749830905,34.9364752825,100
                135.7494365028,34.9364729859,100
                135.7493887812,34.936472746,100
                135.7493872925,34.9365057727,100
                135.7488628536,34.9365175005,100
                135.7488600761,34.9366098228,100
                135.7487506074,34.936609666,100
                135.7487498088,34.9367202358,100
                135.7487429792,34.9376576136,100
                135.7487426495,34.9377038135,100
                135.7485282741,34.9377142831,100
                135.7485134097,34.9386636862,100
                135.7488034484,34.9386704192,100
                135.7488584377,34.9394770701,100
                135.74943121,34.939461431,100
                135.7496173764,34.9394539554,100
                135.749617563,34.939390988,100
                135.7499772042,34.9393875339,100
                135.7499782341,34.9394504886,100
                135.7503870376,34.9394378295,100
                135.7503891282,34.9394887735,100
                135.7503935287,34.9395775277,100
                135.7504202865,34.9401174057,100
                135.7516928875,34.9399629824,100
                135.7516603182,34.9393167394,100
                135.7516093683,34.9386529215,100
                135.7516053727,34.9386010073,100
                135.7515294454,34.93761155,100
                135.7522193886,34.9375824028,100
                135.7524473382,34.9375727292,100
                135.7524350171,34.9374357213,100
                135.7531279767,34.9373979838,100
                135.7535662482,34.9373741595,100
                135.7535711486,34.9374680497,100
                135.7536299896,34.9385931191,100
                135.7536940905,34.9397922896,100
                135.7543813564,34.9397934121,100
                135.7553068775,34.9398025504,100
                135.7557247034,34.9398072013,100
                135.7561374618,34.9398119819,100
                135.7562635022,34.9398134343,100
                135.7562860833,34.9400886445,100
                135.7568817772,34.9400665366,100
                135.7568979188,34.9401641836,100
                135.7570904267,34.9401683748,100
                135.7571285953,34.9404890425,100
                135.7571637589,34.9407844208,100
                135.7571858205,34.9407932683,100
                135.757295727,34.9416301811,100
                135.757635109,34.9416226205,100
                135.7576225628,34.9412794574,100
                135.757608864,34.9409353389,100
                135.7575909054,34.9409352801,100
                135.7575910057,34.9409001227,100
                135.75760671,34.9409001544,100
                135.7576065631,34.9408951866,100
                135.7576022825,34.9407847554,100
                135.7579391061,34.9407819076,100
                135.7583369584,34.9407785433,100
                135.7583880732,34.9407794773,100
                135.7587048153,34.9407852675,100
                135.7590254207,34.9407911218,100
                135.7596017615,34.9408016413,100
                135.7597348812,34.9408023985,100
                135.7600998657,34.9407916383,100
                135.76009008,34.9406072368,100
                135.7601518658,34.9404572741,100
                135.760251875,34.9405295198,100
                135.7603814225,34.9405751315,100
                135.7604807855,34.9405811027,100
                135.7606399443,34.940574091,100
                135.760824722,34.9405957231,100
                135.7609276721,34.9406488878,100
                135.76103414,34.9407589659,100
                135.7610789116,34.9409418868,100
                135.7612206578,34.9409307565,100
                135.7612812268,34.9414504285,100
                135.7614840446,34.9414293465,100
                135.7614217048,34.9409307269,100
                135.7617461792,34.9409098815,100
                135.7618055045,34.9414394835,100
                135.7620169842,34.9414255995,100
                135.7619506835,34.9408736585,100
                135.76198888,34.9408706348,100
                135.7620098995,34.9409615294,100
                135.7623999628,34.9409434862,100
                135.7624073921,34.9410241425,100
                135.7630778831,34.9409861498,100
                135.7630934603,34.9410741467,100
                135.7632495874,34.9410663505,100
                135.7634760654,34.9410550995,100
                135.7638282407,34.9410376829,100
                135.7641955563,34.9410193087,100
                135.7645933358,34.9410020486,100
                135.7649665831,34.9409879086,100
                135.7652579321,34.94097678,100
                135.7652541168,34.9409358197,100
                135.7653367119,34.9409322736,100
                135.765357434,34.9409313848,100
                135.7653521404,34.9408540949,100
                135.7653361366,34.9405817951,100
                135.7653250952,34.9404100279,100
                135.7655634396,34.9404004381,100
                135.7653517972,34.9398270606,100
                135.7652994097,34.939440161,100
                135.7652611408,34.9389808877,100
                135.76524226,34.9386789916,100
                135.7652351338,34.9385648817,100
                135.7652305796,34.9381222242,100
                135.7652900857,34.9375927806,100
                135.7652972267,34.9375226461,100
                135.7652603815,34.9371602864,100
                135.7652174632,34.9368063665,100
                135.7650705893,34.9363952039,100
                135.7649446294,34.9360096524,100
                135.7651259648,34.9359892947,100
                135.7651097327,34.9357236111,100
                135.7651527193,34.9352905645,100
                135.7652308047,34.9352881076,100
                135.7652260467,34.9344967039,100
                135.7652572262,34.9341879386,100
                135.765258026,34.93409253,100
                135.7652590538,34.9339714388,100
                135.7654538676,34.9339768215,100
                135.7654520065,34.9338965689,100
                135.765435653,34.9338361569,100
                135.7654343231,34.9335872229,100
                135.7655402639,34.9335839312,100
                135.7655230306,34.9340442836,100
                135.7658884655,34.9340532238,100
                135.7659242016,34.9333588762,100
                135.7663828555,34.933387713,100
                135.7668825335,34.9334173312,100
                135.7668816251,34.9338678564,100
                135.7669104783,34.9342940682,100
                135.7667236016,34.9343093465,100
                135.7667239196,34.9345639442,100
                135.7667488039,34.9347647798,100
                135.7668350686,34.9352731504,100
                135.7678681755,34.9352889919,100
                135.7679068238,34.9351675776,100
                135.7679424194,34.9346502141,100
                135.767954718,34.93438571,100
                135.7679705397,34.9340450115,100
                135.7679848917,34.9330067935,100
                135.767994586,34.9324620532,100
                135.767947169,34.9324616821,100
                135.7676902403,34.9324598553,100
                135.7677071673,34.9326782139,100
                135.7667556815,34.932666471,100
                135.7667339632,34.9326346673,100
                135.7665839872,34.9325966317,100
                135.7665714083,34.9325807967,100
                135.7663260314,34.9325779624,100
                135.7663213102,34.9327248006,100
                135.7663218293,34.9329925043,100
                135.7659365297,34.9329852811,100
                135.7659345945,34.9326670857,100
                135.7655182158,34.9326593852,100
                135.7651777305,34.9326529558,100
                135.7651751081,34.9329869891,100
                135.7647879793,34.9329848367,100
                135.7644618242,34.9329830112,100
                135.7636685911,34.9329840147,100
                135.7636193905,34.9329868775,100
                135.7628640539,34.9329911193,100
                135.7627978137,34.9329890887,100
                135.7627979129,34.9329539323,100
                135.7627985484,34.9327285652,100
                135.7627986476,34.9326934072,100
                135.7627981514,34.9326686867,100
                135.7624878293,34.9326689891,100
                135.7621788896,34.932669289,100
                135.7621778119,34.9326934265,100
                135.7618175744,34.9326858929,100
                135.7618113681,34.9323409265,100
                135.761458417,34.9323425623,100
                135.761455943,34.9325137047,100
                135.7613914884,34.93251398,100
                135.7613902765,34.9325554446,100
                135.7613048985,34.9325552779,100
                135.7613006846,34.9326771434,100
                135.7609049506,34.9326915063,100
                135.7609290866,34.9333087107,100
                135.7605493909,34.9333090231,100
                135.7605419382,34.9337344618,100
                135.7599547995,34.9337040119,100
                135.7599265587,34.9329465077,100
                135.7597721142,34.9329316257,100
                135.7596595111,34.932939082,100
                135.7596600954,34.932906166,100
                135.7596609666,34.9328038442,100
                135.7595872347,34.9328028059,100
                135.7595808159,34.9326455946,100
                135.7594113869,34.9326370189,100
                135.7594178564,34.9320487522,100
                135.7591571391,34.9320387107,100
                135.7591016901,34.9320365756,100
                135.7590898523,34.9321166991,100
                135.7589144937,34.9321032519,100
                135.7586507087,34.9320830804,100
                135.7585784396,34.932271823,100
                135.7585197881,34.9324249425,100
                135.7584564847,34.9326317028,100
                135.7581324426,34.9326368056,100
                135.7579542063,34.9326351134,100
                135.757947604,34.932930965,100
                135.757103378,34.9329417449,100
                135.7562419604,34.9329527678,100
                135.7562406145,34.9325325293,100
                135.75535383,34.9325344806,100
                135.7553428201,34.9325345009,100
              </coordinates>
            </LinearRing>
          </outerBoundaryIs>
        </Polygon>
      </Placemark>
    </Document>
  </Document>
</kml>
