<?xml version="1.0" encoding="UTF-8"?>
<kml xmlns="http://www.opengis.net/kml/2.2">
  <Document id="root_doc">
    <Document id="_2_04_________disv4326">
      <name>32_04下鳥羽disv4326</name>
      <Placemark id="_2_04_________disv4326.1">
        <visibility>1</visibility>
        <Polygon>
          <extrude>0</extrude>
          <outerBoundaryIs>
            <LinearRing>
              <coordinates>
                135.7396421431,34.9308380059,100
                135.7396419474,34.9308527941,100
                135.7391569067,34.9308472428,100
                135.7388846528,34.9308425709,100
                135.7388133402,34.9308400228,100
                135.7384261586,34.9308261602,100
                135.7384514748,34.931525333,100
                135.7384587284,34.9317255483,100
                135.7377962899,34.9312982897,100
                135.7369398718,34.9307206209,100
                135.7367810583,34.9307628087,100
                135.7363930758,34.9308658299,100
                135.7362793232,34.9309030447,100
                135.7357823677,34.93106568,100
                135.7365527273,34.9319892688,100
                135.7369479321,34.9326583973,100
                135.7372512787,34.9331719868,100
                135.7378156472,34.9343358999,100
                135.7383050373,34.9353709325,100
                135.738423938,34.9358149024,100
                135.7384899812,34.9365847996,100
                135.7385028629,34.9369275396,100
                135.7385248743,34.9375130722,100
                135.7385313153,34.9376845838,100
                135.7383578247,34.9382588383,100
                135.738316692,34.9383949591,100
                135.7380585564,34.93924934,100
                135.7378633261,34.939895457,100
                135.7377973484,34.9401138562,100
                135.737622052,34.9409779998,100
                135.7374579352,34.9417870225,100
                135.7391732628,34.9422442804,100
                135.7392026432,34.9423413263,100
                135.7396104615,34.9436884762,100
                135.73975178,34.9435712371,100
                135.7400039866,34.9434489561,100
                135.740198301,34.9436137597,100
                135.7400569866,34.9442103428,100
                135.7406462033,34.9442730334,100
                135.7412826046,34.9443461753,100
                135.7405287988,34.9456993332,100
                135.7403651397,34.9464280005,100
                135.7403768085,34.9468414502,100
                135.7404861188,34.9472131343,100
                135.7405267309,34.9473931008,100
                135.7405967465,34.9476639843,100
                135.7406129434,34.9477031085,100
                135.7406899083,34.9478901247,100
                135.7407849156,34.9481495119,100
                135.7407984289,34.948205885,100
                135.7408390726,34.9483411981,100
                135.7409753799,34.9485217924,100
                135.7413571399,34.9489959027,100
                135.74156157,34.9492780614,100
                135.7418879738,34.9499548883,100
                135.7421592604,34.9507555521,100
                135.7422671041,34.9512966836,100
                135.7422102998,34.9519726882,100
                135.7420852332,34.9525922032,100
                135.7420705166,34.9529302347,100
                135.7421789797,34.9532685294,100
                135.7424105175,34.9536408923,100
                135.7428147568,34.9540522889,100
                135.7430044749,34.9538262609,100
                135.7430499131,34.9537933261,100
                135.7436016337,34.9535579967,100
                135.7442441421,34.9535937993,100
                135.7450730669,34.9535254743,100
                135.7455052676,34.9535689959,100
                135.7454958565,34.9515145501,100
                135.7484178291,34.9515759187,100
                135.7484540095,34.950366159,100
                135.7497318584,34.9504099677,100
                135.7498407389,34.9504137173,100
                135.7500766114,34.9504217453,100
                135.7501008607,34.9504225707,100
                135.7502323849,34.9504270709,100
                135.7509267872,34.9504508444,100
                135.752214668,34.9504949292,100
                135.7521097588,34.9487100975,100
                135.7496246774,34.9487648643,100
                135.7495821544,34.9482245112,100
                135.7494163844,34.9461169861,100
                135.7482122729,34.9462348985,100
                135.7481113429,34.9451550745,100
                135.7471058035,34.9451815543,100
                135.7473747123,34.9440115383,100
                135.7492054693,34.9439757962,100
                135.7500898716,34.9439585542,100
                135.7518592361,34.9439377145,100
                135.7518446501,34.9425894833,100
                135.7516931735,34.9399677732,100
                135.7516928875,34.9399629824,100
                135.7504202865,34.9401174057,100
                135.7503935287,34.9395775277,100
                135.7503891282,34.9394887735,100
                135.7503870376,34.9394378295,100
                135.7499782341,34.9394504886,100
                135.7499772042,34.9393875339,100
                135.749617563,34.939390988,100
                135.7496173764,34.9394539554,100
                135.74943121,34.939461431,100
                135.7488584377,34.9394770701,100
                135.7488034484,34.9386704192,100
                135.7485134097,34.9386636862,100
                135.7485282741,34.9377142831,100
                135.7487426495,34.9377038135,100
                135.7487429792,34.9376576136,100
                135.7487498088,34.9367202358,100
                135.7487506074,34.936609666,100
                135.7488600761,34.9366098228,100
                135.7488628536,34.9365175005,100
                135.7493872925,34.9365057727,100
                135.7493887812,34.936472746,100
                135.7494365028,34.9364729859,100
                135.749830905,34.9364752825,100
                135.7498396657,34.936606011,100
                135.7498526619,34.9366662817,100
                135.750290555,34.9366608784,100
                135.7503189273,34.9366160179,100
                135.7503240473,34.9364977124,100
                135.7513983737,34.9364721115,100
                135.7513809093,34.9357002137,100
                135.7520628107,34.935694853,100
                135.7520543835,34.9354001753,100
                135.7526823774,34.9353169498,100
                135.7526721547,34.9336365711,100
                135.75348949,34.9336633062,100
                135.753495479,34.9320861829,100
                135.7534955402,34.9320701436,100
                135.7534969526,34.931698649,100
                135.7534980097,34.9314192714,100
                135.753498022,34.9314149749,100
                135.753499038,34.9311492598,100
                135.7529490671,34.9311253991,100
                135.751308819,34.9310541748,100
                135.7511514038,34.931047374,100
                135.7502939366,34.9310101972,100
                135.7498013392,34.9310039772,100
                135.7493587616,34.931014476,100
                135.7493603399,34.9308660946,100
                135.748639834,34.9308839077,100
                135.7483209546,34.9310581854,100
                135.74756783,34.9310669804,100
                135.7468160394,34.9310557679,100
                135.7460055466,34.9310252645,100
                135.7455607744,34.9310084842,100
                135.7449125604,34.9309756395,100
                135.7441820038,34.9309395185,100
                135.743645889,34.9308983838,100
                135.7433192755,34.9308358614,100
                135.7431629981,34.9308058118,100
                135.7430134989,34.9307900012,100
                135.7428664561,34.9307744778,100
                135.7421213219,34.9307862024,100
                135.7421168559,34.9307992912,100
                135.7408738253,34.9308146642,100
                135.7396421431,34.9308380059,100
              </coordinates>
            </LinearRing>
          </outerBoundaryIs>
        </Polygon>
      </Placemark>
    </Document>
  </Document>
</kml>
