<?xml version="1.0" encoding="UTF-8"?>
<kml xmlns="http://www.opengis.net/kml/2.2">
  <Document id="root_doc">
    <Document id="_2_09______disv4326">
      <name>32_09美豆disv4326</name>
      <Placemark id="_2_09______disv4326.1">
        <visibility>1</visibility>
        <Polygon>
          <extrude>0</extrude>
          <outerBoundaryIs>
            <LinearRing>
              <coordinates>
                135.7204888272,34.8866607579,100
                135.7204929138,34.8866620935,100
                135.7205262136,34.8866201391,100
                135.7205403967,34.8866268844,100
                135.720864298,34.8867809273,100
                135.7211527364,34.8869181031,100
                135.7217982099,34.8872055003,100
                135.7217367589,34.887221401,100
                135.7217459701,34.8872256769,100
                135.721815291,34.8872578481,100
                135.7219877559,34.887337864,100
                135.7219899412,34.8873388776,100
                135.7223049541,34.8874850046,100
                135.7223067295,34.8874858277,100
                135.7222903369,34.8875056513,100
                135.7226299394,34.8876500873,100
                135.7227890786,34.8876678816,100
                135.7232115457,34.887384583,100
                135.7231998159,34.8872953132,100
                135.7232841048,34.8872436032,100
                135.7236800082,34.8870007169,100
                135.7238469117,34.8870552595,100
                135.7238799962,34.8870660711,100
                135.7241127269,34.8870231127,100
                135.7243966901,34.8869668561,100
                135.7248733057,34.8868822107,100
                135.7249089962,34.8869288665,100
                135.7251362142,34.8868073658,100
                135.727297859,34.8864067977,100
                135.7278253563,34.8859352475,100
                135.7284945078,34.8853370254,100
                135.7285320544,34.8853035138,100
                135.7290529566,34.8848377912,100
                135.7287055183,34.884311132,100
                135.7284823057,34.8839986396,100
                135.7276055675,34.8827093984,100
                135.7277377546,34.8825648898,100
                135.7277592203,34.8825414136,100
                135.7288952736,34.8810783045,100
                135.7296120262,34.8802263596,100
                135.7301367768,34.8799422799,100
                135.7309239825,34.8793992445,100
                135.7317933653,34.8787596153,100
                135.7328666491,34.8778968855,100
                135.7324760657,34.876070727,100
                135.732289009,34.8751960847,100
                135.731255935,34.876068055,100
                135.7306734246,34.876559707,100
                135.7294024677,34.8773373982,100
                135.7284847556,34.8778030854,100
                135.7272713958,34.8784801694,100
                135.7269450876,34.8786624175,100
                135.7267153632,34.8787905785,100
                135.7254652011,34.8797404081,100
                135.7251387702,34.8800201254,100
                135.7248118552,34.8802015921,100
                135.7244048761,34.8803909775,100
                135.7239581094,34.8805168154,100
                135.7236618421,34.8805620672,100
                135.7228824307,34.8806412317,100
                135.721832796,34.8807994881,100
                135.7210719695,34.8809547119,100
                135.7207559211,34.8810568038,100
                135.7202079227,34.881215826,100
                135.7197010082,34.8813872652,100
                135.7181812646,34.8819931295,100
                135.7167876433,34.8825504608,100
                135.7152793294,34.8831818724,100
                135.7153932721,34.8847869208,100
                135.7154539102,34.8858196847,100
                135.7154576013,34.8861656371,100
                135.7154675923,34.8871003737,100
                135.7118679886,34.8871738732,100
                135.7119109133,34.8885925944,100
                135.7119595906,34.8902464862,100
                135.7119906018,34.8912990261,100
                135.7120474322,34.8932290802,100
                135.7099723259,34.8927065223,100
                135.7096049665,34.8936076021,100
                135.7094528056,34.8940216311,100
                135.7089414963,34.8954129618,100
                135.7081650884,34.8952119814,100
                135.7081563628,34.8951478702,100
                135.70637723,34.894714704,100
                135.7062523248,34.8949368112,100
                135.7061117253,34.8949228046,100
                135.7055989539,34.8948714058,100
                135.7053327022,34.8954019931,100
                135.7053134735,34.8953953263,100
                135.7045748276,34.8971375288,100
                135.7043883335,34.89703164,100
                135.7043570076,34.8970548748,100
                135.7043180627,34.8971411952,100
                135.7042782762,34.897229414,100
                135.7041802232,34.8973872142,100
                135.703950286,34.8976674466,100
                135.703656121,34.8979683681,100
                135.7029902199,34.8989480056,100
                135.7029067763,34.8990707683,100
                135.7031025443,34.8991360448,100
                135.7032701447,34.8991901938,100
                135.7038322082,34.8993164462,100
                135.7042177221,34.8994645175,100
                135.7047351959,34.8996663658,100
                135.7048465271,34.8997095991,100
                135.7054089177,34.9000564248,100
                135.7055128141,34.9000997102,100
                135.7057850287,34.9003142649,100
                135.7059172091,34.9004500206,100
                135.7059996598,34.9005382573,100
                135.7063083574,34.9009855933,100
                135.7066969761,34.9014773518,100
                135.7070570305,34.9019260783,100
                135.7073700977,34.902319334,100
                135.7078371825,34.9028647326,100
                135.7082492192,34.9033272425,100
                135.7084504401,34.9034880239,100
                135.7087496751,34.9033657778,100
                135.7097421106,34.9029534876,100
                135.7109200034,34.9024361239,100
                135.7114224292,34.9022257577,100
                135.7115655645,34.9022263797,100
                135.7116087741,34.9022146507,100
                135.7117633671,34.9021167728,100
                135.7119022637,34.9020097007,100
                135.7119596735,34.901970821,100
                135.7120692198,34.90189671,100
                135.7121216795,34.9018612688,100
                135.7123572466,34.9017018174,100
                135.7128791179,34.90170383,100
                135.7127285161,34.9016446665,100
                135.7128652507,34.9016117491,100
                135.713256442,34.9014494255,100
                135.7137595794,34.9010700266,100
                135.7138959252,34.9009892168,100
                135.7140581807,34.9008930445,100
                135.7143853907,34.9006133761,100
                135.7146732114,34.9002917102,100
                135.7147109529,34.9002297529,100
                135.7147286419,34.9002007082,100
                135.7147548321,34.9001362592,100
                135.7150569649,34.8998889272,100
                135.7153091031,34.9000619265,100
                135.7155653997,34.8998199078,100
                135.7157904249,34.8996106354,100
                135.7158460657,34.8995449874,100
                135.7159246203,34.8994347423,100
                135.715501654,34.8992306356,100
                135.7156108505,34.8990398506,100
                135.7156108667,34.8990398212,100
                135.7158319421,34.8986535596,100
                135.7159558701,34.8984267337,100
                135.7159560304,34.8984264404,100
                135.7160655453,34.8982259825,100
                135.7160666656,34.898223932,100
                135.7160749218,34.8982088206,100
                135.7162500659,34.8978575894,100
                135.7162541624,34.8978493743,100
                135.7163108179,34.8977357542,100
                135.7163282093,34.8977008683,100
                135.7163309814,34.8976953084,100
                135.7163813818,34.8975942212,100
                135.7164388801,34.8974789258,100
                135.7165190787,34.8973326275,100
                135.7165377939,34.8972984893,100
                135.716593462,34.8971969473,100
                135.7166429797,34.8970541679,100
                135.7167124071,34.8968785283,100
                135.7167261957,34.896843646,100
                135.7169677052,34.8963836205,100
                135.7171845493,34.8959488214,100
                135.7180748513,34.894633717,100
                135.7179366773,34.894603673,100
                135.7178528417,34.8945865742,100
                135.7177050373,34.8945547472,100
                135.7177311233,34.8944698038,100
                135.7174574566,34.8944008483,100
                135.7174787096,34.8943420217,100
                135.7180066889,34.8944656611,100
                135.7180239084,34.8944297136,100
                135.7180904406,34.8942909177,100
                135.7181391278,34.8941893367,100
                135.7181882897,34.8940867698,100
                135.7183202228,34.8938141064,100
                135.7181405848,34.8937684022,100
                135.7174717586,34.8935983025,100
                135.7174136869,34.8935835884,100
                135.7168706758,34.8934455434,100
                135.7168230878,34.8934334589,100
                135.7164715024,34.8933250893,100
                135.7164699955,34.8933098736,100
                135.7162472424,34.8933116723,100
                135.7162729517,34.8932251077,100
                135.7164612006,34.8931782955,100
                135.7164887243,34.8929259515,100
                135.716530119,34.8927898442,100
                135.7166540867,34.8925657575,100
                135.7168589868,34.8926338498,100
                135.7169554994,34.8924087123,100
                135.7169203784,34.8923941217,100
                135.7167916266,34.8923407168,100
                135.7171118312,34.8917134077,100
                135.7174890523,34.8918401483,100
                135.7174923821,34.8918412125,100
                135.7181463448,34.8921041715,100
                135.7184425228,34.8922239564,100
                135.7184640775,34.8922320355,100
                135.7190527318,34.8924799057,100
                135.719098798,34.8924872672,100
                135.7198511415,34.8927899541,100
                135.7200268046,34.8922455477,100
                135.7202012556,34.8917048706,100
                135.7203496147,34.8912512509,100
                135.7204061855,34.8910870783,100
                135.7205061584,34.890797016,100
                135.7205183705,34.8907615783,100
                135.7205711241,34.8906084967,100
                135.7206086098,34.8905058815,100
                135.7206903867,34.8902937972,100
                135.7208804721,34.8898887406,100
                135.7209963459,34.8896620459,100
                135.7210887573,34.8895076765,100
                135.7210992662,34.8894900947,100
                135.7212416638,34.8892523157,100
                135.7214476393,34.8889740493,100
                135.7214296756,34.8889661199,100
                135.7206316538,34.8886132578,100
                135.7204721766,34.8885478835,100
                135.7204081218,34.8885216053,100
                135.7193564453,34.8880908119,100
                135.719229099,34.8880340314,100
                135.7200054356,34.8870109408,100
                135.7200851005,34.8869092197,100
                135.7200957462,34.8868956532,100
                135.7202970747,34.8866385058,100
                135.7203311022,34.8865950701,100
                135.7203354941,34.8865894637,100
                135.7204888272,34.8866607579,100
              </coordinates>
            </LinearRing>
          </outerBoundaryIs>
        </Polygon>
      </Placemark>
    </Document>
  </Document>
</kml>
