<?xml version="1.0" encoding="UTF-8"?>
<kml xmlns="http://www.opengis.net/kml/2.2">
  <Document id="root_doc">
    <Document id="_2_08___disv4326">
      <name>32_08淀disv4326</name>
      <Placemark id="_2_08___disv4326.1">
        <visibility>1</visibility>
        <Polygon>
          <extrude>0</extrude>
          <outerBoundaryIs>
            <LinearRing>
              <coordinates>
                135.7173911608,34.8992237802,100
                135.7173624145,34.8992143536,100
                135.7173573148,34.8992125867,100
                135.7173529465,34.899211073,100
                135.7173500485,34.8992100691,100
                135.7173471678,34.8992090712,100
                135.7173445584,34.8992081669,100
                135.7173406589,34.8992068163,100
                135.7172967669,34.8991916118,100
                135.717425704,34.8989669938,100
                135.7174369798,34.8989645156,100
                135.7177801568,34.8989031641,100
                135.7177880014,34.8989070468,100
                135.7178624604,34.8988900932,100
                135.7178824452,34.8988886772,100
                135.7179117081,34.8988866027,100
                135.7179305682,34.8989581436,100
                135.7179380193,34.8989850118,100
                135.7180357357,34.8989669424,100
                135.7182256323,34.8989318223,100
                135.7184664435,34.8988824875,100
                135.7188605743,34.8988112883,100
                135.7189295822,34.8988029408,100
                135.718968624,34.8987982185,100
                135.7190169275,34.8987923752,100
                135.7190648307,34.898786581,100
                135.7191150951,34.8987805006,100
                135.7191759912,34.8987731342,100
                135.7192354215,34.8987659452,100
                135.7193242258,34.898755203,100
                135.7193932224,34.8987468566,100
                135.7194089586,34.8987449547,100
                135.7194091807,34.8987449291,100
                135.7194188682,34.8987438635,100
                135.7194330389,34.8987423051,100
                135.7200801255,34.8986085874,100
                135.7205909765,34.8984829974,100
                135.7205817907,34.898446586,100
                135.7205750102,34.8984328306,100
                135.7204883489,34.8982570636,100
                135.7204671684,34.898257422,100
                135.7200670885,34.8982641996,100
                135.7200165547,34.8982472076,100
                135.7199788658,34.8982345353,100
                135.7199447675,34.8982230691,100
                135.7197916864,34.8981725137,100
                135.7193693939,34.8982409758,100
                135.7190229468,34.898297405,100
                135.7189013305,34.8983178373,100
                135.7186131173,34.8983662579,100
                135.718286436,34.8984215577,100
                135.7182766153,34.8984232195,100
                135.718115411,34.8984503747,100
                135.7179741435,34.898472203,100
                135.7178771186,34.8984871957,100
                135.7178371221,34.8984932025,100
                135.7178004629,34.8984987053,100
                135.7174161191,34.8985564107,100
                135.7172326973,34.8984957241,100
                135.7171599744,34.8985740649,100
                135.7170308823,34.8987029254,100
                135.7168105321,34.8989272827,100
                135.7167266939,34.8991132245,100
                135.7164596205,34.8996411516,100
                135.716411119,34.8997370298,100
                135.7163545064,34.8998426782,100
                135.7161621277,34.900201686,100
                135.7160536272,34.9003876407,100
                135.7159528332,34.9005392441,100
                135.715841219,34.9006677231,100
                135.7156482695,34.900834041,100
                135.7156396311,34.900841486,100
                135.7156014496,34.9008640732,100
                135.7154653801,34.9009446553,100
                135.7152391004,34.901078658,100
                135.7152111613,34.901093382,100
                135.7150069589,34.9012010774,100
                135.7149680048,34.9012199281,100
                135.714937337,34.9012276444,100
                135.7149072449,34.9011804622,100
                135.7148534235,34.9011455043,100
                135.7146094016,34.9013984427,100
                135.7143346269,34.901553107,100
                135.7140640416,34.9014298551,100
                135.7138418188,34.9014897561,100
                135.7135793696,34.9015151936,100
                135.7133867823,34.9015398106,100
                135.7133747414,34.9015425288,100
                135.7132448561,34.901572434,100
                135.7128791179,34.90170383,100
                135.7123572466,34.9017018174,100
                135.7121216795,34.9018612688,100
                135.7120692198,34.90189671,100
                135.7119596735,34.901970821,100
                135.7119022637,34.9020097007,100
                135.7117633671,34.9021167728,100
                135.7116087741,34.9022146507,100
                135.7115655645,34.9022263797,100
                135.7114224292,34.9022257577,100
                135.7109200034,34.9024361239,100
                135.7097421106,34.9029534876,100
                135.7087496751,34.9033657778,100
                135.7084504401,34.9034880239,100
                135.7082492192,34.9033272425,100
                135.7078371825,34.9028647326,100
                135.7073700977,34.902319334,100
                135.7070570305,34.9019260783,100
                135.7066969761,34.9014773518,100
                135.7063083574,34.9009855933,100
                135.7059996598,34.9005382573,100
                135.7059172091,34.9004500206,100
                135.7057850287,34.9003142649,100
                135.7055128141,34.9000997102,100
                135.7054089177,34.9000564248,100
                135.7054178261,34.9003319614,100
                135.7054216197,34.9005319161,100
                135.705449509,34.9007049557,100
                135.7055594559,34.9011775151,100
                135.7056890486,34.901696816,100
                135.705742971,34.9020063381,100
                135.7056862097,34.9021260683,100
                135.705656716,34.9022701627,100
                135.7056636697,34.902387372,100
                135.7056919205,34.9024894911,100
                135.7057358747,34.9026045369,100
                135.7057688093,34.9027292045,100
                135.7057688446,34.9028570315,100
                135.7057333992,34.9029622351,100
                135.7056550468,34.9031495242,100
                135.705604252,34.9033104697,100
                135.7056023568,34.9034174457,100
                135.7056057352,34.9035616913,100
                135.705611477,34.903648402,100
                135.7055899113,34.9037153268,100
                135.7055127252,34.9038102873,100
                135.7054015118,34.9040030608,100
                135.7053573187,34.9042136042,100
                135.7053428157,34.9043746385,100
                135.7053517233,34.9045143901,100
                135.7053880978,34.9047736552,100
                135.7054850628,34.9052432966,100
                135.7054974328,34.9053712247,100
                135.7055027255,34.9060979167,100
                135.705529149,34.9061680578,100
                135.7061462197,34.9078061023,100
                135.7061507169,34.9078461165,100
                135.7061508418,34.9078472437,100
                135.7062986259,34.9078182344,100
                135.7064048216,34.9078003923,100
                135.706802794,34.9082792847,100
                135.7068316964,34.908314076,100
                135.7072480298,34.9088668905,100
                135.7069837777,34.9089523135,100
                135.7070158181,34.9093279152,100
                135.7069974928,34.9102108296,100
                135.7079999525,34.9101597293,100
                135.7084540798,34.9101423021,100
                135.7083877912,34.9092485493,100
                135.7088891935,34.9094071648,100
                135.7088896702,34.9094051241,100
                135.7095261951,34.9096548435,100
                135.7096275966,34.9096950903,100
                135.7096643795,34.9097992714,100
                135.7096889728,34.9102001373,100
                135.709698154,34.9119663547,100
                135.7096957375,34.9119667016,100
                135.7097179396,34.9123698132,100
                135.710195811,34.9129660098,100
                135.7102346531,34.9130142061,100
                135.7104457632,34.9132378296,100
                135.7105099728,34.9133058055,100
                135.7107301527,34.9135345212,100
                135.7110114348,34.9138024706,100
                135.7114184187,34.914190167,100
                135.7119217491,34.9146696482,100
                135.7119462668,34.9149875477,100
                135.7120353102,34.9161423539,100
                135.7125228178,34.9161288704,100
                135.7127029141,34.9161323288,100
                135.7133600264,34.9161147394,100
                135.7142034196,34.9161233655,100
                135.7142257406,34.916121588,100
                135.7142490031,34.9161197411,100
                135.7142493781,34.9161543226,100
                135.7142522557,34.9164211798,100
                135.7142544642,34.9166271864,100
                135.7143205202,34.9166755868,100
                135.7144816104,34.916793583,100
                135.7144449146,34.9168549089,100
                135.7144039207,34.9169296764,100
                135.7144008849,34.916935726,100
                135.7143440335,34.9170849684,100
                135.7144105526,34.918150417,100
                135.7147079415,34.9181667579,100
                135.7146668684,34.9191477893,100
                135.7148690291,34.9191647485,100
                135.7148711323,34.920102283,100
                135.7149358332,34.9201100427,100
                135.7149275683,34.9205918774,100
                135.7149185591,34.9211161079,100
                135.7149040677,34.9211471315,100
                135.714900733,34.9211471237,100
                135.7148851863,34.9212051884,100
                135.7148744747,34.9213377042,100
                135.7148246231,34.9219537443,100
                135.7149603096,34.9219706847,100
                135.7150117388,34.9230715646,100
                135.7150050371,34.9231001418,100
                135.7151393194,34.9232539157,100
                135.715140491,34.9232799056,100
                135.7159633995,34.9240774401,100
                135.7160788007,34.9240503157,100
                135.7161603662,34.9240476194,100
                135.7164041256,34.9240557959,100
                135.7166339982,34.9240808426,100
                135.7167370816,34.924112071,100
                135.7168068536,34.9241199804,100
                135.7168556333,34.9241080528,100
                135.7168344754,34.9234676232,100
                135.716821414,34.9232400478,100
                135.716940058,34.9231132081,100
                135.7178178595,34.9231480772,100
                135.7180414266,34.9231405003,100
                135.7183777507,34.9231290999,100
                135.7196396148,34.9231261169,100
                135.7201047144,34.9231276867,100
                135.7201361354,34.923122548,100
                135.7202639553,34.9231015051,100
                135.7206799675,34.9230852133,100
                135.7209035091,34.9230657284,100
                135.7213848634,34.9229683853,100
                135.721731767,34.9229442541,100
                135.7219460574,34.9229556635,100
                135.7221613768,34.9230624985,100
                135.7222713847,34.9231345173,100
                135.7223235034,34.9231867519,100
                135.7224624435,34.9231986253,100
                135.7224853338,34.9232330454,100
                135.7228168618,34.923234731,100
                135.7247119469,34.9215945406,100
                135.7256130153,34.9208214244,100
                135.7250553907,34.9202258342,100
                135.7246153715,34.9197960654,100
                135.7241944993,34.9193437751,100
                135.7238682427,34.9189726992,100
                135.7235344423,34.9185558986,100
                135.7232705295,34.9181453882,100
                135.7232366141,34.9180764306,100
                135.7229908254,34.9175765905,100
                135.7226672346,34.9167212595,100
                135.7223546039,34.9157594695,100
                135.7218727477,34.9149074425,100
                135.7215965573,34.9144990267,100
                135.7213916332,34.9142276165,100
                135.721177827,34.9140315432,100
                135.7208098581,34.9137284142,100
                135.7203795161,34.9134467599,100
                135.7199436973,34.9131548083,100
                135.7195373575,34.9129079283,100
                135.7191865257,34.9127264621,100
                135.7187767967,34.9125685924,100
                135.7180778261,34.9122596794,100
                135.7179333219,34.9121813072,100
                135.717895332,34.9121586108,100
                135.7177921946,34.9120966736,100
                135.7176263457,34.9119971925,100
                135.717277952,34.9117925568,100
                135.717089431,34.9116789361,100
                135.7168956208,34.9115620623,100
                135.7167812418,34.9114304427,100
                135.7166814918,34.9112515295,100
                135.7166179442,34.9110868574,100
                135.7166056573,34.9109461104,100
                135.7166113702,34.9107017345,100
                135.7166135394,34.9106093365,100
                135.7166853372,34.9100399445,100
                135.7166906069,34.909998122,100
                135.7167759828,34.9095477875,100
                135.7168144716,34.9093448299,100
                135.7168878089,34.9089273567,100
                135.7169020023,34.9086970159,100
                135.7168891335,34.9085953568,100
                135.7168506549,34.9082914342,100
                135.7168023548,34.9080930631,100
                135.7167383792,34.9078783151,100
                135.7167200397,34.9075792289,100
                135.7164411093,34.9072167096,100
                135.7170725581,34.9071872013,100
                135.7173309431,34.9071749886,100
                135.7173318619,34.9071748493,100
                135.7176625106,34.9071548459,100
                135.7177098902,34.9071554496,100
                135.7180947797,34.9071610666,100
                135.7182289898,34.9071630007,100
                135.7182490375,34.9071824657,100
                135.7185849253,34.9071760142,100
                135.7185849703,34.9071624181,100
                135.7187529037,34.9071604371,100
                135.7191009114,34.9071731071,100
                135.7194500317,34.9071682274,100
                135.719664366,34.9071628733,100
                135.7198621334,34.9071421432,100
                135.7200616296,34.9071253553,100
                135.7203088001,34.9071045876,100
                135.720452245,34.9070925944,100
                135.7210401119,34.9065858022,100
                135.7213300009,34.9063358801,100
                135.7218788021,34.905729374,100
                135.7219230354,34.9056804861,100
                135.7227201775,34.9048091313,100
                135.7229833443,34.9044764619,100
                135.7233242787,34.9039817716,100
                135.7233646082,34.9039166449,100
                135.723469331,34.9037475016,100
                135.7236511143,34.9035630395,100
                135.7237976019,34.9034532935,100
                135.7239834652,34.9032754617,100
                135.7243093515,34.902920411,100
                135.7246237642,34.9026661162,100
                135.7249860175,34.9024277049,100
                135.7252382244,34.9022755951,100
                135.7254298904,34.9021710955,100
                135.7253550296,34.9019523903,100
                135.7254349505,34.9017410798,100
                135.7252625072,34.9015600261,100
                135.7252461876,34.9015428912,100
                135.7248069054,34.9010817218,100
                135.7246893051,34.9010396196,100
                135.7239959132,34.9007912612,100
                135.7235721357,34.9006395091,100
                135.7233290016,34.9005888793,100
                135.7225690502,34.9004330426,100
                135.7222843423,34.9003838648,100
                135.7220942874,34.9003143404,100
                135.7220393047,34.9002723187,100
                135.7220025087,34.9002441963,100
                135.7216856786,34.9000019762,100
                135.7214089612,34.8997463954,100
                135.7207732601,34.8997630994,100
                135.7197752323,34.8997805802,100
                135.7193581252,34.8997776403,100
                135.7193358124,34.8995928597,100
                135.7192234023,34.8993469508,100
                135.7191100747,34.8990199082,100
                135.7187258647,34.8990088731,100
                135.7186077502,34.8990408854,100
                135.7185534181,34.8990431495,100
                135.7179874533,34.8991262276,100
                135.7178418768,34.8991469619,100
                135.7177417525,34.8992046294,100
                135.7175848264,34.8992950121,100
                135.7175218636,34.8993284409,100
                135.7174883952,34.8993462104,100
                135.7174807273,34.8993500115,100
                135.7174647651,34.8993579241,100
                135.717437409,34.8993587625,100
                135.7173727533,34.8993471125,100
                135.7173606609,34.8993449346,100
                135.7173315983,34.899339698,100
                135.7173776251,34.8992519088,100
                135.7173864134,34.8992351422,100
                135.7173911608,34.8992237802,100
              </coordinates>
            </LinearRing>
          </outerBoundaryIs>
        </Polygon>
      </Placemark>
    </Document>
  </Document>
</kml>
