<?xml version="1.0" encoding="UTF-8"?>
<kml xmlns="http://www.opengis.net/kml/2.2">
  <Document id="root_doc">
    <Document id="_2_19_________disv4326">
      <name>32_19桃山東disv4326</name>
      <Placemark id="_2_19_________disv4326.1">
        <visibility>1</visibility>
        <Polygon>
          <extrude>0</extrude>
          <outerBoundaryIs>
            <LinearRing>
              <coordinates>
                135.7845004661,34.9303976083,100
                135.7836935305,34.9303232046,100
                135.7829682892,34.9302561266,100
                135.7821043778,34.9301918927,100
                135.7814451568,34.9301414748,100
                135.7801780588,34.9300120574,100
                135.7801485442,34.9300739106,100
                135.7801918725,34.9305260006,100
                135.7802184895,34.9308036076,100
                135.7805575781,34.9308314794,100
                135.7804950384,34.931070541,100
                135.7804235982,34.9312797259,100
                135.7803940534,34.9314017245,100
                135.7802883524,34.9314674537,100
                135.7800149931,34.9316314781,100
                135.7799648834,34.9317361142,100
                135.7802223589,34.9318988499,100
                135.7801345065,34.9320635641,100
                135.7800952875,34.9322547762,100
                135.7801157212,34.9324039113,100
                135.7801888724,34.9325958208,100
                135.7799625416,34.9344744428,100
                135.7798826076,34.9358099042,100
                135.7795042025,34.9360335274,100
                135.7794545906,34.937167557,100
                135.7800235274,34.9377159759,100
                135.7806979167,34.9383660031,100
                135.7830492641,34.9405215969,100
                135.7832342214,34.9402016155,100
                135.7834890775,34.9398220357,100
                135.7835351772,34.9396794993,100
                135.7835445681,34.9395106257,100
                135.7835123342,34.9393899925,100
                135.7833551283,34.9391101057,100
                135.7833153255,34.9389308616,100
                135.783317654,34.9387816251,100
                135.7833520311,34.9387077365,100
                135.7834156851,34.9386490416,100
                135.783534188,34.9385869249,100
                135.783629511,34.9385764612,100
                135.7835713526,34.9385017714,100
                135.7834882376,34.9383373107,100
                135.7834281458,34.9382493068,100
                135.7836736398,34.9380671943,100
                135.7837419533,34.938016748,100
                135.7838947084,34.9381641491,100
                135.7840382487,34.9382866719,100
                135.7843116089,34.9384533748,100
                135.784506177,34.9385798619,100
                135.7847124221,34.9386796063,100
                135.7847865996,34.9387026284,100
                135.7850046683,34.9387183009,100
                135.7852066367,34.9386671073,100
                135.785304204,34.9386233332,100
                135.7856589889,34.9386453754,100
                135.7857010799,34.938741445,100
                135.7861143257,34.9388466262,100
                135.7870237939,34.9393563858,100
                135.7872511481,34.9394807434,100
                135.787473045,34.9396099599,100
                135.7874310137,34.9396541022,100
                135.7875742685,34.9397464123,100
                135.7876043754,34.9396811421,100
                135.787605586,34.9396777399,100
                135.7876160225,34.9396754776,100
                135.7876786911,34.9395101173,100
                135.7877030847,34.9394457493,100
                135.7877359473,34.9394156782,100
                135.7880118579,34.9394210501,100
                135.7880216594,34.9395555689,100
                135.788071375,34.9397636259,100
                135.7880782303,34.9398267427,100
                135.7880437336,34.9400340974,100
                135.7880794384,34.9402736204,100
                135.7880506976,34.9403938623,100
                135.7882157224,34.9404614843,100
                135.788379071,34.940677214,100
                135.7883898995,34.9407499163,100
                135.7885050613,34.940741245,100
                135.7885131579,34.9406928742,100
                135.7886043561,34.9406823994,100
                135.7886467491,34.9405656307,100
                135.7887591237,34.9405001177,100
                135.7888715186,34.9404948207,100
                135.7889206269,34.9405137115,100
                135.7890901352,34.9404216049,100
                135.7894007748,34.9405130031,100
                135.7894371817,34.9406263878,100
                135.7895980338,34.9405759597,100
                135.7899260583,34.9405801941,100
                135.790011911,34.9406214042,100
                135.7901186166,34.9406339858,100
                135.7901620763,34.9407919645,100
                135.7902185413,34.9408880588,100
                135.7904263014,34.9403144899,100
                135.7904949311,34.9401788916,100
                135.7908655166,34.9398677452,100
                135.7909404234,34.9399083012,100
                135.7913113438,34.9398757722,100
                135.7913281543,34.9396575396,100
                135.7918695401,34.9395762856,100
                135.7922981492,34.9395426558,100
                135.7924834607,34.939523721,100
                135.7926689298,34.9395047691,100
                135.7931117691,34.9395965966,100
                135.793520542,34.9401001647,100
                135.7934990514,34.9402755685,100
                135.7934742435,34.9404780809,100
                135.7934418866,34.9407420664,100
                135.7934411223,34.9407482629,100
                135.7934227184,34.941068474,100
                135.7939827825,34.9410890834,100
                135.793965957,34.9409398848,100
                135.7939730996,34.9408521423,100
                135.7940096045,34.9407709284,100
                135.7941359543,34.9405327404,100
                135.7943359824,34.9403130607,100
                135.7943144224,34.9402808375,100
                135.794533934,34.9402509985,100
                135.7948373824,34.9402505288,100
                135.7948416503,34.9402977943,100
                135.7948532787,34.9405444591,100
                135.7947682759,34.9407941979,100
                135.7946906333,34.9410593034,100
                135.7946799812,34.9410956979,100
                135.7946860267,34.9413081238,100
                135.7946787017,34.9415148926,100
                135.7947578047,34.9417906883,100
                135.794842926,34.9420181801,100
                135.7950253962,34.9423612018,100
                135.7953630085,34.9422421862,100
                135.795338248,34.9422249593,100
                135.7952317396,34.9422354136,100
                135.7950468341,34.9420491648,100
                135.7951556974,34.9420352125,100
                135.7951514282,34.9417583696,100
                135.7954339225,34.941663474,100
                135.7954310209,34.9415812497,100
                135.7955239757,34.9415779483,100
                135.7955682851,34.9413602954,100
                135.7955428814,34.9411051947,100
                135.7947561826,34.9410794177,100
                135.7947766716,34.9409023217,100
                135.794803534,34.9408203175,100
                135.794877522,34.9405806303,100
                135.7948823926,34.9405298594,100
                135.7948909536,34.9402987945,100
                135.7954791982,34.9403095841,100
                135.7955019321,34.9403598391,100
                135.7961685595,34.9402829339,100
                135.7963811824,34.9405190915,100
                135.796541989,34.9406976917,100
                135.7969249322,34.9406804485,100
                135.797341043,34.9406617094,100
                135.7973080071,34.9401127958,100
                135.7972965985,34.9399230398,100
                135.7972274466,34.9391898922,100
                135.7972369661,34.9387982483,100
                135.7968991151,34.9381732503,100
                135.7967481838,34.9378650074,100
                135.7965475748,34.9374552605,100
                135.7960521594,34.9362488788,100
                135.7958680442,34.9356711153,100
                135.7956981493,34.9351380285,100
                135.7955892871,34.9347664691,100
                135.7953465042,34.9339377366,100
                135.7952376605,34.9336476622,100
                135.7951155209,34.9332786154,100
                135.7950900995,34.9332088475,100
                135.7950129642,34.9329968645,100
                135.7948688913,34.9326008052,100
                135.7948400307,34.9325215234,100
                135.7948089923,34.9324673098,100
                135.7946509021,34.932191169,100
                135.7944300316,34.9318494911,100
                135.7941766885,34.9315943163,100
                135.7940823822,34.9315428125,100
                135.7938668879,34.9314251797,100
                135.7936098769,34.9313329711,100
                135.7928733136,34.9312023304,100
                135.7910491844,34.9310032535,100
                135.7890308926,34.9308257567,100
                135.7884464662,34.9307743533,100
                135.7871284642,34.930658418,100
                135.7868980463,34.9306381502,100
                135.7862844717,34.930584174,100
                135.7850903813,34.930456199,100
                135.7845004661,34.9303976083,100
              </coordinates>
            </LinearRing>
          </outerBoundaryIs>
        </Polygon>
      </Placemark>
    </Document>
  </Document>
</kml>
