<?xml version="1.0" encoding="UTF-8"?>
<kml xmlns="http://www.opengis.net/kml/2.2">
  <Document id="root_doc">
    <Document id="_2_10______disv4326">
      <name>32_10納所disv4326</name>
      <Placemark id="_2_10______disv4326.1">
        <visibility>1</visibility>
        <Polygon>
          <extrude>0</extrude>
          <outerBoundaryIs>
            <LinearRing>
              <coordinates>
                135.7213300009,34.9063358801,100
                135.7210401119,34.9065858022,100
                135.720452245,34.9070925944,100
                135.7203088001,34.9071045876,100
                135.7200616296,34.9071253553,100
                135.7198621334,34.9071421432,100
                135.719664366,34.9071628733,100
                135.7194500317,34.9071682274,100
                135.7191009114,34.9071731071,100
                135.7187529037,34.9071604371,100
                135.7185849703,34.9071624181,100
                135.7185849253,34.9071760142,100
                135.7182490375,34.9071824657,100
                135.7182289898,34.9071630007,100
                135.7180947797,34.9071610666,100
                135.7177098902,34.9071554496,100
                135.7176625106,34.9071548459,100
                135.7173318619,34.9071748493,100
                135.7173309431,34.9071749886,100
                135.7170725581,34.9071872013,100
                135.7164411093,34.9072167096,100
                135.7167200397,34.9075792289,100
                135.7167383792,34.9078783151,100
                135.7168023548,34.9080930631,100
                135.7168506549,34.9082914342,100
                135.7168891335,34.9085953568,100
                135.7169020023,34.9086970159,100
                135.7168878089,34.9089273567,100
                135.7168144716,34.9093448299,100
                135.7167759828,34.9095477875,100
                135.7166906069,34.909998122,100
                135.7166853372,34.9100399445,100
                135.7166135394,34.9106093365,100
                135.7166113702,34.9107017345,100
                135.7166056573,34.9109461104,100
                135.7166179442,34.9110868574,100
                135.7166814918,34.9112515295,100
                135.7167812418,34.9114304427,100
                135.7168956208,34.9115620623,100
                135.717089431,34.9116789361,100
                135.717277952,34.9117925568,100
                135.7176263457,34.9119971925,100
                135.7177921946,34.9120966736,100
                135.717895332,34.9121586108,100
                135.7179333219,34.9121813072,100
                135.7180778261,34.9122596794,100
                135.7187767967,34.9125685924,100
                135.7191865257,34.9127264621,100
                135.7195373575,34.9129079283,100
                135.7199436973,34.9131548083,100
                135.7203795161,34.9134467599,100
                135.7208098581,34.9137284142,100
                135.721177827,34.9140315432,100
                135.7213916332,34.9142276165,100
                135.7215965573,34.9144990267,100
                135.7218727477,34.9149074425,100
                135.7223546039,34.9157594695,100
                135.7226672346,34.9167212595,100
                135.7229908254,34.9175765905,100
                135.7232366141,34.9180764306,100
                135.723896737,34.91782915,100
                135.7247997017,34.9175086209,100
                135.7252407388,34.9173812537,100
                135.7252192155,34.9172214706,100
                135.7258204257,34.9169623469,100
                135.7256398183,34.9165561175,100
                135.725496987,34.9162752684,100
                135.7251757484,34.9158284985,100
                135.724645765,34.9152987041,100
                135.7245285649,34.9151496318,100
                135.7244697717,34.915062913,100
                135.7244439405,34.9149920125,100
                135.7244060633,34.9148845922,100
                135.7244169259,34.9148386275,100
                135.7248242414,34.9151386805,100
                135.7250091742,34.9152493303,100
                135.7250739207,34.9151972911,100
                135.7251082943,34.9152174438,100
                135.7251931534,34.9152058772,100
                135.7254781461,34.9154365563,100
                135.7255361876,34.9154087305,100
                135.7256291082,34.9154827546,100
                135.7257008007,34.9154441136,100
                135.7257242431,34.9154665642,100
                135.7257910516,34.915530527,100
                135.7258278995,34.9156187887,100
                135.7257488071,34.9156781892,100
                135.7261411204,34.9162062571,100
                135.7262361436,34.9162846522,100
                135.726274174,34.9163441123,100
                135.7265044141,34.9164664855,100
                135.7266216828,34.9162684267,100
                135.7266837817,34.9160087569,100
                135.726603518,34.9158807417,100
                135.7265402472,34.9156197962,100
                135.726457738,34.915345989,100
                135.7265958291,34.9152998931,100
                135.7266274973,34.9152951987,100
                135.7266749455,34.9151263394,100
                135.7266765301,34.9151207027,100
                135.7266959311,34.9150516483,100
                135.7270217959,34.9147999771,100
                135.7271983515,34.9147638668,100
                135.7271580198,34.9146154118,100
                135.7277218451,34.9145269753,100
                135.728475096,34.914501509,100
                135.7290070854,34.9144677872,100
                135.7289045572,34.9135220991,100
                135.7301428745,34.9134174992,100
                135.7301714523,34.9125252768,100
                135.7307453119,34.9125150909,100
                135.7307420463,34.9124323967,100
                135.7312794277,34.9125005849,100
                135.7312427019,34.9121275701,100
                135.7312266907,34.9119649799,100
                135.7312923004,34.9114058345,100
                135.7312565579,34.9105701654,100
                135.7315258304,34.9107208173,100
                135.7315428446,34.9106825449,100
                135.7317565046,34.9101921142,100
                135.7315031886,34.9100877111,100
                135.7317128528,34.9096484596,100
                135.731725358,34.909621396,100
                135.7317256988,34.9096215431,100
                135.7320699415,34.9097427209,100
                135.7321072819,34.9097525777,100
                135.732638064,34.9099365034,100
                135.7330761807,34.9101247662,100
                135.733177735,34.9101684035,100
                135.7335793457,34.9103489494,100
                135.7338770759,34.910498695,100
                135.7340253204,34.9105732547,100
                135.7341258267,34.910630273,100
                135.7341587393,34.9106527243,100
                135.7344872457,34.9108768033,100
                135.7346066423,34.9109246245,100
                135.7350009428,34.9110773651,100
                135.7353365912,34.9112071646,100
                135.7355890874,34.9112818062,100
                135.7356869085,34.911310723,100
                135.7357881443,34.9113406484,100
                135.7359246702,34.9113655211,100
                135.7360752685,34.9113929556,100
                135.7361902789,34.9114139075,100
                135.7362662856,34.911424722,100
                135.7364386072,34.9114371189,100
                135.7365809626,34.9114457095,100
                135.7367732618,34.9114416785,100
                135.7369236154,34.9114328502,100
                135.7371001163,34.9113844129,100
                135.7371835732,34.9113530012,100
                135.7375898634,34.9112128432,100
                135.7377343887,34.9111447722,100
                135.73746182,34.910804859,100
                135.7367788531,34.9099531458,100
                135.7349976922,34.9079357757,100
                135.7348548287,34.9077181058,100
                135.7341129736,34.9068255994,100
                135.7358810578,34.9055987099,100
                135.73543031,34.9055611236,100
                135.7354649031,34.9052436243,100
                135.7354910227,34.9050037222,100
                135.735313591,34.9050905369,100
                135.7345130021,34.9050536676,100
                135.7340351266,34.904962811,100
                135.7339839877,34.9049530488,100
                135.7332687906,34.9048169407,100
                135.7313860842,34.9044098841,100
                135.7306568993,34.9041909042,100
                135.730123697,34.9039982076,100
                135.7296243004,34.9037343791,100
                135.7292109845,34.9035496253,100
                135.7286244693,34.9033671566,100
                135.7282172986,34.9032600979,100
                135.7279174476,34.9031812452,100
                135.7278074037,34.9031657839,100
                135.7271486307,34.9030732293,100
                135.7264740951,34.9030424701,100
                135.7259529005,34.9030095223,100
                135.7255502742,34.9021999625,100
                135.7254298904,34.9021710955,100
                135.7252382244,34.9022755951,100
                135.7249860175,34.9024277049,100
                135.7246237642,34.9026661162,100
                135.7243093515,34.902920411,100
                135.7239834652,34.9032754617,100
                135.7237976019,34.9034532935,100
                135.7236511143,34.9035630395,100
                135.723469331,34.9037475016,100
                135.7233646082,34.9039166449,100
                135.7233242787,34.9039817716,100
                135.7229833443,34.9044764619,100
                135.7227201775,34.9048091313,100
                135.7219230354,34.9056804861,100
                135.7218788021,34.905729374,100
                135.7213300009,34.9063358801,100
              </coordinates>
            </LinearRing>
          </outerBoundaryIs>
        </Polygon>
      </Placemark>
    </Document>
  </Document>
</kml>
