<?xml version="1.0" encoding="UTF-8"?>
<kml xmlns="http://www.opengis.net/kml/2.2">
  <Document id="root_doc">
    <Document id="_2_17_______________disv4326">
      <name>32_17向島藤ノ木disv4326</name>
      <Placemark id="_2_17_______________disv4326.1">
        <visibility>1</visibility>
        <Polygon>
          <extrude>0</extrude>
          <outerBoundaryIs>
            <LinearRing>
              <coordinates>
                135.7828663544,34.9193088283,100
                135.7829522238,34.9192010848,100
                135.7830620059,34.9190633094,100
                135.7832073875,34.9188808761,100
                135.783319011,34.9187407801,100
                135.7834307005,34.9186006138,100
                135.7835324167,34.918472966,100
                135.7836228737,34.9183594548,100
                135.7836361478,34.9183427856,100
                135.7837247175,34.9182315952,100
                135.7837615826,34.9181853888,100
                135.7838705894,34.9180485972,100
                135.7839753273,34.9179171517,100
                135.7840946051,34.9177674902,100
                135.7841690545,34.9176941641,100
                135.7843797813,34.917486644,100
                135.7846081093,34.9172617878,100
                135.7846921175,34.9171790569,100
                135.7847651682,34.9170922763,100
                135.785360203,34.9163854468,100
                135.7848918007,34.9163427132,100
                135.7841669465,34.916422212,100
                135.7839257201,34.9164486884,100
                135.7837290887,34.9165392629,100
                135.7832944761,34.9167088752,100
                135.783279965,34.9167145379,100
                135.7830877756,34.9167735677,100
                135.78293961,34.9168192227,100
                135.7825523134,34.9168910034,100
                135.7821290198,34.91693004,100
                135.7818339554,34.9169864185,100
                135.7809336342,34.917004311,100
                135.78076693,34.9171179442,100
                135.7806431346,34.917202328,100
                135.780485867,34.9173095457,100
                135.7802882858,34.9174442452,100
                135.7801804871,34.9175177205,100
                135.7801219626,34.9175576185,100
                135.7800660107,34.917595866,100
                135.7799774811,34.9176563801,100
                135.7798803242,34.9177227599,100
                135.7797492476,34.9178123193,100
                135.7796178709,34.9179020902,100
                135.779589497,34.9179214769,100
                135.7794844595,34.9179932651,100
                135.7793138939,34.9181097983,100
                135.779089838,34.9182615185,100
                135.7789664105,34.9183436259,100
                135.7788154877,34.9184440647,100
                135.7783375559,34.9187620273,100
                135.7780671432,34.9189419031,100
                135.7775313339,34.9193182832,100
                135.7774623306,34.9193668944,100
                135.7772762244,34.9194978335,100
                135.7770468964,34.9196592591,100
                135.7769005929,34.9197490698,100
                135.7766490531,34.9199031289,100
                135.7765510754,34.9199629547,100
                135.7761662942,34.920197549,100
                135.7760942453,34.9202415048,100
                135.7759999502,34.9202990128,100
                135.7757815963,34.9204321432,100
                135.775624629,34.9205278474,100
                135.7754356297,34.9206430719,100
                135.7752125219,34.9207790799,100
                135.7752096948,34.920780836,100
                135.7750539879,34.9208763309,100
                135.7745624126,34.9211780521,100
                135.7746342724,34.9212526281,100
                135.7755773326,34.9222463559,100
                135.7756023572,34.9223606371,100
                135.7765995833,34.9225244594,100
                135.7767334284,34.9226112614,100
                135.7772737901,34.9225814053,100
                135.7782755032,34.9224497035,100
                135.77828798,34.9224441624,100
                135.7784997976,34.9223498219,100
                135.7787353922,34.92224496,100
                135.7788945819,34.9221739752,100
                135.7789839205,34.9221315288,100
                135.7791426871,34.9220262441,100
                135.7794640075,34.9218131465,100
                135.779506601,34.9217849119,100
                135.7796690494,34.9216772385,100
                135.7801149985,34.9213967536,100
                135.7801311647,34.9213865706,100
                135.7813503559,34.9208242809,100
                135.7815600126,34.9207276065,100
                135.7817145091,34.9206344247,100
                135.7818581867,34.9204757948,100
                135.7823343456,34.9199499794,100
                135.7825614987,34.9196913476,100
                135.7827116002,34.9195030067,100
                135.7828663544,34.9193088283,100
              </coordinates>
            </LinearRing>
          </outerBoundaryIs>
        </Polygon>
      </Placemark>
    </Document>
  </Document>
</kml>
