<?xml version="1.0" encoding="UTF-8"?>
<kml xmlns="http://www.opengis.net/kml/2.2">
  <Document id="root_doc">
    <Document id="_2_15_______________disv4326">
      <name>32_15向島二ノ丸disv4326</name>
      <Placemark id="_2_15_______________disv4326.1">
        <visibility>1</visibility>
        <Polygon>
          <extrude>0</extrude>
          <outerBoundaryIs>
            <LinearRing>
              <coordinates>
                135.7778340685,34.9165882378,100
                135.7771256526,34.9164326334,100
                135.7765200986,34.9163086261,100
                135.7759490053,34.916191721,100
                135.7742552021,34.9152902747,100
                135.7741116475,34.9152107756,100
                135.7730324611,34.9146133648,100
                135.7721001621,34.9141001019,100
                135.7717067227,34.9141618422,100
                135.7714142248,34.9142119373,100
                135.7712905111,34.9142342446,100
                135.7709793778,34.9142905017,100
                135.7709054846,34.9143226205,100
                135.7708739044,34.9142945316,100
                135.7707074977,34.9143359153,100
                135.7706056151,34.9143786875,100
                135.7706066158,34.9144969387,100
                135.7705355349,34.9145470916,100
                135.7702713552,34.9146290001,100
                135.7702609442,34.9146446159,100
                135.7702488397,34.9146627639,100
                135.7700095817,34.9145887897,100
                135.7702283675,34.9149874027,100
                135.7703230968,34.9151599182,100
                135.7707309401,34.9153819664,100
                135.7706041975,34.9155648447,100
                135.7713424974,34.9159444222,100
                135.7716125542,34.9160832462,100
                135.7717582332,34.916158876,100
                135.7722731472,34.9164379554,100
                135.7729015784,34.9167785255,100
                135.7727563273,34.9169530594,100
                135.7728932012,34.917036983,100
                135.772876425,34.9170594889,100
                135.7727107925,34.9172818329,100
                135.7727423175,34.9172987814,100
                135.7729892866,34.9174362689,100
                135.7728114109,34.9176486877,100
                135.7727858058,34.9176900784,100
                135.7728106265,34.9177057621,100
                135.7729283272,34.9179005065,100
                135.7729504147,34.9180115165,100
                135.7729548761,34.9180339476,100
                135.7729544568,34.9181725506,100
                135.7729542404,34.9182445989,100
                135.7729539528,34.9183423529,100
                135.772953561,34.9184708143,100
                135.7729530153,34.9186481535,100
                135.7729526661,34.9187609087,100
                135.7729525049,34.9188126037,100
                135.7729519494,34.9190013517,100
                135.7729513445,34.919200171,100
                135.7729508773,34.9193563812,100
                135.7729498161,34.9197076773,100
                135.7729488828,34.9200122094,100
                135.7735800205,34.9200985323,100
                135.773551766,34.9202075029,100
                135.7735708813,34.9202526126,100
                135.7736054833,34.920334233,100
                135.7738070452,34.9204356731,100
                135.7738861581,34.9204754707,100
                135.7745624126,34.9211780521,100
                135.7750539879,34.9208763309,100
                135.7752096948,34.920780836,100
                135.7752125219,34.9207790799,100
                135.7754356297,34.9206430719,100
                135.775624629,34.9205278474,100
                135.7757815963,34.9204321432,100
                135.7759999502,34.9202990128,100
                135.7760942453,34.9202415048,100
                135.7761662942,34.920197549,100
                135.7765510754,34.9199629547,100
                135.7766490531,34.9199031289,100
                135.7769005929,34.9197490698,100
                135.7770468964,34.9196592591,100
                135.7772762244,34.9194978335,100
                135.7774623306,34.9193668944,100
                135.7775313339,34.9193182832,100
                135.7780671432,34.9189419031,100
                135.7783375559,34.9187620273,100
                135.7788154877,34.9184440647,100
                135.7789664105,34.9183436259,100
                135.779089838,34.9182615185,100
                135.7793138939,34.9181097983,100
                135.7794844595,34.9179932651,100
                135.779589497,34.9179214769,100
                135.7796178709,34.9179020902,100
                135.7797492476,34.9178123193,100
                135.7798803242,34.9177227599,100
                135.7799774811,34.9176563801,100
                135.7800660107,34.917595866,100
                135.7801219626,34.9175576185,100
                135.7801804871,34.9175177205,100
                135.7802882858,34.9174442452,100
                135.780485867,34.9173095457,100
                135.7806431346,34.917202328,100
                135.78076693,34.9171179442,100
                135.7809336342,34.917004311,100
                135.7803860135,34.9169399393,100
                135.7803497285,34.916952199,100
                135.7801621674,34.9169240406,100
                135.7800663119,34.916935348,100
                135.7796528075,34.9169491795,100
                135.7795364794,34.9168692429,100
                135.7794290401,34.9168312286,100
                135.7793277435,34.9167897737,100
                135.7791710948,34.916823832,100
                135.7790305816,34.9168543813,100
                135.7789135364,34.9168275467,100
                135.778416146,34.9167161402,100
                135.7778340685,34.9165882378,100
              </coordinates>
            </LinearRing>
          </outerBoundaryIs>
        </Polygon>
      </Placemark>
    </Document>
  </Document>
</kml>
