<?xml version="1.0" encoding="UTF-8"?>
<kml xmlns="http://www.opengis.net/kml/2.2">
  <Document id="root_doc">
    <Document id="_2_12______disv4326">
      <name>32_12南浜disv4326</name>
      <Placemark id="_2_12______disv4326.1">
        <visibility>1</visibility>
        <Polygon>
          <extrude>0</extrude>
          <outerBoundaryIs>
            <LinearRing>
              <coordinates>
                135.7568680327,34.9195770885,100
                135.756789799,34.9194955211,100
                135.7566601519,34.91939378,100
                135.7564973011,34.9193088066,100
                135.7557153252,34.9189451319,100
                135.7548309354,34.918606747,100
                135.7539429971,34.9183141256,100
                135.7527257487,34.9179150619,100
                135.7519696572,34.9176767072,100
                135.751601517,34.9176668877,100
                135.7517672119,34.919134444,100
                135.7517966453,34.9196405276,100
                135.7518472762,34.9210044981,100
                135.7518540781,34.9217441908,100
                135.7520013472,34.9217560359,100
                135.7519759511,34.9227860997,100
                135.7518533365,34.9228002195,100
                135.7518351846,34.923671628,100
                135.7518026878,34.9247234373,100
                135.7521604345,34.9247241569,100
                135.7521747825,34.9250613838,100
                135.7522531702,34.9250623859,100
                135.7528961968,34.925063677,100
                135.7528952639,34.9253791823,100
                135.7520059682,34.9253773949,100
                135.7521745057,34.9258974751,100
                135.7521366897,34.9261705086,100
                135.7521229317,34.9265927533,100
                135.7521176638,34.9267542983,100
                135.7521281456,34.9273282163,100
                135.752530016,34.9273550851,100
                135.7528210647,34.9273593216,100
                135.752817404,34.9276132774,100
                135.7528292501,34.9283078388,100
                135.7528420715,34.9286742148,100
                135.7528200057,34.9286932507,100
                135.7521356393,34.928709404,100
                135.7517277093,34.9287179871,100
                135.75172614,34.9286724599,100
                135.7510461455,34.9286553041,100
                135.7510573593,34.928728298,100
                135.7509195081,34.9287303731,100
                135.7509168658,34.9288827125,100
                135.7517334155,34.9288834689,100
                135.7517378895,34.9292206193,100
                135.7517144612,34.9292206466,100
                135.751455487,34.9292209471,100
                135.751456789,34.9294912068,100
                135.7514702068,34.9294914107,100
                135.7514736808,34.9296029013,100
                135.7513887627,34.9296036447,100
                135.7512505745,34.9295985065,100
                135.7511545709,34.9296091412,100
                135.7511596128,34.9296174996,100
                135.7511610209,34.9296306203,100
                135.7511769996,34.9297146917,100
                135.7512150948,34.9299475901,100
                135.7512058427,34.9299472791,100
                135.7511687423,34.9299460272,100
                135.751168766,34.929963474,100
                135.7511688724,34.9301044086,100
                135.7511690623,34.9303555777,100
                135.7511726946,34.9306760794,100
                135.7511728696,34.9306808329,100
                135.7511796853,34.9308670905,100
                135.7511514038,34.931047374,100
                135.751308819,34.9310541748,100
                135.7529490671,34.9311253991,100
                135.753499038,34.9311492598,100
                135.753498022,34.9314149749,100
                135.7534980097,34.9314192714,100
                135.7534969526,34.931698649,100
                135.7534955402,34.9320701436,100
                135.753495479,34.9320861829,100
                135.75348949,34.9336633062,100
                135.7539935577,34.9336796824,100
                135.7540090209,34.9342684756,100
                135.7540129549,34.9345713315,100
                135.7544302251,34.9345591915,100
                135.7544261718,34.9343394647,100
                135.7544258765,34.9343236886,100
                135.7547538297,34.9343002674,100
                135.754757453,34.9338428562,100
                135.7547575606,34.9338293335,100
                135.7547680066,34.9325064689,100
                135.7547730834,34.9325065215,100
                135.7547735317,34.9324834242,100
                135.7551680677,34.9324876601,100
                135.7551683249,34.9325105855,100
                135.7551685755,34.9325275395,100
                135.7551947846,34.9325278222,100
                135.7552714082,34.9325279764,100
                135.755326142,34.9325271853,100
                135.7553427339,34.9325269282,100
                135.7553428201,34.9325345009,100
                135.75535383,34.9325344806,100
                135.7562406145,34.9325325293,100
                135.7562419604,34.9329527678,100
                135.757103378,34.9329417449,100
                135.757947604,34.932930965,100
                135.7579542063,34.9326351134,100
                135.7581324426,34.9326368056,100
                135.7584564847,34.9326317028,100
                135.7585197881,34.9324249425,100
                135.7585784396,34.932271823,100
                135.7586507087,34.9320830804,100
                135.7589144937,34.9321032519,100
                135.7590898523,34.9321166991,100
                135.7591016901,34.9320365756,100
                135.7591571391,34.9320387107,100
                135.7594178564,34.9320487522,100
                135.7594113869,34.9326370189,100
                135.7595808159,34.9326455946,100
                135.7595872347,34.9328028059,100
                135.7596609666,34.9328038442,100
                135.7596600954,34.932906166,100
                135.7596595111,34.932939082,100
                135.7597721142,34.9329316257,100
                135.7599265587,34.9329465077,100
                135.7599547995,34.9337040119,100
                135.7605419382,34.9337344618,100
                135.7605493909,34.9333090231,100
                135.7609290866,34.9333087107,100
                135.7609049506,34.9326915063,100
                135.7613006846,34.9326771434,100
                135.7613048985,34.9325552779,100
                135.7613902765,34.9325554446,100
                135.7613914884,34.93251398,100
                135.761455943,34.9325137047,100
                135.761458417,34.9323425623,100
                135.7618113681,34.9323409265,100
                135.7618175744,34.9326858929,100
                135.7621778119,34.9326934265,100
                135.7621788896,34.932669289,100
                135.7624878293,34.9326689891,100
                135.7627981514,34.9326686867,100
                135.7627986476,34.9326934072,100
                135.7627985484,34.9327285652,100
                135.7627979129,34.9329539323,100
                135.7627978137,34.9329890887,100
                135.7628640539,34.9329911193,100
                135.7636193905,34.9329868775,100
                135.7636685911,34.9329840147,100
                135.7644618242,34.9329830112,100
                135.7647879793,34.9329848367,100
                135.7651751081,34.9329869891,100
                135.7651777305,34.9326529558,100
                135.7655182158,34.9326593852,100
                135.7659345945,34.9326670857,100
                135.7659365297,34.9329852811,100
                135.7663218293,34.9329925043,100
                135.7663213102,34.9327248006,100
                135.7663260314,34.9325779624,100
                135.7665714083,34.9325807967,100
                135.7665839872,34.9325966317,100
                135.7667339632,34.9326346673,100
                135.7667556815,34.932666471,100
                135.7677071673,34.9326782139,100
                135.7676902403,34.9324598553,100
                135.767947169,34.9324616821,100
                135.767994586,34.9324620532,100
                135.7679848917,34.9330067935,100
                135.7682688984,34.9330122624,100
                135.7683122549,34.9326718261,100
                135.7686583519,34.9326827646,100
                135.7686629134,34.932525156,100
                135.7684812009,34.9324443125,100
                135.7684965456,34.9320589611,100
                135.7684990264,34.9319969195,100
                135.7682672772,34.9319273903,100
                135.7682817301,34.9316409887,100
                135.7682979019,34.9313202205,100
                135.768103915,34.9312955551,100
                135.768117086,34.9309314688,100
                135.7682582313,34.9309144816,100
                135.768268312,34.930778787,100
                135.768705861,34.9307588394,100
                135.7687841328,34.9307552382,100
                135.7687801704,34.930452206,100
                135.7687101665,34.9304451629,100
                135.7686305786,34.9304362782,100
                135.7679500795,34.9304737943,100
                135.7679401413,34.9302098128,100
                135.7679360002,34.9300997259,100
                135.7679319812,34.9299912606,100
                135.7679292674,34.9297999688,100
                135.7679291545,34.9297920141,100
                135.7679274206,34.9296689037,100
                135.7680521956,34.9296688824,100
                135.7680674112,34.9293350601,100
                135.7680998348,34.9290125619,100
                135.7681076842,34.9289496106,100
                135.7681231795,34.9288253372,100
                135.7681615578,34.928830993,100
                135.768248105,34.9288437487,100
                135.7682877248,34.9288493012,100
                135.7683654647,34.9288601947,100
                135.768377598,34.9288268641,100
                135.7684061833,34.9288341167,100
                135.7684169738,34.9288368541,100
                135.7684296707,34.9288130169,100
                135.7684356791,34.9288017318,100
                135.7686158752,34.9288485062,100
                135.7688200725,34.9283593704,100
                135.7688779655,34.9282118378,100
                135.7690709289,34.9282575402,100
                135.7691986086,34.9280100723,100
                135.7693691726,34.9276794792,100
                135.769527969,34.9273722489,100
                135.7692027071,34.927340296,100
                135.7689600144,34.9272824392,100
                135.7685449559,34.9271618564,100
                135.768428218,34.9271212099,100
                135.7681270178,34.9270159843,100
                135.7679018151,34.926926607,100
                135.7676662291,34.9268435475,100
                135.7673007642,34.9266786864,100
                135.7672802028,34.9266851966,100
                135.7671100257,34.9265277484,100
                135.7668602303,34.9262961287,100
                135.7663572778,34.925853095,100
                135.7661837257,34.9257338816,100
                135.7659608394,34.9256130953,100
                135.7656784711,34.9254810662,100
                135.7655329762,34.92542015,100
                135.7650125615,34.9252311095,100
                135.7643723129,34.9250859259,100
                135.7636015161,34.9249559104,100
                135.7633376103,34.9249146128,100
                135.7632948446,34.9249079198,100
                135.7632852051,34.924906409,100
                135.7630795863,34.9248741915,100
                135.7625956368,34.9247726846,100
                135.7621801849,34.9246469398,100
                135.7620013983,34.9245827154,100
                135.7618312165,34.9245216767,100
                135.7615679188,34.9244076343,100
                135.7614040254,34.9243232953,100
                135.7611268734,34.9241051344,100
                135.7609724774,34.9239589076,100
                135.7604312526,34.9233616127,100
                135.760011649,34.9228980839,100
                135.7592420482,34.9221446312,100
                135.7590729449,34.9219790796,100
                135.7584060932,34.9212867504,100
                135.7580335005,34.9208960008,100
                135.7575783402,34.9204001517,100
                135.7568680327,34.9195770885,100
              </coordinates>
            </LinearRing>
          </outerBoundaryIs>
        </Polygon>
      </Placemark>
    </Document>
  </Document>
</kml>
