<?xml version="1.0" encoding="UTF-8"?>
<kml xmlns="http://www.opengis.net/kml/2.2">
  <Document id="root_doc">
    <Document id="_2_18______disv4326">
      <name>32_18桃山disv4326</name>
      <Placemark id="_2_18______disv4326.1">
        <visibility>1</visibility>
        <Polygon>
          <extrude>0</extrude>
          <outerBoundaryIs>
            <LinearRing>
              <coordinates>
                135.7682582313,34.9309144816,100
                135.768117086,34.9309314688,100
                135.768103915,34.9312955551,100
                135.7682979019,34.9313202205,100
                135.7682817301,34.9316409887,100
                135.7682672772,34.9319273903,100
                135.7684990264,34.9319969195,100
                135.7684965456,34.9320589611,100
                135.7684812009,34.9324443125,100
                135.7686629134,34.932525156,100
                135.7686583519,34.9326827646,100
                135.7683122549,34.9326718261,100
                135.7682688984,34.9330122624,100
                135.7679848917,34.9330067935,100
                135.7679705397,34.9340450115,100
                135.767954718,34.93438571,100
                135.7679424194,34.9346502141,100
                135.7679068238,34.9351675776,100
                135.7678681755,34.9352889919,100
                135.7668350686,34.9352731504,100
                135.7667488039,34.9347647798,100
                135.7667239196,34.9345639442,100
                135.7667236016,34.9343093465,100
                135.7669104783,34.9342940682,100
                135.7668816251,34.9338678564,100
                135.7668825335,34.9334173312,100
                135.7663828555,34.933387713,100
                135.7659242016,34.9333588762,100
                135.7658884655,34.9340532238,100
                135.7655230306,34.9340442836,100
                135.7655402639,34.9335839312,100
                135.7654343231,34.9335872229,100
                135.765435653,34.9338361569,100
                135.7654520065,34.9338965689,100
                135.7654538676,34.9339768215,100
                135.7652590538,34.9339714388,100
                135.765258026,34.93409253,100
                135.7652572262,34.9341879386,100
                135.7652260467,34.9344967039,100
                135.7652308047,34.9352881076,100
                135.7651527193,34.9352905645,100
                135.7651097327,34.9357236111,100
                135.7651259648,34.9359892947,100
                135.7649446294,34.9360096524,100
                135.7650705893,34.9363952039,100
                135.7652174632,34.9368063665,100
                135.7652603815,34.9371602864,100
                135.7652972267,34.9375226461,100
                135.7652900857,34.9375927806,100
                135.7652305796,34.9381222242,100
                135.7652351338,34.9385648817,100
                135.76524226,34.9386789916,100
                135.7652611408,34.9389808877,100
                135.7652994097,34.939440161,100
                135.7653517972,34.9398270606,100
                135.7655634396,34.9404004381,100
                135.7653250952,34.9404100279,100
                135.7653361366,34.9405817951,100
                135.7653521404,34.9408540949,100
                135.765357434,34.9409313848,100
                135.7653695524,34.9411083322,100
                135.7653469212,34.9411199513,100
                135.7653397671,34.9411236229,100
                135.7653515868,34.9412714676,100
                135.7653551126,34.9412719845,100
                135.7653856094,34.9412764489,100
                135.7653922629,34.9414024577,100
                135.7653782057,34.9414144905,100
                135.7653869749,34.9415996244,100
                135.7653990872,34.9417159993,100
                135.765400766,34.9417321402,100
                135.7655465184,34.9417266723,100
                135.7655694917,34.9417258104,100
                135.7655718914,34.9418435289,100
                135.7656593759,34.9418426157,100
                135.7659272642,34.9418447766,100
                135.7662115065,34.9418415793,100
                135.7662074274,34.9418576371,100
                135.7661525089,34.9421428407,100
                135.7662440325,34.9421449358,100
                135.7662205441,34.9422827178,100
                135.7662068542,34.9423630239,100
                135.7659801956,34.9423806179,100
                135.76595375,34.9424436718,100
                135.7657370354,34.9424423522,100
                135.7655664832,34.9424395282,100
                135.7654748026,34.9424387231,100
                135.7654791833,34.942461505,100
                135.7654813142,34.9424716636,100
                135.7655057832,34.9426648132,100
                135.765522451,34.942831385,100
                135.7655297746,34.9429549041,100
                135.7655491733,34.9430464205,100
                135.7655562682,34.9430954134,100
                135.7655709204,34.9431966123,100
                135.7655819518,34.9432727628,100
                135.7655840134,34.943286999,100
                135.7656176829,34.9435363427,100
                135.7656186102,34.9435432168,100
                135.7656590907,34.9438450847,100
                135.7656905194,34.944079394,100
                135.765739851,34.9440780096,100
                135.7658025168,34.9443837945,100
                135.7658089239,34.9444173307,100
                135.7658696533,34.9447352956,100
                135.7659031474,34.9448792479,100
                135.7659836186,34.9451254139,100
                135.7659961335,34.9451579848,100
                135.766024584,34.9451545644,100
                135.7660728148,34.9453322974,100
                135.7661053543,34.9454432447,100
                135.7661411311,34.945571327,100
                135.7661574761,34.9456325433,100
                135.7664030343,34.9456019757,100
                135.7663984569,34.9455551311,100
                135.7669071625,34.9455012434,100
                135.7669852533,34.9454930122,100
                135.7673372758,34.9453809996,100
                135.7675813062,34.9453678037,100
                135.7677690286,34.9453576689,100
                135.7681428885,34.945298237,100
                135.76819826,34.9452938352,100
                135.7682807736,34.945514297,100
                135.7685687021,34.9454770255,100
                135.7689383171,34.945414061,100
                135.7688688751,34.9451823558,100
                135.7694215636,34.9451039622,100
                135.7694521037,34.9451488833,100
                135.7698299468,34.9450871292,100
                135.7698636026,34.9452060079,100
                135.7700453359,34.9451724055,100
                135.7699471138,34.9448123232,100
                135.7698589068,34.9444890247,100
                135.7704856034,34.9443989338,100
                135.7709771225,34.9443476727,100
                135.7709966075,34.9444254641,100
                135.7716376096,34.9443499741,100
                135.7715882717,34.9440733018,100
                135.7719832318,34.9440443928,100
                135.7720245813,34.944189909,100
                135.7721649438,34.9441861573,100
                135.7721881875,34.9442734639,100
                135.7723520176,34.9442583495,100
                135.7729591603,34.9442058936,100
                135.7730040477,34.9444611457,100
                135.7730361389,34.9444623329,100
                135.773200964,34.9443946767,100
                135.7731516784,34.9441928728,100
                135.7733788221,34.9441775226,100
                135.77346876,34.944280871,100
                135.7735792164,34.9442503007,100
                135.7742470355,34.9442044596,100
                135.7745250883,34.9441853711,100
                135.7751726528,34.9439021815,100
                135.7754085522,34.9438657853,100
                135.7753837231,34.9437622073,100
                135.7753287777,34.943653784,100
                135.7758418352,34.9433574524,100
                135.7759238127,34.9433254181,100
                135.7760662883,34.9432008811,100
                135.7763063504,34.9432890104,100
                135.7764910346,34.9432130767,100
                135.7765142993,34.9431068411,100
                135.776898076,34.9431444567,100
                135.7770258304,34.9428521972,100
                135.7771392047,34.9427839481,100
                135.7772082514,34.9427742868,100
                135.7772554264,34.9426330906,100
                135.7770240026,34.9426439324,100
                135.7770200532,34.9427879545,100
                135.7767901095,34.942804504,100
                135.7766498822,34.9428634059,100
                135.7765281734,34.9428798721,100
                135.7765605048,34.9428957786,100
                135.7763076931,34.9428920715,100
                135.7762797981,34.9423109028,100
                135.7761195329,34.9422968011,100
                135.7758933247,34.9410402656,100
                135.7762684931,34.9410304669,100
                135.7767965267,34.9414906468,100
                135.7769428872,34.9415470504,100
                135.7770305559,34.941554537,100
                135.7771395756,34.9415403701,100
                135.777266101,34.9414552432,100
                135.7773096333,34.941382147,100
                135.7773117427,34.9413834406,100
                135.7774571318,34.9411754467,100
                135.7775972516,34.9412747078,100
                135.7779524544,34.9415007368,100
                135.7780357332,34.9415565982,100
                135.7778532393,34.9417153865,100
                135.7780459992,34.9418335491,100
                135.7783007245,34.9418158456,100
                135.7786130198,34.9417702167,100
                135.7790652192,34.9417808353,100
                135.7801794112,34.9419120374,100
                135.7803325522,34.9419766877,100
                135.7810463567,34.9422781561,100
                135.7814862018,34.9424209388,100
                135.7820359986,34.9425039822,100
                135.7826482399,34.9425612372,100
                135.7829352392,34.9425880753,100
                135.7830495987,34.9426015204,100
                135.7836618606,34.9426734003,100
                135.7837152141,34.9426796937,100
                135.7837969223,34.9425179232,100
                135.7838380212,34.9423914346,100
                135.7838649017,34.9422316783,100
                135.7839153217,34.9420303415,100
                135.7839452272,34.9417904408,100
                135.7839497054,34.9416190952,100
                135.7836647773,34.9415329427,100
                135.7834469432,34.9414480367,100
                135.7834059312,34.9414319751,100
                135.7832940709,34.9414614246,100
                135.7836033303,34.9409045308,100
                135.7836668439,34.9407248383,100
                135.7836679364,34.9407242768,100
                135.7836668467,34.9407237114,100
                135.7835114683,34.9406728646,100
                135.7830492641,34.9405215969,100
                135.7806979167,34.9383660031,100
                135.7800235274,34.9377159759,100
                135.7794545906,34.937167557,100
                135.7795042025,34.9360335274,100
                135.7798826076,34.9358099042,100
                135.7799625416,34.9344744428,100
                135.7801888724,34.9325958208,100
                135.7801157212,34.9324039113,100
                135.7800952875,34.9322547762,100
                135.7801345065,34.9320635641,100
                135.7802223589,34.9318988499,100
                135.7799648834,34.9317361142,100
                135.7800149931,34.9316314781,100
                135.7802883524,34.9314674537,100
                135.7803940534,34.9314017245,100
                135.7804235982,34.9312797259,100
                135.7804950384,34.931070541,100
                135.7805575781,34.9308314794,100
                135.7802184895,34.9308036076,100
                135.7801918725,34.9305260006,100
                135.7801485442,34.9300739106,100
                135.7801780588,34.9300120574,100
                135.7795710986,34.9299834875,100
                135.7791676207,34.9299397201,100
                135.7787641535,34.9298836973,100
                135.7781881132,34.9297402374,100
                135.7779703341,34.9296641279,100
                135.7772335867,34.9292324581,100
                135.777181632,34.9291215794,100
                135.7772283195,34.9289939077,100
                135.7769806935,34.9285903206,100
                135.7765526018,34.9285206535,100
                135.7765502925,34.9281918201,100
                135.7757082743,34.9280975813,100
                135.7755450126,34.92807932,100
                135.7751756081,34.9280179266,100
                135.7750497733,34.9280024103,100
                135.7745492776,34.9279405604,100
                135.7739696931,34.9279147614,100
                135.7737265207,34.9279039555,100
                135.7731525419,34.927900277,100
                135.7730819512,34.9278997934,100
                135.7720494997,34.9278621516,100
                135.7717460243,34.9278280625,100
                135.771372559,34.9277861648,100
                135.770617927,34.9276111471,100
                135.7700072375,34.9274738631,100
                135.769527969,34.9273722489,100
                135.7693691726,34.9276794792,100
                135.7691986086,34.9280100723,100
                135.7690709289,34.9282575402,100
                135.7688779655,34.9282118378,100
                135.7688200725,34.9283593704,100
                135.7686158752,34.9288485062,100
                135.7684356791,34.9288017318,100
                135.7684296707,34.9288130169,100
                135.7684169738,34.9288368541,100
                135.7684061833,34.9288341167,100
                135.768377598,34.9288268641,100
                135.7683654647,34.9288601947,100
                135.7682877248,34.9288493012,100
                135.768248105,34.9288437487,100
                135.7681615578,34.928830993,100
                135.7681231795,34.9288253372,100
                135.7681076842,34.9289496106,100
                135.7680998348,34.9290125619,100
                135.7680674112,34.9293350601,100
                135.7680521956,34.9296688824,100
                135.7679274206,34.9296689037,100
                135.7679291545,34.9297920141,100
                135.7679292674,34.9297999688,100
                135.7679319812,34.9299912606,100
                135.7679360002,34.9300997259,100
                135.7679401413,34.9302098128,100
                135.7679500795,34.9304737943,100
                135.7686305786,34.9304362782,100
                135.7687101665,34.9304451629,100
                135.7687801704,34.930452206,100
                135.7687841328,34.9307552382,100
                135.768705861,34.9307588394,100
                135.768268312,34.930778787,100
                135.7682582313,34.9309144816,100
              </coordinates>
            </LinearRing>
          </outerBoundaryIs>
        </Polygon>
      </Placemark>
    </Document>
  </Document>
</kml>
