<?xml version="1.0" encoding="UTF-8"?>
<kml xmlns="http://www.opengis.net/kml/2.2">
  <Document id="root_doc">
    <Document id="_2_16__________________disv4326">
      <name>32_16向島二ノ丸北disv4326</name>
      <Placemark id="_2_16__________________disv4326.1">
        <visibility>1</visibility>
        <Polygon>
          <extrude>0</extrude>
          <outerBoundaryIs>
            <LinearRing>
              <coordinates>
                135.7729519494,34.9190013517,100
                135.7729513445,34.919200171,100
                135.7729508773,34.9193563812,100
                135.7729498161,34.9197076773,100
                135.7729488828,34.9200122094,100
                135.7735800205,34.9200985323,100
                135.773551766,34.9202075029,100
                135.7729756367,34.9201256484,100
                135.7722792582,34.9200395524,100
                135.7716170495,34.9199606388,100
                135.7713214533,34.9199245931,100
                135.770783065,34.919858937,100
                135.7701263792,34.91977883,100
                135.7699759354,34.919755165,100
                135.7696273163,34.9197002113,100
                135.7696296966,34.9195656265,100
                135.7692586926,34.9194821062,100
                135.7693252202,34.9192782697,100
                135.7690562627,34.9190328846,100
                135.7689110158,34.9190323997,100
                135.7686649254,34.9189674949,100
                135.7685748238,34.9189912704,100
                135.7686280063,34.9178638782,100
                135.7686783645,34.9175405646,100
                135.7687301762,34.9173250805,100
                135.7687481017,34.9172506001,100
                135.768810312,34.9170856323,100
                135.7688927201,34.9168743604,100
                135.7689663731,34.916729627,100
                135.7691645503,34.9163401061,100
                135.7693119131,34.9160525406,100
                135.7694408776,34.9158013525,100
                135.769277634,34.9157171663,100
                135.7700095817,34.9145887897,100
                135.7702283675,34.9149874027,100
                135.7703230968,34.9151599182,100
                135.7707309401,34.9153819664,100
                135.7706041975,34.9155648447,100
                135.7713424974,34.9159444222,100
                135.7716125542,34.9160832462,100
                135.7717582332,34.916158876,100
                135.7722731472,34.9164379554,100
                135.7729015784,34.9167785255,100
                135.7727563273,34.9169530594,100
                135.7728932012,34.917036983,100
                135.772876425,34.9170594889,100
                135.7727107925,34.9172818329,100
                135.7727423175,34.9172987814,100
                135.7729892866,34.9174362689,100
                135.7728114109,34.9176486877,100
                135.7727858058,34.9176900784,100
                135.7728106265,34.9177057621,100
                135.7729283272,34.9179005065,100
                135.7729504147,34.9180115165,100
                135.7729548761,34.9180339476,100
                135.7729544568,34.9181725506,100
                135.7729542404,34.9182445989,100
                135.7729539528,34.9183423529,100
                135.772953561,34.9184708143,100
                135.7729530153,34.9186481535,100
                135.7729526661,34.9187609087,100
                135.7729525049,34.9188126037,100
                135.7729519494,34.9190013517,100
              </coordinates>
            </LinearRing>
          </outerBoundaryIs>
        </Polygon>
      </Placemark>
    </Document>
  </Document>
</kml>
