<?xml version="1.0" encoding="UTF-8"?>
<kml xmlns="http://www.opengis.net/kml/2.2">
  <Document id="root_doc">
    <Document id="_2_13______disv4326">
      <name>32_13向島disv4326</name>
      <Placemark id="_2_13______disv4326.1">
        <visibility>1</visibility>
        <Polygon>
          <extrude>0</extrude>
          <outerBoundaryIs>
            <LinearRing>
              <coordinates>
                135.7746342724,34.9212526281,100
                135.7735176195,34.9219556826,100
                135.7734502739,34.9219978141,100
                135.7730361304,34.9222534715,100
                135.7725075523,34.9225803274,100
                135.7722790946,34.9227223057,100
                135.7716257383,34.9231283767,100
                135.7713739955,34.9233112312,100
                135.7711303495,34.9234881854,100
                135.7707927008,34.9237224326,100
                135.7707088258,34.9237820693,100
                135.7706297396,34.9238649567,100
                135.7704670832,34.9240354405,100
                135.7701863745,34.9243414177,100
                135.7698984234,34.9247383026,100
                135.7696051747,34.9251715884,100
                135.7695775615,34.9251773116,100
                135.7693651187,34.9255552518,100
                135.7693016036,34.9254632236,100
                135.769213007,34.9253348772,100
                135.7691608634,34.9252790225,100
                135.7690279967,34.9253796431,100
                135.7690538586,34.925471842,100
                135.7691308413,34.9255560776,100
                135.7689635442,34.9257100001,100
                135.7687070073,34.9254423121,100
                135.7683505341,34.925667923,100
                135.7683688031,34.9256867623,100
                135.7680448142,34.9259001791,100
                135.7681335057,34.9259627462,100
                135.7683195015,34.9260744454,100
                135.7688209768,34.9263061851,100
                135.768428218,34.9271212099,100
                135.7685449559,34.9271618564,100
                135.7689600144,34.9272824392,100
                135.7692027071,34.927340296,100
                135.769527969,34.9273722489,100
                135.7700072375,34.9274738631,100
                135.770617927,34.9276111471,100
                135.771372559,34.9277861648,100
                135.7717460243,34.9278280625,100
                135.7720494997,34.9278621516,100
                135.7730819512,34.9278997934,100
                135.7731525419,34.927900277,100
                135.7737265207,34.9279039555,100
                135.7739696931,34.9279147614,100
                135.7745492776,34.9279405604,100
                135.7750497733,34.9280024103,100
                135.7751756081,34.9280179266,100
                135.7755450126,34.92807932,100
                135.7757082743,34.9280975813,100
                135.7765502925,34.9281918201,100
                135.7766457393,34.928202701,100
                135.7774424169,34.928296849,100
                135.7777737287,34.9282287889,100
                135.7779283902,34.9281852657,100
                135.7788468856,34.9277521185,100
                135.7792557644,34.9275350975,100
                135.7794398487,34.9274363745,100
                135.7802562033,34.9269985575,100
                135.7803239963,34.9269646627,100
                135.7809516901,34.92665063,100
                135.7817106322,34.9259458075,100
                135.7817342145,34.9258876752,100
                135.7823041112,34.9254583079,100
                135.7825282867,34.9253064424,100
                135.782749534,34.9251797854,100
                135.783218935,34.9249110219,100
                135.7837082146,34.9246253899,100
                135.7838460082,34.924544923,100
                135.7842546784,34.9243059798,100
                135.7847237609,34.9240495351,100
                135.7848224002,34.9239817469,100
                135.7851421305,34.9237619419,100
                135.7853894768,34.9235918006,100
                135.7859413699,34.9232021777,100
                135.7863784265,34.9228935538,100
                135.7871130224,34.9222342203,100
                135.7876230028,34.9217932425,100
                135.7878184363,34.921613567,100
                135.7878368783,34.9216245163,100
                135.7880254141,34.9214425042,100
                135.7880759007,34.921393785,100
                135.7884837999,34.9210698182,100
                135.7888863547,34.9207783794,100
                135.7889888066,34.9206880555,100
                135.7892313062,34.9204743026,100
                135.7893445632,34.9203287095,100
                135.7894304503,34.9201945505,100
                135.7896517102,34.9197638365,100
                135.7897345143,34.9194609232,100
                135.7898182487,34.9191360379,100
                135.7899141568,34.9187310456,100
                135.7899203137,34.9187050464,100
                135.789908724,34.9181013065,100
                135.7899169365,34.9176400092,100
                135.7899075373,34.9168368884,100
                135.7889405855,34.9168269015,100
                135.7879701919,34.9168169015,100
                135.7876433836,34.9167978781,100
                135.7875415821,34.9166667718,100
                135.7868291852,34.9164683221,100
                135.7861871902,34.9164334589,100
                135.785360203,34.9163854468,100
                135.7847651682,34.9170922763,100
                135.7846921175,34.9171790569,100
                135.7846081093,34.9172617878,100
                135.7843797813,34.917486644,100
                135.7841690545,34.9176941641,100
                135.7840946051,34.9177674902,100
                135.7839753273,34.9179171517,100
                135.7838705894,34.9180485972,100
                135.7837615826,34.9181853888,100
                135.7837247175,34.9182315952,100
                135.7836361478,34.9183427856,100
                135.7836228737,34.9183594548,100
                135.7835324167,34.918472966,100
                135.7834307005,34.9186006138,100
                135.783319011,34.9187407801,100
                135.7832073875,34.9188808761,100
                135.7830620059,34.9190633094,100
                135.7829522238,34.9192010848,100
                135.7828663544,34.9193088283,100
                135.7827116002,34.9195030067,100
                135.7825614987,34.9196913476,100
                135.7823343456,34.9199499794,100
                135.7818581867,34.9204757948,100
                135.7817145091,34.9206344247,100
                135.7815600126,34.9207276065,100
                135.7813503559,34.9208242809,100
                135.7801311647,34.9213865706,100
                135.7801149985,34.9213967536,100
                135.7796690494,34.9216772385,100
                135.779506601,34.9217849119,100
                135.7794640075,34.9218131465,100
                135.7791426871,34.9220262441,100
                135.7789839205,34.9221315288,100
                135.7788945819,34.9221739752,100
                135.7787353922,34.92224496,100
                135.7784997976,34.9223498219,100
                135.77828798,34.9224441624,100
                135.7782755032,34.9224497035,100
                135.7772737901,34.9225814053,100
                135.7767334284,34.9226112614,100
                135.7765995833,34.9225244594,100
                135.7756023572,34.9223606371,100
                135.7755773326,34.9222463559,100
                135.7746342724,34.9212526281,100
              </coordinates>
            </LinearRing>
          </outerBoundaryIs>
        </Polygon>
      </Placemark>
    </Document>
  </Document>
</kml>
