<?xml version="1.0" encoding="UTF-8"?>
<kml xmlns="http://www.opengis.net/kml/2.2">
  <Document id="root_doc">
    <Document id="_2_11_________disv4326">
      <name>32_11横大路disv4326</name>
      <Placemark id="_2_11_________disv4326.1">
        <visibility>1</visibility>
        <Polygon>
          <extrude>0</extrude>
          <outerBoundaryIs>
            <LinearRing>
              <coordinates>
                135.7312427019,34.9121275701,100
                135.7312794277,34.9125005849,100
                135.7307420463,34.9124323967,100
                135.7307453119,34.9125150909,100
                135.7301714523,34.9125252768,100
                135.7301428745,34.9134174992,100
                135.7289045572,34.9135220991,100
                135.7290070854,34.9144677872,100
                135.728475096,34.914501509,100
                135.7277218451,34.9145269753,100
                135.7271580198,34.9146154118,100
                135.7271983515,34.9147638668,100
                135.7270217959,34.9147999771,100
                135.7266959311,34.9150516483,100
                135.7266765301,34.9151207027,100
                135.7266749455,34.9151263394,100
                135.7266274973,34.9152951987,100
                135.7265958291,34.9152998931,100
                135.726457738,34.915345989,100
                135.7265402472,34.9156197962,100
                135.726603518,34.9158807417,100
                135.7266837817,34.9160087569,100
                135.7266216828,34.9162684267,100
                135.7265044141,34.9164664855,100
                135.726274174,34.9163441123,100
                135.7262361436,34.9162846522,100
                135.7261411204,34.9162062571,100
                135.7257488071,34.9156781892,100
                135.7258278995,34.9156187887,100
                135.7257910516,34.915530527,100
                135.7257242431,34.9154665642,100
                135.7257008007,34.9154441136,100
                135.7256291082,34.9154827546,100
                135.7255361876,34.9154087305,100
                135.7254781461,34.9154365563,100
                135.7251931534,34.9152058772,100
                135.7251082943,34.9152174438,100
                135.7250739207,34.9151972911,100
                135.7250091742,34.9152493303,100
                135.7248242414,34.9151386805,100
                135.7244169259,34.9148386275,100
                135.7244060633,34.9148845922,100
                135.7244439405,34.9149920125,100
                135.7244697717,34.915062913,100
                135.7245285649,34.9151496318,100
                135.724645765,34.9152987041,100
                135.7251757484,34.9158284985,100
                135.725496987,34.9162752684,100
                135.7256398183,34.9165561175,100
                135.7258204257,34.9169623469,100
                135.7252192155,34.9172214706,100
                135.7252407388,34.9173812537,100
                135.7247997017,34.9175086209,100
                135.723896737,34.91782915,100
                135.7232366141,34.9180764306,100
                135.7232705295,34.9181453882,100
                135.7235344423,34.9185558986,100
                135.7238682427,34.9189726992,100
                135.7241944993,34.9193437751,100
                135.7246153715,34.9197960654,100
                135.7250553907,34.9202258342,100
                135.7256130153,34.9208214244,100
                135.7263072458,34.9213793651,100
                135.7269562091,34.9219414153,100
                135.7274732166,34.9224230847,100
                135.7280346149,34.9231043498,100
                135.7282348365,34.9233475446,100
                135.7285206813,34.9236946621,100
                135.7289812692,34.9242513909,100
                135.729659406,34.9250827455,100
                135.7296854402,34.925110338,100
                135.7303101597,34.9257715666,100
                135.7318822655,34.9274859503,100
                135.7328352215,34.9282685568,100
                135.7331420784,34.9286024453,100
                135.7337755197,34.9292866638,100
                135.7342130647,34.9297018073,100
                135.7346444173,34.9300889076,100
                135.735060335,34.9304775292,100
                135.7357823677,34.93106568,100
                135.7362793232,34.9309030447,100
                135.7363930758,34.9308658299,100
                135.7367810583,34.9307628087,100
                135.7369398718,34.9307206209,100
                135.7377962899,34.9312982897,100
                135.7384587284,34.9317255483,100
                135.7384514748,34.931525333,100
                135.7384261586,34.9308261602,100
                135.7388133402,34.9308400228,100
                135.7388846528,34.9308425709,100
                135.7391569067,34.9308472428,100
                135.7396419474,34.9308527941,100
                135.7396421431,34.9308380059,100
                135.7408738253,34.9308146642,100
                135.7421168559,34.9307992912,100
                135.7421213219,34.9307862024,100
                135.7428664561,34.9307744778,100
                135.7430134989,34.9307900012,100
                135.7431629981,34.9308058118,100
                135.7433192755,34.9308358614,100
                135.743645889,34.9308983838,100
                135.7441820038,34.9309395185,100
                135.7449125604,34.9309756395,100
                135.7455607744,34.9310084842,100
                135.7460055466,34.9310252645,100
                135.7468160394,34.9310557679,100
                135.74756783,34.9310669804,100
                135.7483209546,34.9310581854,100
                135.748639834,34.9308839077,100
                135.7493603399,34.9308660946,100
                135.7493587616,34.931014476,100
                135.7498013392,34.9310039772,100
                135.7502939366,34.9310101972,100
                135.7511514038,34.931047374,100
                135.7511796853,34.9308670905,100
                135.7511728696,34.9306808329,100
                135.7511726946,34.9306760794,100
                135.7511690623,34.9303555777,100
                135.7511688724,34.9301044086,100
                135.751168766,34.929963474,100
                135.7511687423,34.9299460272,100
                135.7512058427,34.9299472791,100
                135.7512150948,34.9299475901,100
                135.7511769996,34.9297146917,100
                135.7511610209,34.9296306203,100
                135.7511596128,34.9296174996,100
                135.7511545709,34.9296091412,100
                135.7512505745,34.9295985065,100
                135.7513887627,34.9296036447,100
                135.7514736808,34.9296029013,100
                135.7514702068,34.9294914107,100
                135.751456789,34.9294912068,100
                135.751455487,34.9292209471,100
                135.7517144612,34.9292206466,100
                135.7517378895,34.9292206193,100
                135.7517334155,34.9288834689,100
                135.7509168658,34.9288827125,100
                135.7509195081,34.9287303731,100
                135.7510573593,34.928728298,100
                135.7510461455,34.9286553041,100
                135.75172614,34.9286724599,100
                135.7517277093,34.9287179871,100
                135.7521356393,34.928709404,100
                135.7528200057,34.9286932507,100
                135.7528420715,34.9286742148,100
                135.7528292501,34.9283078388,100
                135.752817404,34.9276132774,100
                135.7528210647,34.9273593216,100
                135.752530016,34.9273550851,100
                135.7521281456,34.9273282163,100
                135.7521176638,34.9267542983,100
                135.7521229317,34.9265927533,100
                135.7521366897,34.9261705086,100
                135.7521745057,34.9258974751,100
                135.7520059682,34.9253773949,100
                135.7528952639,34.9253791823,100
                135.7528961968,34.925063677,100
                135.7522531702,34.9250623859,100
                135.7521747825,34.9250613838,100
                135.7521604345,34.9247241569,100
                135.7518026878,34.9247234373,100
                135.7518351846,34.923671628,100
                135.7518533365,34.9228002195,100
                135.7519759511,34.9227860997,100
                135.7520013472,34.9217560359,100
                135.7518540781,34.9217441908,100
                135.7518472762,34.9210044981,100
                135.7517966453,34.9196405276,100
                135.7517672119,34.919134444,100
                135.751601517,34.9176668877,100
                135.7494129616,34.9176799653,100
                135.7484679454,34.917619815,100
                135.7474104008,34.9175696404,100
                135.7457740977,34.917537404,100
                135.7452740966,34.9174220209,100
                135.7445664059,34.9172040237,100
                135.7437310719,34.9169206141,100
                135.7431937299,34.9167915509,100
                135.7426553014,34.9164863393,100
                135.7416273228,34.9157121126,100
                135.7412921479,34.9154302671,100
                135.7408848749,34.9150229049,100
                135.7406338369,34.9147403136,100
                135.740249849,34.9140450066,100
                135.7399015206,34.913369842,100
                135.7398529203,34.913263321,100
                135.7397571437,34.9130533791,100
                135.7396583887,34.9129432313,100
                135.7392488498,34.9127559463,100
                135.7388492003,34.9126069508,100
                135.7387808768,34.9125165363,100
                135.7378610801,34.9113027631,100
                135.7377343887,34.9111447722,100
                135.7375898634,34.9112128432,100
                135.7371835732,34.9113530012,100
                135.7371001163,34.9113844129,100
                135.7369236154,34.9114328502,100
                135.7367732618,34.9114416785,100
                135.7365809626,34.9114457095,100
                135.7364386072,34.9114371189,100
                135.7362662856,34.911424722,100
                135.7361902789,34.9114139075,100
                135.7360752685,34.9113929556,100
                135.7359246702,34.9113655211,100
                135.7357881443,34.9113406484,100
                135.7356869085,34.911310723,100
                135.7355890874,34.9112818062,100
                135.7353365912,34.9112071646,100
                135.7350009428,34.9110773651,100
                135.7346066423,34.9109246245,100
                135.7344872457,34.9108768033,100
                135.7341587393,34.9106527243,100
                135.7341258267,34.910630273,100
                135.7340253204,34.9105732547,100
                135.7338770759,34.910498695,100
                135.7335793457,34.9103489494,100
                135.733177735,34.9101684035,100
                135.7330761807,34.9101247662,100
                135.732638064,34.9099365034,100
                135.7321072819,34.9097525777,100
                135.7320699415,34.9097427209,100
                135.7317256988,34.9096215431,100
                135.731725358,34.909621396,100
                135.7317128528,34.9096484596,100
                135.7315031886,34.9100877111,100
                135.7317565046,34.9101921142,100
                135.7315428446,34.9106825449,100
                135.7315258304,34.9107208173,100
                135.7312565579,34.9105701654,100
                135.7312923004,34.9114058345,100
                135.7312266907,34.9119649799,100
                135.7312427019,34.9121275701,100
              </coordinates>
            </LinearRing>
          </outerBoundaryIs>
        </Polygon>
      </Placemark>
    </Document>
  </Document>
</kml>
