<?xml version="1.0" encoding="UTF-8"?>
<kml xmlns="http://www.opengis.net/kml/2.2">
  <Document id="root_doc">
    <Document id="_2_14_________disv4326">
      <name>32_14向島南disv4326</name>
      <Placemark id="_2_14_________disv4326.1">
        <visibility>1</visibility>
        <Polygon>
          <extrude>0</extrude>
          <outerBoundaryIs>
            <LinearRing>
              <coordinates>
                135.7557395622,34.9057806156,100
                135.7539139142,34.9048604576,100
                135.7538612242,34.9048338721,100
                135.7527781073,34.9042880137,100
                135.7508280603,34.9068974289,100
                135.7495042639,34.9086791132,100
                135.7489562334,34.9084081953,100
                135.7487999907,34.9086091681,100
                135.7482836377,34.9083669055,100
                135.747798121,34.9090216251,100
                135.7483250318,34.9093077888,100
                135.7478544177,34.9099376054,100
                135.7483841374,34.9102299723,100
                135.7474449357,34.9114931304,100
                135.7469078305,34.9112227884,100
                135.7465884672,34.9116293607,100
                135.7460473271,34.9113702045,100
                135.7458217715,34.9116642791,100
                135.7455148112,34.9115168787,100
                135.7453321349,34.9113166252,100
                135.7457801424,34.9106738834,100
                135.7452841689,34.9104088975,100
                135.7453357779,34.9103418138,100
                135.7447835202,34.9100517076,100
                135.7444724078,34.9104632235,100
                135.7441053542,34.9101184894,100
                135.7436164105,34.9096536299,100
                135.7443157674,34.9086772214,100
                135.7422107385,34.907601415,100
                135.7425093382,34.9071579028,100
                135.7414571395,34.90660333,100
                135.7410263859,34.9071581956,100
                135.7405464327,34.9066972829,100
                135.7408051568,34.905482831,100
                135.7408155229,34.9054341848,100
                135.7404921308,34.9049331705,100
                135.7400581637,34.9050613591,100
                135.7398413964,34.9051037959,100
                135.7391402173,34.9051987406,100
                135.7384706643,34.9051993702,100
                135.7380730762,34.9051533838,100
                135.7379232831,34.9051360232,100
                135.7370361653,34.9050434275,100
                135.7362738598,34.9049870811,100
                135.7360424596,34.9049856019,100
                135.7358927516,34.9050233146,100
                135.7354649031,34.9052436243,100
                135.73543031,34.9055611236,100
                135.7358810578,34.9055987099,100
                135.7341129736,34.9068255994,100
                135.7348548287,34.9077181058,100
                135.7349976922,34.9079357757,100
                135.7367788531,34.9099531458,100
                135.73746182,34.910804859,100
                135.7377343887,34.9111447722,100
                135.7378610801,34.9113027631,100
                135.7387808768,34.9125165363,100
                135.7388492003,34.9126069508,100
                135.7392488498,34.9127559463,100
                135.7396583887,34.9129432313,100
                135.7397571437,34.9130533791,100
                135.7398529203,34.913263321,100
                135.7399015206,34.913369842,100
                135.740249849,34.9140450066,100
                135.7406338369,34.9147403136,100
                135.7408848749,34.9150229049,100
                135.7412921479,34.9154302671,100
                135.7416273228,34.9157121126,100
                135.7426553014,34.9164863393,100
                135.7431937299,34.9167915509,100
                135.7437310719,34.9169206141,100
                135.7445664059,34.9172040237,100
                135.7452740966,34.9174220209,100
                135.7457740977,34.917537404,100
                135.7474104008,34.9175696404,100
                135.7484679454,34.917619815,100
                135.7494129616,34.9176799653,100
                135.751601517,34.9176668877,100
                135.7519696572,34.9176767072,100
                135.7527257487,34.9179150619,100
                135.7539429971,34.9183141256,100
                135.7548309354,34.918606747,100
                135.7557153252,34.9189451319,100
                135.7564973011,34.9193088066,100
                135.7566601519,34.91939378,100
                135.756789799,34.9194955211,100
                135.7568680327,34.9195770885,100
                135.7575783402,34.9204001517,100
                135.7580335005,34.9208960008,100
                135.7584060932,34.9212867504,100
                135.7590729449,34.9219790796,100
                135.7592420482,34.9221446312,100
                135.760011649,34.9228980839,100
                135.7604312526,34.9233616127,100
                135.7609724774,34.9239589076,100
                135.7611268734,34.9241051344,100
                135.7614040254,34.9243232953,100
                135.7615679188,34.9244076343,100
                135.7618312165,34.9245216767,100
                135.7620013983,34.9245827154,100
                135.7621801849,34.9246469398,100
                135.7625956368,34.9247726846,100
                135.7630795863,34.9248741915,100
                135.7632852051,34.924906409,100
                135.7632948446,34.9249079198,100
                135.7633376103,34.9249146128,100
                135.7636015161,34.9249559104,100
                135.7643723129,34.9250859259,100
                135.7650125615,34.9252311095,100
                135.7655329762,34.92542015,100
                135.7656784711,34.9254810662,100
                135.7659608394,34.9256130953,100
                135.7661837257,34.9257338816,100
                135.7663572778,34.925853095,100
                135.7668602303,34.9262961287,100
                135.7671100257,34.9265277484,100
                135.7672802028,34.9266851966,100
                135.7673007642,34.9266786864,100
                135.7676662291,34.9268435475,100
                135.7679018151,34.926926607,100
                135.7681270178,34.9270159843,100
                135.768428218,34.9271212099,100
                135.7688209768,34.9263061851,100
                135.7683195015,34.9260744454,100
                135.7681335057,34.9259627462,100
                135.7680448142,34.9259001791,100
                135.7683688031,34.9256867623,100
                135.7683505341,34.925667923,100
                135.7687070073,34.9254423121,100
                135.7689635442,34.9257100001,100
                135.7691308413,34.9255560776,100
                135.7690538586,34.925471842,100
                135.7690279967,34.9253796431,100
                135.7691608634,34.9252790225,100
                135.769213007,34.9253348772,100
                135.7693016036,34.9254632236,100
                135.7693651187,34.9255552518,100
                135.7695775615,34.9251773116,100
                135.7696051747,34.9251715884,100
                135.7698984234,34.9247383026,100
                135.7701863745,34.9243414177,100
                135.7704670832,34.9240354405,100
                135.7706297396,34.9238649567,100
                135.7707088258,34.9237820693,100
                135.7707927008,34.9237224326,100
                135.7711303495,34.9234881854,100
                135.7713739955,34.9233112312,100
                135.7716257383,34.9231283767,100
                135.7722790946,34.9227223057,100
                135.7725075523,34.9225803274,100
                135.7730361304,34.9222534715,100
                135.7734502739,34.9219978141,100
                135.7735176195,34.9219556826,100
                135.7746342724,34.9212526281,100
                135.7745624126,34.9211780521,100
                135.7738861581,34.9204754707,100
                135.7738070452,34.9204356731,100
                135.7736054833,34.920334233,100
                135.7735708813,34.9202526126,100
                135.773551766,34.9202075029,100
                135.7729756367,34.9201256484,100
                135.7722792582,34.9200395524,100
                135.7716170495,34.9199606388,100
                135.7713214533,34.9199245931,100
                135.770783065,34.919858937,100
                135.7701263792,34.91977883,100
                135.7699759354,34.919755165,100
                135.7696273163,34.9197002113,100
                135.7696296966,34.9195656265,100
                135.7692586926,34.9194821062,100
                135.7693252202,34.9192782697,100
                135.7690562627,34.9190328846,100
                135.7689110158,34.9190323997,100
                135.7686649254,34.9189674949,100
                135.7685748238,34.9189912704,100
                135.7686280063,34.9178638782,100
                135.7686783645,34.9175405646,100
                135.7687301762,34.9173250805,100
                135.7687481017,34.9172506001,100
                135.768810312,34.9170856323,100
                135.7688927201,34.9168743604,100
                135.7689663731,34.916729627,100
                135.7691645503,34.9163401061,100
                135.7693119131,34.9160525406,100
                135.7694408776,34.9158013525,100
                135.769277634,34.9157171663,100
                135.7700095817,34.9145887897,100
                135.7702488397,34.9146627639,100
                135.7702609442,34.9146446159,100
                135.7702713552,34.9146290001,100
                135.7705355349,34.9145470916,100
                135.7706066158,34.9144969387,100
                135.7706056151,34.9143786875,100
                135.7707074977,34.9143359153,100
                135.7708739044,34.9142945316,100
                135.7709054846,34.9143226205,100
                135.7709793778,34.9142905017,100
                135.7712905111,34.9142342446,100
                135.7714142248,34.9142119373,100
                135.7717067227,34.9141618422,100
                135.7721001621,34.9141001019,100
                135.7719238255,34.9139815251,100
                135.7717272955,34.9140093321,100
                135.7715896849,34.9135169902,100
                135.7715055065,34.9135035234,100
                135.7713292471,34.9135603835,100
                135.770693088,34.9132691034,100
                135.7705607318,34.913466269,100
                135.7705284823,34.9134488129,100
                135.7704818278,34.9134235823,100
                135.770474639,34.9132935574,100
                135.7704168897,34.9132068932,100
                135.7702495159,34.9131254469,100
                135.7694729905,34.9126979708,100
                135.7684679773,34.9122028004,100
                135.7669301515,34.9114451123,100
                135.7667479758,34.9113553219,100
                135.7642436458,34.9100758457,100
                135.7618949801,34.9088735948,100
                135.7608765679,34.9083655091,100
                135.7585853586,34.9072220725,100
                135.7564013707,34.9061077878,100
                135.7557395622,34.9057806156,100
              </coordinates>
            </LinearRing>
          </outerBoundaryIs>
        </Polygon>
      </Placemark>
    </Document>
  </Document>
</kml>
