<?xml version="1.0" encoding="UTF-8"?>
<kml xmlns="http://www.opengis.net/kml/2.2">
  <Document id="root_doc">
    <Document id="_2_20_________disv4326">
      <name>32_20桃山南disv4326</name>
      <Placemark id="_2_20_________disv4326.1">
        <visibility>1</visibility>
        <Polygon>
          <extrude>0</extrude>
          <outerBoundaryIs>
            <LinearRing>
              <coordinates>
                135.7884464662,34.9307743533,100
                135.7890308926,34.9308257567,100
                135.7910491844,34.9310032535,100
                135.7928733136,34.9312023304,100
                135.7936098769,34.9313329711,100
                135.7937344611,34.931173802,100
                135.7936657231,34.9311227641,100
                135.7935924584,34.9309652284,100
                135.7933812844,34.9307608331,100
                135.7932282137,34.9306461937,100
                135.793089773,34.9305806685,100
                135.7927902503,34.9304589459,100
                135.7926852304,34.9304093243,100
                135.7923847877,34.9302378122,100
                135.7921838999,34.930103236,100
                135.7921413247,34.9300571861,100
                135.792103419,34.9299715783,100
                135.7920907153,34.9299273504,100
                135.7920938188,34.9299160772,100
                135.7921576084,34.9298237131,100
                135.7922196068,34.9297807163,100
                135.7925204098,34.9297544706,100
                135.7928693557,34.9297819728,100
                135.7929702508,34.9297527062,100
                135.7932064772,34.9295926723,100
                135.793460483,34.929435627,100
                135.7931666624,34.9290488886,100
                135.7917174488,34.9294984868,100
                135.7918281522,34.9281513622,100
                135.7920269556,34.9275214326,100
                135.7918480331,34.9267573882,100
                135.7917925896,34.9265205797,100
                135.7914398157,34.9263873543,100
                135.7910643398,34.9258513733,100
                135.7909595436,34.9255689116,100
                135.7909835565,34.9254124591,100
                135.7909939181,34.9253208479,100
                135.7909973749,34.9252963483,100
                135.7910378126,34.9250096265,100
                135.7910796707,34.9247095988,100
                135.791141613,34.9243537557,100
                135.7911752585,34.924036952,100
                135.7911808699,34.9239557566,100
                135.7912068141,34.9236927477,100
                135.7912148417,34.9236113457,100
                135.7912377806,34.9233789678,100
                135.7912092164,34.9229945855,100
                135.7903190344,34.9228779678,100
                135.7903404744,34.9227757409,100
                135.7903124093,34.9227744247,100
                135.7903333118,34.9227334709,100
                135.7903353942,34.9225419068,100
                135.7903283283,34.9223843447,100
                135.7903219291,34.9222417847,100
                135.7902587059,34.9217938152,100
                135.7902835952,34.9215517217,100
                135.7902915791,34.9214789825,100
                135.7903963719,34.9213923243,100
                135.7904181135,34.9213995748,100
                135.7904251355,34.9213783558,100
                135.7904051489,34.9212727317,100
                135.7904009196,34.9212403924,100
                135.7903946209,34.9211922397,100
                135.7903764069,34.9210229588,100
                135.7904270072,34.9209211762,100
                135.790383778,34.9209013802,100
                135.7903028138,34.920864299,100
                135.7903025352,34.9208627271,100
                135.7902975689,34.9208603954,100
                135.79025937,34.920842458,100
                135.7901591711,34.9207954052,100
                135.7901557651,34.9207664523,100
                135.7901463257,34.9206862373,100
                135.7901163034,34.9204311272,100
                135.790115134,34.9204222092,100
                135.7900890954,34.9202236239,100
                135.7900317625,34.9197863882,100
                135.7900278356,34.9197524103,100
                135.7899814057,34.9193507019,100
                135.7899675063,34.91922399,100
                135.789939675,34.918970264,100
                135.789931733,34.9188978694,100
                135.7899141568,34.9187310456,100
                135.7898182487,34.9191360379,100
                135.7897345143,34.9194609232,100
                135.7896517102,34.9197638365,100
                135.7894304503,34.9201945505,100
                135.7893445632,34.9203287095,100
                135.7892313062,34.9204743026,100
                135.7889888066,34.9206880555,100
                135.7888863547,34.9207783794,100
                135.7884837999,34.9210698182,100
                135.7880759007,34.921393785,100
                135.7880254141,34.9214425042,100
                135.7878368783,34.9216245163,100
                135.7878184363,34.921613567,100
                135.7876230028,34.9217932425,100
                135.7871130224,34.9222342203,100
                135.7863784265,34.9228935538,100
                135.7859413699,34.9232021777,100
                135.7853894768,34.9235918006,100
                135.7851421305,34.9237619419,100
                135.7848224002,34.9239817469,100
                135.7847237609,34.9240495351,100
                135.7842546784,34.9243059798,100
                135.7838460082,34.924544923,100
                135.7837082146,34.9246253899,100
                135.783218935,34.9249110219,100
                135.782749534,34.9251797854,100
                135.7825282867,34.9253064424,100
                135.7823041112,34.9254583079,100
                135.7817342145,34.9258876752,100
                135.7817106322,34.9259458075,100
                135.7809516901,34.92665063,100
                135.7803239963,34.9269646627,100
                135.7802562033,34.9269985575,100
                135.7794398487,34.9274363745,100
                135.7792557644,34.9275350975,100
                135.7788468856,34.9277521185,100
                135.7779283902,34.9281852657,100
                135.7777737287,34.9282287889,100
                135.7774424169,34.928296849,100
                135.7766457393,34.928202701,100
                135.7765502925,34.9281918201,100
                135.7765526018,34.9285206535,100
                135.7769806935,34.9285903206,100
                135.7772283195,34.9289939077,100
                135.777181632,34.9291215794,100
                135.7772335867,34.9292324581,100
                135.7779703341,34.9296641279,100
                135.7781881132,34.9297402374,100
                135.7787641535,34.9298836973,100
                135.7791676207,34.9299397201,100
                135.7795710986,34.9299834875,100
                135.7801780588,34.9300120574,100
                135.7814451568,34.9301414748,100
                135.7821043778,34.9301918927,100
                135.7829682892,34.9302561266,100
                135.7836935305,34.9303232046,100
                135.7845004661,34.9303976083,100
                135.7850903813,34.930456199,100
                135.7862844717,34.930584174,100
                135.7868980463,34.9306381502,100
                135.7871284642,34.930658418,100
                135.7884464662,34.9307743533,100
              </coordinates>
            </LinearRing>
          </outerBoundaryIs>
        </Polygon>
      </Placemark>
    </Document>
  </Document>
</kml>
