<?xml version="1.0" encoding="UTF-8"?>
<kml xmlns="http://www.opengis.net/kml/2.2">
  <Document id="root_doc">
    <Document id="_4_22______disv4326">
      <name>34_22砂川disv4326</name>
      <Placemark id="_4_22______disv4326.1">
        <visibility>1</visibility>
        <MultiGeometry>
          <Polygon>
            <extrude>0</extrude>
            <outerBoundaryIs>
              <LinearRing>
                <coordinates>
                  135.7654408045,34.9596297057,100
                  135.7647924336,34.9596271109,100
                  135.7647888109,34.9599883984,100
                  135.76478655,34.9602154532,100
                  135.7647864867,34.9602227776,100
                  135.7640780094,34.9602368224,100
                  135.7636491514,34.9602452831,100
                  135.7633559525,34.9602432309,100
                  135.7628335635,34.9602398149,100
                  135.7625245175,34.9602378001,100
                  135.7621622651,34.9602353989,100
                  135.7613209721,34.96022987,100
                  135.7614220962,34.9607136953,100
                  135.7615226055,34.9611892078,100
                  135.7615566949,34.961332103,100
                  135.7616608027,34.9617684648,100
                  135.761664632,34.9617845177,100
                  135.7616936678,34.9619062155,100
                  135.7617702389,34.9622270941,100
                  135.7617710695,34.9622341984,100
                  135.7618108293,34.9625743116,100
                  135.7618819428,34.9631828051,100
                  135.7629096757,34.9631589067,100
                  135.7628616771,34.9633276974,100
                  135.7627110165,34.9637998308,100
                  135.7627029155,34.9638463109,100
                  135.7626346133,34.9638363203,100
                  135.762624626,34.9638760213,100
                  135.7626124682,34.9639243487,100
                  135.7626059459,34.9639502687,100
                  135.7626522662,34.9642149566,100
                  135.7626188048,34.9642264405,100
                  135.7626367775,34.9643052545,100
                  135.7626189084,34.9644001294,100
                  135.7626328217,34.9645137421,100
                  135.7625995329,34.9645180862,100
                  135.7621149417,34.9645813212,100
                  135.7621453708,34.9647715352,100
                  135.7620882963,34.9647607889,100
                  135.7619157797,34.9646577654,100
                  135.7618304131,34.964736688,100
                  135.7616178333,34.9646124569,100
                  135.7613110807,34.9646179091,100
                  135.7613098742,34.9644705717,100
                  135.7613308614,34.9644160318,100
                  135.7614177983,34.9644769823,100
                  135.7614971632,34.9644029792,100
                  135.7613988082,34.9643408794,100
                  135.7612399778,34.9641940061,100
                  135.7611805051,34.9642449481,100
                  135.7612591622,34.9643063765,100
                  135.7611461922,34.9645478608,100
                  135.7612006962,34.9645744492,100
                  135.7612194313,34.9647619638,100
                  135.7609057454,34.9647390179,100
                  135.7607463195,34.9645982706,100
                  135.7603011001,34.9644181508,100
                  135.7601815724,34.9645137657,100
                  135.7597168444,34.9644774187,100
                  135.7590741448,34.9644126124,100
                  135.7590151121,34.9644065133,100
                  135.7589959595,34.9645169507,100
                  135.7589968834,34.96451664,100
                  135.7589908252,34.9645552233,100
                  135.7589404481,34.9645806886,100
                  135.7589404008,34.9645808861,100
                  135.758937438,34.9645822144,100
                  135.7589103971,34.9645943511,100
                  135.758898854,34.9647565398,100
                  135.7588983803,34.9647585466,100
                  135.7588977992,34.964777463,100
                  135.7588937435,34.9647781443,100
                  135.7588937178,34.9647782543,100
                  135.7588566535,34.9647844358,100
                  135.7588584273,34.9647981408,100
                  135.7588582247,34.9647981855,100
                  135.7588650591,34.9648629491,100
                  135.7588656925,34.9648657883,100
                  135.7588664678,34.9648776487,100
                  135.7588014299,34.9648843873,100
                  135.7588022796,34.9649008201,100
                  135.7588021853,34.9649008452,100
                  135.7588024569,34.9649042378,100
                  135.7588065964,34.9649559366,100
                  135.7587313529,34.9649658994,100
                  135.75873167,34.9649658285,100
                  135.758571922,34.9649868178,100
                  135.7583466374,34.9647344931,100
                  135.7572764027,34.9650694161,100
                  135.7583810769,34.9663502431,100
                  135.758383977,34.966813381,100
                  135.7583394013,34.9668136436,100
                  135.7583577147,34.9672199772,100
                  135.7590696535,34.9671877318,100
                  135.7593573498,34.9671747113,100
                  135.7596307712,34.9671722958,100
                  135.7603910506,34.9680325276,100
                  135.7604955968,34.968152039,100
                  135.7612193281,34.9689791637,100
                  135.7627345298,34.9708220665,100
                  135.7631263321,34.9712000455,100
                  135.7640649043,34.9721632872,100
                  135.7647266734,34.9731790862,100
                  135.7661432842,34.973145003,100
                  135.7669850796,34.9731247274,100
                  135.767540066,34.9731262892,100
                  135.7688848549,34.9730902057,100
                  135.7690974848,34.9729441232,100
                  135.7691646938,34.9728889661,100
                  135.7693402765,34.9726889347,100
                  135.7695165576,34.9724673542,100
                  135.7697005761,34.9721629653,100
                  135.7697850099,34.9719730425,100
                  135.7699549666,34.9715079114,100
                  135.7700267959,34.971211266,100
                  135.7700525574,34.9709984127,100
                  135.7700516444,34.9708329772,100
                  135.7700503613,34.9706000704,100
                  135.7700984645,34.9700262485,100
                  135.7700978648,34.9698394729,100
                  135.7701763599,34.9690442823,100
                  135.7701772251,34.9689627292,100
                  135.7701814021,34.9685778497,100
                  135.7702363976,34.9679202294,100
                  135.7702622918,34.9676104671,100
                  135.7703261379,34.9669455395,100
                  135.7705770378,34.966954327,100
                  135.7707101231,34.9661062769,100
                  135.7706472725,34.9661031298,100
                  135.7703935447,34.9660891964,100
                  135.7704363686,34.9654308482,100
                  135.7704541923,34.9650924773,100
                  135.7704542549,34.9650771621,100
                  135.7706751547,34.9650739307,100
                  135.7706851504,34.9646954208,100
                  135.7707934672,34.9646988664,100
                  135.7708162857,34.9646995441,100
                  135.770811829,34.9648120786,100
                  135.7707973289,34.9648116291,100
                  135.7707695714,34.9648106598,100
                  135.7707700139,34.9648206614,100
                  135.7707698853,34.9648677075,100
                  135.7707704783,34.9648779206,100
                  135.7709089019,34.9648841688,100
                  135.7711222584,34.9648937995,100
                  135.7714763138,34.9648983428,100
                  135.7715060407,34.9648986802,100
                  135.7715041656,34.9649748795,100
                  135.771468493,34.965028971,100
                  135.7714603057,34.9651687552,100
                  135.7717701088,34.9647894525,100
                  135.7719701976,34.9645262188,100
                  135.772090692,34.9643696738,100
                  135.7724402739,34.9639405126,100
                  135.7724671853,34.9639065467,100
                  135.7727116626,34.9635978296,100
                  135.7731318111,34.9630671724,100
                  135.7725943716,34.9630553854,100
                  135.7719491275,34.963041139,100
                  135.7716659165,34.9630349704,100
                  135.7715317652,34.9630319703,100
                  135.7715197678,34.9630317358,100
                  135.7715008197,34.9625601864,100
                  135.7715147624,34.9624432316,100
                  135.7711328988,34.9624283542,100
                  135.7707011887,34.9624115488,100
                  135.7706850963,34.9621021291,100
                  135.7707305008,34.9620786928,100
                  135.770754848,34.9615899695,100
                  135.7706144965,34.9615790688,100
                  135.770621692,34.9615363326,100
                  135.7707409094,34.9615330372,100
                  135.7707641118,34.9612822858,100
                  135.7707790581,34.9611180753,100
                  135.7707893039,34.9602047095,100
                  135.770790096,34.9601335783,100
                  135.7707762174,34.9598027512,100
                  135.7707779276,34.9592283397,100
                  135.7707301105,34.9592277567,100
                  135.7705363398,34.9592256287,100
                  135.7701792505,34.9592214304,100
                  135.7701761211,34.9591848018,100
                  135.769590253,34.9591779844,100
                  135.7694520194,34.9591763839,100
                  135.7691761086,34.9591730415,100
                  135.768507657,34.9592023315,100
                  135.768292725,34.959211922,100
                  135.7682611526,34.9596647139,100
                  135.7668872005,34.9596453866,100
                  135.7667447126,34.9596351815,100
                  135.7662083163,34.9596328797,100
                  135.7658600084,34.9596315032,100
                  135.7654781226,34.9596298483,100
                  135.7654408045,34.9596297057,100
                </coordinates>
              </LinearRing>
            </outerBoundaryIs>
          </Polygon>
          <Polygon>
            <extrude>0</extrude>
            <outerBoundaryIs>
              <LinearRing>
                <coordinates>
                  135.7611643686,34.9641206122,100
                  135.7609984253,34.963955836,100
                  135.7608970708,34.9640235977,100
                  135.7609038347,34.9640288937,100
                  135.7610803572,34.9641667171,100
                  135.7611643686,34.9641206122,100
                </coordinates>
              </LinearRing>
            </outerBoundaryIs>
          </Polygon>
        </MultiGeometry>
      </Placemark>
    </Document>
  </Document>
</kml>
