<?xml version="1.0" encoding="UTF-8"?>
<kml xmlns="http://www.opengis.net/kml/2.2">
  <Document id="root_doc">
    <Document id="_4_23______disv4326">
      <name>34_23深草disv4326</name>
      <Placemark id="_4_23______disv4326.1">
        <visibility>1</visibility>
        <Polygon>
          <extrude>0</extrude>
          <outerBoundaryIs>
            <LinearRing>
              <coordinates>
                135.7600255913,34.9509536297,100
                135.7601547787,34.9514773904,100
                135.7602861243,34.9520099597,100
                135.7606892987,34.9528654212,100
                135.7605972319,34.9535574841,100
                135.7606473758,34.953557936,100
                135.7610723315,34.953562081,100
                135.761387547,34.9534225484,100
                135.7615906206,34.9536964877,100
                135.7616925448,34.9538066954,100
                135.7616497297,34.9539457158,100
                135.7616428385,34.9539680878,100
                135.7616613704,34.95397073,100
                135.7616723528,34.9543573988,100
                135.7616990238,34.9544157657,100
                135.7609850961,34.954389221,100
                135.7609549449,34.9545162839,100
                135.7608683729,34.9546315443,100
                135.7608563649,34.9547927292,100
                135.7606542325,34.9548025438,100
                135.7606585273,34.954893051,100
                135.7606764704,34.9552216305,100
                135.7607041061,34.9554366994,100
                135.7607605437,34.9556520369,100
                135.7608421584,34.9558507332,100
                135.7608904414,34.9559342144,100
                135.7610756819,34.9561498054,100
                135.7612434252,34.9563225419,100
                135.7611613889,34.9564735174,100
                135.7611586926,34.956541616,100
                135.7614389746,34.9565536463,100
                135.7615155685,34.9567150918,100
                135.7614679592,34.9568037248,100
                135.761602277,34.9569289904,100
                135.7614448733,34.9570424254,100
                135.761509712,34.9572455948,100
                135.7606425987,34.9574050254,100
                135.7606836373,34.9575245512,100
                135.7607830076,34.9578486442,100
                135.7608424946,34.9580834246,100
                135.7608727976,34.9582030707,100
                135.7609255362,34.958412555,100
                135.7610438893,34.9589347268,100
                135.7610784834,34.9590874113,100
                135.7611256449,34.9592954765,100
                135.7613209721,34.96022987,100
                135.7621622651,34.9602353989,100
                135.7625245175,34.9602378001,100
                135.7628335635,34.9602398149,100
                135.7633559525,34.9602432309,100
                135.7636491514,34.9602452831,100
                135.7640780094,34.9602368224,100
                135.7647864867,34.9602227776,100
                135.76478655,34.9602154532,100
                135.7647888109,34.9599883984,100
                135.7647924336,34.9596271109,100
                135.7654408045,34.9596297057,100
                135.7654781226,34.9596298483,100
                135.7658600084,34.9596315032,100
                135.7662083163,34.9596328797,100
                135.7667447126,34.9596351815,100
                135.7668872005,34.9596453866,100
                135.7682611526,34.9596647139,100
                135.768292725,34.959211922,100
                135.768507657,34.9592023315,100
                135.7691761086,34.9591730415,100
                135.7694520194,34.9591763839,100
                135.769590253,34.9591779844,100
                135.7701761211,34.9591848018,100
                135.7701792505,34.9592214304,100
                135.7705363398,34.9592256287,100
                135.7707301105,34.9592277567,100
                135.7707779276,34.9592283397,100
                135.7707762174,34.9598027512,100
                135.770790096,34.9601335783,100
                135.7707893039,34.9602047095,100
                135.7707790581,34.9611180753,100
                135.7707641118,34.9612822858,100
                135.7707409094,34.9615330372,100
                135.770621692,34.9615363326,100
                135.7706144965,34.9615790688,100
                135.770754848,34.9615899695,100
                135.7707305008,34.9620786928,100
                135.7706850963,34.9621021291,100
                135.7707011887,34.9624115488,100
                135.7711328988,34.9624283542,100
                135.7715147624,34.9624432316,100
                135.7715008197,34.9625601864,100
                135.7715197678,34.9630317358,100
                135.7715317652,34.9630319703,100
                135.7716659165,34.9630349704,100
                135.7719491275,34.963041139,100
                135.7725943716,34.9630553854,100
                135.7731318111,34.9630671724,100
                135.7734882613,34.9626169639,100
                135.7738483434,34.9626429937,100
                135.773845779,34.9627054583,100
                135.7739227507,34.9627209559,100
                135.7741078344,34.9627277111,100
                135.7743070238,34.9627618893,100
                135.7742669557,34.963084092,100
                135.7741143207,34.9631940962,100
                135.7741059592,34.9632335201,100
                135.7742729188,34.9632680612,100
                135.7746335259,34.9632826797,100
                135.7746438026,34.9634301043,100
                135.7747163343,34.9634743981,100
                135.7747706579,34.9635380254,100
                135.775360223,34.9636608243,100
                135.7754521278,34.9636189506,100
                135.7761541434,34.9637992825,100
                135.7760440794,34.9641142432,100
                135.776170296,34.9641259567,100
                135.7766161349,34.9644133546,100
                135.7771319969,34.9643957161,100
                135.777761513,34.9643526486,100
                135.7779112981,34.9642838355,100
                135.7781466991,34.9642141221,100
                135.7783725723,34.9641472794,100
                135.7790613421,34.9644649749,100
                135.7794050649,34.963842318,100
                135.7793253436,34.96372484,100
                135.7792296184,34.9635367628,100
                135.7792090328,34.9632809312,100
                135.779136832,34.9630610642,100
                135.7790422938,34.9629099642,100
                135.7790660535,34.9626914707,100
                135.7791065539,34.9625959749,100
                135.7791735142,34.962531726,100
                135.7793194646,34.9624308582,100
                135.7791284859,34.9621934485,100
                135.7790596693,34.962069792,100
                135.7790750124,34.961887905,100
                135.779016552,34.9617540565,100
                135.7788994154,34.9616734825,100
                135.7787514767,34.9616281374,100
                135.7788963284,34.9615462845,100
                135.779025977,34.9614551052,100
                135.7791790417,34.9613231916,100
                135.7794266281,34.9611363038,100
                135.7796576598,34.9609417091,100
                135.7799446493,34.9605778351,100
                135.7800419677,34.9604260984,100
                135.7802492621,34.9605007076,100
                135.7807090393,34.9606004967,100
                135.7809659992,34.9606482224,100
                135.7812157315,34.9606706495,100
                135.7815600288,34.9607440253,100
                135.7818130745,34.9608085741,100
                135.781970872,34.9608217479,100
                135.7820981173,34.96080599,100
                135.7823079719,34.9608174968,100
                135.7824603947,34.9608908774,100
                135.7825524913,34.9609626701,100
                135.7826447108,34.961136161,100
                135.7827122841,34.9612801693,100
                135.78281533,34.9614024778,100
                135.783045728,34.9615674142,100
                135.7831555255,34.9616834649,100
                135.7833624158,34.9618334971,100
                135.7835363087,34.9619252236,100
                135.7836122462,34.9620348758,100
                135.7837033629,34.962172373,100
                135.7838603943,34.9622840715,100
                135.7839196495,34.9624117225,100
                135.783967685,34.9624692073,100
                135.784179263,34.9625612832,100
                135.7846001696,34.9626794391,100
                135.7848280856,34.9627639385,100
                135.7849411682,34.9628180178,100
                135.7850712055,34.9628579019,100
                135.7853009081,34.9628714822,100
                135.7857032514,34.9628824127,100
                135.7864456737,34.9628575362,100
                135.786685755,34.9628771896,100
                135.7871281148,34.9629634033,100
                135.7871870451,34.9629680861,100
                135.787285121,34.9629700206,100
                135.7874081176,34.9629441089,100
                135.7876572917,34.9627684795,100
                135.7878285323,34.9627106788,100
                135.7880259168,34.9627673699,100
                135.7881301765,34.9627764982,100
                135.7882450155,34.9627545857,100
                135.7883225989,34.9627150723,100
                135.7884391021,34.9626098457,100
                135.7886393741,34.9625730829,100
                135.7887442727,34.9625237551,100
                135.7888736976,34.9625180672,100
                135.7890000747,34.962542165,100
                135.7890904632,34.9625902844,100
                135.7892583561,34.9627496066,100
                135.7893689145,34.9628222726,100
                135.7895002435,34.9628588429,100
                135.7896743258,34.9628616844,100
                135.7898699715,34.9628367419,100
                135.7898468884,34.9626940137,100
                135.7898941997,34.9625900728,100
                135.7899895462,34.962545377,100
                135.7901198392,34.9625519433,100
                135.7902604611,34.9624054854,100
                135.7902917182,34.9623325769,100
                135.7903805302,34.9622580763,100
                135.7904277329,34.9621461776,100
                135.7905327821,34.9620011372,100
                135.7906583066,34.9618526103,100
                135.7907798265,34.9615691336,100
                135.7909455195,34.9612376308,100
                135.7911825922,34.9610202751,100
                135.7912306394,34.9609203497,100
                135.7912419411,34.9607869061,100
                135.7911562438,34.9601936027,100
                135.7911129004,34.9600184407,100
                135.7910727335,34.9599340678,100
                135.7910046924,34.9598613373,100
                135.7908370338,34.9597716005,100
                135.7907596624,34.9596675126,100
                135.7907849593,34.9595565603,100
                135.7907700531,34.9592467172,100
                135.7907915364,34.9591048399,100
                135.7908499186,34.9590621204,100
                135.7910730819,34.9589410875,100
                135.7912116253,34.9588437834,100
                135.7913068291,34.9587344317,100
                135.7913562651,34.9585821786,100
                135.7913551725,34.9584972397,100
                135.7913291304,34.9584428931,100
                135.7911759285,34.9583024031,100
                135.7910459414,34.9582094934,100
                135.7909582655,34.9581044723,100
                135.7908944533,34.9578277158,100
                135.7909000669,34.9576774292,100
                135.790944205,34.9575403808,100
                135.7909697023,34.9573911856,100
                135.790990887,34.9571192949,100
                135.7909807247,34.9567160703,100
                135.7909796465,34.9566682476,100
                135.7911231637,34.9564272759,100
                135.7913073923,34.9561014381,100
                135.7913681247,34.9559215257,100
                135.7914308548,34.9556853448,100
                135.791489902,34.9553214689,100
                135.7915096068,34.9548258216,100
                135.7915486646,34.9545980512,100
                135.7915519406,34.954388952,100
                135.791599932,34.9542322594,100
                135.7917373799,34.9538919016,100
                135.7918934762,34.9536201029,100
                135.7920846768,34.9533603368,100
                135.7923120466,34.9529321664,100
                135.7924267591,34.9528512996,100
                135.7925057785,34.9527111402,100
                135.7928046321,34.9520911002,100
                135.7928617975,34.952063168,100
                135.7931407392,34.9520782251,100
                135.7931848655,34.9520480871,100
                135.7931279571,34.9519365697,100
                135.7931006912,34.951841232,100
                135.7932557323,34.9515953473,100
                135.7933659289,34.9511663397,100
                135.7934383505,34.9505678148,100
                135.7935793383,34.9501909065,100
                135.7930153093,34.9497855344,100
                135.7927672365,34.9496119921,100
                135.7924365194,34.9494021079,100
                135.7923037897,34.9494115973,100
                135.7921463806,34.9495254222,100
                135.7919412856,34.9496575461,100
                135.7918784121,34.9496681428,100
                135.7916913857,34.9496612692,100
                135.7914589526,34.9496924196,100
                135.7913231253,34.949726695,100
                135.7912175175,34.949715173,100
                135.7911204303,34.949674367,100
                135.7909943733,34.9495617436,100
                135.7906908341,34.9491732907,100
                135.790659648,34.9491426712,100
                135.7905652246,34.9491484222,100
                135.7901918909,34.9493539904,100
                135.7900574351,34.9495496911,100
                135.7899910635,34.9496081728,100
                135.7898741056,34.9496726937,100
                135.7897477679,34.9496995183,100
                135.7895843779,34.9497757202,100
                135.7894305354,34.950009841,100
                135.7893466209,34.9500887158,100
                135.7892596639,34.9501444848,100
                135.7889320998,34.950377597,100
                135.7887967424,34.9504705382,100
                135.7886727408,34.9505205378,100
                135.7884985993,34.9505590386,100
                135.7883037843,34.9505875733,100
                135.7881993628,34.9506149279,100
                135.7878924442,34.9507152436,100
                135.7876818341,34.9507400157,100
                135.7875597486,34.9507247997,100
                135.7876045758,34.9506967773,100
                135.7876273571,34.9506003993,100
                135.7875706211,34.9505002195,100
                135.7874921973,34.9503090763,100
                135.7874040785,34.9501629198,100
                135.7872702211,34.9499739324,100
                135.7871557707,34.9498572393,100
                135.7870385531,34.9497947021,100
                135.7864442938,34.9495857426,100
                135.7863529058,34.949507122,100
                135.786238877,34.9495117801,100
                135.7861279543,34.9495894086,100
                135.7858792502,34.9496870745,100
                135.7856873666,34.949731879,100
                135.7855687305,34.9497739258,100
                135.7854608241,34.9498512775,100
                135.7849812107,34.9501611583,100
                135.7847328984,34.9502379766,100
                135.7845401613,34.9503239097,100
                135.7843999947,34.9503976108,100
                135.7843385806,34.9504144044,100
                135.7841854683,34.9503830715,100
                135.7842502574,34.950526511,100
                135.78418369,34.9506266147,100
                135.7841627859,34.9507072182,100
                135.7841335943,34.9509504308,100
                135.7840535332,34.9510095196,100
                135.7839648632,34.9510395039,100
                135.7838545026,34.9510302915,100
                135.7837631665,34.9510659074,100
                135.7836404338,34.9510447696,100
                135.7836192352,34.9510225457,100
                135.7836005404,34.9508743282,100
                135.7835945925,34.9507252883,100
                135.7836266299,34.950656959,100
                135.7835949454,34.9505874581,100
                135.7836418522,34.9504908427,100
                135.7836761196,34.9503950492,100
                135.7837579168,34.9503094822,100
                135.7838232214,34.9502183222,100
                135.7838617273,34.9501201417,100
                135.7839451743,34.9500002083,100
                135.7840494323,34.9499032017,100
                135.7840297468,34.9498077343,100
                135.7840535804,34.9496860744,100
                135.7840057511,34.9495829502,100
                135.7840832252,34.9493151747,100
                135.7841170443,34.9490595049,100
                135.7841522047,34.949023155,100
                135.7841395799,34.9489428431,100
                135.7841059538,34.9487715684,100
                135.7839344095,34.9487993633,100
                135.7838214182,34.9489088901,100
                135.7836457395,34.9489725963,100
                135.7831728999,34.9491266941,100
                135.7829017106,34.9492364302,100
                135.7826507528,34.9493287344,100
                135.7823969746,34.9494530092,100
                135.7822306667,34.94957251,100
                135.7820068464,34.949804384,100
                135.7819238829,34.9498522673,100
                135.7816256718,34.9500493544,100
                135.7814469777,34.9502194706,100
                135.7812732282,34.9504042459,100
                135.7810940719,34.9505378781,100
                135.7808814034,34.9506482785,100
                135.7806854771,34.9507837818,100
                135.7807333165,34.950856059,100
                135.7807938675,34.9508924407,100
                135.7807615221,34.9509715444,100
                135.7806173863,34.9511319328,100
                135.7804578764,34.9513242681,100
                135.7803578439,34.951522064,100
                135.7802967461,34.9517290865,100
                135.7802669431,34.951891443,100
                135.780284066,34.9520831841,100
                135.7803303223,34.9523050506,100
                135.780387158,34.9524874263,100
                135.780467865,34.9528243669,100
                135.7805084655,34.9528690231,100
                135.780549617,34.9529896024,100
                135.7805642182,34.9530982314,100
                135.7805807514,34.9531550277,100
                135.7806593215,34.9534249141,100
                135.7807172164,34.9536445452,100
                135.7806722366,34.953688623,100
                135.7804929491,34.9536807609,100
                135.7804125094,34.9537758344,100
                135.7803365933,34.9537685836,100
                135.7802079324,34.9538139874,100
                135.7799227668,34.9539872859,100
                135.7798471349,34.9540183485,100
                135.7796880319,34.9540437644,100
                135.7794543343,34.9541281347,100
                135.779285062,34.9542069164,100
                135.7790117319,34.9543512886,100
                135.7788278612,34.9545164595,100
                135.7787195105,34.9545309807,100
                135.7786756346,34.9545368168,100
                135.7784482196,34.9544189242,100
                135.7779516895,34.9544353384,100
                135.7778148522,34.9544260719,100
                135.7777707504,34.9544527531,100
                135.7774131129,34.9542827846,100
                135.7772191444,34.9542382676,100
                135.7773006299,34.9546880346,100
                135.7763590694,34.9547822897,100
                135.7763479672,34.954783396,100
                135.77635162,34.9546638149,100
                135.776402927,34.9537982706,100
                135.7763995597,34.9535678922,100
                135.776393425,34.9531466464,100
                135.776395576,34.9522324739,100
                135.7754832373,34.9523322007,100
                135.774788667,34.9522971723,100
                135.7747429952,34.9527309333,100
                135.7720931436,34.9526847639,100
                135.772082405,34.9526862233,100
                135.7716374135,34.9527470141,100
                135.7715089778,34.9527645922,100
                135.7714074084,34.9523969,100
                135.7714180763,34.9523575499,100
                135.7713796048,34.9521751349,100
                135.7709371508,34.9522554373,100
                135.7709659059,34.9523849416,100
                135.7705442266,34.9524445749,100
                135.7704819337,34.952183305,100
                135.7702257203,34.9521961319,100
                135.7702269476,34.9522090933,100
                135.7696669182,34.9522597294,100
                135.7688648399,34.9523433574,100
                135.7685059589,34.9523814817,100
                135.7678532234,34.9524575695,100
                135.7674152917,34.9525085692,100
                135.7665070699,34.9526121921,100
                135.766710119,34.9534275904,100
                135.7665206221,34.9533475722,100
                135.7662164972,34.9532629676,100
                135.7659250545,34.9532086706,100
                135.7657341593,34.9531852721,100
                135.7653575208,34.9531391191,100
                135.7647919139,34.9530612584,100
                135.764597972,34.9530339792,100
                135.7642688556,34.9528696635,100
                135.7640502878,34.9526997851,100
                135.7639006299,34.9525419432,100
                135.7637165782,34.9522712766,100
                135.7635367063,34.9520130828,100
                135.7634830934,34.9519371256,100
                135.7631696302,34.9515888033,100
                135.7626944479,34.951085501,100
                135.7626543429,34.9510433756,100
                135.7626105352,34.9510485019,100
                135.7623774001,34.9510757254,100
                135.7619874135,34.950849939,100
                135.7619063194,34.9506144034,100
                135.7617745961,34.9506380921,100
                135.7613863968,34.9507082538,100
                135.7600255913,34.9509536297,100
              </coordinates>
            </LinearRing>
          </outerBoundaryIs>
        </Polygon>
      </Placemark>
    </Document>
  </Document>
</kml>
