<?xml version="1.0" encoding="UTF-8"?>
<kml xmlns="http://www.opengis.net/kml/2.2">
  <Document id="root_doc">
    <Document id="_4_24_________disv4326">
      <name>34_24藤ノ森disv4326</name>
      <Placemark id="_4_24_________disv4326.1">
        <visibility>1</visibility>
        <Polygon>
          <extrude>0</extrude>
          <outerBoundaryIs>
            <LinearRing>
              <coordinates>
                135.765665961,34.9466467197,100
                135.7655497689,34.9462334244,100
                135.7655486239,34.9462301406,100
                135.7652595704,34.946294557,100
                135.765038973,34.9463428332,100
                135.7649796096,34.9463542936,100
                135.7648985503,34.946370363,100
                135.7648963373,34.946370832,100
                135.7647550506,34.9464007359,100
                135.7647324258,34.9464046526,100
                135.7647201018,34.9463700174,100
                135.7645486433,34.946409122,100
                135.7645449573,34.9463976948,100
                135.764445001,34.9461159228,100
                135.7640467045,34.9461333204,100
                135.7640181732,34.9460502275,100
                135.7638795745,34.9456465355,100
                135.7637250819,34.9456792666,100
                135.7635917627,34.9446900329,100
                135.7635888081,34.9446505108,100
                135.7633256745,34.9446839115,100
                135.7633441522,34.9447838853,100
                135.7631519348,34.9448886721,100
                135.763146869,34.9448918706,100
                135.7627572537,34.9451378413,100
                135.762711301,34.9451668088,100
                135.7626866201,34.9451823657,100
                135.7625553572,34.9452651058,100
                135.7625449024,34.945271697,100
                135.7621187475,34.9455403184,100
                135.7618572354,34.9457050389,100
                135.7616283805,34.9458119697,100
                135.7612852298,34.946028275,100
                135.761271622,34.9460368523,100
                135.7609883773,34.9462153915,100
                135.7609853006,34.9462222188,100
                135.7608792727,34.9461022625,100
                135.7608671651,34.9457364245,100
                135.7604674992,34.9457544421,100
                135.7604484559,34.9455292391,100
                135.7604362452,34.9453846227,100
                135.7603081307,34.9453814816,100
                135.7602972214,34.9452087425,100
                135.7602303108,34.9452168743,100
                135.7601526451,34.9452263698,100
                135.7600697595,34.9452365587,100
                135.7595512225,34.945286451,100
                135.75950852,34.9453092551,100
                135.7589676301,34.9453783179,100
                135.758751937,34.9454015756,100
                135.7587766955,34.9456233821,100
                135.7587893581,34.9457428569,100
                135.7587968022,34.9458130972,100
                135.7587990909,34.9458346847,100
                135.7587971016,34.9460387434,100
                135.758796877,34.9462487736,100
                135.7587975526,34.946397297,100
                135.758787044,34.9463970062,100
                135.7583983519,34.9464128454,100
                135.7583801541,34.9465192988,100
                135.7580113538,34.9465330628,100
                135.7579830697,34.9461907865,100
                135.7579251555,34.9454902446,100
                135.7577968371,34.9455197064,100
                135.7577867065,34.9455209614,100
                135.7577853451,34.945540865,100
                135.757782706,34.9455697447,100
                135.7577331844,34.9458667793,100
                135.7577644841,34.9459122171,100
                135.7577838211,34.9459368615,100
                135.7577744923,34.9460044791,100
                135.7577382391,34.9460033763,100
                135.7577271094,34.9462571207,100
                135.7577169258,34.9464217389,100
                135.7577053243,34.946505822,100
                135.7575959684,34.9465072499,100
                135.7573436329,34.9465105437,100
                135.7574234314,34.9467750689,100
                135.7573925339,34.9468344498,100
                135.7577455282,34.9468451643,100
                135.757825401,34.9471454285,100
                135.7574039408,34.9471475333,100
                135.7569297913,34.9471498827,100
                135.7565694469,34.9471516872,100
                135.7566067222,34.9479765666,100
                135.7566030665,34.9482389808,100
                135.7566007015,34.948408712,100
                135.756597284,34.9486548574,100
                135.7566198273,34.9491790427,100
                135.7569269464,34.9491882591,100
                135.7571122931,34.9489522016,100
                135.75715368,34.9489113663,100
                135.7573069863,34.948760041,100
                135.7574107565,34.9493812322,100
                135.7575143668,34.9495842803,100
                135.7577311566,34.9500092702,100
                135.7577931368,34.9504977572,100
                135.7584115765,34.9505013314,100
                135.758516275,34.9505019655,100
                135.758486476,34.9503388595,100
                135.7587531197,34.9503019292,100
                135.7589429629,34.9502756183,100
                135.7594496805,34.9500606996,100
                135.7595270362,34.9500278944,100
                135.7599345267,34.9505843963,100
                135.7600255913,34.9509536297,100
                135.7613863968,34.9507082538,100
                135.7617745961,34.9506380921,100
                135.7619063194,34.9506144034,100
                135.7619874135,34.950849939,100
                135.7623774001,34.9510757254,100
                135.7626105352,34.9510485019,100
                135.7626543429,34.9510433756,100
                135.7626944479,34.951085501,100
                135.7631696302,34.9515888033,100
                135.7634830934,34.9519371256,100
                135.7635367063,34.9520130828,100
                135.7637165782,34.9522712766,100
                135.7639006299,34.9525419432,100
                135.7640502878,34.9526997851,100
                135.7642688556,34.9528696635,100
                135.764597972,34.9530339792,100
                135.7647919139,34.9530612584,100
                135.7653575208,34.9531391191,100
                135.7657341593,34.9531852721,100
                135.7659250545,34.9532086706,100
                135.7662164972,34.9532629676,100
                135.7665206221,34.9533475722,100
                135.766710119,34.9534275904,100
                135.7665070699,34.9526121921,100
                135.7674152917,34.9525085692,100
                135.7678532234,34.9524575695,100
                135.7685059589,34.9523814817,100
                135.7688648399,34.9523433574,100
                135.7696669182,34.9522597294,100
                135.7702269476,34.9522090933,100
                135.7702257203,34.9521961319,100
                135.7704819337,34.952183305,100
                135.7705442266,34.9524445749,100
                135.7709659059,34.9523849416,100
                135.7709371508,34.9522554373,100
                135.7713796048,34.9521751349,100
                135.7714180763,34.9523575499,100
                135.7714074084,34.9523969,100
                135.7715089778,34.9527645922,100
                135.7716374135,34.9527470141,100
                135.772082405,34.9526862233,100
                135.7720931436,34.9526847639,100
                135.7747429952,34.9527309333,100
                135.774788667,34.9522971723,100
                135.7754832373,34.9523322007,100
                135.776395576,34.9522324739,100
                135.776393425,34.9531466464,100
                135.7763995597,34.9535678922,100
                135.776402927,34.9537982706,100
                135.77635162,34.9546638149,100
                135.7763479672,34.954783396,100
                135.7763590694,34.9547822897,100
                135.7773006299,34.9546880346,100
                135.7772191444,34.9542382676,100
                135.7774131129,34.9542827846,100
                135.7777707504,34.9544527531,100
                135.7778148522,34.9544260719,100
                135.7779516895,34.9544353384,100
                135.7784482196,34.9544189242,100
                135.7786756346,34.9545368168,100
                135.7787195105,34.9545309807,100
                135.7788278612,34.9545164595,100
                135.7790117319,34.9543512886,100
                135.779285062,34.9542069164,100
                135.7794543343,34.9541281347,100
                135.7796880319,34.9540437644,100
                135.7798471349,34.9540183485,100
                135.7799227668,34.9539872859,100
                135.7802079324,34.9538139874,100
                135.7803365933,34.9537685836,100
                135.7804125094,34.9537758344,100
                135.7804929491,34.9536807609,100
                135.7806722366,34.953688623,100
                135.7807172164,34.9536445452,100
                135.7806593215,34.9534249141,100
                135.7805807514,34.9531550277,100
                135.7805642182,34.9530982314,100
                135.780549617,34.9529896024,100
                135.7805084655,34.9528690231,100
                135.780467865,34.9528243669,100
                135.780387158,34.9524874263,100
                135.7803303223,34.9523050506,100
                135.780284066,34.9520831841,100
                135.7802669431,34.951891443,100
                135.7802967461,34.9517290865,100
                135.7803578439,34.951522064,100
                135.7804578764,34.9513242681,100
                135.7806173863,34.9511319328,100
                135.7807615221,34.9509715444,100
                135.7807938675,34.9508924407,100
                135.7807333165,34.950856059,100
                135.7806854771,34.9507837818,100
                135.7803107818,34.9510589746,100
                135.7800432714,34.9507863478,100
                135.7798961729,34.9508187593,100
                135.7794344398,34.950947296,100
                135.7788879436,34.9511153987,100
                135.7785751465,34.951235824,100
                135.7784215158,34.9514442259,100
                135.778189588,34.951508173,100
                135.7779708103,34.9510338503,100
                135.7777512518,34.9510054856,100
                135.777503937,34.9510260889,100
                135.7774470494,34.9511179658,100
                135.7773849387,34.9511795472,100
                135.7770574712,34.9513402982,100
                135.7767179745,34.9514479216,100
                135.7766408643,34.9510739383,100
                135.7765860548,34.9507338738,100
                135.7765299128,34.9504531081,100
                135.7764772652,34.9501697434,100
                135.7764287592,34.9499370236,100
                135.7763701367,34.9497642619,100
                135.7763135415,34.9495974811,100
                135.7762836853,34.9495095297,100
                135.7760749113,34.9490174733,100
                135.7758563927,34.9485646285,100
                135.7757372507,34.9483435402,100
                135.7758468217,34.9483099372,100
                135.7758285214,34.948276097,100
                135.7757236143,34.9480820801,100
                135.7756113403,34.9481028598,100
                135.7751601168,34.9472525702,100
                135.7748477512,34.9467127092,100
                135.7749226822,34.9467107353,100
                135.7752380591,34.9467025183,100
                135.7752150487,34.946412728,100
                135.7749993342,34.9464226799,100
                135.7749816401,34.9463214401,100
                135.7750741145,34.946315766,100
                135.7750980546,34.9460605031,100
                135.7748123564,34.9460048959,100
                135.7748698867,34.9458318864,100
                135.7745245632,34.9457283133,100
                135.77436416,34.945786562,100
                135.7742983113,34.9456604525,100
                135.7742616294,34.9456236897,100
                135.7737789916,34.9446943827,100
                135.77346876,34.944280871,100
                135.7733788221,34.9441775226,100
                135.7731516784,34.9441928728,100
                135.773200964,34.9443946767,100
                135.7730361389,34.9444623329,100
                135.7730040477,34.9444611457,100
                135.7729591603,34.9442058936,100
                135.7723520176,34.9442583495,100
                135.7721881875,34.9442734639,100
                135.7721649438,34.9441861573,100
                135.7720245813,34.944189909,100
                135.7719832318,34.9440443928,100
                135.7715882717,34.9440733018,100
                135.7716376096,34.9443499741,100
                135.7709966075,34.9444254641,100
                135.7709771225,34.9443476727,100
                135.7704856034,34.9443989338,100
                135.7698589068,34.9444890247,100
                135.7699471138,34.9448123232,100
                135.7700453359,34.9451724055,100
                135.7698636026,34.9452060079,100
                135.7698299468,34.9450871292,100
                135.7694521037,34.9451488833,100
                135.7694215636,34.9451039622,100
                135.7688688751,34.9451823558,100
                135.7689383171,34.945414061,100
                135.7685687021,34.9454770255,100
                135.7682807736,34.945514297,100
                135.76819826,34.9452938352,100
                135.7681428885,34.945298237,100
                135.7677690286,34.9453576689,100
                135.7675813062,34.9453678037,100
                135.7673372758,34.9453809996,100
                135.7669852533,34.9454930122,100
                135.7669071625,34.9455012434,100
                135.7663984569,34.9455551311,100
                135.7664030343,34.9456019757,100
                135.7661574761,34.9456325433,100
                135.7661584709,34.9456362686,100
                135.7661747321,34.9456948976,100
                135.7661823153,34.9457237603,100
                135.7661942478,34.9457643509,100
                135.76621402,34.9457945891,100
                135.766229108,34.9458275232,100
                135.7662508111,34.945897882,100
                135.766276046,34.9459730021,100
                135.7662768725,34.9459754611,100
                135.7662784607,34.9459823338,100
                135.7664393275,34.9459489498,100
                135.7665446533,34.9463041511,100
                135.7665790766,34.9464202603,100
                135.7666116414,34.9464330079,100
                135.7666475613,34.9465648583,100
                135.7668129046,34.9465273094,100
                135.7668498405,34.9466319543,100
                135.7669193564,34.9468340242,100
                135.7669235917,34.9468863193,100
                135.7670262828,34.9473394882,100
                135.76697691,34.9473504846,100
                135.7667580091,34.9473992376,100
                135.7667200604,34.9474054468,100
                135.766782437,34.9476081237,100
                135.766819535,34.9476007288,100
                135.7674793393,34.9474693033,100
                135.7675349693,34.9476606272,100
                135.7675452864,34.9476925831,100
                135.7676790712,34.9476639588,100
                135.7683752296,34.9475150291,100
                135.7683737945,34.9475120034,100
                135.7683144335,34.9473632824,100
                135.7682708772,34.9472682605,100
                135.7687478556,34.9471523261,100
                135.7688450693,34.9474415547,100
                135.7694548757,34.9473262234,100
                135.7694846845,34.9474289665,100
                135.7696924648,34.9474112602,100
                135.7697077508,34.9474597448,100
                135.7697872879,34.9474546832,100
                135.7698129319,34.9475629828,100
                135.7694956586,34.9476323178,100
                135.7695320387,34.9477638785,100
                135.7695008691,34.9477698065,100
                135.7691963274,34.9478274731,100
                135.7692539466,34.9480278141,100
                135.7691495484,34.9480540269,100
                135.7690835806,34.9480705945,100
                135.7690349756,34.9479288674,100
                135.7688766494,34.9479497662,100
                135.7689172634,34.9480783062,100
                135.7687014434,34.9481310842,100
                135.7686817401,34.9480548137,100
                135.7686176157,34.9480736517,100
                135.768663959,34.9481663543,100
                135.7684534499,34.9482505394,100
                135.7684037238,34.9481521247,100
                135.7682011843,34.9481913199,100
                135.7681673348,34.948091857,100
                135.768163997,34.948093098,100
                135.7681081299,34.9481047108,100
                135.7681102976,34.9481128287,100
                135.7681113879,34.9481146338,100
                135.7681254928,34.9481615389,100
                135.7681396001,34.9482075421,100
                135.76803554,34.9482271766,100
                135.7680224827,34.9482285542,100
                135.7679347887,34.9482378024,100
                135.7678570188,34.9482520776,100
                135.7677630493,34.9482786409,100
                135.7677406693,34.948297776,100
                135.7673804563,34.9483701643,100
                135.7673432099,34.9483782073,100
                135.7673355413,34.9483799946,100
                135.767332257,34.9483799883,100
                135.7672862481,34.9483898171,100
                135.7672665295,34.9483942868,100
                135.7671942316,34.9484094745,100
                135.7671734171,34.9484139421,100
                135.7671109787,34.9484264426,100
                135.7670594946,34.948437162,100
                135.7670418021,34.9484407684,100
                135.7670025323,34.9484487722,100
                135.7669873521,34.948394653,100
                135.7669775931,34.9483603774,100
                135.7669678377,34.9483242986,100
                135.7669564076,34.9482810543,100
                135.7669559186,34.9482792007,100
                135.7669277237,34.9481799815,100
                135.766923392,34.9481628444,100
                135.7669114617,34.9481213527,100
                135.766905736,34.9481023092,100
                135.7668939838,34.9481040925,100
                135.7665222556,34.9481619059,100
                135.7661466752,34.9482202032,100
                135.7661267154,34.9482233341,100
                135.7657795284,34.947050713,100
                135.765665961,34.9466467197,100
              </coordinates>
            </LinearRing>
          </outerBoundaryIs>
        </Polygon>
      </Placemark>
    </Document>
  </Document>
</kml>
