<?xml version="1.0" encoding="UTF-8"?>
<kml xmlns="http://www.opengis.net/kml/2.2">
  <Document id="root_doc">
    <Document id="_4_21______disv4326">
      <name>34_21稲荷disv4326</name>
      <Placemark id="_4_21______disv4326.1">
        <visibility>1</visibility>
        <Polygon>
          <extrude>0</extrude>
          <outerBoundaryIs>
            <LinearRing>
              <coordinates>
                135.7717701088,34.9647894525,100
                135.7714603057,34.9651687552,100
                135.771468493,34.965028971,100
                135.7715041656,34.9649748795,100
                135.7715060407,34.9648986802,100
                135.7714763138,34.9648983428,100
                135.7711222584,34.9648937995,100
                135.7709089019,34.9648841688,100
                135.7707704783,34.9648779206,100
                135.7707698853,34.9648677075,100
                135.7707700139,34.9648206614,100
                135.7707695714,34.9648106598,100
                135.7707973289,34.9648116291,100
                135.770811829,34.9648120786,100
                135.7708162857,34.9646995441,100
                135.7707934672,34.9646988664,100
                135.7706851504,34.9646954208,100
                135.7706751547,34.9650739307,100
                135.7704542549,34.9650771621,100
                135.7704541923,34.9650924773,100
                135.7704363686,34.9654308482,100
                135.7703935447,34.9660891964,100
                135.7706472725,34.9661031298,100
                135.7707101231,34.9661062769,100
                135.7705770378,34.966954327,100
                135.7703261379,34.9669455395,100
                135.7702622918,34.9676104671,100
                135.7702363976,34.9679202294,100
                135.7701814021,34.9685778497,100
                135.7701772251,34.9689627292,100
                135.7701763599,34.9690442823,100
                135.7700978648,34.9698394729,100
                135.7700984645,34.9700262485,100
                135.7700503613,34.9706000704,100
                135.7700516444,34.9708329772,100
                135.7700525574,34.9709984127,100
                135.7700267959,34.971211266,100
                135.7699549666,34.9715079114,100
                135.7697850099,34.9719730425,100
                135.7697005761,34.9721629653,100
                135.7695165576,34.9724673542,100
                135.7693402765,34.9726889347,100
                135.7691646938,34.9728889661,100
                135.7690974848,34.9729441232,100
                135.7688848549,34.9730902057,100
                135.7696280641,34.9730779626,100
                135.7699688648,34.9730770627,100
                135.770190895,34.973073893,100
                135.7701993825,34.9725318287,100
                135.770212072,34.9721728134,100
                135.7702200281,34.9719864069,100
                135.7702219023,34.971942746,100
                135.7702411737,34.9711819536,100
                135.7702579241,34.970869992,100
                135.7702761124,34.9704868299,100
                135.7702886555,34.9702657113,100
                135.7702684674,34.9700393892,100
                135.7705469154,34.9700204106,100
                135.7711946942,34.969976399,100
                135.7711940508,34.9701619287,100
                135.7712102752,34.9701625242,100
                135.7715451441,34.9701748032,100
                135.7715747867,34.9701758902,100
                135.771677369,34.9701808187,100
                135.7716902642,34.970182392,100
                135.771690424,34.9701992091,100
                135.7716817024,34.9706110528,100
                135.7713354306,34.9706371608,100
                135.7713228741,34.9708403904,100
                135.7713550558,34.9708437614,100
                135.7713501355,34.9709452381,100
                135.7712919571,34.9709537207,100
                135.7713082268,34.9711040433,100
                135.7714854837,34.9711019138,100
                135.7714888664,34.9711395291,100
                135.7717420829,34.9711425427,100
                135.7717440815,34.971201354,100
                135.7720016761,34.9711988116,100
                135.7719967565,34.9713867734,100
                135.771447537,34.9713835522,100
                135.7714439546,34.9715277809,100
                135.7714986723,34.9715654229,100
                135.7714669586,34.9717735461,100
                135.7714395725,34.9717847627,100
                135.7713868502,34.9724310467,100
                135.7712036651,34.9724571101,100
                135.7711479134,34.9725235585,100
                135.7711244093,34.972888822,100
                135.7711103341,34.9731076131,100
                135.7711545163,34.9733909562,100
                135.7711084625,34.9735632056,100
                135.7711190683,34.9738841633,100
                135.7712990439,34.9738904201,100
                135.7716460149,34.9738710752,100
                135.7717657725,34.9738722876,100
                135.7722196754,34.9738900471,100
                135.7723638495,34.9738956717,100
                135.7733826938,34.9740075929,100
                135.7733674023,34.9737474764,100
                135.7733303969,34.9731185605,100
                135.7733209716,34.9729585317,100
                135.7733747022,34.9728717954,100
                135.7736982085,34.9727963404,100
                135.7737099415,34.9727048777,100
                135.7737838969,34.9726847331,100
                135.773797654,34.9726122886,100
                135.7743546995,34.9726267123,100
                135.7744109491,34.9731026241,100
                135.7744145083,34.9741351665,100
                135.7747669279,34.9741411054,100
                135.7753186296,34.9740309281,100
                135.776016866,34.9739541197,100
                135.7762301951,34.9739906441,100
                135.7764786979,34.9739273673,100
                135.7768079972,34.973820997,100
                135.7768380953,34.9738204188,100
                135.7769576156,34.9738539515,100
                135.7770870133,34.9738902489,100
                135.7771095079,34.974556391,100
                135.7772468109,34.9747478532,100
                135.7767893499,34.9747701812,100
                135.7765980903,34.9746233394,100
                135.7762499583,34.9745962149,100
                135.7759851061,34.9746224169,100
                135.7754078138,34.9749558738,100
                135.7754459412,34.975119195,100
                135.7752022917,34.9751571263,100
                135.7752337188,34.9752571149,100
                135.7752472752,34.9753002466,100
                135.7752198505,34.9753406918,100
                135.7752504072,34.9753997667,100
                135.7752915389,34.9754793555,100
                135.7750350645,34.9755219103,100
                135.7751032083,34.9756347207,100
                135.7749443664,34.9756821743,100
                135.7749810205,34.975859649,100
                135.7749835739,34.9758720099,100
                135.7750164714,34.9760312752,100
                135.7752607819,34.9760107419,100
                135.7752950655,34.9765119676,100
                135.7753899778,34.9766781403,100
                135.7762585007,34.9765138924,100
                135.7762872073,34.9765380327,100
                135.7768096181,34.9763084171,100
                135.776999167,34.9762967235,100
                135.7771278376,34.9762771711,100
                135.7772949498,34.9761612031,100
                135.7775154076,34.9760687169,100
                135.7776922002,34.975867408,100
                135.777768357,34.9757282426,100
                135.7779020995,34.975482487,100
                135.7781716746,34.9755169986,100
                135.7784830936,34.9754593955,100
                135.7786330853,34.9753697348,100
                135.7788542643,34.9752536548,100
                135.7790480439,34.9751707631,100
                135.7790941327,34.9749872436,100
                135.7791695562,34.9748806861,100
                135.7794392628,34.9748072988,100
                135.7795015747,34.9747815675,100
                135.7795681364,34.9746779482,100
                135.779660513,34.9746559321,100
                135.779921321,34.9745820364,100
                135.780017879,34.9745400275,100
                135.7801658454,34.9744295156,100
                135.7802226804,34.9744042653,100
                135.7808530876,34.9742952606,100
                135.7809338712,34.9742728704,100
                135.7809920981,34.9742308606,100
                135.7811394274,34.9740849918,100
                135.7813163219,34.9738555091,100
                135.7815073388,34.973787753,100
                135.7815434848,34.9737633995,100
                135.7817580383,34.9736188301,100
                135.7819552694,34.9734474141,100
                135.7820234971,34.9733515449,100
                135.7822663015,34.9732478936,100
                135.7824997683,34.9730923882,100
                135.7826043189,34.9729854573,100
                135.7827662689,34.9728993345,100
                135.7828145072,34.9728310369,100
                135.7828343126,34.972692263,100
                135.7829506493,34.9725526029,100
                135.7830273007,34.972407239,100
                135.7832488255,34.9723174906,100
                135.7833662888,34.9722297385,100
                135.7834478607,34.9722069961,100
                135.783585901,34.9722425979,100
                135.7836371319,34.9722824121,100
                135.783753578,34.9722648715,100
                135.7839826171,34.9721808411,100
                135.7841329343,34.9720913852,100
                135.7841763535,34.9720257548,100
                135.7842131458,34.9719168006,100
                135.7843601827,34.9716491598,100
                135.7842988899,34.9714307979,100
                135.7843144082,34.9713273689,100
                135.7843921334,34.9712529259,100
                135.784445611,34.9712345708,100
                135.7846392942,34.971240339,100
                135.7848828064,34.9712816951,100
                135.785100778,34.9713668117,100
                135.7853736209,34.9714302651,100
                135.7854092557,34.971421384,100
                135.7855713003,34.9713123039,100
                135.7858184449,34.9713053514,100
                135.7861868923,34.971271856,100
                135.7864476831,34.9712733794,100
                135.7865874805,34.9712401072,100
                135.7869419448,34.9711200289,100
                135.7870309188,34.9711214566,100
                135.7874564025,34.9713330002,100
                135.7877608745,34.9715176364,100
                135.7878494999,34.9715966713,100
                135.7880529315,34.9714280815,100
                135.788304129,34.9712068257,100
                135.788359166,34.9711214253,100
                135.7883741223,34.9710599703,100
                135.7883635878,34.9708288142,100
                135.7882998165,34.9702937423,100
                135.7882992558,34.9700923242,100
                135.7883193366,34.9699508721,100
                135.7884070939,34.969747493,100
                135.7886660692,34.9692786182,100
                135.7887163723,34.9691436967,100
                135.7887325436,34.9690169543,100
                135.7886659017,34.9686839204,100
                135.7886842986,34.9685718311,100
                135.7887255718,34.968480276,100
                135.7887981581,34.9683727195,100
                135.7889242454,34.9682178601,100
                135.7891726129,34.9679848985,100
                135.7892811711,34.9678510665,100
                135.7893643106,34.9677135249,100
                135.7893776494,34.967631921,100
                135.7893574446,34.9675521606,100
                135.7892593128,34.967433808,100
                135.7891451197,34.9673420503,100
                135.7898250971,34.9669525101,100
                135.7899792794,34.9668514356,100
                135.7906296719,34.9663418276,100
                135.7908352849,34.9661902014,100
                135.7909881381,34.9660897566,100
                135.7912177236,34.9659902884,100
                135.7912665301,34.9658958582,100
                135.7912282346,34.9656340081,100
                135.7911947227,34.9654784429,100
                135.7911946422,34.9653647707,100
                135.7912883997,34.9651433651,100
                135.7913080591,34.9650728292,100
                135.7912584941,34.9649484365,100
                135.7910759975,34.9647672572,100
                135.7910326636,34.9647001335,100
                135.7910166418,34.964572488,100
                135.7911071194,34.9643623454,100
                135.7912485251,34.9641157393,100
                135.7912725436,34.9640126029,100
                135.7912612765,34.9638821486,100
                135.7911814698,34.9635345849,100
                135.7911860665,34.9634664883,100
                135.7912271855,34.9633062633,100
                135.7912364564,34.963121686,100
                135.7911416152,34.9629379836,100
                135.7910352504,34.9626058676,100
                135.7909910594,34.9624194356,100
                135.7909135094,34.9622485813,100
                135.7906583066,34.9618526103,100
                135.7905327821,34.9620011372,100
                135.7904277329,34.9621461776,100
                135.7903805302,34.9622580763,100
                135.7902917182,34.9623325769,100
                135.7902604611,34.9624054854,100
                135.7901198392,34.9625519433,100
                135.7899895462,34.962545377,100
                135.7898941997,34.9625900728,100
                135.7898468884,34.9626940137,100
                135.7898699715,34.9628367419,100
                135.7896743258,34.9628616844,100
                135.7895002435,34.9628588429,100
                135.7893689145,34.9628222726,100
                135.7892583561,34.9627496066,100
                135.7890904632,34.9625902844,100
                135.7890000747,34.962542165,100
                135.7888736976,34.9625180672,100
                135.7887442727,34.9625237551,100
                135.7886393741,34.9625730829,100
                135.7884391021,34.9626098457,100
                135.7883225989,34.9627150723,100
                135.7882450155,34.9627545857,100
                135.7881301765,34.9627764982,100
                135.7880259168,34.9627673699,100
                135.7878285323,34.9627106788,100
                135.7876572917,34.9627684795,100
                135.7874081176,34.9629441089,100
                135.787285121,34.9629700206,100
                135.7871870451,34.9629680861,100
                135.7871281148,34.9629634033,100
                135.786685755,34.9628771896,100
                135.7864456737,34.9628575362,100
                135.7857032514,34.9628824127,100
                135.7853009081,34.9628714822,100
                135.7850712055,34.9628579019,100
                135.7849411682,34.9628180178,100
                135.7848280856,34.9627639385,100
                135.7846001696,34.9626794391,100
                135.784179263,34.9625612832,100
                135.783967685,34.9624692073,100
                135.7839196495,34.9624117225,100
                135.7838603943,34.9622840715,100
                135.7837033629,34.962172373,100
                135.7836122462,34.9620348758,100
                135.7835363087,34.9619252236,100
                135.7833624158,34.9618334971,100
                135.7831555255,34.9616834649,100
                135.783045728,34.9615674142,100
                135.78281533,34.9614024778,100
                135.7827122841,34.9612801693,100
                135.7826447108,34.961136161,100
                135.7825524913,34.9609626701,100
                135.7824603947,34.9608908774,100
                135.7823079719,34.9608174968,100
                135.7820981173,34.96080599,100
                135.781970872,34.9608217479,100
                135.7818130745,34.9608085741,100
                135.7815600288,34.9607440253,100
                135.7812157315,34.9606706495,100
                135.7809659992,34.9606482224,100
                135.7807090393,34.9606004967,100
                135.7802492621,34.9605007076,100
                135.7800419677,34.9604260984,100
                135.7799446493,34.9605778351,100
                135.7796576598,34.9609417091,100
                135.7794266281,34.9611363038,100
                135.7791790417,34.9613231916,100
                135.779025977,34.9614551052,100
                135.7788963284,34.9615462845,100
                135.7787514767,34.9616281374,100
                135.7788994154,34.9616734825,100
                135.779016552,34.9617540565,100
                135.7790750124,34.961887905,100
                135.7790596693,34.962069792,100
                135.7791284859,34.9621934485,100
                135.7793194646,34.9624308582,100
                135.7791735142,34.962531726,100
                135.7791065539,34.9625959749,100
                135.7790660535,34.9626914707,100
                135.7790422938,34.9629099642,100
                135.779136832,34.9630610642,100
                135.7792090328,34.9632809312,100
                135.7792296184,34.9635367628,100
                135.7793253436,34.96372484,100
                135.7794050649,34.963842318,100
                135.7790613421,34.9644649749,100
                135.7783725723,34.9641472794,100
                135.7781466991,34.9642141221,100
                135.7779112981,34.9642838355,100
                135.777761513,34.9643526486,100
                135.7771319969,34.9643957161,100
                135.7766161349,34.9644133546,100
                135.776170296,34.9641259567,100
                135.7760440794,34.9641142432,100
                135.7761541434,34.9637992825,100
                135.7754521278,34.9636189506,100
                135.775360223,34.9636608243,100
                135.7747706579,34.9635380254,100
                135.7747163343,34.9634743981,100
                135.7746438026,34.9634301043,100
                135.7746335259,34.9632826797,100
                135.7742729188,34.9632680612,100
                135.7741059592,34.9632335201,100
                135.7741143207,34.9631940962,100
                135.7742669557,34.963084092,100
                135.7743070238,34.9627618893,100
                135.7741078344,34.9627277111,100
                135.7739227507,34.9627209559,100
                135.773845779,34.9627054583,100
                135.7738483434,34.9626429937,100
                135.7734882613,34.9626169639,100
                135.7731318111,34.9630671724,100
                135.7727116626,34.9635978296,100
                135.7724671853,34.9639065467,100
                135.7724402739,34.9639405126,100
                135.772090692,34.9643696738,100
                135.7719701976,34.9645262188,100
                135.7717701088,34.9647894525,100
              </coordinates>
            </LinearRing>
          </outerBoundaryIs>
        </Polygon>
      </Placemark>
    </Document>
  </Document>
</kml>
