<?xml version="1.0" encoding="UTF-8"?>
<kml xmlns="http://www.opengis.net/kml/2.2">
  <Document id="root_doc">
    <Document id="_4_25______disv4326">
      <name>34_25藤城disv4326</name>
      <Placemark id="_4_25______disv4326.1">
        <visibility>1</visibility>
        <Polygon>
          <extrude>0</extrude>
          <outerBoundaryIs>
            <LinearRing>
              <coordinates>
                135.7780357332,34.9415565982,100
                135.7779524544,34.9415007368,100
                135.7775972516,34.9412747078,100
                135.7774571318,34.9411754467,100
                135.7773117427,34.9413834406,100
                135.7773096333,34.941382147,100
                135.777266101,34.9414552432,100
                135.7771395756,34.9415403701,100
                135.7770305559,34.941554537,100
                135.7769428872,34.9415470504,100
                135.7767965267,34.9414906468,100
                135.7762684931,34.9410304669,100
                135.7758933247,34.9410402656,100
                135.7761195329,34.9422968011,100
                135.7762797981,34.9423109028,100
                135.7763076931,34.9428920715,100
                135.7765605048,34.9428957786,100
                135.7765281734,34.9428798721,100
                135.7766498822,34.9428634059,100
                135.7767901095,34.942804504,100
                135.7770200532,34.9427879545,100
                135.7770240026,34.9426439324,100
                135.7772554264,34.9426330906,100
                135.7772082514,34.9427742868,100
                135.7771392047,34.9427839481,100
                135.7770258304,34.9428521972,100
                135.776898076,34.9431444567,100
                135.7765142993,34.9431068411,100
                135.7764910346,34.9432130767,100
                135.7763063504,34.9432890104,100
                135.7760662883,34.9432008811,100
                135.7759238127,34.9433254181,100
                135.7758418352,34.9433574524,100
                135.7753287777,34.943653784,100
                135.7753837231,34.9437622073,100
                135.7754085522,34.9438657853,100
                135.7751726528,34.9439021815,100
                135.7745250883,34.9441853711,100
                135.7742470355,34.9442044596,100
                135.7735792164,34.9442503007,100
                135.77346876,34.944280871,100
                135.7737789916,34.9446943827,100
                135.7742616294,34.9456236897,100
                135.7742983113,34.9456604525,100
                135.77436416,34.945786562,100
                135.7745245632,34.9457283133,100
                135.7748698867,34.9458318864,100
                135.7748123564,34.9460048959,100
                135.7750980546,34.9460605031,100
                135.7750741145,34.946315766,100
                135.7749816401,34.9463214401,100
                135.7749993342,34.9464226799,100
                135.7752150487,34.946412728,100
                135.7752380591,34.9467025183,100
                135.7749226822,34.9467107353,100
                135.7748477512,34.9467127092,100
                135.7751601168,34.9472525702,100
                135.7756113403,34.9481028598,100
                135.7757236143,34.9480820801,100
                135.7758285214,34.948276097,100
                135.7758468217,34.9483099372,100
                135.7757372507,34.9483435402,100
                135.7758563927,34.9485646285,100
                135.7760749113,34.9490174733,100
                135.7762836853,34.9495095297,100
                135.7763135415,34.9495974811,100
                135.7763701367,34.9497642619,100
                135.7764287592,34.9499370236,100
                135.7764772652,34.9501697434,100
                135.7765299128,34.9504531081,100
                135.7765860548,34.9507338738,100
                135.7766408643,34.9510739383,100
                135.7767179745,34.9514479216,100
                135.7770574712,34.9513402982,100
                135.7773849387,34.9511795472,100
                135.7774470494,34.9511179658,100
                135.777503937,34.9510260889,100
                135.7777512518,34.9510054856,100
                135.7779708103,34.9510338503,100
                135.778189588,34.951508173,100
                135.7784215158,34.9514442259,100
                135.7785751465,34.951235824,100
                135.7788879436,34.9511153987,100
                135.7794344398,34.950947296,100
                135.7798961729,34.9508187593,100
                135.7800432714,34.9507863478,100
                135.7803107818,34.9510589746,100
                135.7806854771,34.9507837818,100
                135.7808814034,34.9506482785,100
                135.7810940719,34.9505378781,100
                135.7812732282,34.9504042459,100
                135.7814469777,34.9502194706,100
                135.7816256718,34.9500493544,100
                135.7819238829,34.9498522673,100
                135.7820068464,34.949804384,100
                135.7822306667,34.94957251,100
                135.7823969746,34.9494530092,100
                135.7826507528,34.9493287344,100
                135.7829017106,34.9492364302,100
                135.7831728999,34.9491266941,100
                135.7836457395,34.9489725963,100
                135.7838214182,34.9489088901,100
                135.7839344095,34.9487993633,100
                135.7841059538,34.9487715684,100
                135.7841395799,34.9489428431,100
                135.7841522047,34.949023155,100
                135.7841170443,34.9490595049,100
                135.7840832252,34.9493151747,100
                135.7840057511,34.9495829502,100
                135.7840535804,34.9496860744,100
                135.7840297468,34.9498077343,100
                135.7840494323,34.9499032017,100
                135.7839451743,34.9500002083,100
                135.7838617273,34.9501201417,100
                135.7838232214,34.9502183222,100
                135.7837579168,34.9503094822,100
                135.7836761196,34.9503950492,100
                135.7836418522,34.9504908427,100
                135.7835949454,34.9505874581,100
                135.7836266299,34.950656959,100
                135.7835945925,34.9507252883,100
                135.7836005404,34.9508743282,100
                135.7836192352,34.9510225457,100
                135.7836404338,34.9510447696,100
                135.7837631665,34.9510659074,100
                135.7838545026,34.9510302915,100
                135.7839648632,34.9510395039,100
                135.7840535332,34.9510095196,100
                135.7841335943,34.9509504308,100
                135.7841627859,34.9507072182,100
                135.78418369,34.9506266147,100
                135.7842502574,34.950526511,100
                135.7841854683,34.9503830715,100
                135.7843385806,34.9504144044,100
                135.7843999947,34.9503976108,100
                135.7845401613,34.9503239097,100
                135.7847328984,34.9502379766,100
                135.7849812107,34.9501611583,100
                135.7854608241,34.9498512775,100
                135.7855687305,34.9497739258,100
                135.7856873666,34.949731879,100
                135.7858792502,34.9496870745,100
                135.7861279543,34.9495894086,100
                135.786238877,34.9495117801,100
                135.7863529058,34.949507122,100
                135.7864442938,34.9495857426,100
                135.7870385531,34.9497947021,100
                135.7871557707,34.9498572393,100
                135.7872702211,34.9499739324,100
                135.7874040785,34.9501629198,100
                135.7874921973,34.9503090763,100
                135.7875706211,34.9505002195,100
                135.7876273571,34.9506003993,100
                135.7876045758,34.9506967773,100
                135.7875597486,34.9507247997,100
                135.7876818341,34.9507400157,100
                135.7878924442,34.9507152436,100
                135.7881993628,34.9506149279,100
                135.7883037843,34.9505875733,100
                135.7884985993,34.9505590386,100
                135.7886727408,34.9505205378,100
                135.7887967424,34.9504705382,100
                135.7889320998,34.950377597,100
                135.7892596639,34.9501444848,100
                135.7893466209,34.9500887158,100
                135.7894305354,34.950009841,100
                135.7895843779,34.9497757202,100
                135.7897477679,34.9496995183,100
                135.7898741056,34.9496726937,100
                135.7899910635,34.9496081728,100
                135.7900574351,34.9495496911,100
                135.7901918909,34.9493539904,100
                135.7905652246,34.9491484222,100
                135.790659648,34.9491426712,100
                135.7906908341,34.9491732907,100
                135.7909943733,34.9495617436,100
                135.7911204303,34.949674367,100
                135.7912175175,34.949715173,100
                135.7913231253,34.949726695,100
                135.7914589526,34.9496924196,100
                135.7916913857,34.9496612692,100
                135.7918784121,34.9496681428,100
                135.7919412856,34.9496575461,100
                135.7921463806,34.9495254222,100
                135.7923037897,34.9494115973,100
                135.7924365194,34.9494021079,100
                135.7920631314,34.9492234186,100
                135.7918174156,34.949092558,100
                135.7915988333,34.948945053,100
                135.7914374139,34.9487699679,100
                135.7913710013,34.9486304735,100
                135.7912936021,34.9483931331,100
                135.7912383343,34.9483037322,100
                135.7910790375,34.9481443564,100
                135.7909609231,34.9479350464,100
                135.7908885963,34.9477658197,100
                135.7908348741,34.9476047956,100
                135.7908572724,34.94740249,100
                135.7908521945,34.9468638364,100
                135.7909372075,34.9465385991,100
                135.7909755667,34.9462892754,100
                135.7910229978,34.9460809568,100
                135.7910353423,34.9459397666,100
                135.7909832406,34.9458418501,100
                135.7907672236,34.9456380034,100
                135.7905276985,34.9454643313,100
                135.7903817925,34.9454174519,100
                135.7901548412,34.9454502288,100
                135.7900075927,34.9454528596,100
                135.7898737791,34.9454356526,100
                135.7895949874,34.9453435368,100
                135.7893659708,34.9452349565,100
                135.7892628327,34.945161741,100
                135.7891532699,34.9450244222,100
                135.7890310688,34.9449130702,100
                135.7887533114,34.944749962,100
                135.7883328647,34.944435671,100
                135.788166519,34.9443040286,100
                135.7880187159,34.9442217171,100
                135.7887557239,34.9432317193,100
                135.7887622078,34.9432296871,100
                135.7891130834,34.9431215591,100
                135.7891739269,34.9430652517,100
                135.7891436007,34.9430249839,100
                135.7891471349,34.942920191,100
                135.7892258353,34.9427263661,100
                135.7892611836,34.9426133892,100
                135.7892361799,34.9424971363,100
                135.7892541162,34.9423184881,100
                135.7892528432,34.9421436794,100
                135.7892712613,34.9419439037,100
                135.7893101216,34.9418372001,100
                135.7894467158,34.9416201646,100
                135.7895292395,34.941547696,100
                135.7897864736,34.941380171,100
                135.7900962093,34.9411483638,100
                135.7901999284,34.9409783164,100
                135.7902185413,34.9408880588,100
                135.7901620763,34.9407919645,100
                135.7901186166,34.9406339858,100
                135.790011911,34.9406214042,100
                135.7899260583,34.9405801941,100
                135.7895980338,34.9405759597,100
                135.7894371817,34.9406263878,100
                135.7894007748,34.9405130031,100
                135.7890901352,34.9404216049,100
                135.7889206269,34.9405137115,100
                135.7888715186,34.9404948207,100
                135.7887591237,34.9405001177,100
                135.7886467491,34.9405656307,100
                135.7886043561,34.9406823994,100
                135.7885131579,34.9406928742,100
                135.7885050613,34.940741245,100
                135.7883898995,34.9407499163,100
                135.788379071,34.940677214,100
                135.7882157224,34.9404614843,100
                135.7880506976,34.9403938623,100
                135.7880794384,34.9402736204,100
                135.7880437336,34.9400340974,100
                135.7880782303,34.9398267427,100
                135.788071375,34.9397636259,100
                135.7880216594,34.9395555689,100
                135.7880118579,34.9394210501,100
                135.7877359473,34.9394156782,100
                135.7877030847,34.9394457493,100
                135.7876786911,34.9395101173,100
                135.7876160225,34.9396754776,100
                135.787605586,34.9396777399,100
                135.7876043754,34.9396811421,100
                135.7875742685,34.9397464123,100
                135.7874310137,34.9396541022,100
                135.787473045,34.9396099599,100
                135.7872511481,34.9394807434,100
                135.7870237939,34.9393563858,100
                135.7861143257,34.9388466262,100
                135.7857010799,34.938741445,100
                135.7856589889,34.9386453754,100
                135.785304204,34.9386233332,100
                135.7852066367,34.9386671073,100
                135.7850046683,34.9387183009,100
                135.7847865996,34.9387026284,100
                135.7847124221,34.9386796063,100
                135.784506177,34.9385798619,100
                135.7843116089,34.9384533748,100
                135.7840382487,34.9382866719,100
                135.7838947084,34.9381641491,100
                135.7837419533,34.938016748,100
                135.7836736398,34.9380671943,100
                135.7834281458,34.9382493068,100
                135.7834882376,34.9383373107,100
                135.7835713526,34.9385017714,100
                135.783629511,34.9385764612,100
                135.783534188,34.9385869249,100
                135.7834156851,34.9386490416,100
                135.7833520311,34.9387077365,100
                135.783317654,34.9387816251,100
                135.7833153255,34.9389308616,100
                135.7833551283,34.9391101057,100
                135.7835123342,34.9393899925,100
                135.7835445681,34.9395106257,100
                135.7835351772,34.9396794993,100
                135.7834890775,34.9398220357,100
                135.7832342214,34.9402016155,100
                135.7830492641,34.9405215969,100
                135.7835114683,34.9406728646,100
                135.7836668467,34.9407237114,100
                135.7836679364,34.9407242768,100
                135.7836668439,34.9407248383,100
                135.7836033303,34.9409045308,100
                135.7832940709,34.9414614246,100
                135.7834059312,34.9414319751,100
                135.7834469432,34.9414480367,100
                135.7836647773,34.9415329427,100
                135.7839497054,34.9416190952,100
                135.7839452272,34.9417904408,100
                135.7839153217,34.9420303415,100
                135.7838649017,34.9422316783,100
                135.7838380212,34.9423914346,100
                135.7837969223,34.9425179232,100
                135.7837152141,34.9426796937,100
                135.7836618606,34.9426734003,100
                135.7830495987,34.9426015204,100
                135.7829352392,34.9425880753,100
                135.7826482399,34.9425612372,100
                135.7820359986,34.9425039822,100
                135.7814862018,34.9424209388,100
                135.7810463567,34.9422781561,100
                135.7803325522,34.9419766877,100
                135.7801794112,34.9419120374,100
                135.7790652192,34.9417808353,100
                135.7786130198,34.9417702167,100
                135.7783007245,34.9418158456,100
                135.7780459992,34.9418335491,100
                135.7778532393,34.9417153865,100
                135.7780357332,34.9415565982,100
              </coordinates>
            </LinearRing>
          </outerBoundaryIs>
        </Polygon>
      </Placemark>
    </Document>
  </Document>
</kml>
