<?xml version="1.0" encoding="UTF-8"?>
<kml xmlns="http://www.opengis.net/kml/2.2">
  <Document id="root_doc">
    <Document id="_6_27_________disv4326">
      <name>36_27醍醐西disv4326</name>
      <Placemark id="_6_27_________disv4326.1">
        <visibility>1</visibility>
        <Polygon>
          <extrude>0</extrude>
          <outerBoundaryIs>
            <LinearRing>
              <coordinates>
                135.8162058974,34.9517830173,100
                135.8160443158,34.9511345422,100
                135.8159803445,34.9508777997,100
                135.8158772487,34.9504536595,100
                135.8157664596,34.9499978833,100
                135.8157849015,34.9499455822,100
                135.8159163206,34.9498514762,100
                135.8159018711,34.9497810953,100
                135.8156744928,34.9498218114,100
                135.8150006367,34.9499793252,100
                135.8147728868,34.9500226452,100
                135.8147636251,34.9500237576,100
                135.8143308053,34.9500760608,100
                135.8138719159,34.9501197306,100
                135.8134109437,34.9501481817,100
                135.8131067074,34.9496928113,100
                135.8129286883,34.9493489127,100
                135.8123801064,34.949455191,100
                135.8120623113,34.9494981554,100
                135.8118504843,34.949497547,100
                135.8116705161,34.9494893809,100
                135.8110403327,34.949490938,100
                135.8107959074,34.9495228154,100
                135.8106841869,34.9495373613,100
                135.8103072753,34.9495099401,100
                135.8102916668,34.9495087888,100
                135.8089472918,34.9493884977,100
                135.8086634863,34.9493617793,100
                135.8086255814,34.9493581978,100
                135.8082173922,34.9493198714,100
                135.8075824166,34.9492599831,100
                135.8076958311,34.9497542256,100
                135.8077203589,34.9500793665,100
                135.8077403214,34.9503440723,100
                135.8077898191,34.95064425,100
                135.8078213396,34.9508297411,100
                135.8078504164,34.9509250783,100
                135.8079639445,34.9512788135,100
                135.8081332748,34.9515157249,100
                135.8083859787,34.9518665822,100
                135.8084709691,34.9519836302,100
                135.8086581679,34.9522070468,100
                135.8090852595,34.9526257203,100
                135.8092669201,34.9527945445,100
                135.8092956873,34.9527917023,100
                135.8095113678,34.9530742523,100
                135.8097304814,34.9533613141,100
                135.8098279731,34.9536529729,100
                135.8098417952,34.9537716669,100
                135.8098835746,34.9537648302,100
                135.8099651002,34.9539127177,100
                135.8100895795,34.9541384968,100
                135.8102578908,34.9544437869,100
                135.8104921393,34.9548686276,100
                135.8108853292,34.9556217729,100
                135.811169782,34.9556000298,100
                135.8119491525,34.9555404558,100
                135.8119339655,34.9554278863,100
                135.8121805737,34.9553927003,100
                135.8121547375,34.9556219072,100
                135.8122185897,34.9557947673,100
                135.8122577966,34.9559529407,100
                135.8122886873,34.9560244038,100
                135.8127284974,34.9560252212,100
                135.8128676185,34.9560881872,100
                135.8128981521,34.9557756712,100
                135.8128076109,34.9556496047,100
                135.8127817433,34.9550645823,100
                135.8129442478,34.9548172041,100
                135.8129589468,34.9547948308,100
                135.8131164774,34.9547721124,100
                135.8131760319,34.9547355109,100
                135.8134260201,34.9546604644,100
                135.8136914823,34.9546848878,100
                135.8140693208,34.954719623,100
                135.8140284144,34.9549100002,100
                135.8140730199,34.9549311975,100
                135.814121634,34.9549769097,100
                135.8141451022,34.9551835128,100
                135.8141781574,34.9554745758,100
                135.8142090309,34.9557464073,100
                135.8142155745,34.9558039577,100
                135.8139072662,34.9557929232,100
                135.8135351836,34.955687344,100
                135.8133110992,34.9563693157,100
                135.8135338266,34.9564469173,100
                135.8134794791,34.9565934676,100
                135.813820859,34.9566401911,100
                135.8140043496,34.9565622954,100
                135.8141407078,34.9565514457,100
                135.8143154596,34.9565556562,100
                135.8144517963,34.9565352288,100
                135.8148082809,34.9565978191,100
                135.8148731534,34.9564874149,100
                135.8149083677,34.9563078045,100
                135.8150418554,34.9562406064,100
                135.8151891405,34.9562195604,100
                135.815303627,34.9562341021,100
                135.8154564497,34.9562333472,100
                135.8157277266,34.9561839653,100
                135.8158865137,34.9560965211,100
                135.8160180208,34.9560636887,100
                135.8160667014,34.9560798904,100
                135.8165244066,34.955275792,100
                135.8165459888,34.9549243855,100
                135.8166048946,34.9549186986,100
                135.816575267,34.9547482158,100
                135.8165936786,34.9546608414,100
                135.8166989919,34.9544699279,100
                135.8168117829,34.9542333157,100
                135.8169343625,34.9541938482,100
                135.817093722,34.9539313886,100
                135.81707582,34.9538446639,100
                135.8168214276,34.9528810245,100
                135.8166280102,34.9521975677,100
                135.816622212,34.9521770789,100
                135.8165402687,34.9518875462,100
                135.8162581111,34.9519316318,100
                135.8162058974,34.9517830173,100
              </coordinates>
            </LinearRing>
          </outerBoundaryIs>
        </Polygon>
      </Placemark>
    </Document>
  </Document>
</kml>
