<?xml version="1.0" encoding="UTF-8"?>
<kml xmlns="http://www.opengis.net/kml/2.2">
  <Document id="root_doc">
    <Document id="_6_26_________disv4326">
      <name>36_26北醍醐disv4326</name>
      <Placemark id="_6_26_________disv4326.1">
        <visibility>1</visibility>
        <Polygon>
          <extrude>0</extrude>
          <outerBoundaryIs>
            <LinearRing>
              <coordinates>
                135.8210543675,34.9563825569,100
                135.8207838297,34.9563884977,100
                135.8207730081,34.9563887377,100
                135.8199921855,34.9564059941,100
                135.8199762094,34.9562979336,100
                135.8199514913,34.9562959949,100
                135.8199458324,34.9561535804,100
                135.8198655377,34.9561500812,100
                135.8195459786,34.9561488329,100
                135.8193208633,34.9561468259,100
                135.8193315373,34.9560333647,100
                135.8192251825,34.9560271495,100
                135.8191954728,34.9560249926,100
                135.8192035483,34.9559199965,100
                135.8191707936,34.9559118481,100
                135.819120053,34.9559034621,100
                135.8191416881,34.9557689057,100
                135.8189024647,34.9557472796,100
                135.8188844543,34.9558183154,100
                135.8186552012,34.9557705053,100
                135.8186251298,34.9558456079,100
                135.8185591225,34.9560522881,100
                135.8185202911,34.956102397,100
                135.8184950114,34.9561350167,100
                135.8183908086,34.9561802879,100
                135.8178279546,34.9561751512,100
                135.8173963143,34.9561590109,100
                135.8170184657,34.9561449216,100
                135.8165999865,34.9561292905,100
                135.8164438369,34.9561751156,100
                135.8163604075,34.9562449961,100
                135.816080734,34.9560877996,100
                135.8160667014,34.9560798904,100
                135.8160180208,34.9560636887,100
                135.8158865137,34.9560965211,100
                135.8157277266,34.9561839653,100
                135.8154564497,34.9562333472,100
                135.815303627,34.9562341021,100
                135.8151891405,34.9562195604,100
                135.8150418554,34.9562406064,100
                135.8149083677,34.9563078045,100
                135.8148731534,34.9564874149,100
                135.8148082809,34.9565978191,100
                135.8144517963,34.9565352288,100
                135.8143154596,34.9565556562,100
                135.8141407078,34.9565514457,100
                135.8140043496,34.9565622954,100
                135.813820859,34.9566401911,100
                135.8134794791,34.9565934676,100
                135.8134367724,34.9567944056,100
                135.8133883299,34.9568918754,100
                135.8132538792,34.9574261541,100
                135.8134190794,34.9574473246,100
                135.8133789567,34.9575824865,100
                135.8133676815,34.9577379058,100
                135.813203231,34.9577448381,100
                135.8131878807,34.9579238448,100
                135.81296032,34.9579111707,100
                135.8126608629,34.9579166273,100
                135.8126393215,34.9580810446,100
                135.81260643,34.9580810655,100
                135.8126011535,34.958173952,100
                135.8126984972,34.9581862864,100
                135.8127173507,34.9583325263,100
                135.8126570759,34.9583467313,100
                135.8125716526,34.9587120549,100
                135.8125657782,34.958755429,100
                135.8125394834,34.9587621503,100
                135.812530719,34.9587643905,100
                135.8125000602,34.9587643433,100
                135.8124913006,34.9587643299,100
                135.8123270659,34.9587309718,100
                135.8123270198,34.9587309624,100
                135.8121700943,34.9586990887,100
                135.812170349,34.9587007399,100
                135.8122173694,34.9590060422,100
                135.8129736571,34.9589350157,100
                135.8130536694,34.9588652025,100
                135.8130537743,34.9589045735,100
                135.8131012484,34.9589253507,100
                135.8133037222,34.9589100967,100
                135.8133166507,34.9590295638,100
                135.8134070882,34.9590790729,100
                135.8140148064,34.9590270383,100
                135.8140859981,34.9590091171,100
                135.8142017839,34.9589800657,100
                135.8142957868,34.9590328197,100
                135.8144458703,34.9587366134,100
                135.8146723111,34.9585707459,100
                135.8148746612,34.9586498631,100
                135.8149076553,34.9583920729,100
                135.8149516014,34.9581325391,100
                135.8154045833,34.9581397763,100
                135.8154458598,34.9582066752,100
                135.8156273636,34.9581670877,100
                135.8157677686,34.9581251831,100
                135.8158450993,34.9580874098,100
                135.8159278567,34.9580123868,100
                135.8161130023,34.9577566578,100
                135.8168326113,34.9577673197,100
                135.8169231799,34.9577675262,100
                135.817366422,34.9577684025,100
                135.8176413877,34.9578423418,100
                135.8176229932,34.9581957958,100
                135.8176059848,34.958325571,100
                135.817602114,34.9583551447,100
                135.8174708046,34.9594000393,100
                135.8172386134,34.9599076942,100
                135.8171319042,34.9601279056,100
                135.8170744782,34.9602464211,100
                135.8172937136,34.9604893761,100
                135.818859564,34.9605068535,100
                135.8189582374,34.9608135052,100
                135.8190727687,34.9608550868,100
                135.8192457745,34.9609597896,100
                135.819466314,34.9609490577,100
                135.8196081021,34.9609116588,100
                135.8197773669,34.9609266281,100
                135.8199460501,34.9609686429,100
                135.8201385992,34.9609655454,100
                135.8201393871,34.9610167473,100
                135.8199971392,34.9611435907,100
                135.8199493764,34.9612399369,100
                135.8198929667,34.9614488152,100
                135.8198234789,34.961637531,100
                135.8197968406,34.9616735508,100
                135.8196454269,34.9616860755,100
                135.819353101,34.9618092435,100
                135.81903747,34.9619301234,100
                135.8190822752,34.962362408,100
                135.8190615321,34.96260331,100
                135.8190219554,34.9629629976,100
                135.8192395508,34.9629767007,100
                135.819221986,34.9632010587,100
                135.8191362605,34.9632183979,100
                135.8191862929,34.9635751192,100
                135.8196548343,34.9634676346,100
                135.8199343139,34.9634216345,100
                135.8200025613,34.9636105524,100
                135.8197403111,34.9636931303,100
                135.8193973404,34.9641585748,100
                135.8193531267,34.9643043668,100
                135.8193885785,34.9645255613,100
                135.8197063437,34.9644474348,100
                135.8197912562,34.964420304,100
                135.8202357824,34.9642286897,100
                135.8203964021,34.9641594152,100
                135.8204765339,34.9641384745,100
                135.8210732666,34.964103291,100
                135.8211949326,34.9640917072,100
                135.8212316717,34.964088239,100
                135.8213914459,34.9640833315,100
                135.8219538892,34.9641454255,100
                135.8223345284,34.9641468392,100
                135.8223189278,34.9633176914,100
                135.8222035107,34.9632888925,100
                135.8219285576,34.9632077111,100
                135.8217644941,34.9630785188,100
                135.8215148825,34.9629893441,100
                135.8217031453,34.9629085566,100
                135.8217330117,34.9627734491,100
                135.8218940265,34.9627675568,100
                135.822384441,34.9626751629,100
                135.8225906644,34.9626574309,100
                135.822725676,34.9626662177,100
                135.8231117646,34.9627962901,100
                135.8232350941,34.9627916084,100
                135.823375263,34.9626427838,100
                135.8235396403,34.9626047774,100
                135.8236191304,34.962613132,100
                135.8238187043,34.9626803947,100
                135.8240160476,34.9626851845,100
                135.8241758333,34.9627356279,100
                135.8242458421,34.9627929851,100
                135.8242741453,34.9628862718,100
                135.8243462327,34.9629520134,100
                135.8249237143,34.9631830643,100
                135.8251300418,34.9632232901,100
                135.8253759951,34.9631993422,100
                135.8254060662,34.9631688897,100
                135.8253923259,34.9631430232,100
                135.8253824964,34.9630310287,100
                135.8252601575,34.9628533774,100
                135.8252473762,34.9626496119,100
                135.8252012809,34.9625652451,100
                135.8251209248,34.9624849132,100
                135.825037926,34.9624365528,100
                135.824923421,34.9623990632,100
                135.8245436343,34.9623337287,100
                135.8245138118,34.9621593066,100
                135.8244648064,34.9620001409,100
                135.8244096705,34.9618622346,100
                135.8243964348,34.9617486157,100
                135.8244917673,34.9614743646,100
                135.8245760873,34.9611641081,100
                135.8245984329,34.9610436373,100
                135.8245948006,34.9609406665,100
                135.8245018373,34.9607347418,100
                135.8244352157,34.9606493575,100
                135.8242143578,34.9605654444,100
                135.8240997421,34.9604809062,100
                135.8239637076,34.9602142106,100
                135.8237256696,34.9598825743,100
                135.8236912158,34.9597908981,100
                135.8236779257,34.9596687562,100
                135.8236914248,34.9595713737,100
                135.8237268572,34.959472754,100
                135.8237904562,34.9593734703,100
                135.8239490218,34.9592186147,100
                135.8240405672,34.9590873278,100
                135.824028066,34.9590063162,100
                135.8239222663,34.9588849572,100
                135.8235798669,34.958679378,100
                135.8234552696,34.9587448385,100
                135.8233114866,34.9588013963,100
                135.8231214974,34.9587222427,100
                135.8229493577,34.9583453437,100
                135.8231891253,34.9582971645,100
                135.8231497143,34.9581391362,100
                135.8231369525,34.9579398763,100
                135.8230086808,34.9578882779,100
                135.822854351,34.9578209367,100
                135.8228260556,34.9577314523,100
                135.8230000978,34.9577154347,100
                135.8230821096,34.9576061778,100
                135.8230387053,34.9575060369,100
                135.8229001843,34.9574673823,100
                135.8227645211,34.9574828208,100
                135.8226929798,34.9573494677,100
                135.8226019128,34.9573924371,100
                135.8223490935,34.9574242572,100
                135.8217000628,34.9577004466,100
                135.8215865718,34.9575142788,100
                135.8214928504,34.9572735577,100
                135.8214223526,34.9570039949,100
                135.8211791168,34.9570268796,100
                135.8210572446,34.9563973511,100
                135.8210543675,34.9563825569,100
              </coordinates>
            </LinearRing>
          </outerBoundaryIs>
        </Polygon>
      </Placemark>
    </Document>
  </Document>
</kml>
