<?xml version="1.0" encoding="UTF-8"?>
<kml xmlns="http://www.opengis.net/kml/2.2">
  <Document id="root_doc">
    <Document id="_6_29______disv4326">
      <name>36_29池田disv4326</name>
      <Placemark id="_6_29______disv4326.1">
        <visibility>1</visibility>
        <Polygon>
          <extrude>0</extrude>
          <outerBoundaryIs>
            <LinearRing>
              <coordinates>
                135.8077428641,34.9438637925,100
                135.8069911454,34.9432162622,100
                135.805804844,34.9421919366,100
                135.8053194608,34.9417747762,100
                135.8046203914,34.9411839412,100
                135.8042551217,34.940875221,100
                135.8038983738,34.941238343,100
                135.8036036061,34.9415383881,100
                135.8036015709,34.9415403574,100
                135.8033688556,34.9417657766,100
                135.8031544946,34.9420149605,100
                135.8030177693,34.9422003912,100
                135.8029831269,34.9422473813,100
                135.8028687966,34.9424024227,100
                135.8027158697,34.9426211389,100
                135.8025559916,34.9428497751,100
                135.8022256024,34.9433631609,100
                135.8022378478,34.9433750131,100
                135.8019075497,34.9438658606,100
                135.8020631541,34.9439818306,100
                135.8017713712,34.944432807,100
                135.8022510118,34.9447548924,100
                135.8023570287,34.9448448629,100
                135.8023784794,34.9448632823,100
                135.8025085585,34.9449749828,100
                135.80272268,34.9451588705,100
                135.8027461816,34.9451848846,100
                135.8027387316,34.9451903786,100
                135.8024425576,34.9453623559,100
                135.8029977496,34.9460948323,100
                135.8034890887,34.9466225134,100
                135.8041234041,34.9473038188,100
                135.8046425913,34.9478614729,100
                135.804716654,34.947947869,100
                135.804818689,34.9480969923,100
                135.8048972281,34.9482819256,100
                135.8049152358,34.9483266058,100
                135.8049432355,34.9483959534,100
                135.8051168585,34.9486205508,100
                135.8052873219,34.9487889408,100
                135.8055881004,34.9490652255,100
                135.8069199736,34.9491953295,100
                135.8074854632,34.9492505327,100
                135.8075824166,34.9492599831,100
                135.8082173922,34.9493198714,100
                135.8086255814,34.9493581978,100
                135.8086634863,34.9493617793,100
                135.8089472918,34.9493884977,100
                135.8102916668,34.9495087888,100
                135.8099872467,34.9483346782,100
                135.8099296753,34.9481495708,100
                135.8095992363,34.9471369119,100
                135.809447077,34.9466482448,100
                135.8092902557,34.9461230167,100
                135.8091447834,34.945619569,100
                135.809028425,34.9452146973,100
                135.8090014826,34.945168031,100
                135.8087674788,34.9447628318,100
                135.8086837633,34.9446893821,100
                135.8080575119,34.9441398841,100
                135.8080340392,34.9441192808,100
                135.8077428641,34.9438637925,100
              </coordinates>
            </LinearRing>
          </outerBoundaryIs>
        </Polygon>
      </Placemark>
    </Document>
  </Document>
</kml>
