<?xml version="1.0" encoding="UTF-8"?>
<kml xmlns="http://www.opengis.net/kml/2.2">
  <Document id="root_doc">
    <Document id="_6_28______disv4326">
      <name>36_28醍醐disv4326</name>
      <Placemark id="_6_28______disv4326.1">
        <visibility>1</visibility>
        <Polygon>
          <extrude>0</extrude>
          <outerBoundaryIs>
            <LinearRing>
              <coordinates>
                135.8142853305,34.945242139,100
                135.8142610016,34.9456331262,100
                135.8142281387,34.9462467976,100
                135.8142318324,34.9463261073,100
                135.8142471917,34.9465824939,100
                135.8142794604,34.9468503858,100
                135.8143189816,34.9472421746,100
                135.8143206464,34.947281688,100
                135.8143002993,34.9478835716,100
                135.8142848236,34.9483413144,100
                135.8142828712,34.9483724412,100
                135.8142797216,34.9484136591,100
                135.8142668817,34.9485815927,100
                135.8143052794,34.9488342117,100
                135.8143595898,34.9491914416,100
                135.8143736056,34.9492835841,100
                135.8132708267,34.9493021097,100
                135.8129286883,34.9493489127,100
                135.8131067074,34.9496928113,100
                135.8134109437,34.9501481817,100
                135.8138719159,34.9501197306,100
                135.8143308053,34.9500760608,100
                135.8147636251,34.9500237576,100
                135.8147728868,34.9500226452,100
                135.8150006367,34.9499793252,100
                135.8156744928,34.9498218114,100
                135.8159018711,34.9497810953,100
                135.8159163206,34.9498514762,100
                135.8157849015,34.9499455822,100
                135.8157664596,34.9499978833,100
                135.8158772487,34.9504536595,100
                135.8159803445,34.9508777997,100
                135.8160443158,34.9511345422,100
                135.8162058974,34.9517830173,100
                135.8162581111,34.9519316318,100
                135.8165402687,34.9518875462,100
                135.816622212,34.9521770789,100
                135.8166280102,34.9521975677,100
                135.8168214276,34.9528810245,100
                135.81707582,34.9538446639,100
                135.817093722,34.9539313886,100
                135.8169343625,34.9541938482,100
                135.8168117829,34.9542333157,100
                135.8166989919,34.9544699279,100
                135.8165936786,34.9546608414,100
                135.816575267,34.9547482158,100
                135.8166048946,34.9549186986,100
                135.8165459888,34.9549243855,100
                135.8165244066,34.955275792,100
                135.8160667014,34.9560798904,100
                135.816080734,34.9560877996,100
                135.8163604075,34.9562449961,100
                135.8164438369,34.9561751156,100
                135.8165999865,34.9561292905,100
                135.8170184657,34.9561449216,100
                135.8173963143,34.9561590109,100
                135.8178279546,34.9561751512,100
                135.8183908086,34.9561802879,100
                135.8184950114,34.9561350167,100
                135.8185202911,34.956102397,100
                135.8185591225,34.9560522881,100
                135.8186251298,34.9558456079,100
                135.8186552012,34.9557705053,100
                135.8188844543,34.9558183154,100
                135.8189024647,34.9557472796,100
                135.8191416881,34.9557689057,100
                135.819120053,34.9559034621,100
                135.8191707936,34.9559118481,100
                135.8192035483,34.9559199965,100
                135.8191954728,34.9560249926,100
                135.8192251825,34.9560271495,100
                135.8193315373,34.9560333647,100
                135.8193208633,34.9561468259,100
                135.8195459786,34.9561488329,100
                135.8198655377,34.9561500812,100
                135.8199458324,34.9561535804,100
                135.8199514913,34.9562959949,100
                135.8199762094,34.9562979336,100
                135.8199921855,34.9564059941,100
                135.8207730081,34.9563887377,100
                135.8207838297,34.9563884977,100
                135.8210543675,34.9563825569,100
                135.8210572446,34.9563973511,100
                135.8211791168,34.9570268796,100
                135.8214223526,34.9570039949,100
                135.8214928504,34.9572735577,100
                135.8215865718,34.9575142788,100
                135.8217000628,34.9577004466,100
                135.8223490935,34.9574242572,100
                135.8226019128,34.9573924371,100
                135.8226929798,34.9573494677,100
                135.8227645211,34.9574828208,100
                135.8229001843,34.9574673823,100
                135.8230387053,34.9575060369,100
                135.8230821096,34.9576061778,100
                135.8230000978,34.9577154347,100
                135.8228260556,34.9577314523,100
                135.822854351,34.9578209367,100
                135.8230086808,34.9578882779,100
                135.8231369525,34.9579398763,100
                135.8231497143,34.9581391362,100
                135.8231891253,34.9582971645,100
                135.8229493577,34.9583453437,100
                135.8231214974,34.9587222427,100
                135.8233114866,34.9588013963,100
                135.8234552696,34.9587448385,100
                135.8235798669,34.958679378,100
                135.8239222663,34.9588849572,100
                135.824028066,34.9590063162,100
                135.8240405672,34.9590873278,100
                135.8239490218,34.9592186147,100
                135.8237904562,34.9593734703,100
                135.8237268572,34.959472754,100
                135.8236914248,34.9595713737,100
                135.8236779257,34.9596687562,100
                135.8236912158,34.9597908981,100
                135.8237256696,34.9598825743,100
                135.8239637076,34.9602142106,100
                135.8240997421,34.9604809062,100
                135.8242143578,34.9605654444,100
                135.8244352157,34.9606493575,100
                135.8245018373,34.9607347418,100
                135.8245948006,34.9609406665,100
                135.8245984329,34.9610436373,100
                135.8245760873,34.9611641081,100
                135.8244917673,34.9614743646,100
                135.8243964348,34.9617486157,100
                135.8244096705,34.9618622346,100
                135.8244648064,34.9620001409,100
                135.8245138118,34.9621593066,100
                135.8245436343,34.9623337287,100
                135.824923421,34.9623990632,100
                135.825037926,34.9624365528,100
                135.8251209248,34.9624849132,100
                135.8252012809,34.9625652451,100
                135.8252473762,34.9626496119,100
                135.8252601575,34.9628533774,100
                135.8253824964,34.9630310287,100
                135.8253923259,34.9631430232,100
                135.8254060662,34.9631688897,100
                135.8253759951,34.9631993422,100
                135.8251300418,34.9632232901,100
                135.8249237143,34.9631830643,100
                135.8243462327,34.9629520134,100
                135.8242741453,34.9628862718,100
                135.8242458421,34.9627929851,100
                135.8241758333,34.9627356279,100
                135.8240160476,34.9626851845,100
                135.8238187043,34.9626803947,100
                135.8236191304,34.962613132,100
                135.8235396403,34.9626047774,100
                135.823375263,34.9626427838,100
                135.8232350941,34.9627916084,100
                135.8231117646,34.9627962901,100
                135.822725676,34.9626662177,100
                135.8225906644,34.9626574309,100
                135.822384441,34.9626751629,100
                135.8218940265,34.9627675568,100
                135.8217330117,34.9627734491,100
                135.8217031453,34.9629085566,100
                135.8215148825,34.9629893441,100
                135.8217644941,34.9630785188,100
                135.8219285576,34.9632077111,100
                135.8222035107,34.9632888925,100
                135.8223189278,34.9633176914,100
                135.8223345284,34.9641468392,100
                135.8228248251,34.9641486553,100
                135.823149917,34.9641601098,100
                135.8237304412,34.9642088328,100
                135.8242820448,34.9642753999,100
                135.824749778,34.9643662136,100
                135.8251836205,34.964473951,100
                135.8257499485,34.9645939161,100
                135.8258695513,34.9646245099,100
                135.8260009625,34.9647198432,100
                135.8260612596,34.9647794402,100
                135.8261849378,34.9648145468,100
                135.8263435974,34.9647722316,100
                135.8264640529,34.9647161296,100
                135.8266143905,34.9645453436,100
                135.8269368069,34.9643628255,100
                135.8274664275,34.9641494685,100
                135.8279009211,34.9639990807,100
                135.8281093357,34.9640555722,100
                135.828199985,34.9641040823,100
                135.8283105866,34.9642161452,100
                135.8284630213,34.9643922852,100
                135.8285674205,34.9645776546,100
                135.8286350751,34.9647374082,100
                135.8286949989,34.965059204,100
                135.8287268231,34.9651692558,100
                135.8287908095,34.9652828027,100
                135.8289989958,34.9655054314,100
                135.8291537364,34.9657276329,100
                135.8292269288,34.9658109085,100
                135.829953978,34.9662969456,100
                135.8303528437,34.9664966634,100
                135.8304576068,34.9665744182,100
                135.8306830546,34.9668539712,100
                135.8308352903,34.9671235641,100
                135.831019569,34.9673386904,100
                135.8312022026,34.9675110636,100
                135.8314187006,34.9676543969,100
                135.8315912949,34.9677304125,100
                135.8319018608,34.9678529555,100
                135.8319733849,34.9678961547,100
                135.8321192958,34.9680423485,100
                135.8322817012,34.9682511736,100
                135.8324809371,34.9684084968,100
                135.8326819767,34.9685184944,100
                135.8328997046,34.968606048,100
                135.8331128171,34.9686745092,100
                135.8335485832,34.968742072,100
                135.8339819938,34.9687032153,100
                135.8340770161,34.9687241188,100
                135.8343967089,34.9689682956,100
                135.834563887,34.9691095839,100
                135.8347920877,34.9693870897,100
                135.8348933191,34.9694861755,100
                135.8351709539,34.9696374009,100
                135.8354245825,34.9697385201,100
                135.8356103638,34.9697851789,100
                135.8358590193,34.9697771987,100
                135.836099274,34.9696901883,100
                135.8363116848,34.9695726456,100
                135.8364121056,34.9694249529,100
                135.8364532495,34.9691934434,100
                135.836509822,34.9688156769,100
                135.8365619313,34.9685819987,100
                135.8367980991,34.96831159,100
                135.8370115893,34.9681039713,100
                135.8370878881,34.9679087773,100
                135.8371748853,34.9677383881,100
                135.8371718252,34.9675357661,100
                135.8371393695,34.9672698613,100
                135.8372523941,34.9669848512,100
                135.8373640837,34.9665828593,100
                135.8374671011,34.9664441837,100
                135.8376727237,34.9664369177,100
                135.8379192966,34.9664389315,100
                135.8381997172,34.9663624635,100
                135.8384200497,34.9660401248,100
                135.8386114787,34.9658436721,100
                135.8387880275,34.9657438966,100
                135.8390435544,34.9656874653,100
                135.8393448035,34.9657012382,100
                135.8396595717,34.9657309445,100
                135.8399254359,34.965726429,100
                135.8404882216,34.9656387703,100
                135.8406248052,34.9656736675,100
                135.8411760495,34.9660947561,100
                135.8413962923,34.9662384278,100
                135.8416516859,34.9664229219,100
                135.8419459383,34.9665649278,100
                135.8423228269,34.9666716829,100
                135.8426638949,34.9667938154,100
                135.8429799843,34.9669428183,100
                135.8432109785,34.9671045309,100
                135.8437369507,34.9675794523,100
                135.8442175009,34.9679549426,100
                135.8445669625,34.9682954744,100
                135.8446295799,34.9683297806,100
                135.8447199889,34.968330528,100
                135.8448330288,34.9682729907,100
                135.8448484851,34.9681268028,100
                135.8448542018,34.9678746814,100
                135.8449158018,34.9675329753,100
                135.8448534409,34.9674762038,100
                135.8446956477,34.9673825489,100
                135.8445955773,34.9672691764,100
                135.8446355814,34.9671322459,100
                135.8447188413,34.9670428376,100
                135.8448701744,34.9669923199,100
                135.8451611521,34.9669474697,100
                135.8454006708,34.9668548764,100
                135.845492143,34.9667655483,100
                135.8455484809,34.9666377229,100
                135.8455501421,34.9665719455,100
                135.84555879,34.9662303851,100
                135.845681079,34.9660850352,100
                135.845808043,34.9660073005,100
                135.8459539495,34.9659521969,100
                135.8461790783,34.9659135308,100
                135.8463671436,34.9657688259,100
                135.8465006679,34.9656010228,100
                135.8465764823,34.9654463877,100
                135.8466086269,34.9652778254,100
                135.8466624171,34.965131967,100
                135.846753845,34.9650471445,100
                135.8468664093,34.9650301001,100
                135.8470330795,34.9650696745,100
                135.8471255895,34.9651245113,100
                135.8472758944,34.9651595584,100
                135.847429569,34.9651405926,100
                135.8475644127,34.9650921646,100
                135.8476939325,34.9650302085,100
                135.8478726188,34.9649821155,100
                135.8480813188,34.9649432863,100
                135.8482710413,34.9648886566,100
                135.8484611829,34.9647978989,100
                135.8485965909,34.9647022841,100
                135.8487258951,34.9646582849,100
                135.8488739968,34.9646460003,100
                135.8489502812,34.9646310229,100
                135.8490168212,34.9646179339,100
                135.8491491647,34.9645492179,100
                135.8493087836,34.9643266518,100
                135.849333072,34.9642895662,100
                135.8494487378,34.9642410416,100
                135.8496101805,34.9642603243,100
                135.849724501,34.9643244122,100
                135.8498683978,34.9644381863,100
                135.8500784427,34.9645186592,100
                135.8502805144,34.9645788379,100
                135.8505019426,34.9646212225,100
                135.8509354881,34.9645708283,100
                135.8516690315,34.9646399569,100
                135.851838928,34.9646390342,100
                135.8518945405,34.9645697298,100
                135.851950933,34.9639713032,100
                135.852107805,34.9639140223,100
                135.8522402048,34.9638409361,100
                135.8524010318,34.9636801314,100
                135.8525149666,34.9635437782,100
                135.8528091874,34.9634560946,100
                135.8531360384,34.9633912677,100
                135.85342944,34.9633734458,100
                135.8537490639,34.9634548875,100
                135.8539096745,34.9635462111,100
                135.8540298641,34.9635764957,100
                135.8541803948,34.9635912521,100
                135.8549624294,34.9634987151,100
                135.8557035166,34.9633921809,100
                135.8561762136,34.9632722297,100
                135.8568072096,34.9629735019,100
                135.8575128302,34.9626190784,100
                135.858036954,34.9623216997,100
                135.8584368696,34.9620999564,100
                135.8592190994,34.9617551169,100
                135.8596488191,34.9615605186,100
                135.860122898,34.9613235202,100
                135.8607687733,34.96092354,100
                135.8611299334,34.9607351421,100
                135.8616201982,34.9605207619,100
                135.8621453224,34.9603697335,100
                135.8627390564,34.9602103288,100
                135.8630299768,34.9601699517,100
                135.8634300448,34.9601686423,100
                135.8635736903,34.9598367429,100
                135.8637142038,34.9595361796,100
                135.863780455,34.9592597598,100
                135.8637710326,34.9588950092,100
                135.8636722715,34.9584371259,100
                135.8636391141,34.9582274991,100
                135.8636825818,34.9580252827,100
                135.8637976496,34.9577920885,100
                135.8643119842,34.9573910913,100
                135.8645875371,34.9572582212,100
                135.8649111258,34.9572360448,100
                135.8652779513,34.957263848,100
                135.8656374441,34.9572172014,100
                135.8661167527,34.9569982104,100
                135.8665273298,34.9568012547,100
                135.8674690287,34.9566378376,100
                135.8682424898,34.9565698707,100
                135.8687508553,34.9566797936,100
                135.8690494378,34.9566867351,100
                135.8694278275,34.9566627741,100
                135.8696864544,34.9565702994,100
                135.869874447,34.9564278145,100
                135.8700825881,34.9561997822,100
                135.8702383914,34.9559962029,100
                135.8704379462,34.9558019651,100
                135.8706422382,34.9556685112,100
                135.870869225,34.9554700062,100
                135.8710120391,34.9554419161,100
                135.8712117414,34.9554682565,100
                135.8714277038,34.9555105996,100
                135.8718218902,34.9555429891,100
                135.8720220271,34.955531157,100
                135.8721736312,34.9554535643,100
                135.8723027004,34.9554275705,100
                135.8724913646,34.9554628417,100
                135.8728526336,34.9554973058,100
                135.8732147031,34.9554619771,100
                135.8735309521,34.9553632151,100
                135.8736578869,34.9552854535,100
                135.8737949193,34.9552821446,100
                135.8739378103,34.9552449655,100
                135.8740320059,34.9551578743,100
                135.8742512387,34.9549164641,100
                135.8744104515,34.9546544262,100
                135.8745083544,34.9544265538,100
                135.8745665847,34.9541851172,100
                135.8746368614,34.9540326435,100
                135.8747862987,34.9539055347,100
                135.8749267572,34.9538413082,100
                135.8752839696,34.9537519509,100
                135.8753944371,34.9536785365,100
                135.8754011639,34.9535705081,100
                135.8753872075,34.9533564645,100
                135.8754702978,34.9528055976,100
                135.8755368788,34.9527341116,100
                135.8756153007,34.9525883359,100
                135.8756646143,34.9523523847,100
                135.87571028,34.9516133684,100
                135.8757282102,34.9513554828,100
                135.875729889,34.9507386127,100
                135.875739543,34.9505165656,100
                135.8757782048,34.9503518751,100
                135.8758983035,34.9501546603,100
                135.8760788592,34.9499399708,100
                135.8766124407,34.949525483,100
                135.8767128492,34.9493732509,100
                135.8769866999,34.9486729864,100
                135.8771310797,34.9485075572,100
                135.8772385733,34.9484520987,100
                135.877356401,34.9484208763,100
                135.8779393542,34.9482663803,100
                135.8784287465,34.9481172794,100
                135.8785802699,34.9480441856,100
                135.8786441812,34.9479658634,100
                135.8786442073,34.9477271857,100
                135.878678491,34.9476059433,100
                135.8786741791,34.9475045946,100
                135.8786120158,34.9474320631,100
                135.878508232,34.947401958,100
                135.8782646145,34.9473841792,100
                135.8780077175,34.9473303984,100
                135.8778768214,34.9472775176,100
                135.8776757138,34.9471363211,100
                135.8776182665,34.9471291499,100
                135.8773901519,34.9471925876,100
                135.8769755414,34.9472702755,100
                135.8768214532,34.947327589,100
                135.876426141,34.9473964201,100
                135.8762557785,34.9474401233,100
                135.8761781834,34.9475160358,100
                135.8760514121,34.9475802783,100
                135.8757000331,34.9476404884,100
                135.8754536318,34.9476250252,100
                135.8753633942,34.9476107779,100
                135.8748923725,34.947593464,100
                135.8747008656,34.947569464,100
                135.8744897952,34.9475789658,100
                135.8741951365,34.9477094461,100
                135.8737252303,34.9478316461,100
                135.8734755985,34.9478589953,100
                135.8733143306,34.9478260796,100
                135.8731865032,34.9477462934,100
                135.8730390703,34.9477000815,100
                135.8729321997,34.9477037729,100
                135.8728492763,34.9477661555,100
                135.8728098546,34.9478580219,100
                135.8727944197,34.9480088607,100
                135.8726400079,34.948093142,100
                135.87209999,34.9483543562,100
                135.8719142308,34.948415293,100
                135.8718891565,34.9484234369,100
                135.8716411459,34.9484655049,100
                135.8711143972,34.9485265064,100
                135.8708787032,34.9485336539,100
                135.8705201624,34.9487377965,100
                135.8704906345,34.9487532893,100
                135.8702881386,34.9488595318,100
                135.8702114644,34.9488952271,100
                135.8695873401,34.9490860567,100
                135.869153109,34.9491995454,100
                135.8688736968,34.9491973464,100
                135.8685369658,34.9491743793,100
                135.8683450213,34.9491884698,100
                135.8680840129,34.9492516446,100
                135.8677813742,34.9493594944,100
                135.8676868893,34.9494736247,100
                135.8675964712,34.9496186759,100
                135.8674469138,34.9498454296,100
                135.8672561516,34.949994668,100
                135.866999563,34.9501479205,100
                135.8668346766,34.9501893637,100
                135.8665549546,34.9502118773,100
                135.8663354786,34.9502370622,100
                135.866184025,34.9503033091,100
                135.8656638462,34.9505040895,100
                135.8654355368,34.9505832096,100
                135.864914355,34.9506352453,100
                135.8646764791,34.950592727,100
                135.8644606192,34.9505437529,100
                135.8641707199,34.9504986413,100
                135.8639211616,34.9505190692,100
                135.8633586294,34.9505933064,100
                135.8629788162,34.9507388053,100
                135.8626384681,34.9507923007,100
                135.8623501947,34.950843951,100
                135.8621275189,34.9509074362,100
                135.8619784029,34.951005231,100
                135.8614863671,34.9513772292,100
                135.8612870618,34.9515511676,100
                135.8611758699,34.9516875975,100
                135.8610723388,34.9518712913,100
                135.860781842,34.9525781785,100
                135.8605161056,34.9530420528,100
                135.8602528852,34.9532919756,100
                135.8600484084,34.9534388625,100
                135.8598583163,34.9535273112,100
                135.8596630973,34.9535865261,100
                135.8595167979,34.9536777027,100
                135.8594026953,34.9538297638,100
                135.8593222172,34.9541488433,100
                135.8593677695,34.9544689122,100
                135.8593525751,34.9548289844,100
                135.8593018383,34.9556479839,100
                135.859381185,34.9561237332,100
                135.8594354617,34.9566351605,100
                135.8594255246,34.9567814949,100
                135.8593878091,34.9569589965,100
                135.8590337288,34.9570123275,100
                135.8584401826,34.957158347,100
                135.85796466,34.957287244,100
                135.8578194265,34.9572883451,100
                135.8564228482,34.9572205278,100
                135.8559772919,34.9573632561,100
                135.8555579717,34.957139092,100
                135.8548293726,34.9571219687,100
                135.8545152538,34.9572701284,100
                135.8542338631,34.957200286,100
                135.8539491809,34.9571776942,100
                135.8535630086,34.9571632921,100
                135.853414526,34.956975148,100
                135.852942466,34.9568114074,100
                135.852324211,34.9567275661,100
                135.8515603292,34.9566807307,100
                135.8512980414,34.9568496506,100
                135.8510126742,34.9571152374,100
                135.8509206429,34.9572517534,100
                135.8508514728,34.9573097718,100
                135.8507799467,34.9573339121,100
                135.850738996,34.9573200595,100
                135.8507209336,34.9572253138,100
                135.8508191817,34.9570280261,100
                135.8510010136,34.9567121005,100
                135.8510922997,34.9564067004,100
                135.8510409995,34.9561114098,100
                135.8508691764,34.9558128037,100
                135.8507357335,34.9555122723,100
                135.8505899931,34.9553263805,100
                135.8503839475,34.955140204,100
                135.8502656685,34.9549478658,100
                135.849914831,34.9542650037,100
                135.8498258388,34.9539130437,100
                135.8498486274,34.9536093913,100
                135.8498048243,34.9533748866,100
                135.8496266682,34.9531483186,100
                135.8493293394,34.9529311831,100
                135.8491922903,34.9528092483,100
                135.8491303385,34.9527209277,100
                135.8487872894,34.9518445449,100
                135.8485352669,34.9511468745,100
                135.8481902246,34.950439369,100
                135.8478526513,34.9497950439,100
                135.847487692,34.9491504013,100
                135.8469742978,34.9483867617,100
                135.846951937,34.9483534923,100
                135.8458727009,34.9483355103,100
                135.8447301949,34.9483372972,100
                135.8447063228,34.9482551496,100
                135.8447438142,34.9481144839,100
                135.8450111689,34.9477498026,100
                135.8453676126,34.9474960864,100
                135.8456887986,34.9472106335,100
                135.8458425767,34.9469507428,100
                135.8459736424,34.9467560388,100
                135.8462335269,34.9465577663,100
                135.8465568336,34.9463240778,100
                135.8467721653,34.9460898309,100
                135.8469121094,34.9459376047,100
                135.8471831477,34.9452622056,100
                135.8471561836,34.9449940588,100
                135.8470545498,34.9447861695,100
                135.8468763258,34.9443366131,100
                135.8468483905,34.9441517744,100
                135.8468688246,34.9440461577,100
                135.8469275318,34.9439475626,100
                135.8469796535,34.9439412902,100
                135.8472800205,34.9440247736,100
                135.8479457852,34.9442531545,100
                135.8481209714,34.9442659084,100
                135.8483977907,34.9442547005,100
                135.8485380702,34.9442085329,100
                135.848656628,34.9441442373,100
                135.8486628831,34.9440790294,100
                135.8485138907,34.9439382706,100
                135.8484138583,34.9438248284,100
                135.848357961,34.9436870027,100
                135.8484080962,34.9433880279,100
                135.8482988388,34.9431281544,100
                135.8480141758,34.9426463551,100
                135.8476498948,34.9419476788,100
                135.8474266068,34.9411421267,100
                135.8474621529,34.9409172944,100
                135.8475486665,34.9407828844,100
                135.8483484673,34.9401029126,100
                135.8489164637,34.9397946501,100
                135.8490896126,34.939746551,100
                135.8492734138,34.939725509,100
                135.8493532848,34.9397305377,100
                135.8497250854,34.9397540263,100
                135.8502008974,34.9393639493,100
                135.8499839895,34.9389434398,100
                135.8497700956,34.9385004663,100
                135.8496070439,34.9379250103,100
                135.8495707775,34.9377513607,100
                135.8495591067,34.9375801361,100
                135.8494737044,34.9373903682,100
                135.8493577691,34.9372719058,100
                135.8490727908,34.9370066027,100
                135.8491333037,34.9367572221,100
                135.8493586791,34.9367729258,100
                135.8497354755,34.9367981828,100
                135.8499333815,34.9367412393,100
                135.8501790871,34.9365811788,100
                135.8502746728,34.9363748684,100
                135.8502309758,34.9361314113,100
                135.8501337593,34.9360112096,100
                135.849879034,34.9357772107,100
                135.849744263,34.9355915332,100
                135.8497100901,34.9354697187,100
                135.8498067782,34.9354006769,100
                135.8499722799,34.9353052395,100
                135.8500969698,34.9351846775,100
                135.8501174815,34.9350722984,100
                135.8500391893,34.9349747973,100
                135.8499163891,34.9349355576,100
                135.8497220235,34.9349227093,100
                135.8494808569,34.9349341717,100
                135.8493619886,34.934925009,100
                135.8492536707,34.9349166341,100
                135.8490792345,34.9348430999,100
                135.8489515047,34.934756454,100
                135.8488567079,34.9346656926,100
                135.8488273778,34.934597833,100
                135.8490891247,34.934005707,100
                135.8486198106,34.9329233944,100
                135.8485211081,34.9329315813,100
                135.8482886129,34.9326707711,100
                135.8481134525,34.9324261603,100
                135.8480173378,34.9322136935,100
                135.8476626282,34.9323279763,100
                135.8472093567,34.9324367099,100
                135.846663544,34.9322633169,100
                135.8466366612,34.931756541,100
                135.8470969112,34.9310601587,100
                135.8469904718,34.9310255821,100
                135.8464481416,34.9310232657,100
                135.8460207791,34.9312561189,100
                135.8457851764,34.9312564486,100
                135.8454137009,34.9309381888,100
                135.8451218136,34.9306025643,100
                135.8452121815,34.9301440423,100
                135.845428238,34.9299409915,100
                135.8453989997,34.9298663689,100
                135.8453310901,34.9298185993,100
                135.8445765714,34.9299203762,100
                135.8443617771,34.9297857858,100
                135.8442100677,34.9296426859,100
                135.8441176117,34.9295855868,100
                135.8436827584,34.9297598253,100
                135.8432965111,34.9299907509,100
                135.8428005039,34.9302365336,100
                135.8422536068,34.9303873774,100
                135.8416219688,34.9305216963,100
                135.8410406055,34.9305753655,100
                135.8407692807,34.9305866249,100
                135.8405583759,34.930584794,100
                135.8400718298,34.9304974437,100
                135.8400978078,34.9310762743,100
                135.8400719253,34.9314092335,100
                135.8401004756,34.932001519,100
                135.8404304859,34.9321236634,100
                135.8407867294,34.9323427536,100
                135.8411241668,34.9325301945,100
                135.8414924128,34.9326616123,100
                135.8418721009,34.9327525473,100
                135.8425230953,34.9328345419,100
                135.8428127447,34.9328954929,100
                135.8432434983,34.933067978,100
                135.8434939539,34.9332006439,100
                135.8437639734,34.933299599,100
                135.8440370808,34.9333694698,100
                135.8442693506,34.9334186508,100
                135.8444791773,34.9335104123,100
                135.844650086,34.9336514237,100
                135.8447746211,34.9337763173,100
                135.8448350489,34.9339928964,100
                135.8449536642,34.9348494071,100
                135.8448952718,34.9351528839,100
                135.8447612931,34.9353611116,100
                135.8446810821,34.9354257326,100
                135.8439345086,34.9355478739,100
                135.8433010397,34.9356056445,100
                135.8429060227,34.9356495684,100
                135.8426350349,34.9356316756,100
                135.8412274145,34.9353632399,100
                135.8403888063,34.9351625969,100
                135.8400003693,34.9351143275,100
                135.8398137193,34.9351466162,100
                135.8395817778,34.9352999844,100
                135.8392607878,34.9355696539,100
                135.8390443698,34.9357998109,100
                135.8387903314,34.9359687837,100
                135.8383833472,34.9358685064,100
                135.8381731029,34.9358105409,100
                135.8379019396,34.9358060185,100
                135.8374366392,34.9357728494,100
                135.8370726846,34.9357405207,100
                135.8368566117,34.9357116321,100
                135.8366900463,34.9356675271,100
                135.8363602316,34.9355274139,100
                135.8363384215,34.9357478317,100
                135.8363470402,34.9359438511,100
                135.8362479805,34.9362086045,100
                135.8364697085,34.9364513289,100
                135.8364926068,34.9366001084,100
                135.8364121318,34.936914674,100
                135.8363994585,34.9370586145,100
                135.836476817,34.9372326084,100
                135.8365657951,34.9373527405,100
                135.8367118415,34.9375092216,100
                135.8368029721,34.9376765432,100
                135.836909636,34.9379206538,100
                135.8369620852,34.9381170098,100
                135.8369540611,34.9383284967,100
                135.836870297,34.938460578,100
                135.8367076655,34.9385447313,100
                135.8362614784,34.9387459033,100
                135.836057358,34.9388612681,100
                135.8359349776,34.9390155517,100
                135.8357717796,34.9391470309,100
                135.835554361,34.9392285016,100
                135.8348557501,34.9394612976,100
                135.8346525332,34.9395024311,100
                135.8345582312,34.9395983675,100
                135.8345627582,34.9396772542,100
                135.8346405334,34.9398174438,100
                135.8347649453,34.9399512895,100
                135.8349127391,34.940193415,100
                135.8349387941,34.9405335534,100
                135.8349405786,34.9408420338,100
                135.8349509209,34.9411212295,100
                135.8351084227,34.9416944555,100
                135.835162568,34.9422059842,100
                135.8352355983,34.9427423296,100
                135.8354716707,34.9443044133,100
                135.8350677307,34.9444068994,100
                135.8347307938,34.9444017203,100
                135.8346000784,34.9443376623,100
                135.8342852918,34.9440851695,100
                135.8340362846,34.9438508661,100
                135.8339878494,34.94381467,100
                135.8337855911,34.9437448099,100
                135.8335907184,34.9437036957,100
                135.8332215639,34.9436045903,100
                135.832845231,34.9434441302,100
                135.8327487343,34.9434370958,100
                135.8325932253,34.9434556873,100
                135.8324465714,34.943487882,100
                135.8323107426,34.9435346015,100
                135.832152126,34.9436247431,100
                135.831958962,34.9437704061,100
                135.8317737503,34.943847764,100
                135.8314076982,34.9439394494,100
                135.8309084574,34.9439914399,100
                135.8306401688,34.9439757132,100
                135.8303367569,34.9439190893,100
                135.8301690519,34.9438455383,100
                135.8299927893,34.9436487251,100
                135.8299028239,34.9435747187,100
                135.8297915621,34.9435158253,100
                135.8296050037,34.9434504874,100
                135.8292910755,34.9428811201,100
                135.8289903173,34.9424079062,100
                135.8288658839,34.9422510966,100
                135.8285271988,34.9419550991,100
                135.8285020515,34.9419195672,100
                135.8284719292,34.9417921885,100
                135.8284099435,34.9415995478,100
                135.8283236127,34.9414855413,100
                135.8281183071,34.941343125,100
                135.827899719,34.9412501304,100
                135.8277591468,34.9411652055,100
                135.8268339473,34.9412185455,100
                135.8269979769,34.9421735197,100
                135.826973782,34.9423489961,100
                135.8266776149,34.9428134796,100
                135.8264443375,34.9431662097,100
                135.826307037,34.9433738513,100
                135.8259889952,34.9438396411,100
                135.8259573477,34.9439065743,100
                135.8256839227,34.9441700129,100
                135.8255068934,34.9443600595,100
                135.8252117708,34.9445168353,100
                135.8251514912,34.9446045745,100
                135.8250239284,34.9447439118,100
                135.8248092655,34.9448407968,100
                135.8243928352,34.9450424711,100
                135.8242043992,34.9451734095,100
                135.8240725382,34.9452811871,100
                135.82392911,34.9453826807,100
                135.8237509201,34.9454708826,100
                135.8234865507,34.9455464936,100
                135.8231604131,34.9456287046,100
                135.8228766872,34.9457158372,100
                135.8226263298,34.9457735071,100
                135.8224423321,34.9457913397,100
                135.8222438056,34.945773584,100
                135.8220972333,34.9457197028,100
                135.8222109964,34.9457220517,100
                135.8223986165,34.9456901388,100
                135.8224705651,34.9455974886,100
                135.8224388017,34.9455218006,100
                135.8222045019,34.9454193364,100
                135.8219738881,34.9452993403,100
                135.8216420958,34.9450676339,100
                135.8212613812,34.9449911528,100
                135.8208066951,34.9447694755,100
                135.8204918977,34.9447307687,100
                135.8203126433,34.9446581018,100
                135.8202367789,34.9445487533,100
                135.8202158873,34.9444297667,100
                135.8201647547,34.944366649,100
                135.8201377995,34.9443333767,100
                135.8201081494,34.9442967771,100
                135.8200665511,34.9442809393,100
                135.8195694136,34.9441454007,100
                135.8194203474,34.944070173,100
                135.8193424098,34.9440547031,100
                135.8188455469,34.9442314471,100
                135.8186154311,34.9443089291,100
                135.8182186409,34.9443455238,100
                135.8179878434,34.944519774,100
                135.817864168,34.9443480216,100
                135.8177946552,34.9441752245,100
                135.8176280312,34.9441763124,100
                135.817608319,34.9441164892,100
                135.8173726454,34.9441534623,100
                135.8172834267,34.9442561563,100
                135.8171591126,34.9442053305,100
                135.8170989097,34.9440409765,100
                135.8170972152,34.9440363504,100
                135.8171316734,34.9439834352,100
                135.8170811526,34.9438248225,100
                135.8169994703,34.9438354754,100
                135.8162486237,34.9439340018,100
                135.81578824,34.944011553,100
                135.8153329661,34.9440884054,100
                135.8145441978,34.9442282769,100
                135.8144375278,34.9441096509,100
                135.814291111,34.9439894153,100
                135.8141809815,34.9439170567,100
                135.8140807428,34.9438495733,100
                135.8139257805,34.9437453111,100
                135.8137074413,34.9435937649,100
                135.8135666432,34.943496004,100
                135.8131120567,34.9431804153,100
                135.8124904231,34.9436607051,100
                135.8127257185,34.943944547,100
                135.8128582087,34.9441044147,100
                135.8130137736,34.9442920678,100
                135.8127483487,34.944399065,100
                135.8127067951,34.9444779528,100
                135.8126893433,34.9446510427,100
                135.8128710018,34.9447023123,100
                135.8129143527,34.9446893494,100
                135.8132017847,34.94467641,100
                135.8133114,34.9448352558,100
                135.8133093128,34.945261633,100
                135.8136989241,34.9452538489,100
                135.8142853305,34.945242139,100
              </coordinates>
            </LinearRing>
          </outerBoundaryIs>
        </Polygon>
      </Placemark>
    </Document>
  </Document>
</kml>
