<?xml version="1.0" encoding="UTF-8"?>
<kml xmlns="http://www.opengis.net/kml/2.2">
  <Document id="root_doc">
    <Document id="_6_30_________disv4326">
      <name>36_30池田東disv4326</name>
      <Placemark id="_6_30_________disv4326.1">
        <visibility>1</visibility>
        <Polygon>
          <extrude>0</extrude>
          <outerBoundaryIs>
            <LinearRing>
              <coordinates>
                135.8092697365,34.9424221886,100
                135.8092805402,34.9425691215,100
                135.8090743155,34.9425668248,100
                135.8087229226,34.9425674677,100
                135.8087193374,34.9424428009,100
                135.8081023337,34.9424537976,100
                135.8080908434,34.9424108167,100
                135.8080329355,34.9424035415,100
                135.8079491441,34.9423971558,100
                135.807905521,34.9423938302,100
                135.8078904868,34.9423952859,100
                135.8075607473,34.9424266661,100
                135.8074883149,34.9424313407,100
                135.8074506235,34.942447972,100
                135.8074330903,34.9425123175,100
                135.8074219337,34.942556036,100
                135.807420268,34.9425962746,100
                135.8074104575,34.9427079627,100
                135.8074019672,34.9428300865,100
                135.8074019684,34.94283627,100
                135.8073543285,34.942836789,100
                135.8072317103,34.9428383957,100
                135.8072240469,34.9428383835,100
                135.8072264267,34.9429509065,100
                135.8072299198,34.9431403955,100
                135.8072423394,34.9432108477,100
                135.8069911454,34.9432162622,100
                135.8077428641,34.9438637925,100
                135.8080340392,34.9441192808,100
                135.8080575119,34.9441398841,100
                135.8086837633,34.9446893821,100
                135.8087674788,34.9447628318,100
                135.8090014826,34.945168031,100
                135.809028425,34.9452146973,100
                135.8091447834,34.945619569,100
                135.8092902557,34.9461230167,100
                135.809447077,34.9466482448,100
                135.8095992363,34.9471369119,100
                135.8099296753,34.9481495708,100
                135.8099872467,34.9483346782,100
                135.8102916668,34.9495087888,100
                135.8103072753,34.9495099401,100
                135.8106841869,34.9495373613,100
                135.8107959074,34.9495228154,100
                135.8110403327,34.949490938,100
                135.8116705161,34.9494893809,100
                135.8118504843,34.949497547,100
                135.8120623113,34.9494981554,100
                135.8123801064,34.949455191,100
                135.8129286883,34.9493489127,100
                135.8132708267,34.9493021097,100
                135.8143736056,34.9492835841,100
                135.8143595898,34.9491914416,100
                135.8143052794,34.9488342117,100
                135.8142668817,34.9485815927,100
                135.8142797216,34.9484136591,100
                135.8142828712,34.9483724412,100
                135.8142848236,34.9483413144,100
                135.8143002993,34.9478835716,100
                135.8143206464,34.947281688,100
                135.8143189816,34.9472421746,100
                135.8142794604,34.9468503858,100
                135.8142471917,34.9465824939,100
                135.8142318324,34.9463261073,100
                135.8142281387,34.9462467976,100
                135.8142610016,34.9456331262,100
                135.8142853305,34.945242139,100
                135.8136989241,34.9452538489,100
                135.8133093128,34.945261633,100
                135.8133114,34.9448352558,100
                135.8132017847,34.94467641,100
                135.8129143527,34.9446893494,100
                135.8128710018,34.9447023123,100
                135.8126893433,34.9446510427,100
                135.8127067951,34.9444779528,100
                135.8127483487,34.944399065,100
                135.8130137736,34.9442920678,100
                135.8128582087,34.9441044147,100
                135.8127257185,34.943944547,100
                135.8124904231,34.9436607051,100
                135.8121594027,34.9438793014,100
                135.8119868333,34.9440184147,100
                135.8117465315,34.9441348156,100
                135.8116072496,34.9441800283,100
                135.8114735238,34.9442083446,100
                135.8111555643,34.9442186272,100
                135.8106691765,34.9442093493,100
                135.8106709256,34.9437022579,100
                135.8106746504,34.9426165892,100
                135.810690643,34.9422567098,100
                135.8106914327,34.9422389424,100
                135.8105865259,34.9421549396,100
                135.8105506176,34.9421719849,100
                135.8104052874,34.9422409695,100
                135.810250078,34.9423121779,100
                135.8099115367,34.9424270414,100
                135.8096258006,34.9424283974,100
                135.809622601,34.9424777241,100
                135.8094931255,34.9425201418,100
                135.809423008,34.9425226511,100
                135.8093216859,34.9425010104,100
                135.8093189578,34.9424222662,100
                135.8092697365,34.9424221886,100
              </coordinates>
            </LinearRing>
          </outerBoundaryIs>
        </Polygon>
      </Placemark>
    </Document>
  </Document>
</kml>
