<?xml version="1.0" encoding="UTF-8"?>
<kml xmlns="http://www.opengis.net/kml/2.2">
  <Document id="root_doc">
    <Document id="_6_33______disv4326">
      <name>36_33石田disv4326</name>
      <Placemark id="_6_33______disv4326.1">
        <visibility>1</visibility>
        <Polygon>
          <extrude>0</extrude>
          <outerBoundaryIs>
            <LinearRing>
              <coordinates>
                135.801580717,34.9352359976,100
                135.8014306183,34.9352399075,100
                135.8012657773,34.9351401899,100
                135.8009864699,34.934966756,100
                135.8007673126,34.9347999006,100
                135.8004937706,34.934604008,100
                135.8002483616,34.9344547857,100
                135.800217513,34.9344888233,100
                135.8001887331,34.9344718012,100
                135.8000621603,34.9343923589,100
                135.80006371,34.9343608811,100
                135.7998509604,34.9342516438,100
                135.7998625045,34.934404285,100
                135.7997638197,34.9345808992,100
                135.7994262264,34.9344287062,100
                135.7993159693,34.9344552863,100
                135.7991790763,34.9345073182,100
                135.79866056,34.9346246388,100
                135.7984373418,34.9344234721,100
                135.798159547,34.9338649246,100
                135.7976083573,34.9342068568,100
                135.7974706221,34.9344834156,100
                135.7982403764,34.9352099141,100
                135.7984672497,34.9352783973,100
                135.7987118427,34.9355003052,100
                135.7986716356,34.9355675685,100
                135.7986954558,34.9356555747,100
                135.7988130104,34.9360899687,100
                135.7988538067,34.9362407564,100
                135.7972416231,34.9361617921,100
                135.7969271059,34.9361919006,100
                135.796559207,34.9362198034,100
                135.7966325049,34.9365436924,100
                135.7968442739,34.9371122053,100
                135.7970982118,34.9377411483,100
                135.7967481838,34.9378650074,100
                135.7968991151,34.9381732503,100
                135.7972369661,34.9387982483,100
                135.7974964926,34.9391347031,100
                135.7976815208,34.9394027854,100
                135.7979796736,34.9397624751,100
                135.7982318718,34.9400182737,100
                135.7986413534,34.9403461007,100
                135.7989492572,34.9405559294,100
                135.7996372338,34.9409128808,100
                135.7999470757,34.9410383355,100
                135.7999664387,34.941033367,100
                135.8002509877,34.9411940649,100
                135.8005603517,34.9413593799,100
                135.8010539981,34.9416006392,100
                135.801585252,34.9418076595,100
                135.8018318919,34.9418983539,100
                135.8021271248,34.9419921568,100
                135.8028687966,34.9424024227,100
                135.8029831269,34.9422473813,100
                135.8030177693,34.9422003912,100
                135.8031544946,34.9420149605,100
                135.8033688556,34.9417657766,100
                135.8036015709,34.9415403574,100
                135.8036036061,34.9415383881,100
                135.8038983738,34.941238343,100
                135.8042551217,34.940875221,100
                135.8046451196,34.9405470857,100
                135.8045792519,34.9402869522,100
                135.8048524538,34.940209216,100
                135.8049022936,34.9402190162,100
                135.804956856,34.9402843215,100
                135.8052789798,34.9400130518,100
                135.8053539216,34.9399499477,100
                135.8057478087,34.9396182717,100
                135.8057756804,34.9395947929,100
                135.8057193164,34.9391542353,100
                135.8053355632,34.9391368565,100
                135.8051779948,34.9391685072,100
                135.8051665384,34.9391708146,100
                135.805113115,34.9391815736,100
                135.8049489989,34.9391970856,100
                135.8042989213,34.9392253352,100
                135.8042818452,34.9392227011,100
                135.8040492988,34.9391868283,100
                135.8035612296,34.9391776562,100
                135.8033774078,34.9391622863,100
                135.8030552782,34.9391708481,100
                135.8030327446,34.9381974017,100
                135.8034485651,34.9381963178,100
                135.8035056616,34.9381970884,100
                135.8039825625,34.9382035212,100
                135.8040003723,34.9376556071,100
                135.8044549958,34.9376366219,100
                135.8045630775,34.9376910279,100
                135.8048501561,34.9376379643,100
                135.8047925379,34.9374801088,100
                135.8046960223,34.9372157007,100
                135.8042700696,34.9372265622,100
                135.804097003,34.9372309312,100
                135.8038768328,34.9372174743,100
                135.8033687448,34.9371877036,100
                135.80299187,34.9371947684,100
                135.8028122194,34.9366539271,100
                135.802875915,34.93648007,100
                135.8031856588,34.9363249238,100
                135.8029294728,34.9361265293,100
                135.8028170554,34.9360804972,100
                135.8024295738,34.9358280091,100
                135.8020782252,34.935594524,100
                135.8019828679,34.9355311927,100
                135.8018020421,34.9355811837,100
                135.801580717,34.9352359976,100
              </coordinates>
            </LinearRing>
          </outerBoundaryIs>
        </Polygon>
      </Placemark>
    </Document>
  </Document>
</kml>
