<?xml version="1.0" encoding="UTF-8"?>
<kml xmlns="http://www.opengis.net/kml/2.2">
  <Document id="root_doc">
    <Document id="_6_34______disv4326">
      <name>36_34日野disv4326</name>
      <Placemark id="_6_34______disv4326.1">
        <visibility>1</visibility>
        <Polygon>
          <extrude>0</extrude>
          <outerBoundaryIs>
            <LinearRing>
              <coordinates>
                135.8176946395,34.9272141627,100
                135.8175992764,34.9273890415,100
                135.8174777528,34.9274727441,100
                135.8170786349,34.927486586,100
                135.8169257067,34.9275109377,100
                135.8165358049,34.9280717583,100
                135.816278983,34.9284535295,100
                135.8160910934,34.9287420812,100
                135.8160542774,34.9287916087,100
                135.8160144603,34.9288451463,100
                135.815801949,34.9290818242,100
                135.8156132822,34.9292755751,100
                135.8154594906,34.9294178938,100
                135.8153849996,34.9294317265,100
                135.8151481122,34.9293689673,100
                135.8150159939,34.9293200297,100
                135.8149087074,34.9292567618,100
                135.8147866638,34.929215164,100
                135.8147833747,34.9292140321,100
                135.8146688498,34.9292325935,100
                135.8145305881,34.9292357645,100
                135.8141883266,34.9291933382,100
                135.8138251286,34.9294023151,100
                135.8134434941,34.9295146277,100
                135.8134072875,34.9295252844,100
                135.8129524003,34.9296164991,100
                135.8129131913,34.9296172848,100
                135.8128670329,34.929674685,100
                135.8128555632,34.9296895981,100
                135.8128076122,34.9298503158,100
                135.8127915003,34.9298757868,100
                135.8127160499,34.9300016705,100
                135.8127153411,34.9300028667,100
                135.812711264,34.930044511,100
                135.8127010756,34.9301485651,100
                135.8127015896,34.930158003,100
                135.8127059439,34.9302369634,100
                135.8127299145,34.9303398263,100
                135.8127724088,34.9304375779,100
                135.8127729203,34.9304382836,100
                135.8128970701,34.9305991952,100
                135.8129316637,34.9306367164,100
                135.8129645138,34.9306711201,100
                135.8130171282,34.930726223,100
                135.8130605959,34.9307717175,100
                135.8131635307,34.9308789992,100
                135.8131648945,34.9308809727,100
                135.8132545273,34.9310096447,100
                135.8132557201,34.9310113369,100
                135.8132837319,34.9310663157,100
                135.8132843073,34.9310674437,100
                135.8133341068,34.9311692922,100
                135.8133548428,34.9312370765,100
                135.8133699158,34.9312839355,100
                135.8133734394,34.9313527505,100
                135.8133797646,34.9314593913,100
                135.8133792158,34.931465519,100
                135.8133753584,34.9315081227,100
                135.8133555256,34.9317059304,100
                135.8133544884,34.9317102262,100
                135.8133259372,34.9318388569,100
                135.8132914629,34.9320732654,100
                135.8132717995,34.9321850799,100
                135.8132484117,34.9323182257,100
                135.8132483475,34.9323185794,100
                135.8132477622,34.932321887,100
                135.8131904824,34.9325051991,100
                135.8131898363,34.9325073116,100
                135.8130791178,34.9327242067,100
                135.8129977017,34.9327064056,100
                135.8129670812,34.9326997371,100
                135.8129416561,34.9326920912,100
                135.812938223,34.9326975794,100
                135.8129240116,34.9327238286,100
                135.8129182884,34.9327298762,100
                135.8128768842,34.932774254,100
                135.8128455933,34.9328371,100
                135.8128193786,34.9328859387,100
                135.8127841009,34.9329532151,100
                135.8127595363,34.9330580477,100
                135.8127592766,34.9330591741,100
                135.8127582458,34.9330614967,100
                135.8126971104,34.9331994456,100
                135.8126335676,34.9333343622,100
                135.8125738946,34.9334775251,100
                135.8125541846,34.9335432059,100
                135.8125183802,34.9336736582,100
                135.8125074226,34.9337166735,100
                135.8125091877,34.9337684428,100
                135.8125090599,34.933853522,100
                135.8125090592,34.9338538031,100
                135.8124776508,34.9338927735,100
                135.8124776708,34.9338931252,100
                135.8124790899,34.9339278499,100
                135.8124792113,34.9339309484,100
                135.8124811873,34.9339842675,100
                135.8124968313,34.9339958416,100
                135.8125213788,34.934013346,100
                135.8125189595,34.9341292711,100
                135.8125188851,34.9341341301,100
                135.8125172339,34.934154763,100
                135.8125061264,34.9342934241,100
                135.8125010268,34.9343454629,100
                135.8124942421,34.9344253905,100
                135.8124726327,34.9344890963,100
                135.8124724168,34.9344897293,100
                135.8124403594,34.9345506723,100
                135.8124395448,34.9345522205,100
                135.8123740697,34.9346419899,100
                135.8123736823,34.9346425528,100
                135.8123103088,34.9347107006,100
                135.8123079524,34.9347124577,100
                135.8123058741,34.9347147083,100
                135.8122463577,34.9347594094,100
                135.8121726626,34.9348154989,100
                135.8120546986,34.9349059607,100
                135.8120327873,34.9349231833,100
                135.8120022063,34.934945743,100
                135.8119281049,34.9350014091,100
                135.8118710981,34.9350425929,100
                135.8117814294,34.9351087993,100
                135.8117801049,34.9351083043,100
                135.811779334,34.9351088665,100
                135.8117604732,34.9351009492,100
                135.8117003886,34.9350756418,100
                135.8116649789,34.9350207227,100
                135.8116464891,34.9349920038,100
                135.81161033,34.9349358411,100
                135.8116097742,34.9349357687,100
                135.8115503103,34.9349289154,100
                135.8114783208,34.9349206358,100
                135.8108390946,34.9348473124,100
                135.8106927245,34.9348384918,100
                135.8107513206,34.9349735981,100
                135.8107622183,34.9350925666,100
                135.8108225816,34.9350938456,100
                135.8108409978,34.9354086807,100
                135.8108550605,34.9356490725,100
                135.8108630862,34.9357862575,100
                135.810868325,34.9358758082,100
                135.8108763244,34.9360125625,100
                135.8108220928,34.9360082507,100
                135.8108711104,34.9365490866,100
                135.8108535992,34.9365771608,100
                135.8108436455,34.9368086482,100
                135.8104404491,34.9369221173,100
                135.8099711264,34.937174157,100
                135.8099518061,34.9371899031,100
                135.8095374031,34.9375275994,100
                135.8098559041,34.9382829653,100
                135.8098801533,34.938281101,100
                135.8101868972,34.9382571222,100
                135.8102060787,34.9382556214,100
                135.8105963079,34.9382251003,100
                135.8112437324,34.9381744107,100
                135.811328247,34.9381476376,100
                135.8113237542,34.9379691621,100
                135.8117716964,34.9378875231,100
                135.8118026556,34.9381342162,100
                135.8117625025,34.9383236812,100
                135.8120949949,34.9383824402,100
                135.8124764797,34.9384090879,100
                135.8130046478,34.9384691325,100
                135.8130173414,34.9383003323,100
                135.8131058707,34.9381612991,100
                135.8131795627,34.9381266899,100
                135.813327242,34.9381354386,100
                135.8139896397,34.9380322173,100
                135.8142673092,34.93804384,100
                135.8144212479,34.9380070993,100
                135.8144662179,34.9380143517,100
                135.8145886438,34.9380148911,100
                135.8146636802,34.9379808465,100
                135.8147503718,34.9383601021,100
                135.8147429047,34.9384587628,100
                135.8147923505,34.9387058937,100
                135.8147935935,34.938712106,100
                135.8148845955,34.9391438382,100
                135.8149107049,34.9392677639,100
                135.8149301721,34.9393601264,100
                135.8150449271,34.9395420109,100
                135.8150688761,34.9395797267,100
                135.8151408318,34.9397310482,100
                135.8151711186,34.9399771769,100
                135.8151809474,34.9401253051,100
                135.8151926565,34.9402544212,100
                135.8152839187,34.9405602238,100
                135.8148990557,34.9403943402,100
                135.8147601363,34.9403764514,100
                135.8146449189,34.9404216321,100
                135.8145761003,34.9405135795,100
                135.8144905976,34.940810803,100
                135.8143183524,34.9412986189,100
                135.8141762061,34.9415580758,100
                135.8140632922,34.9417484868,100
                135.8140020858,34.9418207944,100
                135.8137920588,34.9419517542,100
                135.8137803293,34.9419763866,100
                135.8138784436,34.9421042969,100
                135.8138322534,34.942366013,100
                135.8138679358,34.9425206614,100
                135.8135149786,34.9428287435,100
                135.8131120567,34.9431804153,100
                135.8135666432,34.943496004,100
                135.8137074413,34.9435937649,100
                135.8139257805,34.9437453111,100
                135.8140807428,34.9438495733,100
                135.8141809815,34.9439170567,100
                135.814291111,34.9439894153,100
                135.8144375278,34.9441096509,100
                135.8145441978,34.9442282769,100
                135.8153329661,34.9440884054,100
                135.81578824,34.944011553,100
                135.8162486237,34.9439340018,100
                135.8169994703,34.9438354754,100
                135.8170811526,34.9438248225,100
                135.8171316734,34.9439834352,100
                135.8170972152,34.9440363504,100
                135.8170989097,34.9440409765,100
                135.8171591126,34.9442053305,100
                135.8172834267,34.9442561563,100
                135.8173726454,34.9441534623,100
                135.817608319,34.9441164892,100
                135.8176280312,34.9441763124,100
                135.8177946552,34.9441752245,100
                135.817864168,34.9443480216,100
                135.8179878434,34.944519774,100
                135.8182186409,34.9443455238,100
                135.8186154311,34.9443089291,100
                135.8188455469,34.9442314471,100
                135.8193424098,34.9440547031,100
                135.8194203474,34.944070173,100
                135.8195694136,34.9441454007,100
                135.8200665511,34.9442809393,100
                135.8201081494,34.9442967771,100
                135.8201377995,34.9443333767,100
                135.8201647547,34.944366649,100
                135.8202158873,34.9444297667,100
                135.8202367789,34.9445487533,100
                135.8203126433,34.9446581018,100
                135.8204918977,34.9447307687,100
                135.8208066951,34.9447694755,100
                135.8212613812,34.9449911528,100
                135.8216420958,34.9450676339,100
                135.8219738881,34.9452993403,100
                135.8222045019,34.9454193364,100
                135.8224388017,34.9455218006,100
                135.8224705651,34.9455974886,100
                135.8223986165,34.9456901388,100
                135.8222109964,34.9457220517,100
                135.8220972333,34.9457197028,100
                135.8222438056,34.945773584,100
                135.8224423321,34.9457913397,100
                135.8226263298,34.9457735071,100
                135.8228766872,34.9457158372,100
                135.8231604131,34.9456287046,100
                135.8234865507,34.9455464936,100
                135.8237509201,34.9454708826,100
                135.82392911,34.9453826807,100
                135.8240725382,34.9452811871,100
                135.8242043992,34.9451734095,100
                135.8243928352,34.9450424711,100
                135.8248092655,34.9448407968,100
                135.8250239284,34.9447439118,100
                135.8251514912,34.9446045745,100
                135.8252117708,34.9445168353,100
                135.8255068934,34.9443600595,100
                135.8256839227,34.9441700129,100
                135.8259573477,34.9439065743,100
                135.8259889952,34.9438396411,100
                135.826307037,34.9433738513,100
                135.8264443375,34.9431662097,100
                135.8266776149,34.9428134796,100
                135.826973782,34.9423489961,100
                135.8269979769,34.9421735197,100
                135.8268339473,34.9412185455,100
                135.8277591468,34.9411652055,100
                135.827899719,34.9412501304,100
                135.8281183071,34.941343125,100
                135.8283236127,34.9414855413,100
                135.8284099435,34.9415995478,100
                135.8284719292,34.9417921885,100
                135.8285020515,34.9419195672,100
                135.8285271988,34.9419550991,100
                135.8288658839,34.9422510966,100
                135.8289903173,34.9424079062,100
                135.8292910755,34.9428811201,100
                135.8296050037,34.9434504874,100
                135.8297915621,34.9435158253,100
                135.8299028239,34.9435747187,100
                135.8299927893,34.9436487251,100
                135.8301690519,34.9438455383,100
                135.8303367569,34.9439190893,100
                135.8306401688,34.9439757132,100
                135.8309084574,34.9439914399,100
                135.8314076982,34.9439394494,100
                135.8317737503,34.943847764,100
                135.831958962,34.9437704061,100
                135.832152126,34.9436247431,100
                135.8323107426,34.9435346015,100
                135.8324465714,34.943487882,100
                135.8325932253,34.9434556873,100
                135.8327487343,34.9434370958,100
                135.832845231,34.9434441302,100
                135.8332215639,34.9436045903,100
                135.8335907184,34.9437036957,100
                135.8337855911,34.9437448099,100
                135.8339878494,34.94381467,100
                135.8340362846,34.9438508661,100
                135.8342852918,34.9440851695,100
                135.8346000784,34.9443376623,100
                135.8347307938,34.9444017203,100
                135.8350677307,34.9444068994,100
                135.8354716707,34.9443044133,100
                135.8352355983,34.9427423296,100
                135.835162568,34.9422059842,100
                135.8351084227,34.9416944555,100
                135.8349509209,34.9411212295,100
                135.8349405786,34.9408420338,100
                135.8349387941,34.9405335534,100
                135.8349127391,34.940193415,100
                135.8347649453,34.9399512895,100
                135.8346405334,34.9398174438,100
                135.8345627582,34.9396772542,100
                135.8345582312,34.9395983675,100
                135.8346525332,34.9395024311,100
                135.8348557501,34.9394612976,100
                135.835554361,34.9392285016,100
                135.8357717796,34.9391470309,100
                135.8359349776,34.9390155517,100
                135.836057358,34.9388612681,100
                135.8362614784,34.9387459033,100
                135.8367076655,34.9385447313,100
                135.836870297,34.938460578,100
                135.8369540611,34.9383284967,100
                135.8369620852,34.9381170098,100
                135.836909636,34.9379206538,100
                135.8368029721,34.9376765432,100
                135.8367118415,34.9375092216,100
                135.8365657951,34.9373527405,100
                135.836476817,34.9372326084,100
                135.8363994585,34.9370586145,100
                135.8364121318,34.936914674,100
                135.8364926068,34.9366001084,100
                135.8364697085,34.9364513289,100
                135.8362479805,34.9362086045,100
                135.8363470402,34.9359438511,100
                135.8363384215,34.9357478317,100
                135.8363602316,34.9355274139,100
                135.8363537765,34.9353563302,100
                135.8363278745,34.9349992827,100
                135.8363632877,34.9348636822,100
                135.8365554041,34.934632792,100
                135.8366238786,34.9345811192,100
                135.8367202361,34.9344454608,100
                135.8367822463,34.9342657367,100
                135.836565497,34.934296853,100
                135.8364155403,34.9343483446,100
                135.835805439,34.9346057774,100
                135.8355016777,34.9347412914,100
                135.8348888246,34.9349492746,100
                135.8347076987,34.9350251602,100
                135.8345125055,34.9350801811,100
                135.8342899941,34.9351320669,100
                135.834023047,34.9351763544,100
                135.8335855091,34.9352302688,100
                135.833503016,34.9352552987,100
                135.833396706,34.9353179069,100
                135.8332631911,34.9354172413,100
                135.8328911138,34.9356290773,100
                135.8326989944,34.9357009334,100
                135.8323055453,34.9358056839,100
                135.8320588775,34.9358803512,100
                135.8319555556,34.9358805603,100
                135.831712438,34.9358428957,100
                135.8315401663,34.9357777192,100
                135.8313817979,34.9357475662,100
                135.8312915022,34.9357451165,100
                135.8311843813,34.935773915,100
                135.8310561573,34.9358456456,100
                135.8305537693,34.9361668835,100
                135.8303430204,34.9356968873,100
                135.8302393524,34.9355144681,100
                135.8301577603,34.9354215974,100
                135.8301324691,34.9353679643,100
                135.8301224218,34.9352465979,100
                135.8302416872,34.9348156595,100
                135.8302275847,34.9346907669,100
                135.8301928401,34.9345752122,100
                135.8301805463,34.9344167257,100
                135.8302070609,34.9343254144,100
                135.8302635,34.9342484423,100
                135.8304374667,34.9339752742,100
                135.830526827,34.9337890399,100
                135.8306416304,34.9333322467,100
                135.8307622447,34.9331102771,100
                135.8308692672,34.9329854826,100
                135.8309356114,34.932936063,100
                135.8311154191,34.9328439086,100
                135.8311289461,34.9327518741,100
                135.8310702795,34.9325293727,100
                135.8309749515,34.9322835781,100
                135.8307934273,34.9319341307,100
                135.8306900114,34.9315758464,100
                135.83066199,34.9314348058,100
                135.8306040109,34.9311430008,100
                135.8305809619,34.9309169568,100
                135.8305738707,34.9307281929,100
                135.830601575,34.9306503359,100
                135.8308277049,34.9302096148,100
                135.8308355713,34.9301310252,100
                135.8307543142,34.9298584164,100
                135.8306718636,34.9296745478,100
                135.8305810877,34.9295005977,100
                135.8304976077,34.9293976529,100
                135.8303146463,34.9292083606,100
                135.830094132,34.9289097082,100
                135.8297576317,34.9285308118,100
                135.8295888,34.92830731,100
                135.8294536442,34.9280758229,100
                135.8294031362,34.9279079843,100
                135.829377349,34.9275785388,100
                135.8293615739,34.9274777994,100
                135.8290300404,34.9275040265,100
                135.8284921567,34.9275586961,100
                135.8280427233,34.9276518039,100
                135.8277233236,34.9276916379,100
                135.8273366447,34.9276960181,100
                135.826586443,34.9276616329,100
                135.8263219999,34.9276328705,100
                135.8252956315,34.9276303396,100
                135.8248784141,34.927614102,100
                135.8245641852,34.9275730794,100
                135.824283743,34.9275132997,100
                135.823605711,34.9273492675,100
                135.823421404,34.9273162488,100
                135.8230034977,34.9271972442,100
                135.8226719077,34.9271234409,100
                135.8225400839,34.9271054296,100
                135.8222084375,34.9271388912,100
                135.8220186621,34.9271046675,100
                135.821844433,34.9270839181,100
                135.8217711801,34.9270344397,100
                135.8215901435,34.9270125531,100
                135.8214077921,34.9269856643,100
                135.8210962441,34.9268985791,100
                135.8208886569,34.9267618505,100
                135.820765036,34.9267428651,100
                135.8204980895,34.9268526981,100
                135.8203418425,34.9268704289,100
                135.8199560283,34.9268090097,100
                135.819789748,34.9267053728,100
                135.8195869974,34.9266169644,100
                135.8192848603,34.9265934885,100
                135.8190546842,34.9266132913,100
                135.8188223032,34.9266443599,100
                135.8186731016,34.9266463928,100
                135.8185285177,34.9266091319,100
                135.8183604885,34.9265351415,100
                135.8182356301,34.9265598189,100
                135.8181973429,34.9266088524,100
                135.8181332575,34.9267986392,100
                135.818011795,34.9268250816,100
                135.8177539823,34.9268120909,100
                135.817738294,34.9270466729,100
                135.8176946395,34.9272141627,100
              </coordinates>
            </LinearRing>
          </outerBoundaryIs>
        </Polygon>
      </Placemark>
    </Document>
  </Document>
</kml>
