<?xml version="1.0" encoding="UTF-8"?>
<kml xmlns="http://www.opengis.net/kml/2.2">
  <Document id="root_doc">
    <Document id="_6_35_________disv4326">
      <name>36_35春日野disv4326</name>
      <Placemark id="_6_35_________disv4326.1">
        <visibility>1</visibility>
        <Polygon>
          <extrude>0</extrude>
          <outerBoundaryIs>
            <LinearRing>
              <coordinates>
                135.802875915,34.93648007,100
                135.8028122194,34.9366539271,100
                135.80299187,34.9371947684,100
                135.8033687448,34.9371877036,100
                135.8038768328,34.9372174743,100
                135.804097003,34.9372309312,100
                135.8042700696,34.9372265622,100
                135.8046960223,34.9372157007,100
                135.8047925379,34.9374801088,100
                135.8048501561,34.9376379643,100
                135.8045630775,34.9376910279,100
                135.8044549958,34.9376366219,100
                135.8040003723,34.9376556071,100
                135.8039825625,34.9382035212,100
                135.8035056616,34.9381970884,100
                135.8034485651,34.9381963178,100
                135.8030327446,34.9381974017,100
                135.8030552782,34.9391708481,100
                135.8033774078,34.9391622863,100
                135.8035612296,34.9391776562,100
                135.8040492988,34.9391868283,100
                135.8042818452,34.9392227011,100
                135.8042989213,34.9392253352,100
                135.8049489989,34.9391970856,100
                135.805113115,34.9391815736,100
                135.8051665384,34.9391708146,100
                135.8051779948,34.9391685072,100
                135.8053355632,34.9391368565,100
                135.8057193164,34.9391542353,100
                135.8057756804,34.9395947929,100
                135.8057478087,34.9396182717,100
                135.8053539216,34.9399499477,100
                135.8052789798,34.9400130518,100
                135.804956856,34.9402843215,100
                135.8049022936,34.9402190162,100
                135.8048524538,34.940209216,100
                135.8045792519,34.9402869522,100
                135.8046451196,34.9405470857,100
                135.8042551217,34.940875221,100
                135.8046203914,34.9411839412,100
                135.8053194608,34.9417747762,100
                135.805804844,34.9421919366,100
                135.8069911454,34.9432162622,100
                135.8072423394,34.9432108477,100
                135.8072299198,34.9431403955,100
                135.8072264267,34.9429509065,100
                135.8072240469,34.9428383835,100
                135.8072317103,34.9428383957,100
                135.8073543285,34.942836789,100
                135.8074019684,34.94283627,100
                135.8074019672,34.9428300865,100
                135.8074104575,34.9427079627,100
                135.807420268,34.9425962746,100
                135.8074219337,34.942556036,100
                135.8074330903,34.9425123175,100
                135.8074506235,34.942447972,100
                135.8074883149,34.9424313407,100
                135.8075607473,34.9424266661,100
                135.8078904868,34.9423952859,100
                135.807905521,34.9423938302,100
                135.8079491441,34.9423971558,100
                135.8080329355,34.9424035415,100
                135.8080908434,34.9424108167,100
                135.8081023337,34.9424537976,100
                135.8087193374,34.9424428009,100
                135.8087229226,34.9425674677,100
                135.8090743155,34.9425668248,100
                135.8092805402,34.9425691215,100
                135.8092697365,34.9424221886,100
                135.8093189578,34.9424222662,100
                135.8093216859,34.9425010104,100
                135.809423008,34.9425226511,100
                135.8094931255,34.9425201418,100
                135.809622601,34.9424777241,100
                135.8096258006,34.9424283974,100
                135.8099115367,34.9424270414,100
                135.810250078,34.9423121779,100
                135.8104052874,34.9422409695,100
                135.8105506176,34.9421719849,100
                135.8105865259,34.9421549396,100
                135.8106914327,34.9422389424,100
                135.810690643,34.9422567098,100
                135.8106746504,34.9426165892,100
                135.8106709256,34.9437022579,100
                135.8106691765,34.9442093493,100
                135.8111555643,34.9442186272,100
                135.8114735238,34.9442083446,100
                135.8116072496,34.9441800283,100
                135.8117465315,34.9441348156,100
                135.8119868333,34.9440184147,100
                135.8121594027,34.9438793014,100
                135.8124904231,34.9436607051,100
                135.8131120567,34.9431804153,100
                135.8135149786,34.9428287435,100
                135.8138679358,34.9425206614,100
                135.8138322534,34.942366013,100
                135.8138784436,34.9421042969,100
                135.8137803293,34.9419763866,100
                135.8137920588,34.9419517542,100
                135.8140020858,34.9418207944,100
                135.8140632922,34.9417484868,100
                135.8141762061,34.9415580758,100
                135.8143183524,34.9412986189,100
                135.8144905976,34.940810803,100
                135.8145761003,34.9405135795,100
                135.8146449189,34.9404216321,100
                135.8147601363,34.9403764514,100
                135.8148990557,34.9403943402,100
                135.8152839187,34.9405602238,100
                135.8151926565,34.9402544212,100
                135.8151809474,34.9401253051,100
                135.8151711186,34.9399771769,100
                135.8151408318,34.9397310482,100
                135.8150688761,34.9395797267,100
                135.8150449271,34.9395420109,100
                135.8149301721,34.9393601264,100
                135.8149107049,34.9392677639,100
                135.8148845955,34.9391438382,100
                135.8147935935,34.938712106,100
                135.8147923505,34.9387058937,100
                135.8147429047,34.9384587628,100
                135.8147503718,34.9383601021,100
                135.8146636802,34.9379808465,100
                135.8145886438,34.9380148911,100
                135.8144662179,34.9380143517,100
                135.8144212479,34.9380070993,100
                135.8142673092,34.93804384,100
                135.8139896397,34.9380322173,100
                135.813327242,34.9381354386,100
                135.8131795627,34.9381266899,100
                135.8131058707,34.9381612991,100
                135.8130173414,34.9383003323,100
                135.8130046478,34.9384691325,100
                135.8124764797,34.9384090879,100
                135.8120949949,34.9383824402,100
                135.8117625025,34.9383236812,100
                135.8118026556,34.9381342162,100
                135.8117716964,34.9378875231,100
                135.8113237542,34.9379691621,100
                135.811328247,34.9381476376,100
                135.8112437324,34.9381744107,100
                135.8105963079,34.9382251003,100
                135.8102060787,34.9382556214,100
                135.8101868972,34.9382571222,100
                135.8098801533,34.938281101,100
                135.8098559041,34.9382829653,100
                135.8095374031,34.9375275994,100
                135.8099518061,34.9371899031,100
                135.8099711264,34.937174157,100
                135.8104404491,34.9369221173,100
                135.8108436455,34.9368086482,100
                135.8108535992,34.9365771608,100
                135.8108711104,34.9365490866,100
                135.8108220928,34.9360082507,100
                135.8107862104,34.9360106594,100
                135.8107647419,34.9360211911,100
                135.8106081042,34.9361080685,100
                135.8104180538,34.9362493369,100
                135.81028734,34.9363590036,100
                135.8102093933,34.936412479,100
                135.8099282151,34.9366108632,100
                135.8099434718,34.9366523697,100
                135.809880342,34.9366774849,100
                135.809784299,34.9367156486,100
                135.8096596013,34.9367652474,100
                135.8094985351,34.936851905,100
                135.8093076705,34.9369546444,100
                135.8090986771,34.9370369287,100
                135.8089107217,34.9371480511,100
                135.8088209624,34.937232988,100
                135.8086140604,34.9374288087,100
                135.8085105142,34.9374561825,100
                135.8080324254,34.9375825533,100
                135.8079129632,34.9376141255,100
                135.8075834498,34.937693118,100
                135.8074798372,34.9374384481,100
                135.8074693026,34.9374125555,100
                135.8073133763,34.9372341905,100
                135.8068689331,34.936725754,100
                135.8067344741,34.9367051148,100
                135.8064636322,34.9363321799,100
                135.8063846055,34.9358265092,100
                135.806373766,34.9352455167,100
                135.8062329723,34.9352840982,100
                135.8060810542,34.9353257613,100
                135.8055459243,34.9354725238,100
                135.8049565648,34.9356409589,100
                135.8047938698,34.9356731648,100
                135.8041806938,34.9357945112,100
                135.8040861185,34.935834715,100
                135.804102249,34.9359127062,100
                135.8039241006,34.9359975673,100
                135.8035608509,34.935722162,100
                135.8033141852,34.9359487565,100
                135.8035566033,34.9361010668,100
                135.8034013752,34.9362581547,100
                135.8031856588,34.9363249238,100
                135.802875915,34.93648007,100
              </coordinates>
            </LinearRing>
          </outerBoundaryIs>
        </Polygon>
      </Placemark>
    </Document>
  </Document>
</kml>
