<?xml version="1.0" encoding="UTF-8"?>
<kml xmlns="http://www.opengis.net/kml/2.2">
  <Document id="root_doc">
    <Document id="_6_32_______________disv4326">
      <name>36_32小栗栖宮山disv4326</name>
      <Placemark id="_6_32_______________disv4326.1">
        <visibility>1</visibility>
        <Polygon>
          <extrude>0</extrude>
          <outerBoundaryIs>
            <LinearRing>
              <coordinates>
                135.7968823178,34.9431385117,100
                135.7962297638,34.943152551,100
                135.7962347337,34.9432633447,100
                135.7962549597,34.9437140578,100
                135.7961882262,34.9436868999,100
                135.7958361591,34.9434083886,100
                135.7956077478,34.943191148,100
                135.7953654552,34.9429409932,100
                135.7953087342,34.9428508174,100
                135.7950253962,34.9423612018,100
                135.794842926,34.9420181801,100
                135.7947578047,34.9417906883,100
                135.7946787017,34.9415148926,100
                135.7946860267,34.9413081238,100
                135.7946799812,34.9410956979,100
                135.7946906333,34.9410593034,100
                135.7947682759,34.9407941979,100
                135.7948532787,34.9405444591,100
                135.7948416503,34.9402977943,100
                135.7948373824,34.9402505288,100
                135.794533934,34.9402509985,100
                135.7943144224,34.9402808375,100
                135.7943359824,34.9403130607,100
                135.7941359543,34.9405327404,100
                135.7940096045,34.9407709284,100
                135.7939730996,34.9408521423,100
                135.793965957,34.9409398848,100
                135.7939827825,34.9410890834,100
                135.7934227184,34.941068474,100
                135.7934411223,34.9407482629,100
                135.7934418866,34.9407420664,100
                135.7934742435,34.9404780809,100
                135.7934990514,34.9402755685,100
                135.793520542,34.9401001647,100
                135.7931117691,34.9395965966,100
                135.7926689298,34.9395047691,100
                135.7924834607,34.939523721,100
                135.7922981492,34.9395426558,100
                135.7918695401,34.9395762856,100
                135.7913281543,34.9396575396,100
                135.7913113438,34.9398757722,100
                135.7909404234,34.9399083012,100
                135.7908655166,34.9398677452,100
                135.7904949311,34.9401788916,100
                135.7904263014,34.9403144899,100
                135.7902185413,34.9408880588,100
                135.7901999284,34.9409783164,100
                135.7900962093,34.9411483638,100
                135.7897864736,34.941380171,100
                135.7895292395,34.941547696,100
                135.7894467158,34.9416201646,100
                135.7893101216,34.9418372001,100
                135.7892712613,34.9419439037,100
                135.7892528432,34.9421436794,100
                135.7892541162,34.9423184881,100
                135.7892361799,34.9424971363,100
                135.7892611836,34.9426133892,100
                135.7892258353,34.9427263661,100
                135.7891471349,34.942920191,100
                135.7891436007,34.9430249839,100
                135.7891739269,34.9430652517,100
                135.7891130834,34.9431215591,100
                135.7887622078,34.9432296871,100
                135.7887557239,34.9432317193,100
                135.7880187159,34.9442217171,100
                135.788166519,34.9443040286,100
                135.7883328647,34.944435671,100
                135.7887533114,34.944749962,100
                135.7890310688,34.9449130702,100
                135.7891532699,34.9450244222,100
                135.7892628327,34.945161741,100
                135.7893659708,34.9452349565,100
                135.7895949874,34.9453435368,100
                135.7898737791,34.9454356526,100
                135.7900075927,34.9454528596,100
                135.7901548412,34.9454502288,100
                135.7903817925,34.9454174519,100
                135.7905276985,34.9454643313,100
                135.7907672236,34.9456380034,100
                135.7909832406,34.9458418501,100
                135.7910353423,34.9459397666,100
                135.7910229978,34.9460809568,100
                135.7909755667,34.9462892754,100
                135.7909372075,34.9465385991,100
                135.7908521945,34.9468638364,100
                135.7908572724,34.94740249,100
                135.7908348741,34.9476047956,100
                135.7908885963,34.9477658197,100
                135.7909609231,34.9479350464,100
                135.7910790375,34.9481443564,100
                135.7912383343,34.9483037322,100
                135.7912936021,34.9483931331,100
                135.7913710013,34.9486304735,100
                135.7914374139,34.9487699679,100
                135.7915988333,34.948945053,100
                135.7918174156,34.949092558,100
                135.7920631314,34.9492234186,100
                135.7924365194,34.9494021079,100
                135.7927672365,34.9496119921,100
                135.7930153093,34.9497855344,100
                135.7935793383,34.9501909065,100
                135.7937661919,34.950312224,100
                135.7939756323,34.9504735875,100
                135.79404095,34.9505239113,100
                135.7941397817,34.9505780296,100
                135.7943676466,34.9508238641,100
                135.7946717742,34.9511206786,100
                135.7950165233,34.9513942497,100
                135.7952056904,34.9514545059,100
                135.7954802634,34.9514630009,100
                135.7959020445,34.9515513295,100
                135.7960067071,34.9515654522,100
                135.7961718938,34.9515502365,100
                135.7967061391,34.9515485331,100
                135.7969469612,34.951577181,100
                135.7972346976,34.9516431635,100
                135.7974127731,34.9517186099,100
                135.7975131208,34.9517932927,100
                135.797557691,34.9518264685,100
                135.7976204446,34.9519282034,100
                135.7976486945,34.9520606576,100
                135.7975679867,34.9522751908,100
                135.7975646367,34.9523432192,100
                135.797605744,34.9524914711,100
                135.7976631927,34.9525762941,100
                135.7977772766,34.9526833256,100
                135.7980373807,34.952868215,100
                135.7982087342,34.9529744266,100
                135.798443126,34.9531363822,100
                135.7988530704,34.9532327777,100
                135.7991567126,34.953445416,100
                135.7992669735,34.9535606104,100
                135.7992999452,34.9537142018,100
                135.7993477711,34.9540583987,100
                135.7994300594,34.9542729928,100
                135.7993664078,34.9543755028,100
                135.7993370093,34.9544804643,100
                135.7993203245,34.9546075617,100
                135.7993289373,34.9548514031,100
                135.7995297887,34.9549566754,100
                135.7996518154,34.9550618879,100
                135.7996430682,34.955214353,100
                135.7996261251,34.9552530616,100
                135.7998256392,34.9553009313,100
                135.7999633474,34.9553589821,100
                135.8001429175,34.9554664015,100
                135.8005603893,34.9556219652,100
                135.8007591394,34.9556765932,100
                135.8010334651,34.95565979,100
                135.801263505,34.9556229815,100
                135.8016178472,34.9554543209,100
                135.8017567729,34.9554144039,100
                135.8020026171,34.9552869774,100
                135.8021961529,34.955186792,100
                135.80233576,34.9551475798,100
                135.8024507989,34.9549891605,100
                135.8026821051,34.9548498768,100
                135.8027515494,34.9547904636,100
                135.8028462651,34.9547094274,100
                135.8029137041,34.954685873,100
                135.803199417,34.954635347,100
                135.8034971895,34.9543851735,100
                135.8036422457,34.9542377894,100
                135.8038065382,34.9540303607,100
                135.8039655655,34.953843629,100
                135.8040068217,34.9537951702,100
                135.8040862343,34.9536900071,100
                135.8043567909,34.9535347257,100
                135.8044077331,34.9534597305,100
                135.8046496908,34.9533441953,100
                135.8047303924,34.9532452317,100
                135.8047801194,34.9531594587,100
                135.8048329072,34.9531269352,100
                135.8049676668,34.9530648938,100
                135.8051321885,34.9530600882,100
                135.8053183092,34.9531377189,100
                135.8054898784,34.9532287081,100
                135.8058574389,34.9533742423,100
                135.8061950102,34.953394645,100
                135.8063610541,34.953379135,100
                135.8066169291,34.9533014393,100
                135.8071889562,34.9530913465,100
                135.8074142299,34.9530498706,100
                135.8074891802,34.9530606952,100
                135.8075640431,34.9530714504,100
                135.8075328804,34.9531571826,100
                135.8075617317,34.9532208966,100
                135.8077018385,34.9532596449,100
                135.8077654904,34.9535242775,100
                135.8076308667,34.9536394966,100
                135.8076350625,34.9536651395,100
                135.8076481577,34.9537453093,100
                135.8077118638,34.9539859261,100
                135.8077525745,34.9540629693,100
                135.8079218167,34.9541353577,100
                135.8079687301,34.9540536641,100
                135.8079537343,34.9540003964,100
                135.8078006945,34.9534570037,100
                135.8078024508,34.9533814355,100
                135.8077962266,34.9531775337,100
                135.8078287314,34.9530933514,100
                135.8078404565,34.9530629445,100
                135.8078539185,34.9530484575,100
                135.8079201604,34.952977077,100
                135.8080434014,34.9528179622,100
                135.8081322805,34.9527689431,100
                135.8082735207,34.9527518421,100
                135.8083978222,34.9527919727,100
                135.808448087,34.9528426201,100
                135.808528969,34.952839931,100
                135.8090805597,34.9535779868,100
                135.8092401344,34.9537914974,100
                135.8093677099,34.953962208,100
                135.8098417952,34.9537716669,100
                135.8098279731,34.9536529729,100
                135.8097304814,34.9533613141,100
                135.8095113678,34.9530742523,100
                135.8092956873,34.9527917023,100
                135.8092669201,34.9527945445,100
                135.8090852595,34.9526257203,100
                135.8086581679,34.9522070468,100
                135.8084709691,34.9519836302,100
                135.8083859787,34.9518665822,100
                135.8081332748,34.9515157249,100
                135.8079639445,34.9512788135,100
                135.8078504164,34.9509250783,100
                135.8078213396,34.9508297411,100
                135.8077898191,34.95064425,100
                135.8077403214,34.9503440723,100
                135.8077203589,34.9500793665,100
                135.8076958311,34.9497542256,100
                135.8075824166,34.9492599831,100
                135.8074854632,34.9492505327,100
                135.8069199736,34.9491953295,100
                135.8055881004,34.9490652255,100
                135.8052873219,34.9487889408,100
                135.8051168585,34.9486205508,100
                135.8049432355,34.9483959534,100
                135.8049152358,34.9483266058,100
                135.8048972281,34.9482819256,100
                135.804818689,34.9480969923,100
                135.804716654,34.947947869,100
                135.8046425913,34.9478614729,100
                135.8041234041,34.9473038188,100
                135.8034890887,34.9466225134,100
                135.8029977496,34.9460948323,100
                135.8024425576,34.9453623559,100
                135.8027387316,34.9451903786,100
                135.8027461816,34.9451848846,100
                135.80272268,34.9451588705,100
                135.8025085585,34.9449749828,100
                135.8023784794,34.9448632823,100
                135.8023570287,34.9448448629,100
                135.8022510118,34.9447548924,100
                135.8017713712,34.944432807,100
                135.8020631541,34.9439818306,100
                135.8019075497,34.9438658606,100
                135.8022378478,34.9433750131,100
                135.8022256024,34.9433631609,100
                135.8020276351,34.9431411241,100
                135.8013417148,34.9431596499,100
                135.8011757858,34.943161279,100
                135.8010067029,34.9431488173,100
                135.8005245974,34.9431137238,100
                135.7999760638,34.9430845062,100
                135.7995283571,34.9431052465,100
                135.7996014211,34.9431674154,100
                135.7989486107,34.9431637972,100
                135.7987999113,34.9431667194,100
                135.7986102855,34.9431346408,100
                135.7983869639,34.9431104632,100
                135.7975819332,34.9431158807,100
                135.7974436417,34.9431214251,100
                135.7973701018,34.9431242606,100
                135.7970784417,34.9431327663,100
                135.7970481069,34.94313365,100
                135.7968823178,34.9431385117,100
              </coordinates>
            </LinearRing>
          </outerBoundaryIs>
        </Polygon>
      </Placemark>
    </Document>
  </Document>
</kml>
