<?xml version="1.0" encoding="UTF-8"?>
<kml xmlns="http://www.opengis.net/kml/2.2">
  <Document id="root_doc">
    <Document id="_6_31_________disv4326">
      <name>36_31小栗栖disv4326</name>
      <Placemark id="_6_31_________disv4326.1">
        <visibility>1</visibility>
        <Polygon>
          <extrude>0</extrude>
          <outerBoundaryIs>
            <LinearRing>
              <coordinates>
                135.7975819332,34.9431158807,100
                135.7983869639,34.9431104632,100
                135.7986102855,34.9431346408,100
                135.7987999113,34.9431667194,100
                135.7989486107,34.9431637972,100
                135.7996014211,34.9431674154,100
                135.7995283571,34.9431052465,100
                135.7999760638,34.9430845062,100
                135.8005245974,34.9431137238,100
                135.8010067029,34.9431488173,100
                135.8011757858,34.943161279,100
                135.8013417148,34.9431596499,100
                135.8020276351,34.9431411241,100
                135.8022256024,34.9433631609,100
                135.8025559916,34.9428497751,100
                135.8027158697,34.9426211389,100
                135.8028687966,34.9424024227,100
                135.8021271248,34.9419921568,100
                135.8018318919,34.9418983539,100
                135.801585252,34.9418076595,100
                135.8010539981,34.9416006392,100
                135.8005603517,34.9413593799,100
                135.8002509877,34.9411940649,100
                135.7999664387,34.941033367,100
                135.7999470757,34.9410383355,100
                135.7996372338,34.9409128808,100
                135.7989492572,34.9405559294,100
                135.7986413534,34.9403461007,100
                135.7982318718,34.9400182737,100
                135.7979796736,34.9397624751,100
                135.7976815208,34.9394027854,100
                135.7974964926,34.9391347031,100
                135.7972369661,34.9387982483,100
                135.7972274466,34.9391898922,100
                135.7972965985,34.9399230398,100
                135.7973080071,34.9401127958,100
                135.797341043,34.9406617094,100
                135.7969249322,34.9406804485,100
                135.796541989,34.9406976917,100
                135.7963811824,34.9405190915,100
                135.7961685595,34.9402829339,100
                135.7955019321,34.9403598391,100
                135.7954791982,34.9403095841,100
                135.7948909536,34.9402987945,100
                135.7948823926,34.9405298594,100
                135.794877522,34.9405806303,100
                135.794803534,34.9408203175,100
                135.7947766716,34.9409023217,100
                135.7947561826,34.9410794177,100
                135.7955428814,34.9411051947,100
                135.7955682851,34.9413602954,100
                135.7955239757,34.9415779483,100
                135.7954310209,34.9415812497,100
                135.7954339225,34.941663474,100
                135.7951514282,34.9417583696,100
                135.7951556974,34.9420352125,100
                135.7950468341,34.9420491648,100
                135.7952317396,34.9422354136,100
                135.795338248,34.9422249593,100
                135.7953630085,34.9422421862,100
                135.7950253962,34.9423612018,100
                135.7953087342,34.9428508174,100
                135.7953654552,34.9429409932,100
                135.7956077478,34.943191148,100
                135.7958361591,34.9434083886,100
                135.7961882262,34.9436868999,100
                135.7962549597,34.9437140578,100
                135.7962347337,34.9432633447,100
                135.7962297638,34.943152551,100
                135.7968823178,34.9431385117,100
                135.7970481069,34.94313365,100
                135.7970784417,34.9431327663,100
                135.7973701018,34.9431242606,100
                135.7974436417,34.9431214251,100
                135.7975819332,34.9431158807,100
              </coordinates>
            </LinearRing>
          </outerBoundaryIs>
        </Polygon>
      </Placemark>
    </Document>
  </Document>
</kml>
