<?xml version="1.0" encoding="UTF-8"?>
<kml xmlns="http://www.opengis.net/kml/2.2">
  <Document id="root_doc">
    <Document id="_8_16_________disv4326">
      <name>38_16竹の里disv4326</name>
      <Placemark id="_8_16_________disv4326.1">
        <visibility>1</visibility>
        <Polygon>
          <extrude>0</extrude>
          <outerBoundaryIs>
            <LinearRing>
              <coordinates>
                135.6820979248,34.9564238944,100
                135.6822133678,34.9562884066,100
                135.6824700619,34.9559903113,100
                135.6827491365,34.9556660752,100
                135.6832161502,34.9551317408,100
                135.6836973162,34.9545968091,100
                135.6836294964,34.9546042395,100
                135.6813407358,34.9548535355,100
                135.681087198,34.9548793563,100
                135.6802569908,34.9549638183,100
                135.6793170647,34.9550616501,100
                135.6786744445,34.9551299001,100
                135.6778564065,34.9552183222,100
                135.6770047582,34.9553151006,100
                135.6763751751,34.9553788669,100
                135.6757276763,34.9554521604,100
                135.6754276812,34.9554901719,100
                135.6750355527,34.9555397697,100
                135.6732961911,34.9557150873,100
                135.6726924478,34.9557759454,100
                135.6719620663,34.9558508941,100
                135.6711740949,34.9559360948,100
                135.670906191,34.9559645971,100
                135.6706329209,34.9559762518,100
                135.6704066716,34.9559516205,100
                135.6702242965,34.9559131644,100
                135.6700851461,34.9558681331,100
                135.669805454,34.9557517969,100
                135.6697531879,34.955730244,100
                135.6690850565,34.9554068399,100
                135.6687736851,34.9552503416,100
                135.6684179754,34.9563858976,100
                135.668171595,34.957184955,100
                135.6680214654,34.9576414236,100
                135.6679193501,34.957951951,100
                135.667776803,34.9584369627,100
                135.6692370947,34.9587421823,100
                135.6693740153,34.9586813514,100
                135.6695102369,34.9587162333,100
                135.6696772697,34.9587528193,100
                135.6697574146,34.958869106,100
                135.6701236216,34.9589485614,100
                135.6704713251,34.9590400794,100
                135.6708251347,34.9591725322,100
                135.6711853399,34.9593426115,100
                135.6712267633,34.9593323711,100
                135.6712976458,34.9593684819,100
                135.6713072271,34.959433726,100
                135.6717501545,34.9597893995,100
                135.6718562475,34.9598996988,100
                135.6719548282,34.9600223727,100
                135.6720454579,34.9602145389,100
                135.6721154931,34.9603630544,100
                135.6722211829,34.9605492737,100
                135.6723998134,34.9608852083,100
                135.672447237,34.9609592864,100
                135.6725825785,34.961170586,100
                135.6727468708,34.961351818,100
                135.6728563947,34.9614390905,100
                135.6731796129,34.9616375769,100
                135.6733157078,34.9616630817,100
                135.6734964323,34.9616079252,100
                135.673617601,34.9613539965,100
                135.6737367045,34.9611794361,100
                135.6738955177,34.9610174478,100
                135.6740303783,34.9609042729,100
                135.6743790817,34.9607491268,100
                135.6750441871,34.9605158669,100
                135.6753221261,34.9604296934,100
                135.6758443506,34.9602931027,100
                135.6762065525,34.9602399697,100
                135.6765830777,34.9602213839,100
                135.676880284,34.9600908867,100
                135.6770519955,34.9601582472,100
                135.6771129139,34.96034406,100
                135.6774317837,34.9604571644,100
                135.677776797,34.9605797032,100
                135.6783245618,34.9607740468,100
                135.6789399914,34.9609924418,100
                135.6790635627,34.9607595733,100
                135.6792218257,34.9604871438,100
                135.6792548593,34.9604229276,100
                135.6793698163,34.960199474,100
                135.6794320055,34.9600779346,100
                135.6795273801,34.9598914755,100
                135.6795779028,34.9597893441,100
                135.6796545059,34.9596343883,100
                135.6797461133,34.9594536946,100
                135.6798720472,34.9592337909,100
                135.68026122,34.9586528489,100
                135.6802757063,34.9586340826,100
                135.6804757877,34.9583742976,100
                135.6805981427,34.9582166431,100
                135.680680695,34.9581102987,100
                135.680870536,34.9578652773,100
                135.6809029677,34.9578234557,100
                135.6811220513,34.9575706216,100
                135.6811387218,34.9575510158,100
                135.6820979248,34.9564238944,100
              </coordinates>
            </LinearRing>
          </outerBoundaryIs>
        </Polygon>
      </Placemark>
    </Document>
  </Document>
</kml>
