<?xml version="1.0" encoding="UTF-8"?>
<kml xmlns="http://www.opengis.net/kml/2.2">
  <Document id="root_doc">
    <Document id="_8_12______disv4326">
      <name>38_12桂坂disv4326</name>
      <Placemark id="_8_12______disv4326.1">
        <visibility>1</visibility>
        <Polygon>
          <extrude>0</extrude>
          <outerBoundaryIs>
            <LinearRing>
              <coordinates>
                135.6635090452,34.9803413339,100
                135.6635284006,34.9805366858,100
                135.6634614509,34.9807545475,100
                135.6633382929,34.9809635214,100
                135.6632799199,34.9811604191,100
                135.6631255291,34.9812166176,100
                135.6629832867,34.9812789073,100
                135.6627131738,34.98124175,100
                135.6624988994,34.9811156554,100
                135.6624559983,34.9810127824,100
                135.66265354,34.9807264728,100
                135.662703753,34.9806054745,100
                135.6625349109,34.9805340869,100
                135.6624121515,34.9805092382,100
                135.6622431577,34.9803965786,100
                135.661940472,34.9802700272,100
                135.6618938483,34.9802617285,100
                135.661721327,34.9802944222,100
                135.6616754574,34.9803054933,100
                135.6615800058,34.980257901,100
                135.6613707216,34.9803450041,100
                135.6612057839,34.9804738542,100
                135.6611515736,34.9805153976,100
                135.6609595541,34.9804983847,100
                135.6608396507,34.9805025593,100
                135.660735517,34.9803345093,100
                135.6606938009,34.9801894513,100
                135.6605281076,34.980050246,100
                135.6604557491,34.9799486276,100
                135.6603186771,34.9799398672,100
                135.660057148,34.9799916783,100
                135.6598704269,34.9800696871,100
                135.6598792986,34.9802261334,100
                135.6598871937,34.9803138386,100
                135.6598095781,34.980432718,100
                135.6594333378,34.9805792115,100
                135.6592818517,34.9806685822,100
                135.6591259195,34.9807932244,100
                135.6589039974,34.9806433604,100
                135.6587118218,34.9805633044,100
                135.6584822319,34.9805242724,100
                135.6583922735,34.9805865591,100
                135.6583387893,34.980715997,100
                135.658265438,34.9808846086,100
                135.6582879494,34.9809908782,100
                135.6581788944,34.9809388754,100
                135.658122723,34.9808606811,100
                135.6580179057,34.9807157248,100
                135.6577909716,34.9805578152,100
                135.6576845676,34.9805216666,100
                135.6575202277,34.9805379635,100
                135.6573892584,34.9806419681,100
                135.6574523204,34.9807756092,100
                135.6574184904,34.98087517,100
                135.6573494545,34.9810190712,100
                135.6572075958,34.9811330457,100
                135.6570564685,34.9811870583,100
                135.6570175797,34.9812169512,100
                135.6567224182,34.9813676768,100
                135.6565902388,34.9813765989,100
                135.6565272094,34.9815061486,100
                135.6564720074,34.9816513569,100
                135.6562791592,34.9816246102,100
                135.6562272928,34.9817901823,100
                135.6561000848,34.9819604691,100
                135.6559886372,34.982070726,100
                135.6558524569,34.9821609805,100
                135.6554010323,34.9824297195,100
                135.6551731182,34.9826015491,100
                135.655111103,34.9826619417,100
                135.6549600169,34.9828475842,100
                135.6548235546,34.9831007385,100
                135.6546171953,34.9834415882,100
                135.6545471012,34.9835301982,100
                135.6542726026,34.9838303563,100
                135.6541366008,34.9840242806,100
                135.6541209771,34.9840512101,100
                135.6539729928,34.984306303,100
                135.6538661098,34.9843981176,100
                135.6537601624,34.9845466304,100
                135.6536381623,34.9846718558,100
                135.6536067313,34.9847384624,100
                135.6535473177,34.9849418313,100
                135.6534733707,34.9854050401,100
                135.6533411178,34.9861932512,100
                135.6532849107,34.9864170541,100
                135.6531367568,34.987007242,100
                135.6530514723,34.9871503194,100
                135.6529095992,34.9873690128,100
                135.6527377456,34.9876545997,100
                135.6526841151,34.9878147396,100
                135.6526865446,34.9879479971,100
                135.652732343,34.9880498968,100
                135.6528071151,34.9881911796,100
                135.6529818859,34.9888454665,100
                135.6530652669,34.9890200855,100
                135.6533328302,34.9893567254,100
                135.6533705328,34.9894560669,100
                135.6533769864,34.989543839,100
                135.6533329916,34.9897472502,100
                135.6532118537,34.9899541725,100
                135.6530980431,34.990037796,100
                135.6530638342,34.9900877721,100
                135.6523825148,34.9905576092,100
                135.6524585123,34.9906523436,100
                135.6524802285,34.9907075513,100
                135.6524774982,34.9908012128,100
                135.6525832482,34.9908425768,100
                135.6526804399,34.9909290605,100
                135.6526892558,34.9910445175,100
                135.6526416289,34.9911711509,100
                135.652743797,34.9913503329,100
                135.6529910091,34.9916486723,100
                135.6532729481,34.9918913338,100
                135.6533468971,34.9920202895,100
                135.6533907557,34.9920607,100
                135.6536381562,34.9922044498,100
                135.6537514851,34.9922956282,100
                135.6542303175,34.9925046242,100
                135.6545747182,34.9920993116,100
                135.6546826879,34.9919803845,100
                135.6549647367,34.9917632869,100
                135.6552654438,34.9915603258,100
                135.6558651663,34.9911746114,100
                135.6563651307,34.9908069202,100
                135.6568026416,34.9904799683,100
                135.6571745832,34.9901810688,100
                135.6577933328,34.9897244039,100
                135.6579370214,34.9896217736,100
                135.6581590244,34.989425131,100
                135.6585661481,34.9891276641,100
                135.6587637843,34.9889507416,100
                135.6589521159,34.9887934421,100
                135.6592258544,34.9892429161,100
                135.6593898271,34.9893587423,100
                135.6595344476,34.9893959128,100
                135.6601291589,34.9894706804,100
                135.6607012484,34.989555167,100
                135.6610304171,34.9897798345,100
                135.6612701882,34.9900259479,100
                135.6613385931,34.9902470046,100
                135.6613748112,34.9905259348,100
                135.6613832014,34.9907566151,100
                135.6613667688,34.99096166,100
                135.6613350284,34.9911025721,100
                135.6613312415,34.9912615197,100
                135.6613590776,34.9913442114,100
                135.6615367597,34.9920325197,100
                135.6615762448,34.9922775123,100
                135.6615814563,34.9924905056,100
                135.6616104122,34.9925663689,100
                135.6616928086,34.992670622,100
                135.6619065961,34.9929060995,100
                135.6620874653,34.9931490214,100
                135.6622692089,34.9933467299,100
                135.6625569983,34.9933545723,100
                135.6630563183,34.9932912354,100
                135.6633367971,34.9932969428,100
                135.6636399204,34.9933429994,100
                135.6646120956,34.9935111285,100
                135.665033437,34.9936522375,100
                135.6652827337,34.9936801807,100
                135.6655504854,34.9938365003,100
                135.6656655967,34.993843789,100
                135.6658142215,34.9937408068,100
                135.6658616333,34.9936013444,100
                135.6658730766,34.9934770664,100
                135.6657900735,34.993268715,100
                135.6658396948,34.9931330613,100
                135.6660349971,34.9930167534,100
                135.666442279,34.9928495432,100
                135.6669768198,34.9927479689,100
                135.6672323333,34.9926522487,100
                135.6674144824,34.9924390589,100
                135.6676908735,34.9920506832,100
                135.6678321444,34.9917968829,100
                135.6679214905,34.9915203316,100
                135.6679991776,34.9908858178,100
                135.6680816745,34.9906882012,100
                135.6681983779,34.990571461,100
                135.6683982574,34.9905161539,100
                135.6686872721,34.9905297582,100
                135.6688276965,34.9905147147,100
                135.6690952971,34.9903643668,100
                135.6691902524,34.9902279867,100
                135.6692364532,34.9901156317,100
                135.6692376525,34.9899039886,100
                135.6690903152,34.9891389844,100
                135.6690974888,34.9890211025,100
                135.6691237455,34.9889676456,100
                135.6693230255,34.9887840054,100
                135.6695419218,34.988649017,100
                135.6697784365,34.9884423756,100
                135.6698751117,34.9882819818,100
                135.6700875992,34.9880481581,100
                135.6702026677,34.9879791634,100
                135.6703443895,34.987943625,100
                135.6704269444,34.9879360999,100
                135.6706118193,34.98809204,100
                135.6707726492,34.9881673432,100
                135.6709418374,34.9881811805,100
                135.671082035,34.9881199994,100
                135.6711114666,34.9880852856,100
                135.6711088182,34.9879352576,100
                135.6711941061,34.9877694084,100
                135.6713473799,34.9876914995,100
                135.6714738808,34.9876733859,100
                135.6717410599,34.9877247434,100
                135.6719085218,34.987832813,100
                135.6720481514,34.987854175,100
                135.6721323901,34.9878377087,100
                135.6723235764,34.9877396188,100
                135.6725172713,34.9876231541,100
                135.6728473997,34.9875691067,100
                135.6730660131,34.987507293,100
                135.6732053926,34.9874593525,100
                135.6733517565,34.9874834118,100
                135.6734249806,34.9875440391,100
                135.6735583484,34.9874692475,100
                135.6737014498,34.9874426569,100
                135.6739096202,34.9874453999,100
                135.6739670158,34.9873603309,100
                135.6742163048,34.9873793134,100
                135.674419054,34.9874112703,100
                135.6746116028,34.9874691178,100
                135.6747870771,34.9875331881,100
                135.6747505274,34.9873467985,100
                135.6746123107,34.9872907867,100
                135.6744811256,34.9872475418,100
                135.67444685,34.9872159668,100
                135.6744337346,34.9871412028,100
                135.6743465992,34.9870332075,100
                135.6746138924,34.9868923579,100
                135.6747802257,34.9868227239,100
                135.6748586697,34.98685639,100
                135.6749641085,34.9869290055,100
                135.6750133923,34.9868607489,100
                135.6750949685,34.9866384736,100
                135.6752111374,34.986594765,100
                135.6752100969,34.9865603916,100
                135.675145951,34.986463311,100
                135.6751539387,34.9864172022,100
                135.6753339459,34.9864273319,100
                135.6754108834,34.986403664,100
                135.6755844137,34.9863023591,100
                135.6758685088,34.9862159297,100
                135.6759250751,34.9861987557,100
                135.6759650924,34.9861902011,100
                135.6758030724,34.9858173453,100
                135.6757725138,34.9857095777,100
                135.675772728,34.9856543628,100
                135.6757729555,34.985595698,100
                135.6758028186,34.9855685927,100
                135.6760934333,34.9855548454,100
                135.6762008059,34.9855470196,100
                135.6763751086,34.9855096225,100
                135.676332939,34.9853434876,100
                135.6764945715,34.9853077423,100
                135.6768671097,34.9852253482,100
                135.6772150016,34.9851483818,100
                135.6776145312,34.9850729578,100
                135.6777042643,34.9850532644,100
                135.6778915912,34.9850032157,100
                135.6780147171,34.9849386654,100
                135.6780649156,34.98484721,100
                135.6780837016,34.9847852433,100
                135.6780851484,34.9847108298,100
                135.6780273693,34.984548033,100
                135.6780967986,34.9845281385,100
                135.6782592538,34.984462295,100
                135.6784100035,34.984385998,100
                135.6784756137,34.984330956,100
                135.6784303478,34.9842751983,100
                135.6783465293,34.9841698258,100
                135.6782110458,34.9842427843,100
                135.6780668369,34.9843205065,100
                135.6780005198,34.9843420924,100
                135.6777789272,34.9844265114,100
                135.6774711278,34.9844924606,100
                135.6773230083,34.9845077015,100
                135.6771481617,34.9845416056,100
                135.6770307044,34.9845550965,100
                135.6770056519,34.9845535261,100
                135.6769361452,34.9845382233,100
                135.6768065401,34.9844875752,100
                135.6766892769,34.9844268835,100
                135.6766182809,34.9843753084,100
                135.6765875721,34.9843422982,100
                135.676584987,34.9843395182,100
                135.676584232,34.9843387085,100
                135.6765681879,34.9843214621,100
                135.6765316504,34.9842588923,100
                135.6765087901,34.9841927441,100
                135.6764521576,34.9839783622,100
                135.6764359494,34.9839215106,100
                135.6763519043,34.9836267331,100
                135.6762621807,34.983347088,100
                135.676168593,34.9830660444,100
                135.6761085126,34.9828871365,100
                135.6760804025,34.9827978612,100
                135.6760784131,34.9827902249,100
                135.6760556346,34.9827028038,100
                135.676037812,34.9825761923,100
                135.6760401574,34.9824871452,100
                135.6760586486,34.9823779452,100
                135.6761063632,34.9822713409,100
                135.6761440436,34.9822203914,100
                135.6762139705,34.9821493842,100
                135.676277718,34.9820927598,100
                135.6763425201,34.9820460563,100
                135.6763702364,34.9820324681,100
                135.6764414799,34.9820089785,100
                135.6765120638,34.9819964572,100
                135.6765929001,34.9819878775,100
                135.6766697471,34.9819826484,100
                135.6767633765,34.9819777598,100
                135.676762979,34.9818434392,100
                135.6767629587,34.9818365724,100
                135.6767628482,34.9818226246,100
                135.6767636348,34.9814777755,100
                135.6767566889,34.981158298,100
                135.6767658753,34.9811072103,100
                135.676769003,34.9810898174,100
                135.6768781433,34.9807140601,100
                135.6769631742,34.9804426455,100
                135.6772281884,34.9804545914,100
                135.6772511825,34.9801972302,100
                135.6770426244,34.980193249,100
                135.6770441519,34.9801749269,100
                135.6770220113,34.9800088696,100
                135.6770332648,34.9798757192,100
                135.6766861329,34.9798712766,100
                135.6758497389,34.9798522928,100
                135.6756449141,34.9798570304,100
                135.6756152503,34.9798058196,100
                135.675600728,34.9797057034,100
                135.6754799486,34.9797279187,100
                135.6753546805,34.9797328677,100
                135.6751858679,34.9796745954,100
                135.6751491649,34.9797060492,100
                135.675093967,34.9798289401,100
                135.675081423,34.9800953353,100
                135.6750348131,34.980160568,100
                135.6750673767,34.9802752415,100
                135.6750560146,34.9804352927,100
                135.6749852013,34.9805910304,100
                135.6748024713,34.9806455478,100
                135.6747160688,34.9807279987,100
                135.6746828514,34.9809963108,100
                135.6736901924,34.9811000701,100
                135.6736844185,34.9810774468,100
                135.6736365386,34.9809307585,100
                135.6735024252,34.9807345402,100
                135.6733976638,34.9806150258,100
                135.6733687478,34.9807122786,100
                135.6733819184,34.9809278219,100
                135.6733536402,34.9810589527,100
                135.6733943954,34.981211468,100
                135.673382444,34.981423494,100
                135.6733219699,34.9817461718,100
                135.6731655062,34.9817023682,100
                135.6729471206,34.9817003012,100
                135.6727105972,34.9817465705,100
                135.6724423063,34.9817378901,100
                135.6724477751,34.981559583,100
                135.67227061,34.9814760714,100
                135.6721228149,34.981501731,100
                135.672011477,34.9812409223,100
                135.6720575736,34.981051244,100
                135.6716266793,34.9809286004,100
                135.6712270662,34.9809135101,100
                135.6710516213,34.9808750782,100
                135.6709438071,34.9810850132,100
                135.6707116746,34.9810935443,100
                135.6706556684,34.9810444463,100
                135.6705065248,34.9809873507,100
                135.6704373736,34.9809296953,100
                135.6703904509,34.9807308209,100
                135.6704908648,34.9805047379,100
                135.6705560901,34.9803101819,100
                135.6705368992,34.9801588522,100
                135.6704745627,34.9800712124,100
                135.6704667938,34.9799311104,100
                135.6704039018,34.979789522,100
                135.6704523845,34.9797500026,100
                135.6704922938,34.9796171429,100
                135.6703295939,34.9795375427,100
                135.6702515979,34.9794828217,100
                135.6700892961,34.9794165335,100
                135.6700641994,34.9793034992,100
                135.670100899,34.9792303535,100
                135.6703366748,34.9791257009,100
                135.6704473676,34.9789938075,100
                135.6704959679,34.9788051926,100
                135.6705069272,34.9785218213,100
                135.6704897708,34.9784512769,100
                135.6703608406,34.9784233916,100
                135.6699182229,34.9784260691,100
                135.6692829521,34.9784049815,100
                135.6690540981,34.9784313362,100
                135.6690128058,34.9783572041,100
                135.6687903166,34.9784078016,100
                135.6687604741,34.9784832897,100
                135.6687935545,34.9787070582,100
                135.6687529846,34.9788439303,100
                135.6687007733,34.9789549936,100
                135.6685772126,34.9790991767,100
                135.6685273006,34.9791269301,100
                135.6682027797,34.9791899979,100
                135.6677547329,34.9792053308,100
                135.6675351128,34.9789440078,100
                135.6674253821,34.9789164825,100
                135.6674212876,34.9787055247,100
                135.6673821319,34.978636906,100
                135.6673339537,34.9786331686,100
                135.6672263844,34.9784174219,100
                135.6670248711,34.978412365,100
                135.6670294902,34.9783484224,100
                135.6670078392,34.9782520667,100
                135.6669826477,34.9782100482,100
                135.6669502408,34.9781768756,100
                135.666873763,34.9781288875,100
                135.6668666121,34.9779999576,100
                135.6668117699,34.9779964219,100
                135.6668050493,34.97794687,100
                135.6666756173,34.9778475645,100
                135.6667667573,34.9775086317,100
                135.6668319361,34.9773759828,100
                135.666890458,34.9772545826,100
                135.6668192875,34.9772811515,100
                135.6667515336,34.9773038556,100
                135.666498167,34.9773891566,100
                135.6664574601,34.9776127955,100
                135.6663727524,34.9776327064,100
                135.6663968989,34.977719328,100
                135.6662044894,34.9777484527,100
                135.6661978368,34.977801326,100
                135.6662796176,34.977908459,100
                135.6657382725,34.9781357282,100
                135.6656401141,34.9781651096,100
                135.6653595703,34.9781873707,100
                135.6650438639,34.9781662213,100
                135.6648927942,34.9778683178,100
                135.6645547585,34.9779788072,100
                135.6645445673,34.9781980222,100
                135.6644431919,34.9783503616,100
                135.6643670977,34.9785244624,100
                135.6643306423,34.978820513,100
                135.6642069794,34.9790711089,100
                135.6640682996,34.9791743979,100
                135.6639973339,34.9792914652,100
                135.6639649061,34.9793698331,100
                135.6639037679,34.9793952309,100
                135.6639175857,34.979521899,100
                135.6638476287,34.9796700285,100
                135.663681582,34.9797527467,100
                135.6636506775,34.9797559717,100
                135.6635929308,34.9798888518,100
                135.6635704657,34.9800838066,100
                135.6635090452,34.9803413339,100
              </coordinates>
            </LinearRing>
          </outerBoundaryIs>
        </Polygon>
      </Placemark>
    </Document>
  </Document>
</kml>
