<?xml version="1.0" encoding="UTF-8"?>
<kml xmlns="http://www.opengis.net/kml/2.2">
  <Document id="root_doc">
    <Document id="_8_13______disv4326">
      <name>38_13新林disv4326</name>
      <Placemark id="_8_13______disv4326.1">
        <visibility>1</visibility>
        <Polygon>
          <extrude>0</extrude>
          <outerBoundaryIs>
            <LinearRing>
              <coordinates>
                135.6684720773,34.9663557057,100
                135.667966745,34.9663463676,100
                135.6673675885,34.9663353627,100
                135.6672258188,34.9664281507,100
                135.667088223,34.9664235482,100
                135.6669335837,34.9664183353,100
                135.6668338841,34.9663236176,100
                135.6653036188,34.9662705357,100
                135.6653873457,34.9660116598,100
                135.6654411846,34.9658451733,100
                135.665224228,34.9658220384,100
                135.6652137446,34.965945331,100
                135.6649871217,34.9659963299,100
                135.6646627591,34.9660832595,100
                135.6645244146,34.9661106271,100
                135.6642297927,34.9661043892,100
                135.6640867234,34.9661152623,100
                135.6638368378,34.966174577,100
                135.6634880161,34.9663274987,100
                135.6630291765,34.9666163226,100
                135.662806332,34.9666258463,100
                135.6624631277,34.966668631,100
                135.6623880276,34.9666484905,100
                135.6618087169,34.9665326433,100
                135.6613959197,34.966474096,100
                135.6612186472,34.9664906446,100
                135.661077916,34.9664894076,100
                135.660787747,34.9664502143,100
                135.6605588213,34.9664406306,100
                135.6601027746,34.9663987889,100
                135.6597294698,34.9664063371,100
                135.6596137255,34.9663988977,100
                135.6591427252,34.9663958808,100
                135.6588081182,34.9663719075,100
                135.6584562581,34.9663256983,100
                135.6583314286,34.9662702708,100
                135.65798658,34.9662303482,100
                135.6575718246,34.9662236816,100
                135.6570711309,34.9662333901,100
                135.6567612722,34.9662560343,100
                135.6563048323,34.9663112931,100
                135.6560032035,34.966304026,100
                135.6555956147,34.9662712444,100
                135.6552397385,34.9661934621,100
                135.6550393072,34.9661627463,100
                135.6547493515,34.9661567776,100
                135.6546028621,34.9661623464,100
                135.654453294,34.9661831177,100
                135.6542285787,34.9662526223,100
                135.6540792215,34.9663462192,100
                135.6539853054,34.966387714,100
                135.6538838333,34.9664098212,100
                135.6536719044,34.9664645707,100
                135.6535879007,34.9665141241,100
                135.6535212121,34.9666270434,100
                135.6535002612,34.9667585445,100
                135.6533898828,34.9667826661,100
                135.6533762083,34.9668101658,100
                135.6534106481,34.9670560628,100
                135.6533121678,34.9670683158,100
                135.6533558298,34.9671180935,100
                135.6534130556,34.9672332689,100
                135.6534100167,34.9673829216,100
                135.6533465892,34.9675707158,100
                135.653392354,34.9676445158,100
                135.6534917548,34.967776151,100
                135.6535372704,34.9679511575,100
                135.6535211929,34.9680421758,100
                135.6534671618,34.9681871045,100
                135.6534904279,34.9683735261,100
                135.6533507698,34.9687465424,100
                135.6530859636,34.9688475529,100
                135.652984807,34.9690705941,100
                135.6528824308,34.9691705915,100
                135.6529354543,34.9692987827,100
                135.6529416159,34.969385781,100
                135.6528930181,34.9695305143,100
                135.6527474579,34.9696246829,100
                135.6527192443,34.9697640522,100
                135.6526428208,34.9698563052,100
                135.6525287132,34.9698659092,100
                135.6523479947,34.9698049613,100
                135.6521868543,34.9697937929,100
                135.652176453,34.9698105263,100
                135.6521364439,34.9698748528,100
                135.6521758199,34.9699615241,100
                135.6521893729,34.9699937478,100
                135.6521756097,34.9700113154,100
                135.6520796104,34.9702252838,100
                135.6520944465,34.9703639299,100
                135.6520562015,34.9704503057,100
                135.6520554093,34.9704506562,100
                135.6520496642,34.9704535261,100
                135.6517791248,34.9705874794,100
                135.6516839879,34.9708091244,100
                135.6515841662,34.9708542646,100
                135.651505645,34.9708897446,100
                135.6512355253,34.9712518866,100
                135.6510007463,34.9715667297,100
                135.6508131443,34.9717924749,100
                135.6505966986,34.9719596104,100
                135.6501948142,34.9721295907,100
                135.649574748,34.9722347786,100
                135.649437266,34.9722922016,100
                135.6491146677,34.9724270528,100
                135.6490342611,34.9726277689,100
                135.6492160582,34.972693946,100
                135.6494105662,34.9729479354,100
                135.6493800611,34.9732828245,100
                135.6493348947,34.9733448964,100
                135.6489366863,34.974012643,100
                135.6495844556,34.974309403,100
                135.6495915862,34.974307609,100
                135.6495918869,34.9743074701,100
                135.6499570917,34.9741349912,100
                135.6500141965,34.974111422,100
                135.6503033866,34.9739923183,100
                135.6506386189,34.9738958841,100
                135.6510005927,34.9738184003,100
                135.6510017902,34.9738183334,100
                135.6512696804,34.9738034712,100
                135.6513683614,34.9738017841,100
                135.6515219756,34.9737991977,100
                135.6516323724,34.9737938813,100
                135.6517758433,34.9737869698,100
                135.6519099889,34.9737598875,100
                135.652035144,34.9737346831,100
                135.6521601027,34.9736844042,100
                135.6524438323,34.973570492,100
                135.6526523626,34.9736069385,100
                135.6529976607,34.9736989225,100
                135.6532428071,34.9737513914,100
                135.6533975567,34.9737738085,100
                135.6537254926,34.9738600355,100
                135.6540158766,34.9739185478,100
                135.654189367,34.9739708792,100
                135.654506768,34.9740346077,100
                135.6547494152,34.9741019968,100
                135.6553062304,34.9742650766,100
                135.6555831478,34.9743324913,100
                135.655785477,34.9743586316,100
                135.6560377099,34.9743699143,100
                135.6562152916,34.9743547135,100
                135.656455267,34.9743144756,100
                135.6566922361,34.9742510583,100
                135.657385071,34.973905668,100
                135.6575722519,34.9738240788,100
                135.6577877406,34.9736889726,100
                135.6580494632,34.973504908,100
                135.6582495664,34.9734741333,100
                135.6583929951,34.9734361548,100
                135.6585799313,34.9734187232,100
                135.6590051123,34.973405907,100
                135.6593444029,34.9734165105,100
                135.6594738638,34.9733988452,100
                135.6598433408,34.9733206496,100
                135.6600768672,34.9733146105,100
                135.660228009,34.9732893955,100
                135.6603754079,34.973233112,100
                135.6606347756,34.9732108045,100
                135.6607876964,34.9731431969,100
                135.6611566859,34.973127602,100
                135.661300809,34.9731345531,100
                135.6616042573,34.9731916686,100
                135.6618406092,34.9732795146,100
                135.6619446495,34.9733065656,100
                135.6621801765,34.9733342633,100
                135.6624533815,34.9733493179,100
                135.6626662227,34.9733377237,100
                135.6632812477,34.9734278124,100
                135.6634906186,34.973422615,100
                135.6636624237,34.9734001583,100
                135.6638794733,34.9733717826,100
                135.6639949564,34.9733752698,100
                135.6643261212,34.9733852677,100
                135.6647561289,34.9733875783,100
                135.6649419631,34.9734321087,100
                135.6653151889,34.9735382831,100
                135.6654576705,34.9735602964,100
                135.6657917612,34.9735793824,100
                135.6668358385,34.9735863265,100
                135.6671835035,34.9737251038,100
                135.6675031554,34.9741031897,100
                135.6682685179,34.9736860873,100
                135.6681827733,34.9736721903,100
                135.6682205153,34.9735144637,100
                135.6684470362,34.9735379688,100
                135.6687200988,34.9734010961,100
                135.6689123299,34.9736181852,100
                135.6690808514,34.9735198318,100
                135.6691399683,34.973597111,100
                135.6693168385,34.9734810327,100
                135.6694547619,34.9733905542,100
                135.6691937315,34.9731262345,100
                135.6695739126,34.9728980229,100
                135.6700703415,34.9726013874,100
                135.6706665622,34.9722479734,100
                135.6711035942,34.9719913173,100
                135.6713864506,34.971824955,100
                135.6715149162,34.9717500146,100
                135.6714984709,34.9715693927,100
                135.67154998,34.9715365015,100
                135.6717584453,34.9716081945,100
                135.6722135659,34.9713565843,100
                135.6727181322,34.971077563,100
                135.6727855965,34.9713124098,100
                135.6730829111,34.9711767845,100
                135.673027095,34.9710864182,100
                135.6730257645,34.9708577341,100
                135.6739327411,34.9704768876,100
                135.6743304425,34.9703937146,100
                135.6753397049,34.9702685703,100
                135.6754086366,34.9705623679,100
                135.6759262883,34.9705289494,100
                135.6758033226,34.9703736818,100
                135.6757108686,34.9695873179,100
                135.6756760196,34.9692909352,100
                135.6756817741,34.9689983916,100
                135.6757113797,34.968644569,100
                135.6757304438,34.9684169266,100
                135.6757339086,34.9684059484,100
                135.6758169127,34.9681426956,100
                135.6758350425,34.9680564703,100
                135.6760113144,34.9676078873,100
                135.6761715407,34.9672649734,100
                135.6762169635,34.9671726918,100
                135.6764036148,34.966793578,100
                135.6766512924,34.9663462386,100
                135.6771064972,34.9654561703,100
                135.6772169698,34.9656166141,100
                135.6772400888,34.9657331643,100
                135.6772756793,34.9657998127,100
                135.6773323492,34.9658133334,100
                135.6773329903,34.9658134859,100
                135.6773346829,34.9658291958,100
                135.6773494637,34.9659066359,100
                135.6773492464,34.9660848176,100
                135.6773631728,34.9661009818,100
                135.677529835,34.9662943945,100
                135.6773314045,34.9664798735,100
                135.6770720012,34.9663582636,100
                135.6770162288,34.9664836911,100
                135.6771896553,34.9666143689,100
                135.6769368618,34.96684175,100
                135.6768217231,34.9668040483,100
                135.676788626,34.9668725591,100
                135.6767209529,34.9670219694,100
                135.6767995704,34.967046051,100
                135.6767792835,34.9670817755,100
                135.6768288011,34.9670978939,100
                135.6767795467,34.9672115676,100
                135.676543232,34.9675444842,100
                135.6765406512,34.967645445,100
                135.6765453792,34.9676835316,100
                135.6765348573,34.9676838543,100
                135.6764309493,34.9677887295,100
                135.6763517,34.9678338048,100
                135.6763328899,34.9678486297,100
                135.6762419891,34.9678915602,100
                135.6762494767,34.9679127667,100
                135.6763274542,34.9679642446,100
                135.6763749001,34.9680016254,100
                135.6764947249,34.96819407,100
                135.676608472,34.9685205937,100
                135.6766139236,34.968786827,100
                135.6768829159,34.9688805026,100
                135.6770451201,34.9688814407,100
                135.6771071549,34.9688817991,100
                135.6772869826,34.9688962176,100
                135.6775098771,34.9689414571,100
                135.6776399981,34.9689386312,100
                135.677807253,34.9690409102,100
                135.6785668601,34.9693334944,100
                135.6787129214,34.969413321,100
                135.6788595229,34.9697197166,100
                135.6789936762,34.9701047474,100
                135.6790366074,34.9702765642,100
                135.6791334198,34.970654314,100
                135.6792134612,34.9708545403,100
                135.6792359607,34.9710891967,100
                135.6790597151,34.9715443345,100
                135.6788726015,34.9719100704,100
                135.6797246769,34.9716467205,100
                135.6799024723,34.9714226598,100
                135.6800212004,34.9709944848,100
                135.6801404195,34.9706500486,100
                135.6802553935,34.9703528596,100
                135.6803820504,34.9700428142,100
                135.6804191637,34.9699810034,100
                135.6809201547,34.969945688,100
                135.6810934949,34.9695642771,100
                135.6812126199,34.9695397262,100
                135.6815102218,34.9695648698,100
                135.6817015895,34.9693745759,100
                135.6820524075,34.9692198419,100
                135.6822627986,34.9693309599,100
                135.6824105351,34.9693705021,100
                135.6825114121,34.9693521707,100
                135.6829054824,34.9692806516,100
                135.6829433789,34.969016783,100
                135.6829730353,34.9687822632,100
                135.6830444311,34.9685513013,100
                135.6831222351,34.9683901504,100
                135.6831672256,34.9682181403,100
                135.6832132557,34.9680934592,100
                135.683216026,34.9679888098,100
                135.6831739651,34.9677264245,100
                135.6832747513,34.9675051885,100
                135.6834438094,34.9671092531,100
                135.6830272994,34.9662362006,100
                135.6829930421,34.9661380754,100
                135.6829880622,34.966063901,100
                135.6830732144,34.9657238104,100
                135.6831114128,34.9655433304,100
                135.6831817914,34.9649585323,100
                135.683201054,34.9647403233,100
                135.6831983682,34.9644325446,100
                135.6831835528,34.9642952407,100
                135.6831312765,34.9642059432,100
                135.6830412874,34.9642084571,100
                135.6827792108,34.9642618685,100
                135.6826310399,34.9643110667,100
                135.6824283246,34.9644236495,100
                135.6823134172,34.9645165986,100
                135.682046494,34.9647702245,100
                135.6811498121,34.9647939545,100
                135.6810293635,34.9648810428,100
                135.6809648508,34.9649329221,100
                135.6808961937,34.9649499978,100
                135.6808147567,34.9649699987,100
                135.6806793159,34.9648272396,100
                135.6802462005,34.9648175183,100
                135.6801858869,34.9648113041,100
                135.6794083734,34.9648755455,100
                135.6788142504,34.964931812,100
                135.6782011852,34.964986194,100
                135.6779897725,34.965016839,100
                135.6774894051,34.9650754572,100
                135.6772178938,34.9652272893,100
                135.6771315625,34.9654065845,100
                135.6768106724,34.9653184781,100
                135.6767600152,34.9652433384,100
                135.6766898542,34.9651788519,100
                135.6764271901,34.9651942878,100
                135.6763166519,34.9652007569,100
                135.6756636918,34.965282769,100
                135.6754860648,34.9653208234,100
                135.6750406371,34.9653414047,100
                135.6746463136,34.9654096595,100
                135.6745614728,34.9654244349,100
                135.6744371053,34.9655768629,100
                135.6742658611,34.9655901418,100
                135.6741191764,34.9655198167,100
                135.6739641448,34.9655603224,100
                135.6736301552,34.965645215,100
                135.673507174,34.9656775659,100
                135.6732926621,34.9657343219,100
                135.6732641159,34.965743402,100
                135.6730175034,34.9658210599,100
                135.6728602881,34.9658619808,100
                135.6728028015,34.9658769699,100
                135.6725475969,34.9659474196,100
                135.6724007596,34.9659816072,100
                135.6723816208,34.9659860634,100
                135.6721833353,34.9660444811,100
                135.6719836756,34.9661038767,100
                135.6716042992,34.9662097616,100
                135.6712758661,34.9662781747,100
                135.671226748,34.9662914232,100
                135.6711544421,34.9663109474,100
                135.6709424341,34.9663719276,100
                135.670697002,34.9664149287,100
                135.6704080876,34.9664142858,100
                135.670288938,34.9664994628,100
                135.6701622589,34.9664817932,100
                135.6700322168,34.966384179,100
                135.6693917185,34.9663725789,100
                135.6693754847,34.9663723939,100
                135.6684720773,34.9663557057,100
              </coordinates>
            </LinearRing>
          </outerBoundaryIs>
        </Polygon>
      </Placemark>
    </Document>
  </Document>
</kml>
