<?xml version="1.0" encoding="UTF-8"?>
<kml xmlns="http://www.opengis.net/kml/2.2">
  <Document id="root_doc">
    <Document id="_8_14______disv4326">
      <name>38_14福西disv4326</name>
      <Placemark id="_8_14______disv4326.1">
        <visibility>1</visibility>
        <Polygon>
          <extrude>0</extrude>
          <outerBoundaryIs>
            <LinearRing>
              <coordinates>
                135.6832161502,34.9551317408,100
                135.6827491365,34.9556660752,100
                135.6824700619,34.9559903113,100
                135.6822133678,34.9562884066,100
                135.6820979248,34.9564238944,100
                135.6811387218,34.9575510158,100
                135.6811220513,34.9575706216,100
                135.6809029677,34.9578234557,100
                135.680870536,34.9578652773,100
                135.680680695,34.9581102987,100
                135.6805981427,34.9582166431,100
                135.6804757877,34.9583742976,100
                135.6802757063,34.9586340826,100
                135.68026122,34.9586528489,100
                135.6798720472,34.9592337909,100
                135.6797461133,34.9594536946,100
                135.6796545059,34.9596343883,100
                135.6795779028,34.9597893441,100
                135.6795273801,34.9598914755,100
                135.6794320055,34.9600779346,100
                135.6793698163,34.960199474,100
                135.6792548593,34.9604229276,100
                135.6792218257,34.9604871438,100
                135.6790635627,34.9607595733,100
                135.6789399914,34.9609924418,100
                135.6788962441,34.9610730386,100
                135.6786772701,34.9615372996,100
                135.6785329789,34.9617967327,100
                135.6783652141,34.9620975856,100
                135.6781925152,34.9624299769,100
                135.6779665583,34.9628238527,100
                135.6777770985,34.9631591571,100
                135.6776113648,34.9634426179,100
                135.6773983247,34.9637522237,100
                135.6768935437,34.9644735582,100
                135.6766676932,34.9647702395,100
                135.6763166519,34.9652007569,100
                135.6764271901,34.9651942878,100
                135.6766898542,34.9651788519,100
                135.6767600152,34.9652433384,100
                135.6768106724,34.9653184781,100
                135.6771315625,34.9654065845,100
                135.6772178938,34.9652272893,100
                135.6774894051,34.9650754572,100
                135.6779897725,34.965016839,100
                135.6782011852,34.964986194,100
                135.6788142504,34.964931812,100
                135.6794083734,34.9648755455,100
                135.6801858869,34.9648113041,100
                135.6802462005,34.9648175183,100
                135.6806793159,34.9648272396,100
                135.6808147567,34.9649699987,100
                135.6808961937,34.9649499978,100
                135.6809648508,34.9649329221,100
                135.6810293635,34.9648810428,100
                135.6811498121,34.9647939545,100
                135.682046494,34.9647702245,100
                135.6823134172,34.9645165986,100
                135.6824283246,34.9644236495,100
                135.6826310399,34.9643110667,100
                135.6827792108,34.9642618685,100
                135.6830412874,34.9642084571,100
                135.6831312765,34.9642059432,100
                135.6832741464,34.9640708777,100
                135.6833536812,34.9640391091,100
                135.6836851497,34.9639884807,100
                135.6837893523,34.9639488872,100
                135.684089081,34.9638076756,100
                135.6845038832,34.9634940681,100
                135.6845760133,34.9634347412,100
                135.6847776407,34.963194675,100
                135.685114018,34.9628150128,100
                135.6851358288,34.9623897493,100
                135.6852777163,34.9617460431,100
                135.6853184101,34.961673676,100
                135.6854837668,34.9614311907,100
                135.6856346342,34.9612083178,100
                135.6858472371,34.9609536975,100
                135.685901527,34.9609055224,100
                135.6860950916,34.9607767808,100
                135.6862887943,34.9606109925,100
                135.686422186,34.9604735748,100
                135.6865603483,34.9603356047,100
                135.6867323463,34.9601286317,100
                135.6868237697,34.9600383629,100
                135.6870682012,34.95984904,100
                135.6873501593,34.9596896728,100
                135.6875657448,34.9595272503,100
                135.6876984676,34.9593791937,100
                135.6879505418,34.9590143794,100
                135.6880106985,34.9588721238,100
                135.6880254473,34.9586387608,100
                135.6880016761,34.9584467811,100
                135.6880219125,34.9583597116,100
                135.6878649902,34.9581104875,100
                135.6877629956,34.9579683838,100
                135.6876883537,34.9578319839,100
                135.6876903986,34.9576795109,100
                135.6879338098,34.95725664,100
                135.6880977335,34.9570158371,100
                135.6881677689,34.95695932,100
                135.6882479503,34.9569291689,100
                135.688381627,34.9564142494,100
                135.6887859834,34.95549012,100
                135.6888987551,34.95520693,100
                135.6890002555,34.9549980128,100
                135.6892334756,34.9545514492,100
                135.6895688178,34.954211633,100
                135.6896940141,34.9540597522,100
                135.6884790718,34.9540736474,100
                135.6883113458,34.9541146343,100
                135.6858062909,34.9543644663,100
                135.6836973162,34.9545968091,100
                135.6832161502,34.9551317408,100
              </coordinates>
            </LinearRing>
          </outerBoundaryIs>
        </Polygon>
      </Placemark>
    </Document>
  </Document>
</kml>
