<?xml version="1.0" encoding="UTF-8"?>
<kml xmlns="http://www.opengis.net/kml/2.2">
  <Document id="root_doc">
    <Document id="_8_17_________disv4326">
      <name>38_17大原野disv4326</name>
      <Placemark id="_8_17_________disv4326.1">
        <visibility>1</visibility>
        <Polygon>
          <extrude>0</extrude>
          <outerBoundaryIs>
            <LinearRing>
              <coordinates>
                135.6206164029,34.9329234448,100
                135.6205000476,34.9328144858,100
                135.6204693268,34.9326431818,100
                135.6204608325,34.9324451141,100
                135.6203991123,34.9323477329,100
                135.6202710104,34.9323016295,100
                135.6199756509,34.9322810666,100
                135.6194656581,34.9323509713,100
                135.6192609266,34.9323064604,100
                135.6188714475,34.9321500302,100
                135.6187528257,34.9320050035,100
                135.6187488575,34.9318834324,100
                135.6188662928,34.9316842055,100
                135.6189121715,34.9315179978,100
                135.6188694701,34.9314321542,100
                135.6181353933,34.9310319555,100
                135.617930052,34.93103688,100
                135.6177772417,34.9309996413,100
                135.6176360022,34.930910603,100
                135.6175184248,34.9309005874,100
                135.6173395454,34.9309801067,100
                135.6172417474,34.9309184589,100
                135.6172333906,34.9307113742,100
                135.6172989559,34.9305048729,100
                135.6173594937,34.9302578604,100
                135.6173502562,34.930120567,100
                135.617255493,34.9298203898,100
                135.6172524808,34.9296223365,100
                135.6172980868,34.9294787355,100
                135.617349514,34.9293058546,100
                135.6173181728,34.929186311,100
                135.6170377272,34.9288485781,100
                135.6169372499,34.928784738,100
                135.6167759701,34.9287675428,100
                135.6165403973,34.928783567,100
                135.616453399,34.9287355451,100
                135.6163901175,34.9285436412,100
                135.616333622,34.928464444,100
                135.6161999718,34.928427192,100
                135.6158986123,34.9284494177,100
                135.615562724,34.9283857539,100
                135.6154432964,34.9283059361,100
                135.6153440309,34.9281475138,100
                135.6150922597,34.9279248071,100
                135.6149157113,34.9278174851,100
                135.6147517824,34.9277912631,100
                135.6143301081,34.927805641,100
                135.6133685249,34.9280920652,100
                135.6127554818,34.9283050732,100
                135.6125524777,34.928341547,100
                135.6123171189,34.9283394647,100
                135.6121738968,34.928410214,100
                135.6119559746,34.928545663,100
                135.6115884125,34.928607672,100
                135.6113198332,34.9286323153,100
                135.6108911819,34.9285475667,100
                135.6106160169,34.9284461909,100
                135.6104248969,34.9284107203,100
                135.610241398,34.9284181654,100
                135.6099451803,34.9284650436,100
                135.6098440034,34.9284597209,100
                135.6097160513,34.9284023362,100
                135.6093975809,34.9282644817,100
                135.6092145541,34.9282358698,100
                135.6089819426,34.9282316095,100
                135.6084528258,34.928298948,100
                135.608161438,34.9284000014,100
                135.607952629,34.9284611723,100
                135.6077306623,34.9284839881,100
                135.6074902604,34.9284458941,100
                135.6072063032,34.9283870955,100
                135.6067466989,34.9281513826,100
                135.6062860423,34.9277872068,100
                135.6060603513,34.927668236,100
                135.6057934151,34.9275646262,100
                135.6055116727,34.9275531595,100
                135.6049367513,34.9275615965,100
                135.6046082899,34.9275654718,100
                135.6042640545,34.9275152766,100
                135.6039122349,34.9274154038,100
                135.6036385732,34.9274129734,100
                135.6026426768,34.9273794763,100
                135.6024052469,34.9275416087,100
                135.6016604684,34.9277781618,100
                135.601433042,34.9277986246,100
                135.6007415476,34.9277228546,100
                135.6005630281,34.9277707296,100
                135.6004384655,34.9278799824,100
                135.6004094567,34.9280079965,100
                135.6003878253,34.9282012516,100
                135.6002955479,34.9283534993,100
                135.6001306308,34.9284083199,100
                135.5997014981,34.9283640335,100
                135.5995393938,34.9284121013,100
                135.599535428,34.9285066029,100
                135.59974702,34.9286569518,100
                135.600008006,34.9287965437,100
                135.6003423635,34.9291910422,100
                135.6005209195,34.9293568474,100
                135.600888762,34.9294861501,100
                135.6010925708,34.9296027368,100
                135.6012251825,34.929720923,100
                135.6012972429,34.9298677877,100
                135.6013172917,34.9300097661,100
                135.6012274597,34.9301867421,100
                135.600898925,34.9304066802,100
                135.6006036875,34.9305930597,100
                135.6005476582,34.9306938716,100
                135.6005755494,34.9308673563,100
                135.6014017675,34.9317613783,100
                135.6019835139,34.9322930257,100
                135.6021288557,34.9324856248,100
                135.6021949093,34.9326729673,100
                135.6021325805,34.9328389051,100
                135.6019343169,34.933147725,100
                135.6019131074,34.9333073165,100
                135.6020067285,34.9334791838,100
                135.6021778395,34.933586507,100
                135.6027049879,34.9338903513,100
                135.6029243991,34.9340723437,100
                135.6030887403,34.9342807796,100
                135.6031838003,34.9345539968,100
                135.6032692652,34.9349372624,100
                135.6033688369,34.9350731594,100
                135.6034962561,34.9351710441,100
                135.6036792308,34.9352041731,100
                135.6037408689,34.9353059997,100
                135.6037197693,34.9354610853,100
                135.603598561,34.9355207692,100
                135.6033239176,34.935592634,100
                135.6031830805,34.935688102,100
                135.6031239696,34.93581595,100
                135.6031764954,34.9359896553,100
                135.6033929729,34.936187343,100
                135.6038343448,34.93635329,100
                135.6042083602,34.9364330257,100
                135.6043018621,34.9364001556,100
                135.6043836995,34.9362050505,100
                135.6044532062,34.9361201273,100
                135.6047295562,34.9361293286,100
                135.6051056108,34.9362654098,100
                135.6052422088,34.9362868372,100
                135.6053747821,34.9361934535,100
                135.6055589395,34.9359182471,100
                135.605670314,34.9355547009,100
                135.6056600743,34.9352823207,100
                135.6057242567,34.9351837867,100
                135.6058481356,34.9351286864,100
                135.606014758,34.9351571821,100
                135.6062603649,34.9354338387,100
                135.606537699,34.9360146381,100
                135.6066686781,34.9362633185,100
                135.6068097959,34.9363590609,100
                135.6070093117,34.9363855476,100
                135.6072608849,34.9364079755,100
                135.6074217048,34.9364611704,100
                135.6074991468,34.9366127,100
                135.6074835919,34.9367632976,100
                135.6073751147,34.9368973298,100
                135.6068902469,34.9373589892,100
                135.6067756623,34.9375447655,100
                135.6067515114,34.9377223103,100
                135.6068294141,34.9378399661,100
                135.6069816208,34.9379246163,100
                135.6072492759,34.9379742113,100
                135.6075554468,34.9380083632,100
                135.607683155,34.9380837794,100
                135.6077717373,34.9382218217,100
                135.6078979163,34.9386369826,100
                135.6079909574,34.9390699265,100
                135.6081171376,34.9394850873,100
                135.6082243987,34.939661574,100
                135.6083951149,34.9398026251,100
                135.6089838052,34.9400102983,100
                135.6093121011,34.9400244454,100
                135.6095038342,34.9400170978,100
                135.6096495471,34.9399665002,100
                135.6098122889,34.9398689801,100
                135.6100588907,34.9396348113,100
                135.6102104186,34.9395573981,100
                135.6103825816,34.9395836505,100
                135.6105186447,34.9396478206,100
                135.6106775581,34.9398540493,100
                135.610933997,34.9403625878,100
                135.6109967998,34.9405926685,100
                135.611044843,34.9409058791,100
                135.610925126,34.9412830012,100
                135.6107902141,34.9415630935,100
                135.6106469756,34.9418498498,100
                135.6106393895,34.9420163207,100
                135.6106894035,34.9421743827,100
                135.6110476569,34.9424227976,100
                135.6112114781,34.9424601515,100
                135.611384223,34.9424368947,100
                135.6117253786,34.9423026098,100
                135.6120234911,34.9421094498,100
                135.6122250277,34.941973947,100
                135.6124645171,34.9418701872,100
                135.6127448331,34.9417871905,100
                135.6129586276,34.9417642011,100
                135.6130507065,34.9418438665,100
                135.612946587,34.9420702507,100
                135.6121196829,34.94273369,100
                135.6116618886,34.9432180634,100
                135.6114386011,34.9433398316,100
                135.611324497,34.943487301,100
                135.6112747003,34.9437456895,100
                135.6113462601,34.9439331181,100
                135.6117280062,34.9442717572,100
                135.6118896477,34.944482502,100
                135.6121520133,34.9449550721,100
                135.6123322193,34.9452109523,100
                135.612518509,34.9454195925,100
                135.6128199383,34.9456158504,100
                135.6131520063,34.9457717771,100
                135.613411435,34.9458235179,100
                135.6136374692,34.9459199474,100
                135.6137155105,34.9460309097,100
                135.6136799688,34.9462422294,100
                135.613546218,34.9464299962,100
                135.6134027515,34.9465187771,100
                135.6132053854,34.9465373803,100
                135.612838971,34.9465003715,100
                135.612731009,34.9465961667,100
                135.6127404044,34.9467178292,100
                135.6129252475,34.9468252577,100
                135.6135349461,34.9471118656,100
                135.6136786322,34.9472233178,100
                135.6138210109,34.9474406224,100
                135.6139719487,34.9478492418,100
                135.6139867336,34.9478702063,100
                135.6142275407,34.948211568,100
                135.6143178577,34.9484328627,100
                135.6142942247,34.9490065127,100
                135.6141413539,34.9498446429,100
                135.6141384958,34.9500719115,100
                135.6142021344,34.9502367785,100
                135.6143356024,34.9502941784,100
                135.6144833174,34.9503045058,100
                135.6146347247,34.950238286,100
                135.6147616266,34.9501628337,100
                135.6148979697,34.9502090431,100
                135.6149805679,34.9503898165,100
                135.6149186645,34.9507425478,100
                135.6150007637,34.9509661407,100
                135.615162993,34.9511295577,100
                135.6153670112,34.9512371143,100
                135.6154503557,34.9513593629,100
                135.6154485087,34.951507894,100
                135.6151670127,34.9519014864,100
                135.6149370627,34.9521177562,100
                135.614899389,34.9522817403,100
                135.6150098914,34.9524222449,100
                135.6152572202,34.9525707184,100
                135.6156701127,34.9526170249,100
                135.6160649688,34.9525686859,100
                135.6162286144,34.952621883,100
                135.616234229,34.9528311493,100
                135.6160068364,34.9530588395,100
                135.6156810321,34.9532764986,100
                135.61546499,34.9534725976,100
                135.6153908444,34.9537083041,100
                135.6154758993,34.9539138043,100
                135.6157896383,34.9542225717,100
                135.6159006128,34.9543270871,100
                135.6161462691,34.9548288279,100
                135.6162298197,34.9549353695,100
                135.6167241633,34.9552592113,100
                135.6169927268,34.9554617662,100
                135.6171655074,34.95565916,100
                135.6172295737,34.9557901493,100
                135.6171970823,34.9559811941,100
                135.6170762152,34.9562299246,100
                135.6170763593,34.9564391713,100
                135.6171266915,34.9567930276,100
                135.6170918018,34.9569569489,100
                135.6168866999,34.9571532267,100
                135.6166442815,34.9572703641,100
                135.6166260988,34.9574097572,100
                135.6167375031,34.9574782835,100
                135.6169511208,34.9574756446,100
                135.6174811435,34.9571358652,100
                135.6178740599,34.9570313124,100
                135.6186519526,34.9583343021,100
                135.6187414217,34.9586253157,100
                135.6187250207,34.9588435266,100
                135.6185592147,34.9591818459,100
                135.6184455974,34.9595094815,100
                135.6182947535,34.9597467097,100
                135.6179778348,34.9601287844,100
                135.6178513394,34.9603910204,100
                135.6178129728,34.9606134579,100
                135.6177523755,34.9608604757,100
                135.6176040529,34.9611156704,100
                135.6173111492,34.9613247031,100
                135.6171393508,34.9614852365,100
                135.6170518453,34.9616960376,100
                135.6168548741,34.9618990295,100
                135.6167169518,34.9619767011,100
                135.6165201576,34.9619457275,100
                135.616298038,34.9619708056,100
                135.6159854855,34.9622201257,100
                135.6155086152,34.9626863407,100
                135.6153968717,34.9628653692,100
                135.6153867652,34.9630160554,100
                135.6154553515,34.9632258678,100
                135.6154797346,34.963466952,100
                135.6154683273,34.9637233472,100
                135.615430772,34.963880567,100
                135.615321173,34.9641046763,100
                135.6153286207,34.9646043224,100
                135.6152733144,34.9650854565,100
                135.6153533169,34.9652593871,100
                135.6154419558,34.9653974263,100
                135.6155354455,34.9655873153,100
                135.6155786101,34.9660781992,100
                135.6154728245,34.9662168907,100
                135.6153149078,34.9663618285,100
                135.6146398809,34.9666866209,100
                135.6138099612,34.9671295211,100
                135.6136540268,34.9673351684,100
                135.613659444,34.9684378866,100
                135.6136576046,34.9692413292,100
                135.6136084417,34.9696684615,100
                135.6133363403,34.9704019571,100
                135.6134076404,34.9712690227,100
                135.6138831862,34.9713496985,100
                135.6142266277,34.9712648664,100
                135.6145197284,34.9712606559,100
                135.614913056,34.9713496583,100
                135.6152861618,34.9715193785,100
                135.615568339,34.9717311362,100
                135.6157875388,34.9719445959,100
                135.6159670009,34.9722680104,100
                135.6161567004,34.9724316539,100
                135.6164294139,34.9725262575,100
                135.6173246477,34.9725588747,100
                135.6176236397,34.97252094,100
                135.6178079084,34.9724617965,100
                135.6179823994,34.9723057818,100
                135.6181719113,34.9724830138,100
                135.6183652636,34.972793017,100
                135.6185408245,34.9729902775,100
                135.6187529612,34.9731136316,100
                135.619170847,34.973205023,100
                135.6197740326,34.9733768599,100
                135.6200548289,34.9734827492,100
                135.6203280759,34.9735368489,100
                135.6206268796,34.9737374494,100
                135.6208349432,34.9739666434,100
                135.6211078326,34.9742683695,100
                135.6212520446,34.9743438269,100
                135.6214469402,34.9743095022,100
                135.6217932598,34.9742135301,100
                135.6220152488,34.9742042214,100
                135.6221436552,34.9742277221,100
                135.6224075599,34.9743717971,100
                135.6225793855,34.9744340998,100
                135.6228290318,34.9744024085,100
                135.6235586215,34.974318825,100
                135.6240789929,34.9743233283,100
                135.6242057163,34.974265899,100
                135.62438361,34.9740558665,100
                135.6246269208,34.973873434,100
                135.6248889422,34.9737249354,100
                135.6262714052,34.9737841431,100
                135.6264028003,34.9731258936,100
                135.6269201511,34.9727073057,100
                135.6272237494,34.9725208281,100
                135.6277582561,34.972709955,100
                135.6282869185,34.973153451,100
                135.6285747371,34.9733561846,100
                135.629117236,34.9735678662,100
                135.6294433249,34.9737755041,100
                135.6298448876,34.9740871839,100
                135.6301755485,34.9743736436,100
                135.630507861,34.9745205165,100
                135.6310356976,34.9745881174,100
                135.6314292919,34.974654462,100
                135.6317156652,34.9745309553,100
                135.6319132149,34.9745055667,100
                135.6325097716,34.9745511847,100
                135.6336236424,34.9746260445,100
                135.6338971141,34.9746621563,100
                135.6342465815,34.9747528683,100
                135.6348702417,34.9750463269,100
                135.635205139,34.9752112259,100
                135.635481011,34.975276571,100
                135.6359742951,34.9752560118,100
                135.6362307407,34.9753415085,100
                135.6365013652,34.9753842978,100
                135.6368172942,34.9753105217,100
                135.6373698013,34.9751508962,100
                135.6376092311,34.9750585058,100
                135.6378724315,34.9750381657,100
                135.6381155926,34.975089743,100
                135.6383350023,34.9752896429,100
                135.6385714954,34.9754380392,100
                135.6387821444,34.9754600082,100
                135.6404374281,34.9753886633,100
                135.6410296633,34.975339713,100
                135.641515752,34.9755176495,100
                135.6415169436,34.9755143429,100
                135.6425644313,34.9752866471,100
                135.6429134956,34.9752416163,100
                135.6431162836,34.9751574189,100
                135.6432722315,34.975106676,100
                135.6435149004,34.9751688772,100
                135.6437758667,34.9753183914,100
                135.6440747132,34.975355189,100
                135.6443008657,34.9753195123,100
                135.6443302772,34.9753148795,100
                135.6443725647,34.9752858469,100
                135.644605178,34.9751260234,100
                135.6447562961,34.9750687856,100
                135.6447798863,34.97505984,100
                135.6453164326,34.9750714866,100
                135.6456705722,34.9750791446,100
                135.6459042603,34.9750567282,100
                135.6460697082,34.9749700218,100
                135.6462325735,34.9747578032,100
                135.6467101863,34.974505375,100
                135.6469924026,34.9743747792,100
                135.647129942,34.9743110906,100
                135.6473462322,34.9742288268,100
                135.6473896842,34.974212121,100
                135.6473903482,34.9742117703,100
                135.647616799,34.9740791797,100
                135.6477186048,34.973987355,100
                135.6478419043,34.9738760137,100
                135.6479361054,34.97372691,100
                135.6480198169,34.9735943258,100
                135.6478737068,34.9734855331,100
                135.6478610541,34.9734633179,100
                135.6478554479,34.9734191748,100
                135.6479461678,34.9732107358,100
                135.6480110903,34.9730931186,100
                135.6482530205,34.9726709063,100
                135.6484053897,34.9724044942,100
                135.6487784722,34.9725346568,100
                135.6490342611,34.9726277689,100
                135.6491146677,34.9724270528,100
                135.649437266,34.9722922016,100
                135.649574748,34.9722347786,100
                135.6501948142,34.9721295907,100
                135.6505966986,34.9719596104,100
                135.6508131443,34.9717924749,100
                135.6510007463,34.9715667297,100
                135.6512355253,34.9712518866,100
                135.651505645,34.9708897446,100
                135.6515841662,34.9708542646,100
                135.6516839879,34.9708091244,100
                135.6517791248,34.9705874794,100
                135.6520496642,34.9704535261,100
                135.6520554093,34.9704506562,100
                135.6520562015,34.9704503057,100
                135.6520944465,34.9703639299,100
                135.6520796104,34.9702252838,100
                135.6521756097,34.9700113154,100
                135.6521893729,34.9699937478,100
                135.6521758199,34.9699615241,100
                135.6521364439,34.9698748528,100
                135.652176453,34.9698105263,100
                135.6521868543,34.9697937929,100
                135.6523479947,34.9698049613,100
                135.6525287132,34.9698659092,100
                135.6526428208,34.9698563052,100
                135.6527192443,34.9697640522,100
                135.6527474579,34.9696246829,100
                135.6528930181,34.9695305143,100
                135.6529416159,34.969385781,100
                135.6529354543,34.9692987827,100
                135.6528824308,34.9691705915,100
                135.652984807,34.9690705941,100
                135.6530859636,34.9688475529,100
                135.6533507698,34.9687465424,100
                135.6534904279,34.9683735261,100
                135.6534671618,34.9681871045,100
                135.6535211929,34.9680421758,100
                135.6535372704,34.9679511575,100
                135.6534917548,34.967776151,100
                135.653392354,34.9676445158,100
                135.6533465892,34.9675707158,100
                135.6534100167,34.9673829216,100
                135.6534130556,34.9672332689,100
                135.6533558298,34.9671180935,100
                135.6533121678,34.9670683158,100
                135.6534106481,34.9670560628,100
                135.6533762083,34.9668101658,100
                135.6533898828,34.9667826661,100
                135.6535002612,34.9667585445,100
                135.6535212121,34.9666270434,100
                135.6535879007,34.9665141241,100
                135.6536719044,34.9664645707,100
                135.6538838333,34.9664098212,100
                135.6539853054,34.966387714,100
                135.6540792215,34.9663462192,100
                135.6542285787,34.9662526223,100
                135.654453294,34.9661831177,100
                135.6546028621,34.9661623464,100
                135.6547493515,34.9661567776,100
                135.6550393072,34.9661627463,100
                135.6552397385,34.9661934621,100
                135.6555956147,34.9662712444,100
                135.6560032035,34.966304026,100
                135.6563048323,34.9663112931,100
                135.6567612722,34.9662560343,100
                135.6570711309,34.9662333901,100
                135.6575718246,34.9662236816,100
                135.65798658,34.9662303482,100
                135.6583314286,34.9662702708,100
                135.6584562581,34.9663256983,100
                135.6588081182,34.9663719075,100
                135.6591427252,34.9663958808,100
                135.6596137255,34.9663988977,100
                135.6597294698,34.9664063371,100
                135.6601027746,34.9663987889,100
                135.6605588213,34.9664406306,100
                135.660787747,34.9664502143,100
                135.661077916,34.9664894076,100
                135.6612186472,34.9664906446,100
                135.6613959197,34.966474096,100
                135.6618087169,34.9665326433,100
                135.6623880276,34.9666484905,100
                135.6624631277,34.966668631,100
                135.662806332,34.9666258463,100
                135.6630291765,34.9666163226,100
                135.6634880161,34.9663274987,100
                135.6638368378,34.966174577,100
                135.6640867234,34.9661152623,100
                135.6642297927,34.9661043892,100
                135.6645244146,34.9661106271,100
                135.6646627591,34.9660832595,100
                135.6649871217,34.9659963299,100
                135.6652137446,34.965945331,100
                135.665224228,34.9658220384,100
                135.6654411846,34.9658451733,100
                135.6657796647,34.964807497,100
                135.6659689727,34.9641927547,100
                135.6661078504,34.9637316894,100
                135.6666214005,34.9637996559,100
                135.6666881766,34.9634557964,100
                135.6668000927,34.9634895567,100
                135.6668014298,34.9634707567,100
                135.6668100409,34.9633497132,100
                135.6666411956,34.9631326122,100
                135.666379215,34.9628446841,100
                135.6670466909,34.9607246342,100
                135.6674812632,34.959386533,100
                135.667776803,34.9584369627,100
                135.6679193501,34.957951951,100
                135.6680214654,34.9576414236,100
                135.668171595,34.957184955,100
                135.6684179754,34.9563858976,100
                135.6687736851,34.9552503416,100
                135.6690850565,34.9554068399,100
                135.6697531879,34.955730244,100
                135.669805454,34.9557517969,100
                135.6700851461,34.9558681331,100
                135.6702242965,34.9559131644,100
                135.6704066716,34.9559516205,100
                135.6706329209,34.9559762518,100
                135.670906191,34.9559645971,100
                135.6711740949,34.9559360948,100
                135.6719620663,34.9558508941,100
                135.6726924478,34.9557759454,100
                135.6732961911,34.9557150873,100
                135.6750355527,34.9555397697,100
                135.6754276812,34.9554901719,100
                135.6757276763,34.9554521604,100
                135.6763751751,34.9553788669,100
                135.6770047582,34.9553151006,100
                135.6778564065,34.9552183222,100
                135.6786744445,34.9551299001,100
                135.6793170647,34.9550616501,100
                135.6802569908,34.9549638183,100
                135.681087198,34.9548793563,100
                135.6813407358,34.9548535355,100
                135.6836294964,34.9546042395,100
                135.6836973162,34.9545968091,100
                135.6858062909,34.9543644663,100
                135.6883113458,34.9541146343,100
                135.6884790718,34.9540736474,100
                135.6896940141,34.9540597522,100
                135.6900508169,34.9540622034,100
                135.6901423917,34.9539340425,100
                135.6901559119,34.9539151316,100
                135.6917679159,34.951659829,100
                135.6919582954,34.9516149506,100
                135.6919707793,34.9515987129,100
                135.6919912141,34.9515720722,100
                135.6922335044,34.9512573692,100
                135.6922755863,34.9512346563,100
                135.6923731865,34.951182009,100
                135.6925456942,34.9507923349,100
                135.692885241,34.9503594136,100
                135.6932412504,34.9499669588,100
                135.6932566214,34.9499447423,100
                135.6937676645,34.9492067973,100
                135.6942771319,34.9491141164,100
                135.6943573771,34.9490810738,100
                135.6943914502,34.9490670019,100
                135.6949700038,34.9487403854,100
                135.6951398053,34.9486717869,100
                135.6954164556,34.9486223995,100
                135.6956814674,34.9486505952,100
                135.6959190636,34.9481029663,100
                135.6960434182,34.9476940131,100
                135.6960475097,34.9476861352,100
                135.6962381291,34.9473191803,100
                135.6963089315,34.947182864,100
                135.6963383535,34.9470535596,100
                135.6963660144,34.9469321378,100
                135.6963951037,34.9467532506,100
                135.6958795136,34.9468762789,100
                135.6958028353,34.9469522222,100
                135.6957439522,34.9469802476,100
                135.6956570129,34.9470022174,100
                135.6955912856,34.9470010674,100
                135.6955197138,34.9469779301,100
                135.6955804539,34.9468924394,100
                135.6955462668,34.9468736912,100
                135.6953211446,34.9467500927,100
                135.6952021926,34.9466847905,100
                135.6951830966,34.9466965751,100
                135.6949990721,34.9466031511,100
                135.6950067986,34.9465775347,100
                135.6950075276,34.9465771838,100
                135.6950319644,34.9465020271,100
                135.6949587795,34.9463995117,100
                135.6949781836,34.9462971558,100
                135.6949402936,34.9462910756,100
                135.6947097906,34.9462541597,100
                135.6947095702,34.9462561318,100
                135.6946410239,34.9462362409,100
                135.6942615478,34.9461577525,100
                135.6942410451,34.9460457891,100
                135.6942254377,34.9460451868,100
                135.6941517385,34.9460428201,100
                135.6938895191,34.9460368826,100
                135.6938686722,34.9458261071,100
                135.6937880925,34.9457644218,100
                135.6935778955,34.9457476971,100
                135.6934245602,34.9457354111,100
                135.6933964605,34.9457711192,100
                135.6928555735,34.9456040451,100
                135.692697172,34.9455508955,100
                135.6924436117,34.9454641257,100
                135.6924431353,34.9454657433,100
                135.6924423238,34.9454654601,100
                135.6924401273,34.9454756673,100
                135.6924054325,34.9456124233,100
                135.6923351016,34.9454329344,100
                135.6923345679,34.9454328632,100
                135.6922377856,34.9454163504,100
                135.6922073987,34.9454111333,100
                135.6917694088,34.9453486181,100
                135.6912229381,34.9452013829,100
                135.6910087903,34.9451202022,100
                135.6908068158,34.9451586393,100
                135.6907894195,34.9451619061,100
                135.6906231167,34.9451934611,100
                135.6904646495,34.9451815803,100
                135.689339274,34.9452567666,100
                135.6892769051,34.9453128824,100
                135.6890033441,34.9453274703,100
                135.6887422902,34.9453192015,100
                135.6887068063,34.945321858,100
                135.6886117112,34.9453291528,100
                135.6883151494,34.9453591757,100
                135.688291469,34.945361581,100
                135.6882863602,34.9453611443,100
                135.6881012884,34.9453735629,100
                135.6880333374,34.945406984,100
                135.6878860009,34.9453862547,100
                135.6878575126,34.9453822381,100
                135.6878323484,34.9453815401,100
                135.6875672564,34.9453725537,100
                135.6875122811,34.9453724134,100
                135.6874926739,34.9453723634,100
                135.6873466545,34.9453540319,100
                135.6872440277,34.9453741944,100
                135.6869084297,34.945355518,100
                135.6868806531,34.945304245,100
                135.6868471149,34.9451301996,100
                135.6868632713,34.9449612107,100
                135.6867817864,34.9451427098,100
                135.6866774604,34.9452281548,100
                135.6866695666,34.9452346147,100
                135.6866529545,34.9452511231,100
                135.6866102467,34.945270099,100
                135.6865565994,34.9452809493,100
                135.6864518097,34.9452846961,100
                135.6860748526,34.9452676013,100
                135.6860743382,34.9452677413,100
                135.6860384686,34.9452764536,100
                135.685739355,34.9452624454,100
                135.6857442572,34.945016449,100
                135.685734332,34.9449493749,100
                135.6857337463,34.9449454997,100
                135.6856496311,34.9449047166,100
                135.6855234684,34.9448381889,100
                135.6855015926,34.9448328502,100
                135.6854735641,34.9448260883,100
                135.6853823321,34.9447897943,100
                135.6851928035,34.9448106465,100
                135.6845799225,34.9447283578,100
                135.682792926,34.9447118925,100
                135.6821523897,34.9446493041,100
                135.6816016289,34.9445835654,100
                135.6811836982,34.9445128895,100
                135.6801209819,34.9444677803,100
                135.6794183904,34.9444233256,100
                135.6787809004,34.9443872092,100
                135.6787183281,34.9443836636,100
                135.6787177064,34.9443836622,100
                135.6784658133,34.9446290083,100
                135.6783887191,34.944687261,100
                135.6783152364,34.9447289028,100
                135.6782705322,34.944732869,100
                135.6782515933,34.9447365527,100
                135.6777795121,34.9448289074,100
                135.6776820088,34.94490577,100
                135.6775500878,34.9449528206,100
                135.6770196181,34.9451034751,100
                135.676844174,34.9451471691,100
                135.6766770761,34.9451888441,100
                135.6766709352,34.9451902359,100
                135.6764056129,34.945251581,100
                135.6762156594,34.9453202396,100
                135.6760646185,34.945373576,100
                135.6759052811,34.9454099882,100
                135.6756466866,34.9454457836,100
                135.6753182623,34.9454799137,100
                135.6750794429,34.9455003359,100
                135.67483169,34.9455139731,100
                135.6747585143,34.9453888361,100
                135.674535772,34.9452016736,100
                135.6743609744,34.9450188637,100
                135.6742667161,34.9449212781,100
                135.6741719211,34.9448569339,100
                135.6739544422,34.9447631041,100
                135.6739035795,34.9447228238,100
                135.673795383,34.9445758291,100
                135.6735790814,34.9443070546,100
                135.6732138856,34.9438285644,100
                135.6728192148,34.9440282302,100
                135.6726016128,34.9439120014,100
                135.6724498595,34.9438201762,100
                135.6723069908,34.943719993,100
                135.6722018478,34.9436399142,100
                135.6720958201,34.9435182068,100
                135.6719717814,34.9433555311,100
                135.6721229541,34.943187472,100
                135.6722297074,34.9430432385,100
                135.6722935008,34.942931708,100
                135.6723332229,34.9427977876,100
                135.6723504096,34.942673948,100
                135.6723352679,34.9425171303,100
                135.6722736066,34.942369415,100
                135.672183324,34.9422465536,100
                135.6719909512,34.9421048221,100
                135.6716613627,34.9419001072,100
                135.6715795176,34.9418607966,100
                135.6714102147,34.9417794852,100
                135.6711736931,34.9417075686,100
                135.6709529355,34.94163971,100
                135.6707695885,34.9413847491,100
                135.6705611254,34.9411719077,100
                135.6702729941,34.9409961769,100
                135.6701285436,34.9409409902,100
                135.6697216906,34.9408498029,100
                135.6695173921,34.940762617,100
                135.6693874994,34.9406333059,100
                135.6693480614,34.9404957194,100
                135.6693676911,34.9399894535,100
                135.6686785791,34.9403888109,100
                135.6682722619,34.9402549389,100
                135.6681519179,34.9400109228,100
                135.6679928261,34.9398049024,100
                135.6677656804,34.9395665792,100
                135.6674970422,34.9393641314,100
                135.6672650694,34.9393014461,100
                135.6670708802,34.9392863339,100
                135.6667280012,34.9391124856,100
                135.6664406431,34.9391055677,100
                135.6660594701,34.9391609325,100
                135.6657570793,34.9392663784,100
                135.6655815238,34.9392964602,100
                135.6654119349,34.9392838078,100
                135.6648115742,34.9391234708,100
                135.6645737067,34.9390968241,100
                135.6644905174,34.9387247938,100
                135.6644057536,34.9384833363,100
                135.6643392915,34.9383161621,100
                135.6642283373,34.9382072521,100
                135.6639325361,34.9379888028,100
                135.6638751352,34.9379128614,100
                135.6638058478,34.93782118,100
                135.6638041244,34.9374066244,100
                135.6638811073,34.9373297869,100
                135.6639562547,34.937299147,100
                135.6640974535,34.9372414337,100
                135.6641395549,34.9371876715,100
                135.6641586334,34.9371065889,100
                135.664122191,34.9369446396,100
                135.6641046271,34.9369047985,100
                135.6640651787,34.9368417946,100
                135.6640134889,34.9367812932,100
                135.6638521039,34.9366500569,100
                135.6637912599,34.9365857263,100
                135.6637563448,34.9365328065,100
                135.6637504396,34.9364862362,100
                135.6637723461,34.9363567068,100
                135.6638096021,34.9362058804,100
                135.6637960181,34.9361656269,100
                135.6637625045,34.9361466593,100
                135.6633592827,34.9361380031,100
                135.6633042339,34.9361367936,100
                135.6632463135,34.93612635,100
                135.6630602402,34.9360578687,100
                135.6630142339,34.9360409785,100
                135.6629381475,34.936033653,100
                135.6628571776,34.9360396959,100
                135.6627700462,34.9360570613,100
                135.6627012979,34.9360594048,100
                135.6626204143,34.9360441077,100
                135.6624282409,34.9359718752,100
                135.6623397243,34.9359564862,100
                135.6622756427,34.9359362358,100
                135.6622390903,34.935913455,100
                135.6622086611,34.9358832269,100
                135.6621768815,34.9358063702,100
                135.6621449946,34.9357609946,100
                135.6621130178,34.9357382976,100
                135.6620489329,34.9357242442,100
                135.6618473693,34.9357060745,100
                135.6614474438,34.9356445996,100
                135.6611435516,34.9356324109,100
                135.6610183675,34.9356169888,100
                135.6607146596,34.9355545135,100
                135.6604975668,34.9355638354,100
                135.6604261633,34.9355885678,100
                135.6603282761,34.9356425236,100
                135.6602301351,34.935753879,100
                135.6601781532,34.9358231062,100
                135.6601785096,34.9358302212,100
                135.6601416797,34.9358642756,100
                135.6598779012,34.935772611,100
                135.6597160273,34.9356949658,100
                135.6595127308,34.9355776918,100
                135.6594263452,34.9354756777,100
                135.6593896561,34.9353403498,100
                135.6594002493,34.9351401487,100
                135.659338164,34.9349567872,100
                135.6592336421,34.9346481523,100
                135.6591461741,34.9344088673,100
                135.6591084005,34.9341317622,100
                135.6590893482,34.9338930928,100
                135.6590863983,34.9336792612,100
                135.6590184764,34.9334086202,100
                135.6589005092,34.9331984066,100
                135.6583245095,34.9335266001,100
                135.6579175592,34.9336784203,100
                135.6578642835,34.9337085546,100
                135.6573057295,34.9340243963,100
                135.6568832109,34.9343359743,100
                135.6567704723,34.9343777004,100
                135.6564424449,34.9343389476,100
                135.6560988879,34.9342257756,100
                135.6558019515,34.934104072,100
                135.6556661752,34.9340813593,100
                135.6555041621,34.9340542744,100
                135.6551645627,34.9340694336,100
                135.6551176027,34.9340815549,100
                135.6548433019,34.9341522574,100
                135.6544719048,34.9343066331,100
                135.6542708094,34.9344129699,100
                135.6540953504,34.9344362728,100
                135.6534630451,34.9344331926,100
                135.6531545339,34.9343653285,100
                135.6529311148,34.9342779878,100
                135.6527066331,34.934050982,100
                135.652352758,34.9338859331,100
                135.6523265565,34.9338683201,100
                135.6521328244,34.9337378199,100
                135.6520306945,34.9335794104,100
                135.6519007243,34.933234001,100
                135.6518663867,34.9330967748,100
                135.6518661558,34.9330958591,100
                135.6518014581,34.9328371948,100
                135.6516001198,34.9327364629,100
                135.6515245303,34.9326480672,100
                135.6514605106,34.9325079379,100
                135.6509657425,34.9324519967,100
                135.6508022074,34.9323920805,100
                135.6506996822,34.9322674759,100
                135.6504765186,34.932162101,100
                135.6501875041,34.9322946575,100
                135.6499956946,34.9323133296,100
                135.6496785043,34.932283533,100
                135.649522471,34.9322845592,100
                135.6491483988,34.9324343342,100
                135.6489537682,34.9324575034,100
                135.6485764362,34.9324228102,100
                135.6483670169,34.9323585319,100
                135.6483252888,34.9322569209,100
                135.6482859675,34.9321774319,100
                135.6479968794,34.9315927254,100
                135.6479583807,34.931465699,100
                135.6479380491,34.9313349921,100
                135.6479444626,34.9313152905,100
                135.6480176385,34.9310903388,100
                135.6480142403,34.9309192551,100
                135.6479128518,34.9307001331,100
                135.6477461089,34.9304556069,100
                135.6474151587,34.9302053191,100
                135.6471512763,34.9300703078,100
                135.6470298322,34.9299275433,100
                135.6469086333,34.9297621708,100
                135.6467553962,34.9297704545,100
                135.6465826984,34.9297797384,100
                135.6463751908,34.9297351104,100
                135.646349146,34.9297213002,100
                135.6461766666,34.9296299398,100
                135.6459938184,34.9295833411,100
                135.6458046238,34.9296110276,100
                135.6456955364,34.9298036151,100
                135.6456778408,34.9298268748,100
                135.6456770466,34.9298279294,100
                135.6456617387,34.9298329554,100
                135.6453931996,34.9299216819,100
                135.6448391916,34.9301435238,100
                135.6447236316,34.9301898078,100
                135.644516677,34.9302801933,100
                135.6440793973,34.9303525716,100
                135.6439100952,34.9303173501,100
                135.6437007401,34.9302008032,100
                135.643276649,34.9299607916,100
                135.6432400832,34.930017168,100
                135.6430981221,34.930236137,100
                135.6429623849,34.9303699735,100
                135.6425583311,34.9307333201,100
                135.6424347351,34.9307683096,100
                135.6417320299,34.9307015673,100
                135.6411048438,34.9305050338,100
                135.6409891746,34.9307875348,100
                135.6408529371,34.9309619353,100
                135.6405561742,34.9312811526,100
                135.64039919,34.9313585793,100
                135.640152038,34.9314240458,100
                135.6398914707,34.9314667922,100
                135.6393753645,34.9315906842,100
                135.6392840345,34.931673165,100
                135.6392359201,34.9318032458,100
                135.6391395518,34.9318496514,100
                135.6383683246,34.9320163697,100
                135.6381987646,34.9320014231,100
                135.6380383895,34.9319100163,100
                135.6377085798,34.9315696956,100
                135.6375759036,34.9314514681,100
                135.6371867849,34.9312590815,100
                135.6367565482,34.9310731891,100
                135.6365819012,34.9310289258,100
                135.6364312193,34.931038825,100
                135.6363045417,34.9311030259,100
                135.6360323889,34.9314224474,100
                135.635908197,34.9315047563,100
                135.6357400966,34.9315955952,100
                135.6356098826,34.9317249319,100
                135.6354502528,34.9320184219,100
                135.6353482852,34.9320738229,100
                135.6352139365,34.9320928542,100
                135.6348164671,34.9321367249,100
                135.634654493,34.9321758154,100
                135.6341607084,34.93248661,100
                135.6340445886,34.9325802114,100
                135.6340046753,34.9327103855,100
                135.6340165359,34.9328612802,100
                135.63410736,34.933044319,100
                135.6343237112,34.9332599924,100
                135.6343575372,34.9334043337,100
                135.6343223786,34.9335907243,100
                135.6341078032,34.9339017254,100
                135.6339093979,34.934008037,100
                135.6335732271,34.9341896425,100
                135.6334518186,34.9342697049,100
                135.6332141812,34.9344476634,100
                135.6331038438,34.9345187439,100
                135.6329581686,34.9345647148,100
                135.6326093114,34.9346652855,100
                135.6324522307,34.9347471398,100
                135.6323474472,34.9348092918,100
                135.632237526,34.9348443124,100
                135.6319480217,34.9347900473,100
                135.6317294404,34.9347589568,100
                135.6314332639,34.9348014388,100
                135.6313008531,34.9348835772,100
                135.6312011352,34.9349794789,100
                135.6310750736,34.9349896593,100
                135.6309083723,34.9349656973,100
                135.6307708942,34.9350140149,100
                135.6305772011,34.9351833671,100
                135.6303271881,34.9352578214,100
                135.6301854606,34.9352047773,100
                135.6300965662,34.9350892144,100
                135.6299653502,34.934856328,100
                135.6298620502,34.934796852,100
                135.6295291458,34.9349335914,100
                135.6293884592,34.935020139,100
                135.6293047601,34.9351476401,100
                135.6292123794,34.9353134265,100
                135.6291052551,34.935344016,100
                135.6286982641,34.935047954,100
                135.6285202999,34.9348280945,100
                135.6284025423,34.9346087708,100
                135.6282479408,34.9342721425,100
                135.628098498,34.933958066,100
                135.6279688432,34.933817445,100
                135.6277835768,34.9337482785,100
                135.6275672955,34.9337487402,100
                135.6273408964,34.9339065073,100
                135.6271737156,34.933923106,100
                135.6267554341,34.9338767431,100
                135.626560627,34.9339132584,100
                135.626285459,34.934027911,100
                135.625587531,34.9344607161,100
                135.6254420209,34.9344978032,100
                135.6252697124,34.9344850158,100
                135.6250726485,34.9344810248,100
                135.6248304521,34.9345846474,100
                135.6247140959,34.9346984502,100
                135.6245010329,34.9348833653,100
                135.6243192397,34.9349718917,100
                135.6240860509,34.9350125791,100
                135.6237305484,34.9349825275,100
                135.6235037717,34.9349490731,100
                135.6233337704,34.9347495166,100
                135.6231764042,34.9344151299,100
                135.6231092136,34.9343155482,100
                135.6227792838,34.9342114147,100
                135.6226439639,34.9340864774,100
                135.6226156152,34.9339466614,100
                135.6224944541,34.9337835961,100
                135.6219631273,34.9333648787,100
                135.6216937638,34.9332321396,100
                135.6213388857,34.9331547732,100
                135.6208313412,34.9330266506,100
                135.6206164029,34.9329234448,100
              </coordinates>
            </LinearRing>
          </outerBoundaryIs>
        </Polygon>
      </Placemark>
    </Document>
  </Document>
</kml>
