<?xml version="1.0" encoding="UTF-8"?>
<kml xmlns="http://www.opengis.net/kml/2.2">
  <Document id="root_doc">
    <Document id="_8_11______disv4326">
      <name>38_11大枝disv4326</name>
      <Placemark id="_8_11______disv4326.1">
        <visibility>1</visibility>
        <Polygon>
          <extrude>0</extrude>
          <outerBoundaryIs>
            <LinearRing>
              <coordinates>
                135.675093967,34.9798289401,100
                135.6751491649,34.9797060492,100
                135.6751858679,34.9796745954,100
                135.6753546805,34.9797328677,100
                135.6754799486,34.9797279187,100
                135.675600728,34.9797057034,100
                135.6756152503,34.9798058196,100
                135.6756449141,34.9798570304,100
                135.6758497389,34.9798522928,100
                135.6766861329,34.9798712766,100
                135.6770332648,34.9798757192,100
                135.6770356388,34.9797764213,100
                135.676976336,34.9795505424,100
                135.6771335639,34.9793188279,100
                135.6770429099,34.9792402011,100
                135.6770593574,34.9789583202,100
                135.6771053528,34.9786700387,100
                135.6771512807,34.9785148667,100
                135.6773168814,34.9780031514,100
                135.6774619604,34.9776538588,100
                135.677594812,34.9776399829,100
                135.6776858091,34.9774573924,100
                135.6777904027,34.9774047776,100
                135.677771535,34.9773437365,100
                135.6779891087,34.977093657,100
                135.6781466885,34.9770960441,100
                135.6783441,34.9769597936,100
                135.6783871187,34.9769258907,100
                135.6784876774,34.9767321253,100
                135.6784902568,34.9766174051,100
                135.6785136213,34.9763994209,100
                135.678472749,34.9762920506,100
                135.6784929675,34.976218788,100
                135.6784213982,34.9761453542,100
                135.6783772253,34.9759174741,100
                135.6782772378,34.9757692399,100
                135.6782956388,34.9755902605,100
                135.678385954,34.9755617637,100
                135.6785944214,34.9754470221,100
                135.6786584853,34.9753640848,100
                135.6787133079,34.9753702149,100
                135.6787712795,34.9753030386,100
                135.6787633238,34.9752135727,100
                135.6787862484,34.9751262326,100
                135.6790602969,34.9748058695,100
                135.6791047881,34.9746392123,100
                135.6791687083,34.9745768398,100
                135.679261889,34.9745426462,100
                135.6794010223,34.9745347015,100
                135.679306475,34.9742172443,100
                135.6791743724,34.9739320849,100
                135.6792431228,34.9738090159,100
                135.6792467483,34.9737281027,100
                135.6792230841,34.9736016224,100
                135.6792432899,34.9734589167,100
                135.6791910689,34.9733049642,100
                135.6793074573,34.9732481534,100
                135.6792466041,34.9732200326,100
                135.6792287546,34.9729608096,100
                135.6792733296,34.9729220502,100
                135.6791735407,34.9728674171,100
                135.678967675,34.9728075771,100
                135.6788784668,34.9726214121,100
                135.6788323363,34.9724577559,100
                135.6788066132,34.9720658968,100
                135.6788264461,34.9720150287,100
                135.6788726015,34.9719100704,100
                135.6790597151,34.9715443345,100
                135.6792359607,34.9710891967,100
                135.6792134612,34.9708545403,100
                135.6791334198,34.970654314,100
                135.6790366074,34.9702765642,100
                135.6789936762,34.9701047474,100
                135.6788595229,34.9697197166,100
                135.6787129214,34.969413321,100
                135.6785668601,34.9693334944,100
                135.677807253,34.9690409102,100
                135.6776399981,34.9689386312,100
                135.6775098771,34.9689414571,100
                135.6772869826,34.9688962176,100
                135.6771071549,34.9688817991,100
                135.6770451201,34.9688814407,100
                135.6768829159,34.9688805026,100
                135.6766139236,34.968786827,100
                135.676608472,34.9685205937,100
                135.6764947249,34.96819407,100
                135.6763749001,34.9680016254,100
                135.6763274542,34.9679642446,100
                135.6762494767,34.9679127667,100
                135.6762419891,34.9678915602,100
                135.6763328899,34.9678486297,100
                135.6763517,34.9678338048,100
                135.6764309493,34.9677887295,100
                135.6765348573,34.9676838543,100
                135.6765453792,34.9676835316,100
                135.6765406512,34.967645445,100
                135.676543232,34.9675444842,100
                135.6767795467,34.9672115676,100
                135.6768288011,34.9670978939,100
                135.6767792835,34.9670817755,100
                135.6767995704,34.967046051,100
                135.6767209529,34.9670219694,100
                135.676788626,34.9668725591,100
                135.6768217231,34.9668040483,100
                135.6769368618,34.96684175,100
                135.6771896553,34.9666143689,100
                135.6770162288,34.9664836911,100
                135.6770720012,34.9663582636,100
                135.6773314045,34.9664798735,100
                135.677529835,34.9662943945,100
                135.6773631728,34.9661009818,100
                135.6773492464,34.9660848176,100
                135.6773494637,34.9659066359,100
                135.6773346829,34.9658291958,100
                135.6773329903,34.9658134859,100
                135.6773323492,34.9658133334,100
                135.6772756793,34.9657998127,100
                135.6772400888,34.9657331643,100
                135.6772169698,34.9656166141,100
                135.6771064972,34.9654561703,100
                135.6766512924,34.9663462386,100
                135.6764036148,34.966793578,100
                135.6762169635,34.9671726918,100
                135.6761715407,34.9672649734,100
                135.6760113144,34.9676078873,100
                135.6758350425,34.9680564703,100
                135.6758169127,34.9681426956,100
                135.6757339086,34.9684059484,100
                135.6757304438,34.9684169266,100
                135.6757113797,34.968644569,100
                135.6756817741,34.9689983916,100
                135.6756760196,34.9692909352,100
                135.6757108686,34.9695873179,100
                135.6758033226,34.9703736818,100
                135.6759262883,34.9705289494,100
                135.6754086366,34.9705623679,100
                135.6753397049,34.9702685703,100
                135.6743304425,34.9703937146,100
                135.6739327411,34.9704768876,100
                135.6730257645,34.9708577341,100
                135.673027095,34.9710864182,100
                135.6730829111,34.9711767845,100
                135.6727855965,34.9713124098,100
                135.6727181322,34.971077563,100
                135.6722135659,34.9713565843,100
                135.6717584453,34.9716081945,100
                135.67154998,34.9715365015,100
                135.6714984709,34.9715693927,100
                135.6715149162,34.9717500146,100
                135.6713864506,34.971824955,100
                135.6711035942,34.9719913173,100
                135.6706665622,34.9722479734,100
                135.6700703415,34.9726013874,100
                135.6695739126,34.9728980229,100
                135.6691937315,34.9731262345,100
                135.6694547619,34.9733905542,100
                135.6693168385,34.9734810327,100
                135.6691399683,34.973597111,100
                135.6690808514,34.9735198318,100
                135.6689123299,34.9736181852,100
                135.6687200988,34.9734010961,100
                135.6684470362,34.9735379688,100
                135.6682205153,34.9735144637,100
                135.6681827733,34.9736721903,100
                135.6682685179,34.9736860873,100
                135.6675031554,34.9741031897,100
                135.6671835035,34.9737251038,100
                135.6668358385,34.9735863265,100
                135.6657917612,34.9735793824,100
                135.6654576705,34.9735602964,100
                135.6653151889,34.9735382831,100
                135.6649419631,34.9734321087,100
                135.6647561289,34.9733875783,100
                135.6643261212,34.9733852677,100
                135.6639949564,34.9733752698,100
                135.6638794733,34.9733717826,100
                135.6636624237,34.9734001583,100
                135.6634906186,34.973422615,100
                135.6632812477,34.9734278124,100
                135.6626662227,34.9733377237,100
                135.6624533815,34.9733493179,100
                135.6621801765,34.9733342633,100
                135.6619446495,34.9733065656,100
                135.6618406092,34.9732795146,100
                135.6616042573,34.9731916686,100
                135.661300809,34.9731345531,100
                135.6611566859,34.973127602,100
                135.6607876964,34.9731431969,100
                135.6606347756,34.9732108045,100
                135.6603754079,34.973233112,100
                135.660228009,34.9732893955,100
                135.6600768672,34.9733146105,100
                135.6598433408,34.9733206496,100
                135.6594738638,34.9733988452,100
                135.6593444029,34.9734165105,100
                135.6590051123,34.973405907,100
                135.6585799313,34.9734187232,100
                135.6583929951,34.9734361548,100
                135.6582495664,34.9734741333,100
                135.6580494632,34.973504908,100
                135.6577877406,34.9736889726,100
                135.6575722519,34.9738240788,100
                135.657385071,34.973905668,100
                135.6566922361,34.9742510583,100
                135.656455267,34.9743144756,100
                135.6562152916,34.9743547135,100
                135.6560377099,34.9743699143,100
                135.655785477,34.9743586316,100
                135.6555831478,34.9743324913,100
                135.6553062304,34.9742650766,100
                135.6547494152,34.9741019968,100
                135.654506768,34.9740346077,100
                135.654189367,34.9739708792,100
                135.6540158766,34.9739185478,100
                135.6537254926,34.9738600355,100
                135.6533975567,34.9737738085,100
                135.6532428071,34.9737513914,100
                135.6529976607,34.9736989225,100
                135.6526523626,34.9736069385,100
                135.6524438323,34.973570492,100
                135.6521601027,34.9736844042,100
                135.652035144,34.9737346831,100
                135.6519099889,34.9737598875,100
                135.6517758433,34.9737869698,100
                135.6516323724,34.9737938813,100
                135.6515219756,34.9737991977,100
                135.6513683614,34.9738017841,100
                135.6512696804,34.9738034712,100
                135.6510017902,34.9738183334,100
                135.6510005927,34.9738184003,100
                135.6506386189,34.9738958841,100
                135.6503033866,34.9739923183,100
                135.6500141965,34.974111422,100
                135.6499570917,34.9741349912,100
                135.6495918869,34.9743074701,100
                135.6495915862,34.974307609,100
                135.6495844556,34.974309403,100
                135.6489366863,34.974012643,100
                135.6493348947,34.9733448964,100
                135.6493800611,34.9732828245,100
                135.6494105662,34.9729479354,100
                135.6492160582,34.972693946,100
                135.6490342611,34.9726277689,100
                135.6487784722,34.9725346568,100
                135.6484053897,34.9724044942,100
                135.6482530205,34.9726709063,100
                135.6480110903,34.9730931186,100
                135.6479461678,34.9732107358,100
                135.6478554479,34.9734191748,100
                135.6478610541,34.9734633179,100
                135.6478737068,34.9734855331,100
                135.6480198169,34.9735943258,100
                135.6479361054,34.97372691,100
                135.6478419043,34.9738760137,100
                135.6477186048,34.973987355,100
                135.647616799,34.9740791797,100
                135.6473903482,34.9742117703,100
                135.6473896842,34.974212121,100
                135.6473462322,34.9742288268,100
                135.647129942,34.9743110906,100
                135.6469924026,34.9743747792,100
                135.6467101863,34.974505375,100
                135.6462325735,34.9747578032,100
                135.6460697082,34.9749700218,100
                135.6459042603,34.9750567282,100
                135.6456705722,34.9750791446,100
                135.6453164326,34.9750714866,100
                135.6447798863,34.97505984,100
                135.6447562961,34.9750687856,100
                135.644605178,34.9751260234,100
                135.6443725647,34.9752858469,100
                135.6443302772,34.9753148795,100
                135.6443008657,34.9753195123,100
                135.6440747132,34.975355189,100
                135.6437758667,34.9753183914,100
                135.6435149004,34.9751688772,100
                135.6432722315,34.975106676,100
                135.6431162836,34.9751574189,100
                135.6429134956,34.9752416163,100
                135.6425644313,34.9752866471,100
                135.6415169436,34.9755143429,100
                135.641515752,34.9755176495,100
                135.6414565404,34.975684813,100
                135.6414426669,34.9757860481,100
                135.6414378876,34.9759256245,100
                135.6414231837,34.9761293316,100
                135.6413851244,34.9763218418,100
                135.6413574542,34.9764028938,100
                135.6413229654,34.9764879401,100
                135.6411784119,34.9767461265,100
                135.64109423,34.9768948339,100
                135.6410842446,34.9769529076,100
                135.641078717,34.9770776917,100
                135.6410623721,34.9771565236,100
                135.641003814,34.9774926478,100
                135.6409817662,34.9775990709,100
                135.6408847287,34.9778997257,100
                135.6407921159,34.9781373589,100
                135.6407062696,34.9783531092,100
                135.6406355128,34.9785766507,100
                135.6405925882,34.9787461153,100
                135.6405745426,34.9788322662,100
                135.6405789505,34.9790178591,100
                135.6405827033,34.9790792135,100
                135.6405275199,34.9791361672,100
                135.6404488776,34.9791667813,100
                135.6403838275,34.9791710251,100
                135.6402307908,34.9791219742,100
                135.6401272677,34.9791088491,100
                135.6400389332,34.9791204185,100
                135.6399712672,34.979150501,100
                135.6399057889,34.9792035499,100
                135.6398600204,34.9792306699,100
                135.6396597311,34.9793128978,100
                135.6393556304,34.979457427,100
                135.639242138,34.97950329,100
                135.6391793631,34.9795496566,100
                135.639105125,34.9796342312,100
                135.6389977404,34.9797944169,100
                135.6389096093,34.9799690284,100
                135.638823458,34.9801313197,100
                135.6387636044,34.9802136837,100
                135.638687993,34.9802943093,100
                135.6386095094,34.9803519677,100
                135.6385323712,34.9804051221,100
                135.6383691189,34.980494571,100
                135.6383104094,34.9805358072,100
                135.6381522831,34.9806904886,100
                135.6381127905,34.9807396005,100
                135.6380645708,34.9808178431,100
                135.6377841942,34.9812969737,100
                135.6376301915,34.9815837189,100
                135.6374798037,34.9819042809,100
                135.6373674225,34.9821538245,100
                135.6373330322,34.9822585892,100
                135.637326805,34.9823806933,100
                135.6373247968,34.9825161914,100
                135.6381391292,34.9828566149,100
                135.6380956098,34.9831700321,100
                135.6380280332,34.9833491411,100
                135.6379331272,34.983536126,100
                135.6379069768,34.9836447891,100
                135.6378748833,34.9837917474,100
                135.6378659943,34.9840036391,100
                135.6378608781,34.9841258874,100
                135.6378805417,34.9843440629,100
                135.6378912113,34.9844183269,100
                135.6379420081,34.9845620816,100
                135.6380342488,34.9847777983,100
                135.6381181659,34.9850958927,100
                135.6381565495,34.98523123,100
                135.638210716,34.9853678123,100
                135.6382874687,34.9854957985,100
                135.6385044577,34.985720621,100
                135.6385762913,34.9858289439,100
                135.6386522985,34.9859467865,100
                135.6387028553,34.9860528619,100
                135.6387639617,34.9862023527,100
                135.6388328706,34.9865384306,100
                135.6388782828,34.9868324609,100
                135.6387838146,34.9869728216,100
                135.6387560726,34.987039856,100
                135.6387359608,34.9871231819,100
                135.6387273837,34.9871861887,100
                135.6387362075,34.9873008714,100
                135.6387242702,34.9873740802,100
                135.6386742827,34.9875035876,100
                135.6386328913,34.9875802297,100
                135.6386023417,34.987633733,100
                135.638506279,34.9877325376,100
                135.6384142211,34.987815577,100
                135.6383021781,34.9878749641,100
                135.6382490532,34.9879342461,100
                135.6381763289,34.9880429801,100
                135.6381221648,34.9881686012,100
                135.6381055546,34.9882580638,100
                135.6380994416,34.988295725,100
                135.6380783347,34.9884251777,100
                135.6380514847,34.98852771,100
                135.63803684,34.9886081646,100
                135.6379827208,34.9887427996,100
                135.6379257722,34.9888492563,100
                135.6377630039,34.989161466,100
                135.6377223668,34.9892561395,100
                135.6376840105,34.9893867376,100
                135.6376812381,34.9895110341,100
                135.6376967775,34.9895970725,100
                135.6377971032,34.9897749206,100
                135.637901439,34.9899461599,100
                135.6380100328,34.9901415689,100
                135.6381068801,34.9903127867,100
                135.6381607177,34.9903885156,100
                135.6382227135,34.9904530721,100
                135.638279982,34.9905270513,100
                135.6384154645,34.9907283865,100
                135.6385355862,34.9910322877,100
                135.6385401193,34.9910525133,100
                135.6386100122,34.9913649273,100
                135.6386487878,34.9916846425,100
                135.6386496354,34.9916915469,100
                135.6386756916,34.9919064276,100
                135.6386780879,34.9919262248,100
                135.6386658733,34.9920914114,100
                135.6386469033,34.9921627674,100
                135.6386247151,34.9922462284,100
                135.6386252255,34.9922517937,100
                135.6385793146,34.9924170197,100
                135.6385562933,34.9924998433,100
                135.6385095162,34.992774722,100
                135.63855125,34.9931369134,100
                135.6386301028,34.9933681508,100
                135.6387628792,34.9935046846,100
                135.6390132514,34.9936200884,100
                135.6391101489,34.9937275677,100
                135.6391529763,34.9939141167,100
                135.6390167166,34.9942886652,100
                135.6390513732,34.9944797676,100
                135.6391719653,34.9950731935,100
                135.6390454098,34.9953126177,100
                135.6389375662,34.9955001939,100
                135.6388604051,34.9957460337,100
                135.6388820048,34.9960069582,100
                135.6389585546,34.9962855831,100
                135.6391112108,34.9967933221,100
                135.6391865706,34.9972363189,100
                135.6391487543,34.9975899579,100
                135.6392232814,34.9979450597,100
                135.6399493519,34.9982443557,100
                135.6401981259,34.9984791242,100
                135.640266422,34.9987532863,100
                135.6404114152,34.9990246488,100
                135.6410627689,34.9995381641,100
                135.6414519542,34.9998463096,100
                135.64200707,35.0003222082,100
                135.6422698967,35.0005951149,100
                135.6424611559,35.0005376496,100
                135.6428493544,34.9997350193,100
                135.6428504985,34.9997326989,100
                135.6428468453,34.9997314207,100
                135.6428978216,34.9996353687,100
                135.6429826691,34.9994753991,100
                135.6431026901,34.9994291305,100
                135.6431969484,34.9993928584,100
                135.6432040265,34.9993937948,100
                135.6434133394,34.9994207518,100
                135.6437601353,34.9994643836,100
                135.6437605412,34.9994645251,100
                135.64376392,34.9994649581,100
                135.6440566856,34.9994211002,100
                135.6441452815,34.9994078393,100
                135.6444547862,34.9993819181,100
                135.6445292094,34.9993756579,100
                135.6445304515,34.999375239,100
                135.644702557,34.9993124312,100
                135.6448039006,34.9992754032,100
                135.6448105978,34.9992704226,100
                135.6449596509,34.9991600803,100
                135.6450792105,34.9990716237,100
                135.645145642,34.9990430135,100
                135.6452605819,34.9989935603,100
                135.6452626152,34.9989935663,100
                135.6458554107,34.9989914321,100
                135.6460641384,34.9989202081,100
                135.6461721163,34.998738261,100
                135.6461733352,34.9987286161,100
                135.6462296074,34.9982860089,100
                135.6460987286,34.998166182,100
                135.6459791353,34.9979946246,100
                135.6459790995,34.9979930038,100
                135.6459747023,34.9978166427,100
                135.6460957947,34.9977243164,100
                135.6461509205,34.9976822929,100
                135.6461518632,34.9976821542,100
                135.6466420614,34.9975987255,100
                135.6466430273,34.9975981649,100
                135.6467850452,34.997520477,100
                135.6468816368,34.9974083585,100
                135.6468821566,34.9974068803,100
                135.646900178,34.9973556624,100
                135.6469865377,34.9971101266,100
                135.6469922129,34.9970939443,100
                135.6469931441,34.9970913415,100
                135.6472752631,34.997128437,100
                135.6472804345,34.9971299306,100
                135.6475954299,34.9972197327,100
                135.6478808005,34.9972727544,100
                135.6479294159,34.9972820514,100
                135.6481597521,34.9972760356,100
                135.6490704652,34.9971603075,100
                135.6500253607,34.996988502,100
                135.6501018408,34.9969407629,100
                135.6502262027,34.9968632333,100
                135.6504157156,34.9968009628,100
                135.6504851518,34.9968048272,100
                135.6505910799,34.9968106986,100
                135.6507082075,34.9968549851,100
                135.6511982516,34.9970404319,100
                135.6513838347,34.9970981571,100
                135.6514472332,34.9971179189,100
                135.6517539966,34.9971574011,100
                135.6519243165,34.9972371252,100
                135.6520599369,34.9973006202,100
                135.6523447402,34.9974132105,100
                135.6531404719,34.9977189079,100
                135.65355357,34.9978577842,100
                135.6537526412,34.9980318899,100
                135.6540670346,34.9981772403,100
                135.6542659565,34.998136683,100
                135.6545561677,34.9979652523,100
                135.6552090256,34.9978866987,100
                135.6554179488,34.997781797,100
                135.6555202197,34.9976335595,100
                135.6556380332,34.9974006419,100
                135.6557003069,34.9973056025,100
                135.655931906,34.9970724467,100
                135.6558154806,34.9967960387,100
                135.6557815807,34.9965247967,100
                135.6558058658,34.9961175148,100
                135.6560672283,34.9959496586,100
                135.6563209276,34.9956895207,100
                135.6566257694,34.9955871455,100
                135.6571359278,34.9955306371,100
                135.6575416907,34.9955165108,100
                135.6578022664,34.9954859817,100
                135.6580192126,34.9954148322,100
                135.6583242902,34.995285338,100
                135.6585812822,34.9953876243,100
                135.6588583339,34.9953146019,100
                135.6593085482,34.9948333764,100
                135.6593944243,34.9946052179,100
                135.659455869,34.9944118536,100
                135.6596760841,34.9942506304,100
                135.6601902698,34.9939915543,100
                135.6603585433,34.9938075721,100
                135.6606590915,34.9935115526,100
                135.6610133144,34.9934185206,100
                135.6612819926,34.9934059581,100
                135.6617940453,34.9935024653,100
                135.6618380137,34.9934982921,100
                135.6619750795,34.9934851513,100
                135.6622692089,34.9933467299,100
                135.6620874653,34.9931490214,100
                135.6619065961,34.9929060995,100
                135.6616928086,34.992670622,100
                135.6616104122,34.9925663689,100
                135.6615814563,34.9924905056,100
                135.6615762448,34.9922775123,100
                135.6615367597,34.9920325197,100
                135.6613590776,34.9913442114,100
                135.6613312415,34.9912615197,100
                135.6613350284,34.9911025721,100
                135.6613667688,34.99096166,100
                135.6613832014,34.9907566151,100
                135.6613748112,34.9905259348,100
                135.6613385931,34.9902470046,100
                135.6612701882,34.9900259479,100
                135.6610304171,34.9897798345,100
                135.6607012484,34.989555167,100
                135.6601291589,34.9894706804,100
                135.6595344476,34.9893959128,100
                135.6593898271,34.9893587423,100
                135.6592258544,34.9892429161,100
                135.6589521159,34.9887934421,100
                135.6587637843,34.9889507416,100
                135.6585661481,34.9891276641,100
                135.6581590244,34.989425131,100
                135.6579370214,34.9896217736,100
                135.6577933328,34.9897244039,100
                135.6571745832,34.9901810688,100
                135.6568026416,34.9904799683,100
                135.6563651307,34.9908069202,100
                135.6558651663,34.9911746114,100
                135.6552654438,34.9915603258,100
                135.6549647367,34.9917632869,100
                135.6546826879,34.9919803845,100
                135.6545747182,34.9920993116,100
                135.6542303175,34.9925046242,100
                135.6537514851,34.9922956282,100
                135.6536381562,34.9922044498,100
                135.6533907557,34.9920607,100
                135.6533468971,34.9920202895,100
                135.6532729481,34.9918913338,100
                135.6529910091,34.9916486723,100
                135.652743797,34.9913503329,100
                135.6526416289,34.9911711509,100
                135.6526892558,34.9910445175,100
                135.6526804399,34.9909290605,100
                135.6525832482,34.9908425768,100
                135.6524774982,34.9908012128,100
                135.6524802285,34.9907075513,100
                135.6524585123,34.9906523436,100
                135.6523825148,34.9905576092,100
                135.6530638342,34.9900877721,100
                135.6530980431,34.990037796,100
                135.6532118537,34.9899541725,100
                135.6533329916,34.9897472502,100
                135.6533769864,34.989543839,100
                135.6533705328,34.9894560669,100
                135.6533328302,34.9893567254,100
                135.6530652669,34.9890200855,100
                135.6529818859,34.9888454665,100
                135.6528071151,34.9881911796,100
                135.652732343,34.9880498968,100
                135.6526865446,34.9879479971,100
                135.6526841151,34.9878147396,100
                135.6527377456,34.9876545997,100
                135.6529095992,34.9873690128,100
                135.6530514723,34.9871503194,100
                135.6531367568,34.987007242,100
                135.6532849107,34.9864170541,100
                135.6533411178,34.9861932512,100
                135.6534733707,34.9854050401,100
                135.6535473177,34.9849418313,100
                135.6536067313,34.9847384624,100
                135.6536381623,34.9846718558,100
                135.6537601624,34.9845466304,100
                135.6538661098,34.9843981176,100
                135.6539729928,34.984306303,100
                135.6541209771,34.9840512101,100
                135.6541366008,34.9840242806,100
                135.6542726026,34.9838303563,100
                135.6545471012,34.9835301982,100
                135.6546171953,34.9834415882,100
                135.6548235546,34.9831007385,100
                135.6549600169,34.9828475842,100
                135.655111103,34.9826619417,100
                135.6551731182,34.9826015491,100
                135.6554010323,34.9824297195,100
                135.6558524569,34.9821609805,100
                135.6559886372,34.982070726,100
                135.6561000848,34.9819604691,100
                135.6562272928,34.9817901823,100
                135.6562791592,34.9816246102,100
                135.6564720074,34.9816513569,100
                135.6565272094,34.9815061486,100
                135.6565902388,34.9813765989,100
                135.6567224182,34.9813676768,100
                135.6570175797,34.9812169512,100
                135.6570564685,34.9811870583,100
                135.6572075958,34.9811330457,100
                135.6573494545,34.9810190712,100
                135.6574184904,34.98087517,100
                135.6574523204,34.9807756092,100
                135.6573892584,34.9806419681,100
                135.6575202277,34.9805379635,100
                135.6576845676,34.9805216666,100
                135.6577909716,34.9805578152,100
                135.6580179057,34.9807157248,100
                135.658122723,34.9808606811,100
                135.6581788944,34.9809388754,100
                135.6582879494,34.9809908782,100
                135.658265438,34.9808846086,100
                135.6583387893,34.980715997,100
                135.6583922735,34.9805865591,100
                135.6584822319,34.9805242724,100
                135.6587118218,34.9805633044,100
                135.6589039974,34.9806433604,100
                135.6591259195,34.9807932244,100
                135.6592818517,34.9806685822,100
                135.6594333378,34.9805792115,100
                135.6598095781,34.980432718,100
                135.6598871937,34.9803138386,100
                135.6598792986,34.9802261334,100
                135.6598704269,34.9800696871,100
                135.660057148,34.9799916783,100
                135.6603186771,34.9799398672,100
                135.6604557491,34.9799486276,100
                135.6605281076,34.980050246,100
                135.6606938009,34.9801894513,100
                135.660735517,34.9803345093,100
                135.6608396507,34.9805025593,100
                135.6609595541,34.9804983847,100
                135.6611515736,34.9805153976,100
                135.6612057839,34.9804738542,100
                135.6613707216,34.9803450041,100
                135.6615800058,34.980257901,100
                135.6616754574,34.9803054933,100
                135.661721327,34.9802944222,100
                135.6618938483,34.9802617285,100
                135.661940472,34.9802700272,100
                135.6622431577,34.9803965786,100
                135.6624121515,34.9805092382,100
                135.6625349109,34.9805340869,100
                135.662703753,34.9806054745,100
                135.66265354,34.9807264728,100
                135.6624559983,34.9810127824,100
                135.6624988994,34.9811156554,100
                135.6627131738,34.98124175,100
                135.6629832867,34.9812789073,100
                135.6631255291,34.9812166176,100
                135.6632799199,34.9811604191,100
                135.6633382929,34.9809635214,100
                135.6634614509,34.9807545475,100
                135.6635284006,34.9805366858,100
                135.6635090452,34.9803413339,100
                135.6635704657,34.9800838066,100
                135.6635929308,34.9798888518,100
                135.6636506775,34.9797559717,100
                135.663681582,34.9797527467,100
                135.6638476287,34.9796700285,100
                135.6639175857,34.979521899,100
                135.6639037679,34.9793952309,100
                135.6639649061,34.9793698331,100
                135.6639973339,34.9792914652,100
                135.6640682996,34.9791743979,100
                135.6642069794,34.9790711089,100
                135.6643306423,34.978820513,100
                135.6643670977,34.9785244624,100
                135.6644431919,34.9783503616,100
                135.6645445673,34.9781980222,100
                135.6645547585,34.9779788072,100
                135.6648927942,34.9778683178,100
                135.6650438639,34.9781662213,100
                135.6653595703,34.9781873707,100
                135.6656401141,34.9781651096,100
                135.6657382725,34.9781357282,100
                135.6662796176,34.977908459,100
                135.6661978368,34.977801326,100
                135.6662044894,34.9777484527,100
                135.6663968989,34.977719328,100
                135.6663727524,34.9776327064,100
                135.6664574601,34.9776127955,100
                135.666498167,34.9773891566,100
                135.6667515336,34.9773038556,100
                135.6668192875,34.9772811515,100
                135.666890458,34.9772545826,100
                135.6668319361,34.9773759828,100
                135.6667667573,34.9775086317,100
                135.6666756173,34.9778475645,100
                135.6668050493,34.97794687,100
                135.6668117699,34.9779964219,100
                135.6668666121,34.9779999576,100
                135.666873763,34.9781288875,100
                135.6669502408,34.9781768756,100
                135.6669826477,34.9782100482,100
                135.6670078392,34.9782520667,100
                135.6670294902,34.9783484224,100
                135.6670248711,34.978412365,100
                135.6672263844,34.9784174219,100
                135.6673339537,34.9786331686,100
                135.6673821319,34.978636906,100
                135.6674212876,34.9787055247,100
                135.6674253821,34.9789164825,100
                135.6675351128,34.9789440078,100
                135.6677547329,34.9792053308,100
                135.6682027797,34.9791899979,100
                135.6685273006,34.9791269301,100
                135.6685772126,34.9790991767,100
                135.6687007733,34.9789549936,100
                135.6687529846,34.9788439303,100
                135.6687935545,34.9787070582,100
                135.6687604741,34.9784832897,100
                135.6687903166,34.9784078016,100
                135.6690128058,34.9783572041,100
                135.6690540981,34.9784313362,100
                135.6692829521,34.9784049815,100
                135.6699182229,34.9784260691,100
                135.6703608406,34.9784233916,100
                135.6704897708,34.9784512769,100
                135.6705069272,34.9785218213,100
                135.6704959679,34.9788051926,100
                135.6704473676,34.9789938075,100
                135.6703366748,34.9791257009,100
                135.670100899,34.9792303535,100
                135.6700641994,34.9793034992,100
                135.6700892961,34.9794165335,100
                135.6702515979,34.9794828217,100
                135.6703295939,34.9795375427,100
                135.6704922938,34.9796171429,100
                135.6704523845,34.9797500026,100
                135.6704039018,34.979789522,100
                135.6704667938,34.9799311104,100
                135.6704745627,34.9800712124,100
                135.6705368992,34.9801588522,100
                135.6705560901,34.9803101819,100
                135.6704908648,34.9805047379,100
                135.6703904509,34.9807308209,100
                135.6704373736,34.9809296953,100
                135.6705065248,34.9809873507,100
                135.6706556684,34.9810444463,100
                135.6707116746,34.9810935443,100
                135.6709438071,34.9810850132,100
                135.6710516213,34.9808750782,100
                135.6712270662,34.9809135101,100
                135.6716266793,34.9809286004,100
                135.6720575736,34.981051244,100
                135.672011477,34.9812409223,100
                135.6721228149,34.981501731,100
                135.67227061,34.9814760714,100
                135.6724477751,34.981559583,100
                135.6724423063,34.9817378901,100
                135.6727105972,34.9817465705,100
                135.6729471206,34.9817003012,100
                135.6731655062,34.9817023682,100
                135.6733219699,34.9817461718,100
                135.673382444,34.981423494,100
                135.6733943954,34.981211468,100
                135.6733536402,34.9810589527,100
                135.6733819184,34.9809278219,100
                135.6733687478,34.9807122786,100
                135.6733976638,34.9806150258,100
                135.6735024252,34.9807345402,100
                135.6736365386,34.9809307585,100
                135.6736844185,34.9810774468,100
                135.6736901924,34.9811000701,100
                135.6746828514,34.9809963108,100
                135.6747160688,34.9807279987,100
                135.6748024713,34.9806455478,100
                135.6749852013,34.9805910304,100
                135.6750560146,34.9804352927,100
                135.6750673767,34.9802752415,100
                135.6750348131,34.980160568,100
                135.675081423,34.9800953353,100
                135.675093967,34.9798289401,100
              </coordinates>
            </LinearRing>
          </outerBoundaryIs>
        </Polygon>
      </Placemark>
    </Document>
  </Document>
</kml>
