<?xml version="1.0" encoding="UTF-8"?>
<kml xmlns="http://www.opengis.net/kml/2.2">
  <Document id="root_doc">
    <Document id="_8_15______disv4326">
      <name>38_15境谷disv4326</name>
      <Placemark id="_8_15______disv4326.1">
        <visibility>1</visibility>
        <Polygon>
          <extrude>0</extrude>
          <outerBoundaryIs>
            <LinearRing>
              <coordinates>
                135.6711853399,34.9593426115,100
                135.6708251347,34.9591725322,100
                135.6704713251,34.9590400794,100
                135.6701236216,34.9589485614,100
                135.6697574146,34.958869106,100
                135.6696772697,34.9587528193,100
                135.6695102369,34.9587162333,100
                135.6693740153,34.9586813514,100
                135.6692370947,34.9587421823,100
                135.667776803,34.9584369627,100
                135.6674812632,34.959386533,100
                135.6670466909,34.9607246342,100
                135.666379215,34.9628446841,100
                135.6666411956,34.9631326122,100
                135.6668100409,34.9633497132,100
                135.6668014298,34.9634707567,100
                135.6668000927,34.9634895567,100
                135.6666881766,34.9634557964,100
                135.6666214005,34.9637996559,100
                135.6661078504,34.9637316894,100
                135.6659689727,34.9641927547,100
                135.6657796647,34.964807497,100
                135.6654411846,34.9658451733,100
                135.6653873457,34.9660116598,100
                135.6653036188,34.9662705357,100
                135.6668338841,34.9663236176,100
                135.6669335837,34.9664183353,100
                135.667088223,34.9664235482,100
                135.6672258188,34.9664281507,100
                135.6673675885,34.9663353627,100
                135.667966745,34.9663463676,100
                135.6684720773,34.9663557057,100
                135.6693754847,34.9663723939,100
                135.6693917185,34.9663725789,100
                135.6700322168,34.966384179,100
                135.6701622589,34.9664817932,100
                135.670288938,34.9664994628,100
                135.6704080876,34.9664142858,100
                135.670697002,34.9664149287,100
                135.6709424341,34.9663719276,100
                135.6711544421,34.9663109474,100
                135.671226748,34.9662914232,100
                135.6712758661,34.9662781747,100
                135.6716042992,34.9662097616,100
                135.6719836756,34.9661038767,100
                135.6721833353,34.9660444811,100
                135.6723816208,34.9659860634,100
                135.6724007596,34.9659816072,100
                135.6725475969,34.9659474196,100
                135.6728028015,34.9658769699,100
                135.6728602881,34.9658619808,100
                135.6730175034,34.9658210599,100
                135.6732641159,34.965743402,100
                135.6732926621,34.9657343219,100
                135.673507174,34.9656775659,100
                135.6736301552,34.965645215,100
                135.6739641448,34.9655603224,100
                135.6741191764,34.9655198167,100
                135.6742658611,34.9655901418,100
                135.6744371053,34.9655768629,100
                135.6745614728,34.9654244349,100
                135.6746463136,34.9654096595,100
                135.6750406371,34.9653414047,100
                135.6754860648,34.9653208234,100
                135.6756636918,34.965282769,100
                135.6763166519,34.9652007569,100
                135.6766676932,34.9647702395,100
                135.6768935437,34.9644735582,100
                135.6773983247,34.9637522237,100
                135.6776113648,34.9634426179,100
                135.6777770985,34.9631591571,100
                135.6779665583,34.9628238527,100
                135.6781925152,34.9624299769,100
                135.6783652141,34.9620975856,100
                135.6785329789,34.9617967327,100
                135.6786772701,34.9615372996,100
                135.6788962441,34.9610730386,100
                135.6789399914,34.9609924418,100
                135.6783245618,34.9607740468,100
                135.677776797,34.9605797032,100
                135.6774317837,34.9604571644,100
                135.6771129139,34.96034406,100
                135.6770519955,34.9601582472,100
                135.676880284,34.9600908867,100
                135.6765830777,34.9602213839,100
                135.6762065525,34.9602399697,100
                135.6758443506,34.9602931027,100
                135.6753221261,34.9604296934,100
                135.6750441871,34.9605158669,100
                135.6743790817,34.9607491268,100
                135.6740303783,34.9609042729,100
                135.6738955177,34.9610174478,100
                135.6737367045,34.9611794361,100
                135.673617601,34.9613539965,100
                135.6734964323,34.9616079252,100
                135.6733157078,34.9616630817,100
                135.6731796129,34.9616375769,100
                135.6728563947,34.9614390905,100
                135.6727468708,34.961351818,100
                135.6725825785,34.961170586,100
                135.672447237,34.9609592864,100
                135.6723998134,34.9608852083,100
                135.6722211829,34.9605492737,100
                135.6721154931,34.9603630544,100
                135.6720454579,34.9602145389,100
                135.6719548282,34.9600223727,100
                135.6718562475,34.9598996988,100
                135.6717501545,34.9597893995,100
                135.6713072271,34.959433726,100
                135.6712976458,34.9593684819,100
                135.6712267633,34.9593323711,100
                135.6711853399,34.9593426115,100
              </coordinates>
            </LinearRing>
          </outerBoundaryIs>
        </Polygon>
      </Placemark>
    </Document>
  </Document>
</kml>
