<?xml version="1.0" encoding="UTF-8"?>
<kml xmlns="http://www.opengis.net/kml/2.2">
  <Document id="root_doc">
    <Document id="_0_26______disv4326">
      <name>40_26周山disv4326</name>
      <Placemark id="_0_26______disv4326.1">
        <visibility>1</visibility>
        <Polygon>
          <extrude>0</extrude>
          <outerBoundaryIs>
            <LinearRing>
              <coordinates>
                135.6331934425,35.1403408383,100
                135.6328025273,35.1404951623,100
                135.6324226352,35.140676984,100
                135.6319514807,35.1408280353,100
                135.6316635361,35.1408942835,100
                135.6316201209,35.140901758,100
                135.6315180468,35.1408483365,100
                135.6313978182,35.1407380005,100
                135.6314609043,35.140371309,100
                135.6314824845,35.1401346461,100
                135.631519736,35.1397260628,100
                135.6314947462,35.1391752148,100
                135.6309462566,35.1391257861,100
                135.6308719499,35.1393013406,100
                135.6309094169,35.1395132894,100
                135.6309244712,35.1395880993,100
                135.6309598795,35.1397640386,100
                135.6308767597,35.1399467778,100
                135.6304618947,35.1399554416,100
                135.6303417976,35.1400623484,100
                135.6301482148,35.1404061092,100
                135.6301566766,35.1404773478,100
                135.6304019119,35.1406096972,100
                135.6301590762,35.1409235621,100
                135.6295587857,35.140744615,100
                135.6294203377,35.1407117308,100
                135.6291085309,35.1405823324,100
                135.6288126839,35.1406136189,100
                135.6282947541,35.14075557,100
                135.6276950057,35.1409779763,100
                135.627318996,35.1410649324,100
                135.6269661888,35.1411016043,100
                135.6265598732,35.1411128995,100
                135.6263837235,35.1410746144,100
                135.6261389952,35.1409480899,100
                135.6248321712,35.140069705,100
                135.6242898595,35.1396402855,100
                135.6240299097,35.139488498,100
                135.6237162639,35.1393428125,100
                135.6234635878,35.1392791459,100
                135.6231417676,35.1392530136,100
                135.6227737253,35.1392770207,100
                135.6225205936,35.1393139871,100
                135.6222595871,35.1393949437,100
                135.6222276962,35.1394139851,100
                135.6220290121,35.1395326149,100
                135.6217843189,35.1397143708,100
                135.6210921475,35.1408913031,100
                135.6209789311,35.1420200663,100
                135.6208780605,35.1425880198,100
                135.6212013954,35.1426791658,100
                135.6212947899,35.142655117,100
                135.6214477662,35.142561843,100
                135.6218613798,35.1423494874,100
                135.6222467612,35.1423119181,100
                135.6224663206,35.1422972722,100
                135.6226503727,35.1423681514,100
                135.6227678929,35.1423477812,100
                135.6228430129,35.1422721152,100
                135.6232914825,35.1425675398,100
                135.6235658413,35.1425692863,100
                135.6237229112,35.1427816048,100
                135.623894277,35.1434717229,100
                135.6242694952,35.1437396982,100
                135.624740725,35.1438916835,100
                135.6251301371,35.1441777284,100
                135.6254048062,35.1445977334,100
                135.6254622032,35.1454993392,100
                135.6250931765,35.1475056949,100
                135.6252024352,35.1478593913,100
                135.6251295618,35.1491734535,100
                135.6253377692,35.1494904956,100
                135.6254148582,35.1496764268,100
                135.6254246402,35.1497418574,100
                135.6254418197,35.1497543923,100
                135.6253212384,35.1502359276,100
                135.6250000048,35.1506441899,100
                135.6238120399,35.1509704532,100
                135.6236294233,35.1515477054,100
                135.623295689,35.1527726161,100
                135.6229249344,35.1539316194,100
                135.6230228182,35.1545714763,100
                135.6230422044,35.1546982099,100
                135.6227951751,35.1549534547,100
                135.6222903624,35.1554143305,100
                135.6222907864,35.1554167092,100
                135.6223738473,35.155884242,100
                135.6224399178,35.1560669133,100
                135.6225527197,35.1563787876,100
                135.622827874,35.156700554,100
                135.6228248088,35.1567004213,100
                135.6224042573,35.156682114,100
                135.6218742338,35.1568895993,100
                135.6214821183,35.1569424611,100
                135.620463434,35.1567883969,100
                135.6203096671,35.1568370178,100
                135.619691451,35.1567781981,100
                135.6187589157,35.1566707001,100
                135.6181765609,35.1567977713,100
                135.6172896658,35.156553388,100
                135.6164071127,35.1570319619,100
                135.6161685657,35.1573440035,100
                135.6157516321,35.157575567,100
                135.6157360585,35.1575842155,100
                135.6156544353,35.1581419431,100
                135.6155233131,35.1584849719,100
                135.6148182742,35.1585512387,100
                135.613784499,35.1584938578,100
                135.613701198,35.1582321777,100
                135.6128027065,35.1578849613,100
                135.6126930217,35.1577590532,100
                135.6122207698,35.1572169445,100
                135.6109277384,35.1574399561,100
                135.6107995655,35.1571503327,100
                135.6107539609,35.1570472783,100
                135.61036365,35.1566524502,100
                135.6100012572,35.1562858593,100
                135.6090253443,35.1557140872,100
                135.6081543682,35.156655845,100
                135.6074761387,35.1568628028,100
                135.6065404106,35.1569760832,100
                135.6059316432,35.1568875886,100
                135.6047990134,35.1568595996,100
                135.6042918013,35.1571094584,100
                135.6035601461,35.157011541,100
                135.6034342226,35.1574041531,100
                135.6029001085,35.1575412413,100
                135.602687274,35.157746075,100
                135.6028471676,35.1587327494,100
                135.6026939284,35.1595534482,100
                135.6033102401,35.159446374,100
                135.6036992124,35.1600488821,100
                135.6040378066,35.1606286904,100
                135.603111487,35.1606013531,100
                135.6008238582,35.1608382027,100
                135.6006225465,35.1611539452,100
                135.6004171661,35.1625423817,100
                135.6000119041,35.1625843265,100
                135.5998812773,35.162811962,100
                135.5994291438,35.1639210471,100
                135.5987859141,35.1645923045,100
                135.5987761371,35.1650240578,100
                135.5987158625,35.1651337324,100
                135.5985990556,35.1652039661,100
                135.5984720261,35.1653521189,100
                135.5983792267,35.1654809741,100
                135.5981814688,35.1655327931,100
                135.5980454302,35.1656127059,100
                135.59801213,35.1657134979,100
                135.597762172,35.1657508605,100
                135.5976805563,35.1658078058,100
                135.597372506,35.1659699958,100
                135.5970859203,35.1660406034,100
                135.5966625779,35.1660954174,100
                135.5964122257,35.1662112229,100
                135.5960689508,35.166322417,100
                135.5960045733,35.1663211025,100
                135.5961404337,35.1661042117,100
                135.5961554264,35.1661116943,100
                135.596162152,35.166026771,100
                135.5962251707,35.1656119845,100
                135.5962876935,35.1654078981,100
                135.5963199424,35.1649397203,100
                135.5962069354,35.1646216927,100
                135.596210327,35.1646123474,100
                135.5962281438,35.1644374717,100
                135.5962604119,35.1641207433,100
                135.5962092148,35.1637506364,100
                135.5959322534,35.1632027493,100
                135.5953999315,35.1630163264,100
                135.5950950969,35.1629914651,100
                135.594980702,35.1629246024,100
                135.5949836255,35.1626273089,100
                135.5950110357,35.162365115,100
                135.5951580012,35.1620078488,100
                135.5950291494,35.1616317783,100
                135.5949934897,35.1615004834,100
                135.5950860433,35.1610124187,100
                135.5950759668,35.1609592881,100
                135.5950891344,35.160949862,100
                135.5954099302,35.1604210814,100
                135.5956487671,35.160091734,100
                135.595690057,35.1598189723,100
                135.5956023975,35.1595261202,100
                135.5956392329,35.1594492357,100
                135.5956485795,35.1591786288,100
                135.5953347425,35.1589994174,100
                135.5946918369,35.158827492,100
                135.5936842517,35.1586597736,100
                135.5935497621,35.1586373866,100
                135.5925134065,35.1581605952,100
                135.5912971028,35.1581862749,100
                135.5885165248,35.1588998691,100
                135.5885117307,35.1589171176,100
                135.5885069489,35.1589034223,100
                135.5845520889,35.1603701671,100
                135.5841379599,35.1602155182,100
                135.5837000417,35.1599277206,100
                135.58239523,35.1590701858,100
                135.5822992846,35.1591169777,100
                135.5807138588,35.1598901278,100
                135.5797527551,35.1602338726,100
                135.5783261266,35.1602449276,100
                135.5774571932,35.1602516528,100
                135.5764508912,35.1602594329,100
                135.5751802917,35.1608021841,100
                135.5729997124,35.1622990562,100
                135.5729360239,35.1622679061,100
                135.5728767945,35.1621888244,100
                135.5728343515,35.1620635329,100
                135.5727976157,35.1618062867,100
                135.5727984094,35.1616539633,100
                135.5726767362,35.1614793802,100
                135.5726478565,35.1612942766,100
                135.5726548659,35.160903874,100
                135.5725632896,35.1606804526,100
                135.572550566,35.1605797736,100
                135.5725609522,35.1604954422,100
                135.5727296697,35.1602253248,100
                135.5727466719,35.1601383409,100
                135.5727353862,35.1600233464,100
                135.5704987849,35.1599673183,100
                135.5690422224,35.1610096311,100
                135.5678483934,35.1613958135,100
                135.5679067044,35.1614570853,100
                135.5682074641,35.1617300579,100
                135.568303448,35.1620103328,100
                135.568335641,35.1623783421,100
                135.568372932,35.1626983401,100
                135.5683646303,35.1633461416,100
                135.5684830061,35.1636252287,100
                135.5688891763,35.1642559729,100
                135.5699390406,35.1653558237,100
                135.5704014781,35.1659807736,100
                135.570626424,35.1659807894,100
                135.5708388981,35.1659390706,100
                135.5710888972,35.1658224818,100
                135.5713138554,35.1656724948,100
                135.5715263277,35.1656474647,100
                135.5721887698,35.1657141542,100
                135.5724387534,35.1657808055,100
                135.5725512528,35.1660724016,100
                135.5725620628,35.1662276534,100
                135.5725762256,35.1664307352,100
                135.5724887151,35.166922338,100
                135.5723123517,35.1673573615,100
                135.5722895382,35.1676285543,100
                135.5723884076,35.1678123539,100
                135.5724900944,35.1679161625,100
                135.5725871418,35.1679886867,100
                135.5726094447,35.1680040467,100
                135.5729386645,35.1682304846,100
                135.5735760734,35.1685637759,100
                135.5738785819,35.1687407505,100
                135.5739823963,35.1688894254,100
                135.5740094519,35.1691705812,100
                135.5739885418,35.1695469937,100
                135.5741510044,35.1698719327,100
                135.574238514,35.1702552018,100
                135.5741949969,35.1705017436,100
                135.5741288466,35.1706058798,100
                135.5734260827,35.1708801189,100
                135.5734135951,35.1710884584,100
                135.5737510185,35.1715633771,100
                135.5742509739,35.1720132973,100
                135.5748509367,35.172521594,100
                135.5748759355,35.1725966118,100
                135.5747509109,35.173263157,100
                135.5746009332,35.1737131327,100
                135.5746357571,35.174068611,100
                135.5749658597,35.1744535694,100
                135.5753223002,35.1749042532,100
                135.5757508295,35.1756795577,100
                135.5759507979,35.175929481,100
                135.5760481417,35.1760800331,100
                135.5761539177,35.1762420219,100
                135.5762257666,35.1766543896,100
                135.5764132104,35.177504277,100
                135.5761257888,35.1786041373,100
                135.57617058,35.1789774666,100
                135.5762043465,35.1790834302,100
                135.5763050581,35.1791395551,100
                135.5764007493,35.1791707322,100
                135.5770381824,35.1793123817,100
                135.5774247363,35.1794952713,100
                135.5777723641,35.1796748569,100
                135.5780464423,35.1798037636,100
                135.5783755053,35.1800085639,100
                135.5785469602,35.180153946,100
                135.5787380962,35.1805539048,100
                135.5792005516,35.1810205032,100
                135.5796269345,35.1814807786,100
                135.5798984934,35.1817995438,100
                135.580008055,35.1819281493,100
                135.5802324131,35.1821645559,100
                135.580362845,35.1823165543,100
                135.580625847,35.1826221073,100
                135.5810089468,35.1830880013,100
                135.5812101206,35.1834505949,100
                135.5813356183,35.1837742655,100
                135.5815630667,35.1846616686,100
                135.5816255711,35.1847532914,100
                135.5828755312,35.1852198884,100
                135.5830130203,35.1853782453,100
                135.5829354196,35.1855692494,100
                135.5826881013,35.1861781255,100
                135.5823756684,35.1872112919,100
                135.582375681,35.1873362929,100
                135.5829756889,35.188202854,100
                135.5835881624,35.1888527632,100
                135.583950681,35.1893276635,100
                135.5843222302,35.1896701969,100
                135.584330471,35.1896777607,100
                135.5844818766,35.1897489795,100
                135.5851881644,35.1899109574,100
                135.585361383,35.1900480249,100
                135.5853881727,35.1900692421,100
                135.5857131825,35.1904775294,100
                135.5861882211,35.1907108292,100
                135.5870507218,35.1907607873,100
                135.587400696,35.1908691511,100
                135.587900764,35.1918106268,100
                135.5880382694,35.1918939771,100
                135.5882508005,35.1921856084,100
                135.5883633068,35.1925272539,100
                135.5884258513,35.1929354928,100
                135.588538351,35.1932437575,100
                135.5890383943,35.1935020558,100
                135.5896259138,35.1937603623,100
                135.5900009128,35.1940186582,100
                135.5905509961,35.1948352114,100
                135.5906259846,35.1948351806,100
                135.591125974,35.195018472,100
                135.5913384696,35.1953851068,100
                135.5914009569,35.1961266756,100
                135.5916134734,35.1966100044,100
                135.5920009597,35.1969265876,100
                135.5928335364,35.1974507834,100
                135.5929009385,35.197493192,100
                135.5929601421,35.1976116054,100
                135.5935615466,35.197394679,100
                135.5945237675,35.1971454654,100
                135.5948783789,35.1965084179,100
                135.5955417361,35.1962852486,100
                135.5960472709,35.1959957496,100
                135.5966503795,35.195961678,100
                135.5974923675,35.1953650007,100
                135.5980257677,35.1949791582,100
                135.5983794142,35.1949686175,100
                135.5992138425,35.1954446521,100
                135.6000378863,35.1951300805,100
                135.6004248096,35.195052036,100
                135.6006772485,35.1947451049,100
                135.6015813718,35.1949756635,100
                135.6025778168,35.195194377,100
                135.6033364761,35.1957217731,100
                135.6036158319,35.1957515492,100
                135.6038748826,35.1957791611,100
                135.604715242,35.1951755967,100
                135.6047927303,35.1951730821,100
                135.6050237565,35.1951655868,100
                135.6056439519,35.1951542367,100
                135.606155431,35.1951202027,100
                135.6066869012,35.1949302,100
                135.6074882922,35.1947498251,100
                135.6079910026,35.1948247702,100
                135.6084649307,35.1948954233,100
                135.6089682471,35.1948159297,100
                135.6091168867,35.1947325812,100
                135.6092139275,35.19435239,100
                135.6092679235,35.1941408476,100
                135.610053545,35.1933429415,100
                135.6105471191,35.1927658329,100
                135.6111872479,35.193014882,100
                135.6113350646,35.1928729363,100
                135.6115961022,35.1929244543,100
                135.6118550897,35.1929755667,100
                135.6123632069,35.1923965527,100
                135.6123614753,35.1923934799,100
                135.6123713111,35.1923873171,100
                135.6125660002,35.1922653341,100
                135.6130457744,35.1918824091,100
                135.6135411622,35.1919371535,100
                135.6136018167,35.1918970063,100
                135.6138176413,35.191754153,100
                135.6141589767,35.1910855028,100
                135.6144333182,35.1904184413,100
                135.6144549923,35.1893446514,100
                135.6145031351,35.1892106448,100
                135.6147069296,35.1886665114,100
                135.6149803149,35.1877766172,100
                135.6162298099,35.1874846716,100
                135.6165310645,35.1877308433,100
                135.6169606561,35.1876763232,100
                135.6174145287,35.1875957373,100
                135.6178791252,35.1875701696,100
                135.6181753558,35.1873854206,100
                135.6184627954,35.1869644763,100
                135.6186231939,35.1862224283,100
                135.6186734427,35.1859899494,100
                135.618949296,35.1852821994,100
                135.6190390662,35.1843864911,100
                135.6190637023,35.1842820062,100
                135.6198417548,35.1841402433,100
                135.6202091305,35.1841294821,100
                135.6203139673,35.1841264113,100
                135.6208833288,35.1839984054,100
                135.6214467595,35.183965927,100
                135.6218297793,35.1840076947,100
                135.6220078778,35.1829995913,100
                135.6222389495,35.1824117023,100
                135.6220705571,35.1821370779,100
                135.6221950218,35.1820165861,100
                135.6218135391,35.1817974178,100
                135.6214675122,35.1815926123,100
                135.6208305052,35.1811507203,100
                135.6204858452,35.1806452176,100
                135.621287239,35.1794791664,100
                135.6217088331,35.178765688,100
                135.622384431,35.1794095971,100
                135.6230461678,35.1797253195,100
                135.6239864444,35.1798056438,100
                135.624005036,35.1797751272,100
                135.6243735436,35.1797420123,100
                135.6247958214,35.1795981794,100
                135.6251645416,35.1791585199,100
                135.6254425893,35.1786176246,100
                135.6263321489,35.1778442012,100
                135.6268665915,35.177486463,100
                135.6272196165,35.1772778643,100
                135.6276054686,35.1771827912,100
                135.6278280458,35.1772510761,100
                135.6279648041,35.1773587649,100
                135.6280367942,35.1774635524,100
                135.6282966359,35.177392362,100
                135.6285281881,35.1773289205,100
                135.6287832858,35.1777335461,100
                135.6294337698,35.1776237309,100
                135.6296790561,35.1775253108,100
                135.6303056647,35.1775975132,100
                135.6305756876,35.1773693562,100
                135.6307004345,35.1771626214,100
                135.6308037858,35.1766966555,100
                135.6307172154,35.1759247493,100
                135.6305265983,35.1758304234,100
                135.6302820042,35.175531304,100
                135.6301251902,35.1753521819,100
                135.6301260635,35.1753511039,100
                135.6301214255,35.1753487251,100
                135.6297138365,35.1749174987,100
                135.6300095106,35.174941619,100
                135.6304067255,35.1748961536,100
                135.6308852706,35.1747812855,100
                135.6312486469,35.1746940607,100
                135.6312252167,35.1746064768,100
                135.6311233853,35.1742258287,100
                135.6309531034,35.1737592631,100
                135.6306053248,35.1734562261,100
                135.630259607,35.1734281382,100
                135.629937165,35.1733514408,100
                135.6303971148,35.1726343701,100
                135.6304950886,35.1725769733,100
                135.6307090699,35.1723567631,100
                135.6313304334,35.1721233584,100
                135.6312537952,35.1723205461,100
                135.6313169154,35.1724451371,100
                135.6317826281,35.1726457622,100
                135.6320735498,35.1728963399,100
                135.6323867191,35.173082981,100
                135.632567112,35.1730078008,100
                135.6329433441,35.1733325516,100
                135.6331953301,35.1734522988,100
                135.6335585458,35.1734957548,100
                135.6339083999,35.1735815383,100
                135.6342243008,35.1736482885,100
                135.6345822536,35.1738882414,100
                135.6348467112,35.1741639741,100
                135.6353456548,35.1745404695,100
                135.635732932,35.1748481189,100
                135.6359992928,35.1752668109,100
                135.6359959139,35.1752810917,100
                135.6359715388,35.1755938485,100
                135.6360144617,35.1762724558,100
                135.6361781312,35.1766649323,100
                135.6363207908,35.1769991958,100
                135.6367483868,35.1770957481,100
                135.6367563479,35.1771019005,100
                135.6369160852,35.1766626516,100
                135.6371942539,35.1760739341,100
                135.6375417932,35.1751897477,100
                135.6375906803,35.1743118847,100
                135.6375885402,35.173552861,100
                135.6378775419,35.172993021,100
                135.6377599839,35.1725158067,100
                135.6379626718,35.1721107583,100
                135.6389371068,35.1719576989,100
                135.639111239,35.1718378538,100
                135.6391705489,35.1717970313,100
                135.6387639305,35.1706455827,100
                135.6384561451,35.1697369133,100
                135.6378506379,35.1686137119,100
                135.6374903181,35.1681646204,100
                135.6367552671,35.1678072597,100
                135.6359872154,35.166529692,100
                135.6361550243,35.1664116888,100
                135.6362439078,35.1662435223,100
                135.6363658322,35.1654677379,100
                135.6361613286,35.1650362345,100
                135.6357733401,35.1646429445,100
                135.6357013332,35.1642884595,100
                135.6357630089,35.1634836494,100
                135.6356206297,35.1631559974,100
                135.6356412513,35.1629577401,100
                135.63584442,35.1626843065,100
                135.6358089343,35.1617557069,100
                135.6353724248,35.1616687634,100
                135.6351565517,35.1615824794,100
                135.6350576986,35.1614083089,100
                135.6350716425,35.1613444407,100
                135.6350089245,35.1609492227,100
                135.634907134,35.1606826444,100
                135.6350514958,35.1602640628,100
                135.6350534031,35.1602585363,100
                135.6363813569,35.1602001885,100
                135.6362787654,35.1597615029,100
                135.6362577444,35.1593868298,100
                135.636257015,35.159373827,100
                135.6361754273,35.158349057,100
                135.6361990715,35.1579934643,100
                135.6362348812,35.1579076612,100
                135.6362720588,35.1577981195,100
                135.6363524556,35.1575610954,100
                135.636407416,35.1574014784,100
                135.6364228027,35.1573567891,100
                135.6366180389,35.1567899516,100
                135.6367066467,35.1566263349,100
                135.6367186095,35.155845421,100
                135.6366017073,35.1555247073,100
                135.6364416685,35.1552928133,100
                135.6364393284,35.155290967,100
                135.6364076132,35.1552659783,100
                135.6363363406,35.1552098198,100
                135.6362357906,35.1551805761,100
                135.6360993137,35.1551844663,100
                135.6353773289,35.1549935729,100
                135.6354368219,35.1546908647,100
                135.6357409266,35.1546764466,100
                135.6362484162,35.1545878131,100
                135.6370288473,35.1543305159,100
                135.6376236363,35.1546126307,100
                135.6382789432,35.154861569,100
                135.6385822661,35.1552825419,100
                135.6387680995,35.155591536,100
                135.6387989425,35.1555899865,100
                135.6388288022,35.1556366394,100
                135.6393959043,35.1557239523,100
                135.6399415611,35.1559491214,100
                135.6403682321,35.1557664816,100
                135.6406773002,35.1555504304,100
                135.6408423175,35.1555334983,100
                135.641194076,35.1554137372,100
                135.6416448857,35.1554379732,100
                135.64300239,35.1552955334,100
                135.6431619343,35.1552049525,100
                135.6444058004,35.155147278,100
                135.6451977054,35.155026981,100
                135.6456414203,35.1549633629,100
                135.6460901427,35.15501244,100
                135.6464437981,35.1547024595,100
                135.6466159216,35.1542520952,100
                135.6466552945,35.1542471817,100
                135.6467802217,35.1540543799,100
                135.646912744,35.1538636531,100
                135.6472212874,35.1538375008,100
                135.6472081444,35.1537031292,100
                135.6472083617,35.1533903869,100
                135.6472521855,35.1532795857,100
                135.6473131092,35.1531491421,100
                135.6472925202,35.1530501724,100
                135.6472732442,35.1529940948,100
                135.6470723521,35.152800451,100
                135.6469664163,35.1526727567,100
                135.6469493135,35.1526521419,100
                135.6470051904,35.1519834865,100
                135.6467642017,35.1516086895,100
                135.6465305367,35.150798513,100
                135.6467643735,35.1500041087,100
                135.6467391698,35.1492125627,100
                135.6473025342,35.1478322667,100
                135.6482832983,35.1468958069,100
                135.6482825193,35.14629634,100
                135.6475904459,35.1456597064,100
                135.6468428256,35.1441548395,100
                135.6465747411,35.1439683724,100
                135.6462181205,35.143954724,100
                135.6461172016,35.1439436155,100
                135.6454908542,35.1438714944,100
                135.6451059699,35.1437946605,100
                135.6447140584,35.1438214693,100
                135.6445501785,35.1439039257,100
                135.6441717372,35.1438604605,100
                135.6439785014,35.143879731,100
                135.6430696212,35.1431559448,100
                135.6430710864,35.1428161103,100
                135.6433041517,35.1419586289,100
                135.6422353366,35.1419347805,100
                135.6410897615,35.140630669,100
                135.6407868969,35.1411300749,100
                135.6392058595,35.1425569,100
                135.6380599245,35.1426927903,100
                135.6377224284,35.1427328097,100
                135.6373140179,35.1425170616,100
                135.6372859602,35.1424079059,100
                135.6380834326,35.1419067809,100
                135.6382780084,35.1416931031,100
                135.6383925329,35.1415009724,100
                135.6385422301,35.1412307734,100
                135.63854789,35.1409944466,100
                135.6383980499,35.1407671683,100
                135.638053461,35.1404743132,100
                135.6379973921,35.1404178732,100
                135.637686953,35.1401461808,100
                135.6375058099,35.1399754299,100
                135.6374208936,35.1398959509,100
                135.6372096436,35.1397580689,100
                135.6370093777,35.1396659948,100
                135.6367199062,35.1395736565,100
                135.6364300766,35.1395636412,100
                135.6359948707,35.1396538307,100
                135.6349684932,35.1398063439,100
                135.6337964526,35.1401230619,100
                135.6335849005,35.1401994727,100
                135.6331934425,35.1403408383,100
              </coordinates>
            </LinearRing>
          </outerBoundaryIs>
        </Polygon>
      </Placemark>
    </Document>
  </Document>
</kml>
