<?xml version="1.0" encoding="UTF-8"?>
<kml xmlns="http://www.opengis.net/kml/2.2">
  <Document id="root_doc">
    <Document id="_0_28______disv4326">
      <name>40_28細野disv4326</name>
      <Placemark id="_0_28______disv4326.1">
        <visibility>1</visibility>
        <Polygon>
          <extrude>0</extrude>
          <outerBoundaryIs>
            <LinearRing>
              <coordinates>
                135.6138138604,35.1261086087,100
                135.6138472687,35.1261449923,100
                135.6138779593,35.1262136146,100
                135.6146155288,35.1271541662,100
                135.6152247956,35.1280950205,100
                135.6152724039,35.1281685355,100
                135.6152869798,35.129042959,100
                135.6155584161,35.1296621834,100
                135.6159613025,35.1300952255,100
                135.6159821701,35.1303269559,100
                135.6161611341,35.130776423,100
                135.6160865945,35.1309952348,100
                135.6157436806,35.1313502219,100
                135.6155832343,35.1321078134,100
                135.615416418,35.1323479689,100
                135.6146336013,35.132673628,100
                135.6144934977,35.132705929,100
                135.6139547169,35.1328301419,100
                135.6138332399,35.1329947193,100
                135.6138707806,35.1336492669,100
                135.613807622,35.1342485109,100
                135.6138616377,35.1345895551,100
                135.6138630469,35.1345984356,100
                135.6141806849,35.1349600033,100
                135.6142532062,35.135174769,100
                135.6142147659,35.1354162285,100
                135.6139511614,35.1359355159,100
                135.6138629835,35.1364878076,100
                135.6136853439,35.1369289401,100
                135.613306152,35.1379959168,100
                135.6133721318,35.1389589087,100
                135.6133779853,35.1389566082,100
                135.6133796031,35.138952547,100
                135.6133861868,35.1389543894,100
                135.6133946658,35.1389944544,100
                135.6136158164,35.1390186375,100
                135.6136375736,35.1390247257,100
                135.6136420538,35.1390230299,100
                135.6138875456,35.1390275281,100
                135.6139659698,35.1390205859,100
                135.6143242711,35.1389601648,100
                135.6147013444,35.1388548575,100
                135.6153345808,35.1388487373,100
                135.6157531505,35.1387508969,100
                135.616090322,35.1384562908,100
                135.6169362538,35.13801905,100
                135.617271941,35.1375693908,100
                135.6178860343,35.1371909098,100
                135.6180951301,35.1370626591,100
                135.6187412669,35.1371115462,100
                135.6189680446,35.1369563056,100
                135.6195252534,35.1367750492,100
                135.6199183337,35.1369673712,100
                135.6202220784,35.1378635834,100
                135.6204337028,35.1381609612,100
                135.6207988965,35.1387616133,100
                135.6208438217,35.1388001307,100
                135.6222276962,35.1394139851,100
                135.6222595871,35.1393949437,100
                135.6225205936,35.1393139871,100
                135.6227737253,35.1392770207,100
                135.6231417676,35.1392530136,100
                135.6234635878,35.1392791459,100
                135.6237162639,35.1393428125,100
                135.6240299097,35.139488498,100
                135.6242898595,35.1396402855,100
                135.6248321712,35.140069705,100
                135.6261389952,35.1409480899,100
                135.6263837235,35.1410746144,100
                135.6265598732,35.1411128995,100
                135.6269661888,35.1411016043,100
                135.627318996,35.1410649324,100
                135.6276950057,35.1409779763,100
                135.6282947541,35.14075557,100
                135.6288126839,35.1406136189,100
                135.6291085309,35.1405823324,100
                135.6294203377,35.1407117308,100
                135.6295587857,35.140744615,100
                135.6301590762,35.1409235621,100
                135.6304019119,35.1406096972,100
                135.6301566766,35.1404773478,100
                135.6301482148,35.1404061092,100
                135.6303417976,35.1400623484,100
                135.6304618947,35.1399554416,100
                135.6308767597,35.1399467778,100
                135.6309598795,35.1397640386,100
                135.6309244712,35.1395880993,100
                135.6309094169,35.1395132894,100
                135.6308719499,35.1393013406,100
                135.6309462566,35.1391257861,100
                135.6314947462,35.1391752148,100
                135.631519736,35.1397260628,100
                135.6314824845,35.1401346461,100
                135.6314609043,35.140371309,100
                135.6313978182,35.1407380005,100
                135.6315180468,35.1408483365,100
                135.6316201209,35.140901758,100
                135.6316635361,35.1408942835,100
                135.6319514807,35.1408280353,100
                135.6324226352,35.140676984,100
                135.6328025273,35.1404951623,100
                135.6331934425,35.1403408383,100
                135.6335849005,35.1401994727,100
                135.6337964526,35.1401230619,100
                135.6349684932,35.1398063439,100
                135.6359948707,35.1396538307,100
                135.6364300766,35.1395636412,100
                135.6367199062,35.1395736565,100
                135.6370093777,35.1396659948,100
                135.6372096436,35.1397580689,100
                135.6374208936,35.1398959509,100
                135.6375058099,35.1399754299,100
                135.637686953,35.1401461808,100
                135.6379973921,35.1404178732,100
                135.638053461,35.1404743132,100
                135.6383980499,35.1407671683,100
                135.63854789,35.1409944466,100
                135.6385422301,35.1412307734,100
                135.6383925329,35.1415009724,100
                135.6382780084,35.1416931031,100
                135.6380834326,35.1419067809,100
                135.6372859602,35.1424079059,100
                135.6373140179,35.1425170616,100
                135.6377224284,35.1427328097,100
                135.6380599245,35.1426927903,100
                135.6392058595,35.1425569,100
                135.6407868969,35.1411300749,100
                135.6410897615,35.140630669,100
                135.6422353366,35.1419347805,100
                135.6433041517,35.1419586289,100
                135.6430710864,35.1428161103,100
                135.6430696212,35.1431559448,100
                135.6439785014,35.143879731,100
                135.6441717372,35.1438604605,100
                135.6445501785,35.1439039257,100
                135.6447140584,35.1438214693,100
                135.6451059699,35.1437946605,100
                135.6454908542,35.1438714944,100
                135.6461172016,35.1439436155,100
                135.6462181205,35.143954724,100
                135.6465747411,35.1439683724,100
                135.6468428256,35.1441548395,100
                135.6475904459,35.1456597064,100
                135.6482825193,35.14629634,100
                135.6482832983,35.1468958069,100
                135.6473025342,35.1478322667,100
                135.6467391698,35.1492125627,100
                135.6467643735,35.1500041087,100
                135.6465305367,35.150798513,100
                135.6467642017,35.1516086895,100
                135.6470051904,35.1519834865,100
                135.6469493135,35.1526521419,100
                135.6469664163,35.1526727567,100
                135.6470723521,35.152800451,100
                135.6472732442,35.1529940948,100
                135.6472925202,35.1530501724,100
                135.6473131092,35.1531491421,100
                135.6472521855,35.1532795857,100
                135.6472083617,35.1533903869,100
                135.6472081444,35.1537031292,100
                135.6472212874,35.1538375008,100
                135.6472538574,35.1539223327,100
                135.6479807174,35.1540474904,100
                135.6482183389,35.1539756203,100
                135.6482523066,35.1539788633,100
                135.6483628301,35.1539398297,100
                135.6484400404,35.1539189586,100
                135.648446241,35.1539195306,100
                135.6484892304,35.1539235001,100
                135.6485471599,35.1539594442,100
                135.6488074849,35.1541836687,100
                135.6491619382,35.1543488509,100
                135.6506521966,35.1544270732,100
                135.6519301366,35.155144703,100
                135.6535778609,35.154842925,100
                135.6539577705,35.1545492331,100
                135.6546632748,35.1546152474,100
                135.6550798159,35.154280684,100
                135.6551687797,35.1542092277,100
                135.6556188941,35.1541888722,100
                135.6559068472,35.1540986424,100
                135.6565823149,35.1543062578,100
                135.6569636208,35.154423456,100
                135.6571980538,35.1543331631,100
                135.6583270458,35.1544234037,100
                135.6595182429,35.1545061241,100
                135.659891361,35.1545204834,100
                135.6602783847,35.1545483299,100
                135.6617258455,35.1546524613,100
                135.6630566363,35.1548427316,100
                135.6636915424,35.1550253513,100
                135.6646656793,35.1557226655,100
                135.6653485273,35.1564965644,100
                135.6654194419,35.1565035521,100
                135.6657301781,35.1565341707,100
                135.6659618888,35.1564503691,100
                135.6666580602,35.155945574,100
                135.6669367892,35.155875281,100
                135.6674314342,35.155841076,100
                135.6677175513,35.15588454,100
                135.6680208019,35.1559850249,100
                135.6681296567,35.1560285105,100
                135.6685228692,35.1560692499,100
                135.669611346,35.1558973445,100
                135.6704681349,35.1569249958,100
                135.670541485,35.1569528756,100
                135.6713725026,35.1574106496,100
                135.6718143539,35.1575613628,100
                135.6725646052,35.1577918638,100
                135.6726144799,35.1575374803,100
                135.6727571581,35.1571273566,100
                135.6733251781,35.1560614564,100
                135.6734266984,35.1557460139,100
                135.673385488,35.1554801146,100
                135.673138402,35.1549663186,100
                135.6729791777,35.1546598144,100
                135.6728721007,35.1542474599,100
                135.6727787105,35.1536457676,100
                135.67254507,35.1518272566,100
                135.6726026311,35.1513765572,100
                135.6729071562,35.150869559,100
                135.6729318078,35.1506059575,100
                135.6729069787,35.1500425654,100
                135.672706497,35.1494161565,100
                135.6728491671,35.1492471049,100
                135.6732635553,35.1491209783,100
                135.6733594888,35.1485914373,100
                135.67341428,35.148145308,100
                135.6734635777,35.1476630354,100
                135.6737104405,35.1470434099,100
                135.6736883892,35.1466896083,100
                135.673350739,35.1462253659,100
                135.6728594302,35.1458963417,100
                135.6725739596,35.1455515384,100
                135.6724229305,35.1451954829,100
                135.6723707279,35.1448574432,100
                135.672480491,35.144525408,100
                135.6725758772,35.1443064358,100
                135.6726779592,35.1442054436,100
                135.6728652214,35.1440822189,100
                135.6728716742,35.1438906806,100
                135.6727932702,35.1436493316,100
                135.6725621673,35.1432068538,100
                135.6724951549,35.1428866598,100
                135.6725418683,35.1423280364,100
                135.6725128786,35.1420845685,100
                135.6723527369,35.1417211602,100
                135.6723150126,35.1415790804,100
                135.672728911,35.1411502665,100
                135.6729719734,35.1408492296,100
                135.6730555961,35.1405948707,100
                135.6730094874,35.1399345107,100
                135.6733049299,35.139584107,100
                135.6739981664,35.1387303991,100
                135.674060447,35.138347597,100
                135.674308154,35.1382155192,100
                135.675287201,35.1378405538,100
                135.6755820542,35.137605005,100
                135.6757565064,35.1372991979,100
                135.6758021123,35.1369591684,100
                135.6756856998,35.1366365175,100
                135.675365679,35.1358602627,100
                135.6753068079,35.1355580463,100
                135.675426805,35.1351641963,100
                135.675447092,35.1349479734,100
                135.6752923234,35.134609439,100
                135.6753151361,35.1344427319,100
                135.6755497559,35.1341799726,100
                135.6755536581,35.1339433516,100
                135.6753412708,35.1336023388,100
                135.6751185239,35.1331374179,100
                135.6749504827,35.1327086319,100
                135.6746094534,35.1322995906,100
                135.6745284182,35.1320378801,100
                135.674337453,35.1318050982,100
                135.6739941871,35.1312901285,100
                135.6740223566,35.131146043,100
                135.6742980037,35.1309126943,100
                135.6744282748,35.1306585268,100
                135.674207265,35.1298465509,100
                135.6737143324,35.129626191,100
                135.6735290452,35.1293574362,100
                135.6733131359,35.1286242808,100
                135.6731688955,35.1283759198,100
                135.6731281374,35.1283372153,100
                135.6728902862,35.128111277,100
                135.6728774106,35.1279422196,100
                135.6727875987,35.1277886583,100
                135.6723606769,35.1275437546,100
                135.6722328896,35.1273044514,100
                135.6722358356,35.1267164034,100
                135.671437813,35.1265872592,100
                135.6709748467,35.1264076126,100
                135.6707406025,35.1260529438,100
                135.6704390285,35.1254435025,100
                135.6703914955,35.1250715245,100
                135.670476709,35.1245040538,100
                135.6702935382,35.1238161281,100
                135.6701691918,35.1228963094,100
                135.6700245367,35.1227358373,100
                135.669722812,35.1227009291,100
                135.669291545,35.1227736986,100
                135.6689707425,35.1227139461,100
                135.6686889196,35.1225416886,100
                135.6681708136,35.1218817891,100
                135.6676379062,35.1214315053,100
                135.6672953133,35.1213400672,100
                135.6670067215,35.1214201235,100
                135.6656936161,35.121124663,100
                135.6653131254,35.1209249412,100
                135.6649196404,35.1205900362,100
                135.664531251,35.1197909691,100
                135.6645000295,35.1194573465,100
                135.6645324335,35.1190225574,100
                135.664363346,35.1188146855,100
                135.6641416677,35.1186921649,100
                135.6637799801,35.1185781281,100
                135.6634079397,35.1183446909,100
                135.6632368072,35.1179970864,100
                135.6628013003,35.1178309387,100
                135.662603623,35.1178106269,100
                135.6625987146,35.1178068513,100
                135.6625065173,35.1177359306,100
                135.6624801429,35.1177156433,100
                135.6624756403,35.1177121799,100
                135.6624743145,35.11771116,100
                135.6624689482,35.1177070317,100
                135.6624001712,35.1176541271,100
                135.6622583805,35.1175450579,100
                135.6618706625,35.1172463683,100
                135.660879372,35.1165280712,100
                135.6598655202,35.1160064712,100
                135.6590887487,35.1164840146,100
                135.6588169959,35.1166434833,100
                135.6588115436,35.1166466825,100
                135.6585693106,35.1165790084,100
                135.6583264139,35.1166990105,100
                135.6578057107,35.1170692618,100
                135.6566844721,35.117866507,100
                135.6557157883,35.1169352298,100
                135.6541289677,35.1146944375,100
                135.6533855371,35.1149590403,100
                135.6526185413,35.1149382011,100
                135.6523550587,35.1153694055,100
                135.6523205943,35.1154131272,100
                135.6522755079,35.1154167507,100
                135.6516376683,35.1156419151,100
                135.6515602415,35.1156792316,100
                135.6507572308,35.1160666724,100
                135.6504228703,35.1165070722,100
                135.6499452401,35.1170482609,100
                135.6498586262,35.1173409114,100
                135.6497797456,35.1177304181,100
                135.6494953179,35.1180605309,100
                135.649278992,35.1184900666,100
                135.6491581666,35.1185697412,100
                135.6471919242,35.1175898926,100
                135.6472641254,35.1175473262,100
                135.6477770932,35.1170716058,100
                135.64795173,35.1167410411,100
                135.6479756263,35.1163738426,100
                135.6480678091,35.116067758,100
                135.6486786127,35.1152521607,100
                135.6488259506,35.1148944724,100
                135.64917972,35.1144203286,100
                135.6486719255,35.1139204711,100
                135.6482248012,35.1133644451,100
                135.6480944366,35.1131093418,100
                135.6479771838,35.1124486973,100
                135.6480207392,35.111998242,100
                135.6484059191,35.1112921395,100
                135.6487288131,35.1104259219,100
                135.6490222039,35.1099538583,100
                135.6497204366,35.1097221198,100
                135.6501472438,35.1099625756,100
                135.6505547862,35.1096959845,100
                135.6509583896,35.1096547419,100
                135.6512623582,35.1097707538,100
                135.6514687003,35.1096723948,100
                135.6514844847,35.1092803836,100
                135.6515872471,35.109294339,100
                135.6518766074,35.1093336852,100
                135.6526342274,35.1092870359,100
                135.6532083271,35.1091764779,100
                135.6539255561,35.1089831517,100
                135.6544908991,35.1089717924,100
                135.6546261122,35.1088303379,100
                135.6546134575,35.1086252246,100
                135.6543212075,35.1078377516,100
                135.6540950822,35.1075282272,100
                135.6538071931,35.1069638004,100
                135.6535454053,35.1066474139,100
                135.6537554433,35.1063665197,100
                135.654117548,35.105863161,100
                135.6536208552,35.1053453267,100
                135.6531600339,35.1047915348,100
                135.6529292253,35.1043310026,100
                135.6528811252,35.1040829695,100
                135.6524958839,35.1037660176,100
                135.6518876443,35.1030742585,100
                135.6516142552,35.1029317126,100
                135.6515264179,35.1028858974,100
                135.6512551465,35.1028149787,100
                135.6507557486,35.1028153823,100
                135.650564271,35.1027020131,100
                135.6503160862,35.102417137,100
                135.6501151401,35.1020175309,100
                135.650081108,35.1017087598,100
                135.6502669423,35.1013308964,100
                135.6506812298,35.1008186823,100
                135.6508612331,35.1005062264,100
                135.6510564335,35.099914367,100
                135.6512132997,35.0993087341,100
                135.6512709103,35.0987885257,100
                135.6514123873,35.098496172,100
                135.6516341656,35.0982422173,100
                135.6520831652,35.0977280537,100
                135.6521641934,35.0974534847,100
                135.6521455927,35.096818054,100
                135.6523087279,35.0965797772,100
                135.6524882583,35.0963551377,100
                135.6526159484,35.0960739404,100
                135.6526755424,35.0957001516,100
                135.652676944,35.0954297221,100
                135.6525144244,35.0950324825,100
                135.652537354,35.0948433855,100
                135.652979719,35.0942051079,100
                135.6536347075,35.0934911613,100
                135.6525231057,35.0923837293,100
                135.6523851302,35.0922217802,100
                135.6518946006,35.0916459919,100
                135.6516633871,35.0913561644,100
                135.6511077906,35.0906598294,100
                135.6503724791,35.0901503076,100
                135.6506717882,35.0879430856,100
                135.6505265514,35.0869876484,100
                135.6500337735,35.0868669832,100
                135.6489121109,35.0875135534,100
                135.6477150027,35.0880392,100
                135.6466507198,35.0888243641,100
                135.6455823688,35.0894773815,100
                135.6448264054,35.0899525736,100
                135.6441605539,35.0895928763,100
                135.6441845093,35.0907616375,100
                135.6440469714,35.091465921,100
                135.6434013217,35.0915688234,100
                135.6434642755,35.092196076,100
                135.6435894237,35.0934431301,100
                135.6425999693,35.0939100958,100
                135.6422732154,35.0943098339,100
                135.6414372894,35.0946078287,100
                135.6406916668,35.0949730204,100
                135.6402355493,35.0950297814,100
                135.6389735653,35.0950061193,100
                135.6379555928,35.0950749921,100
                135.6362313687,35.0956276551,100
                135.6359192777,35.0960371928,100
                135.6358926856,35.0960255561,100
                135.6357827988,35.0959774719,100
                135.6355991601,35.0956514168,100
                135.635596342,35.0957357785,100
                135.635405798,35.0954990728,100
                135.635224987,35.0950477385,100
                135.6350653008,35.0944127986,100
                135.6349245127,35.0940951822,100
                135.6345197201,35.0937600878,100
                135.6345419563,35.0933260523,100
                135.6345026047,35.0930421208,100
                135.6344228183,35.0927079257,100
                135.6343427768,35.092440564,100
                135.6343235079,35.0922067647,100
                135.6341013076,35.0919222889,100
                135.6339802444,35.0917382589,100
                135.6337980311,35.0916041895,100
                135.6336357562,35.0915536334,100
                135.6337592033,35.0912033531,100
                135.6337404565,35.09085272,100
                135.6337018818,35.0903851204,100
                135.6336830631,35.0900511772,100
                135.6334812938,35.0897499998,100
                135.6331375627,35.0893983968,100
                135.6327948352,35.0888130531,100
                135.6328778157,35.0884292704,100
                135.6327568313,35.0882285484,100
                135.6326153174,35.0880779084,100
                135.6325962038,35.0878107275,100
                135.632435429,35.087426216,100
                135.6320301533,35.0872079522,100
                135.6317666573,35.0870903264,100
                135.6318694565,35.0868068202,100
                135.6319110379,35.0865898929,100
                135.6319325089,35.0863395223,100
                135.6319948461,35.0860224384,100
                135.6324632725,35.0857400218,100
                135.6329728259,35.0853408898,100
                135.6330967149,35.0848904608,100
                135.6334834635,35.0847079429,100
                135.6336674445,35.0844413642,100
                135.6338514994,35.0841580945,100
                135.6338936393,35.083824328,100
                135.6345867806,35.0832419926,100
                135.634588711,35.08280789,100
                135.6353621349,35.0824429226,100
                135.6359324648,35.0820773465,100
                135.6363806975,35.0817614077,100
                135.6365636276,35.0817285683,100
                135.6369502795,35.0815627344,100
                135.6373175406,35.0811798578,100
                135.6375823929,35.0809969699,100
                135.6379083796,35.0807641894,100
                135.6383351149,35.0807153774,100
                135.6386003107,35.0804490326,100
                135.6386020735,35.0800483102,100
                135.6389889105,35.0798323966,100
                135.6391736161,35.0793989025,100
                135.63960018,35.079383467,100
                135.6399458923,35.0792842668,100
                135.6402521456,35.078917892,100
                135.6405375088,35.0786849839,100
                135.6409029877,35.0787027471,100
                135.6412686353,35.0786871275,100
                135.6422658354,35.0782225522,100
                135.6429166852,35.0780073946,100
                135.6437106228,35.0775755942,100
                135.6440775663,35.0772594575,100
                135.6442818929,35.07697623,100
                135.6440587075,35.0769255082,100
                135.6440188066,35.0767584097,100
                135.6442837717,35.0765421237,100
                135.6442032615,35.0763749069,100
                135.6438992762,35.0762238034,100
                135.643574631,35.076156094,100
                135.6433313433,35.0760551683,100
                135.6430677004,35.0759709445,100
                135.6426818334,35.0759698197,100
                135.6424175172,35.0760358139,100
                135.6421125963,35.0761016878,100
                135.6418482996,35.0761677512,100
                135.6417673584,35.0761006788,100
                135.641870495,35.0757337034,100
                135.6418126029,35.0753751311,100
                135.641595787,35.0749902472,100
                135.6414491009,35.0745637346,100
                135.641463496,35.0742043172,100
                135.6417152313,35.0740803278,100
                135.6421032702,35.0735805847,100
                135.6424508441,35.0730473392,100
                135.6425646685,35.0727425114,100
                135.6426638742,35.0725984247,100
                135.6426142449,35.0726096897,100
                135.6425640103,35.0724560116,100
                135.6419885749,35.0720636031,100
                135.6420739301,35.0719522255,100
                135.6420076018,35.0715891916,100
                135.6419437581,35.0713687796,100
                135.641976517,35.0709331425,100
                135.6419153106,35.070519768,100
                135.6417199676,35.0700800139,100
                135.6417502607,35.0695464054,100
                135.641642095,35.0692308574,100
                135.6416114025,35.0690201896,100
                135.6417490644,35.0687335309,100
                135.6417326647,35.0684623381,100
                135.6417206599,35.0673179307,100
                135.6417573945,35.0666760944,100
                135.6415042605,35.0663404003,100
                135.6412859211,35.0658095129,100
                135.6412197825,35.0654045736,100
                135.6412376157,35.0652092599,100
                135.6406616346,35.0649563536,100
                135.6405782816,35.0649691376,100
                135.6403049621,35.0650111534,100
                135.6401244,35.0649820283,100
                135.6398639764,35.0649400611,100
                135.6397283758,35.0648977571,100
                135.6394743823,35.0647574912,100
                135.6390675426,35.0646446625,100
                135.6390230146,35.0646518554,100
                135.638727831,35.0646994373,100
                135.6383881379,35.0647542816,100
                135.6378787624,35.0647946078,100
                135.6373356513,35.0647929972,100
                135.6371822087,35.0645679469,100
                135.6368091988,35.0643220314,100
                135.6367946186,35.0643169173,100
                135.636723027,35.0642651512,100
                135.6367026991,35.0642517799,100
                135.6366903238,35.064241531,100
                135.6358640964,35.0636443073,100
                135.6356617781,35.0633366377,100
                135.6356120376,35.0630713272,100
                135.6357826825,35.0628625244,100
                135.6357837435,35.062623495,100
                135.6355769123,35.062291303,100
                135.6352846058,35.0620358322,100
                135.6348718186,35.0617259809,100
                135.6345620777,35.0621527656,100
                135.6343608882,35.0622940087,100
                135.6341381235,35.0623743378,100
                135.6337973158,35.0624475522,100
                135.6336165009,35.0626191389,100
                135.6336134585,35.0626193411,100
                135.6338037604,35.0630757903,100
                135.6338220474,35.0635266558,100
                135.633538174,35.0634423507,100
                135.6331930872,35.0634079369,100
                135.6328074764,35.0634859588,100
                135.6327614766,35.063498709,100
                135.6326942389,35.0634868651,100
                135.6326819872,35.0634864257,100
                135.6324761853,35.0634551013,100
                135.6323288493,35.0634428049,100
                135.632279532,35.0634660492,100
                135.6322315159,35.0635059564,100
                135.6322308006,35.0635077386,100
                135.63221397,35.0635202233,100
                135.6321432394,35.0635919178,100
                135.6321057513,35.0636183134,100
                135.6320337611,35.0636686749,100
                135.6319868736,35.0636932441,100
                135.6318648255,35.0637446487,100
                135.6318607505,35.0637438211,100
                135.6318524402,35.0637483404,100
                135.6317814648,35.0637694969,100
                135.6317800535,35.0637709882,100
                135.6316735257,35.0637706685,100
                135.6316685424,35.0637694436,100
                135.6314494209,35.0637501147,100
                135.6312727473,35.0637301491,100
                135.6311483489,35.0637025505,100
                135.6311469397,35.0637031085,100
                135.6311391508,35.0637004721,100
                135.6311000005,35.0636916236,100
                135.6310698413,35.0636819283,100
                135.6309873437,35.063654966,100
                135.6308916745,35.0636244146,100
                135.6307979804,35.0635994521,100
                135.630750713,35.0635868579,100
                135.63075062,35.0635865572,100
                135.6307497425,35.0635865997,100
                135.6307407299,35.0635841984,100
                135.6307149764,35.0635824521,100
                135.6306564795,35.063579192,100
                135.6305984634,35.0635814956,100
                135.6305304249,35.063589286,100
                135.6305115653,35.06359471,100
                135.6304982904,35.0635987582,100
                135.6304765211,35.0636053954,100
                135.630453045,35.063620426,100
                135.6304172559,35.0636436046,100
                135.6304165104,35.0636436211,100
                135.6304000964,35.0636566999,100
                135.6303795676,35.0636765945,100
                135.6303274563,35.0637268013,100
                135.6302990329,35.0637492516,100
                135.6302380739,35.0637973992,100
                135.6301548338,35.0638586706,100
                135.6300829226,35.0639107011,100
                135.63007979,35.0639119159,100
                135.6300741572,35.0639164024,100
                135.629785018,35.0641042618,100
                135.6296775746,35.0641926665,100
                135.6296106301,35.0642674511,100
                135.6295697767,35.064359779,100
                135.62954087,35.0644592016,100
                135.6295148782,35.0645685546,100
                135.6294778425,35.064732374,100
                135.6294255017,35.0648599131,100
                135.6293664674,35.0649334537,100
                135.629312169,35.0649789727,100
                135.6293073604,35.0649808361,100
                135.6292891479,35.0649934642,100
                135.6290302228,35.0651086404,100
                135.628685285,35.0652462529,100
                135.6285246915,35.0652947072,100
                135.6284149531,35.0653158698,100
                135.6283841626,35.0653249652,100
                135.6282295451,35.0653210035,100
                135.6282174214,35.0653213745,100
                135.6274995355,35.0651271207,100
                135.6273304479,35.0651034304,100
                135.6272418449,35.0650859361,100
                135.6271740722,35.0650821846,100
                135.6270566607,35.0650933026,100
                135.6269851069,35.0651060907,100
                135.6269396145,35.0651330462,100
                135.6269154156,35.0651586668,100
                135.6268989321,35.0651764163,100
                135.6267460603,35.0654069707,100
                135.6266599876,35.0655465354,100
                135.626660523,35.0655493173,100
                135.6266401435,35.0655776554,100
                135.6266244104,35.0656044659,100
                135.6265241944,35.0657677361,100
                135.6264706539,35.0658532653,100
                135.6264669421,35.0658613103,100
                135.6264197829,35.0659386441,100
                135.6263729687,35.0660650569,100
                135.6263634234,35.0660857502,100
                135.6263455068,35.0661674361,100
                135.6262931753,35.066586932,100
                135.6262264223,35.0668898151,100
                135.6261235894,35.0673189344,100
                135.6260573487,35.0675323197,100
                135.6260070351,35.0676107926,100
                135.6259053637,35.0677000456,100
                135.6258985277,35.0677084084,100
                135.6258232748,35.0677734475,100
                135.6257648911,35.0678531711,100
                135.6257551328,35.0679061824,100
                135.625754131,35.0679116238,100
                135.6257546001,35.067992366,100
                135.6257845391,35.0681306392,100
                135.6257858963,35.0683374249,100
                135.6257717424,35.0686269266,100
                135.6257708574,35.0686330258,100
                135.6257713314,35.0686353431,100
                135.6258060154,35.0688053939,100
                135.6258085377,35.0688093697,100
                135.6258081807,35.068815765,100
                135.6258218318,35.068847798,100
                135.6258606586,35.0689247225,100
                135.6259233994,35.0690402749,100
                135.6259465577,35.0691157111,100
                135.6259585324,35.0692073612,100
                135.6259460957,35.0693195321,100
                135.625909979,35.0694397493,100
                135.625880671,35.0695160017,100
                135.6258329652,35.0695977771,100
                135.6257411322,35.0697693132,100
                135.6257284225,35.0697862734,100
                135.625691853,35.0698779543,100
                135.6257125035,35.0699219459,100
                135.6257125323,35.0699250442,100
                135.6257275582,35.0699472004,100
                135.625732526,35.0699605748,100
                135.6257996385,35.0700698331,100
                135.6258276806,35.0701151985,100
                135.6258767895,35.0701960751,100
                135.6259360306,35.0703022815,100
                135.6259913062,35.070401378,100
                135.625925044,35.070433988,100
                135.6258656902,35.0704638548,100
                135.6258593667,35.0704663054,100
                135.6257565478,35.0705151953,100
                135.6256655574,35.070570486,100
                135.6255809438,35.0706221527,100
                135.6255799069,35.0706220549,100
                135.6255795128,35.0706229109,100
                135.6255661156,35.0706312069,100
                135.6254932127,35.070712168,100
                135.6254841231,35.0708238062,100
                135.6254854767,35.0708267997,100
                135.6254835077,35.0708310677,100
                135.6254819863,35.0711650294,100
                135.6254248904,35.071198285,100
                135.6253800097,35.0712490022,100
                135.6253752662,35.0712937553,100
                135.6253738325,35.0712955622,100
                135.6253744862,35.0712964671,100
                135.6253721013,35.0713147644,100
                135.6255000297,35.0715088281,100
                135.6256371653,35.0717191394,100
                135.6257291167,35.0719140471,100
                135.6257487014,35.0719455918,100
                135.6257507068,35.0719453701,100
                135.6257509117,35.0719459402,100
                135.6257533554,35.071949118,100
                135.6257630809,35.0719617684,100
                135.6257847068,35.0719901011,100
                135.6258010608,35.072011403,100
                135.6258007473,35.0720418844,100
                135.6258007168,35.0720869634,100
                135.6258002917,35.0721608057,100
                135.625798088,35.0721672393,100
                135.6257913906,35.0721876857,100
                135.6257819739,35.0722158351,100
                135.6257817551,35.072215961,100
                135.6257811003,35.0722179464,100
                135.6257679246,35.0722579227,100
                135.6256455535,35.0722683701,100
                135.6255228144,35.072279685,100
                135.6255219505,35.0722792097,100
                135.6255163267,35.0722805384,100
                135.6254135381,35.0722908296,100
                135.6252737898,35.0723032824,100
                135.625224486,35.0723172906,100
                135.6251269507,35.0723436204,100
                135.625125327,35.0723452561,100
                135.6250503315,35.0723655913,100
                135.6250467249,35.0723685311,100
                135.624897986,35.0724521846,100
                135.6248642466,35.0725140819,100
                135.6248649194,35.0725168328,100
                135.6248634556,35.0725180273,100
                135.6247903887,35.0726539187,100
                135.6247858891,35.0726672818,100
                135.6247545359,35.0727351022,100
                135.6246724248,35.0729268546,100
                135.6246372127,35.0731140421,100
                135.6245375588,35.0735629683,100
                135.6245326183,35.0735710144,100
                135.6245427565,35.0735859259,100
                135.6246323165,35.0737077531,100
                135.6247221807,35.0738327669,100
                135.6248381451,35.0740102182,100
                135.624852955,35.0741026885,100
                135.6248551134,35.0741047396,100
                135.6248612347,35.0741921181,100
                135.6248172153,35.0743053167,100
                135.624717177,35.0744693232,100
                135.6246483791,35.0745459344,100
                135.6246476943,35.0745469876,100
                135.6246398501,35.074549252,100
                135.6245911471,35.0745723579,100
                135.6244414227,35.0746398769,100
                135.6243021343,35.0746916965,100
                135.6242873908,35.0746978419,100
                135.6242876977,35.0747014071,100
                135.6242844855,35.0747075036,100
                135.6242597009,35.0747357423,100
                135.6242124998,35.0747895283,100
                135.6241488989,35.0748620005,100
                135.6240999812,35.0749170604,100
                135.6240229999,35.0749775327,100
                135.6239960438,35.0749961674,100
                135.6239436657,35.075029876,100
                135.6238708985,35.0750785364,100
                135.6237859281,35.0751348102,100
                135.6236683278,35.0752085715,100
                135.6235432745,35.0752864839,100
                135.6234825721,35.0753649064,100
                135.6234647795,35.0753880863,100
                135.6234644852,35.0753882043,100
                135.6234555173,35.0753997709,100
                135.6234561859,35.075401965,100
                135.6234609632,35.0754231596,100
                135.6234663198,35.0754477938,100
                135.6234665641,35.0754480757,100
                135.6234754021,35.0755022648,100
                135.6235056462,35.0755500617,100
                135.6235617244,35.0756587573,100
                135.6235702802,35.0756674368,100
                135.6236098234,35.0757358858,100
                135.6236338622,35.0758089443,100
                135.6236403741,35.0759506352,100
                135.6236527131,35.0761253188,100
                135.6236624301,35.076179351,100
                135.6236834117,35.0762528591,100
                135.6236920161,35.0763179114,100
                135.6236869284,35.0763851205,100
                135.6236753435,35.0764437599,100
                135.6236497294,35.0765252529,100
                135.623651797,35.0765474263,100
                135.6236701623,35.0766247767,100
                135.6236881707,35.0767958716,100
                135.6236983638,35.0769289688,100
                135.6236950977,35.0770720674,100
                135.6236248917,35.077197073,100
                135.6235759068,35.0772772515,100
                135.6235742296,35.0772799958,100
                135.6235179304,35.0773656139,100
                135.6235106636,35.0774321373,100
                135.6235117252,35.0774335755,100
                135.623511112,35.0774350664,100
                135.623522723,35.0777641258,100
                135.6235503806,35.0778824791,100
                135.6235807829,35.0781689451,100
                135.6235815333,35.0781715384,100
                135.6235795027,35.078244368,100
                135.6234624906,35.0784494953,100
                135.6234628499,35.0784550853,100
                135.6233586874,35.0786871102,100
                135.6234039164,35.0788228578,100
                135.6234766914,35.0790784172,100
                135.6234772562,35.0790848789,100
                135.6235010423,35.0793573375,100
                135.6234943655,35.0794735247,100
                135.6234927625,35.0798241716,100
                135.6232726496,35.0803156362,100
                135.6232543688,35.0803595966,100
                135.6228786514,35.0808741045,100
                135.622788046,35.0812123658,100
                135.6227133441,35.0814913055,100
                135.6226378497,35.081765666,100
                135.6226307054,35.0817916314,100
                135.621755458,35.0831535199,100
                135.6217291534,35.083508457,100
                135.6215655979,35.0837416992,100
                135.6215143241,35.0838068265,100
                135.6206870777,35.0848576436,100
                135.6205641277,35.0850910092,100
                135.6204589078,35.0858920653,100
                135.6201321659,35.0862750909,100
                135.6198870256,35.0865748432,100
                135.6198043393,35.0868917846,100
                135.619843639,35.0871757204,100
                135.6197009924,35.0872754953,100
                135.6196595341,35.0874589667,100
                135.6195565734,35.0877592253,100
                135.6192303575,35.0880253408,100
                135.6190265937,35.0881582372,100
                135.6190243627,35.0881886019,100
                135.6190174781,35.088554904,100
                135.6190011316,35.0888267527,100
                135.6189777916,35.0891233927,100
                135.6189447702,35.0892878079,100
                135.6189398077,35.0893600618,100
                135.6188688681,35.0895328117,100
                135.6188049308,35.0896543514,100
                135.6187245033,35.0898222087,100
                135.618602018,35.0900208551,100
                135.61847106,35.0901797018,100
                135.6183525361,35.0902477138,100
                135.6182227045,35.0903072373,100
                135.6178513956,35.0904840489,100
                135.6178349346,35.0905447194,100
                135.6178018981,35.0906664833,100
                135.6178002317,35.0906687075,100
                135.6177963845,35.0906880577,100
                135.6177647503,35.0908079629,100
                135.6177366491,35.0908553304,100
                135.6177039166,35.0909105711,100
                135.6176494414,35.0909523662,100
                135.617611891,35.0909811229,100
                135.6175248137,35.091048588,100
                135.6174547906,35.0911033722,100
                135.6173576225,35.0911787529,100
                135.6172916498,35.0912299332,100
                135.6172096953,35.0912939885,100
                135.6171589323,35.0913328678,100
                135.6170704864,35.0914018375,100
                135.6169901051,35.0914640775,100
                135.6169702239,35.0914959756,100
                135.6169704185,35.0914970342,100
                135.6168475546,35.0916976266,100
                135.6168450622,35.0917016953,100
                135.6168059171,35.0917590913,100
                135.6167240034,35.092077623,100
                135.6167326352,35.0921785977,100
                135.6167349813,35.0921809566,100
                135.6167345414,35.092182844,100
                135.6167525596,35.0924617291,100
                135.6166536018,35.0927058708,100
                135.616658289,35.0927235649,100
                135.616666753,35.0927306278,100
                135.6167596649,35.0931504595,100
                135.6168045221,35.0932755566,100
                135.6170382847,35.094200747,100
                135.6172020786,35.0948601354,100
                135.6171987209,35.094880249,100
                135.6172646301,35.0950763725,100
                135.6171934512,35.0958638463,100
                135.6170047046,35.0960893209,100
                135.617016062,35.0968169794,100
                135.6170879417,35.0972046813,100
                135.6171486728,35.097397823,100
                135.6171513995,35.097401592,100
                135.6171981418,35.0975311681,100
                135.6173153247,35.0976453485,100
                135.617358362,35.0977129281,100
                135.6174278861,35.0978635491,100
                135.6174337292,35.0978769687,100
                135.6174967378,35.0983043529,100
                135.6175712449,35.0988208642,100
                135.6175832006,35.0988669983,100
                135.6176073134,35.0989744308,100
                135.6176336352,35.0990836737,100
                135.6176472796,35.099211756,100
                135.6176345697,35.0993211606,100
                135.6176358965,35.0993344689,100
                135.6176319264,35.0994681739,100
                135.6176352994,35.0994917962,100
                135.6176616872,35.0996221011,100
                135.6176656445,35.0996275707,100
                135.6176940262,35.0997685196,100
                135.6177309394,35.099914495,100
                135.6177406566,35.0999487716,100
                135.6177806044,35.1000279624,100
                135.6177832632,35.100028906,100
                135.6177843412,35.100032052,100
                135.6178225584,35.100081053,100
                135.6178427494,35.1000967887,100
                135.6180101285,35.1002500218,100
                135.6181221424,35.1003321876,100
                135.6182336881,35.100395619,100
                135.6183133032,35.1004376025,100
                135.6183378493,35.1004639136,100
                135.6183513658,35.100498587,100
                135.6183500362,35.100499598,100
                135.6183550147,35.1005176304,100
                135.6183436031,35.1005374987,100
                135.6183156093,35.1005664021,100
                135.618181685,35.1006578109,100
                135.6180886119,35.1007016469,100
                135.617840446,35.1007847114,100
                135.6176874245,35.1008494683,100
                135.6176812097,35.1008553812,100
                135.6176162313,35.1008498392,100
                135.6175672625,35.100847753,100
                135.6174642118,35.1008423037,100
                135.6173602033,35.1008371033,100
                135.6172490768,35.1008239602,100
                135.6171323275,35.1008102191,100
                135.6170812707,35.1008042116,100
                135.6170789003,35.1008040095,100
                135.6170682892,35.1008027755,100
                135.6170213096,35.1007975069,100
                135.616981403,35.1007926778,100
                135.6169469293,35.1007914583,100
                135.6169276443,35.1007911074,100
                135.6169163625,35.1007901448,100
                135.6169109448,35.1007904707,100
                135.6167713743,35.1007857552,100
                135.6166271541,35.1007807561,100
                135.6166031985,35.100784637,100
                135.6166029756,35.1007849048,100
                135.6165946091,35.1007864699,100
                135.6165890457,35.100787174,100
                135.6165697901,35.1007905836,100
                135.61656051,35.1007920937,100
                135.6165481557,35.1007942879,100
                135.6165306045,35.1007972947,100
                135.6165126626,35.1008003689,100
                135.6165036467,35.1008019128,100
                135.6164956595,35.100804832,100
                135.616495559,35.1008049929,100
                135.6164953252,35.1008050368,100
                135.6164627318,35.1008173956,100
                135.6164203882,35.1008334526,100
                135.6163905815,35.1008447548,100
                135.616389751,35.1008445275,100
                135.6163884305,35.1008458774,100
                135.6163785581,35.1008497877,100
                135.6163321937,35.1008769506,100
                135.6162625333,35.1009289167,100
                135.6162231362,35.1009755424,100
                135.6161580214,35.1010468508,100
                135.6161020856,35.1011065812,100
                135.6160826832,35.1011281086,100
                135.616023898,35.101176607,100
                135.6160183762,35.1011811624,100
                135.6159994963,35.1011967374,100
                135.6159275274,35.1012370255,100
                135.6158271751,35.1012932028,100
                135.6157933065,35.1013121626,100
                135.6157892522,35.1013144283,100
                135.6157889713,35.10131462,100
                135.6157751679,35.101324065,100
                135.6157578255,35.101335933,100
                135.6157261692,35.1013575961,100
                135.6157259458,35.1013577468,100
                135.6156990858,35.1013756125,100
                135.6156607469,35.1014011101,100
                135.6156382308,35.1014160849,100
                135.6155830948,35.1014692469,100
                135.6155532706,35.1015084524,100
                135.6155535079,35.1015092512,100
                135.6155524824,35.1015099404,100
                135.6155430258,35.1015366772,100
                135.6155423267,35.1015406551,100
                135.6155411567,35.1015572482,100
                135.6155403239,35.1015763163,100
                135.6155403642,35.1015765296,100
                135.6155480162,35.1016170859,100
                135.6155491713,35.1016189203,100
                135.6155551829,35.1016373786,100
                135.6156180272,35.1017587715,100
                135.6156415334,35.1017908866,100
                135.6157151027,35.101884728,100
                135.6157189627,35.1018885195,100
                135.6157360271,35.101915615,100
                135.6158034048,35.1020023184,100
                135.615890725,35.1021359478,100
                135.6159005274,35.1021757543,100
                135.6159009542,35.1021774887,100
                135.6159042628,35.1021909209,100
                135.6159047194,35.1021927814,100
                135.6159078881,35.1022189324,100
                135.6159089217,35.1022324571,100
                135.6159081887,35.1022361525,100
                135.6158918203,35.1023186181,100
                135.6158829287,35.102363434,100
                135.615882587,35.1023651721,100
                135.6158822446,35.102366929,100
                135.6158821277,35.1023675289,100
                135.615881526,35.1023706218,100
                135.61588059,35.1023754309,100
                135.615879988,35.102378526,100
                135.6158799787,35.1023785755,100
                135.6158767787,35.1023963342,100
                135.6158299321,35.1026563448,100
                135.6158295085,35.1026612434,100
                135.6158083912,35.1029053178,100
                135.6158081454,35.1029082165,100
                135.6158133243,35.1029520948,100
                135.6158143879,35.1029611146,100
                135.6158242168,35.1030444112,100
                135.615828528,35.1030809437,100
                135.6158333969,35.1031222032,100
                135.6158335062,35.1031227279,100
                135.6158377044,35.1031429071,100
                135.6158388745,35.1031469816,100
                135.6158567813,35.1032510899,100
                135.615876932,35.1033619839,100
                135.6159027044,35.1035629568,100
                135.615932787,35.1036693217,100
                135.615980394,35.1038372387,100
                135.6159806758,35.1038386514,100
                135.6159878415,35.1038745798,100
                135.6160217544,35.1040462132,100
                135.6160315762,35.1042259372,100
                135.616031961,35.1042329546,100
                135.6160196992,35.1043216974,100
                135.6159637419,35.1044350871,100
                135.6156506663,35.1046020231,100
                135.6152355621,35.1047400187,100
                135.6150124679,35.1047813012,100
                135.6149405348,35.1047715358,100
                135.6149375072,35.1047738058,100
                135.6149024981,35.1047726094,100
                135.6148350375,35.1047588667,100
                135.6148063893,35.1047530305,100
                135.6147624466,35.1047440788,100
                135.6147621067,35.1047440095,100
                135.6147403092,35.1047395684,100
                135.6142097065,35.1046314667,100
                135.6141899836,35.1046256824,100
                135.6141801419,35.1046240594,100
                135.6135891842,35.1045589087,100
                135.6135683702,35.1045600158,100
                135.6135297218,35.1045620705,100
                135.6130903879,35.1046755763,100
                135.6126264487,35.1048584147,100
                135.6124124389,35.1049025576,100
                135.6122294932,35.1049041661,100
                135.6122118144,35.1049004958,100
                135.6122077989,35.1049078332,100
                135.6119724647,35.104935289,100
                135.6118935703,35.1049703301,100
                135.6118413492,35.1050164794,100
                135.6117975839,35.1051266092,100
                135.6116819578,35.1053327172,100
                135.6115333006,35.1054971401,100
                135.6114253112,35.1055933136,100
                135.6112361977,35.1058121437,100
                135.6110840738,35.1059136971,100
                135.6110196734,35.1059354849,100
                135.6105546029,35.1060944269,100
                135.610189583,35.1061809129,100
                135.6101450041,35.1062780838,100
                135.6100449373,35.106412336,100
                135.609832792,35.1067126851,100
                135.6098319276,35.1067132502,100
                135.6097973439,35.1067621055,100
                135.6097012238,35.1068045819,100
                135.6096971733,35.106801302,100
                135.6096924659,35.1068043776,100
                135.6095369322,35.1067727154,100
                135.6094362726,35.1067842575,100
                135.6094487266,35.1070015445,100
                135.609459335,35.1070214496,100
                135.6094628948,35.1070281299,100
                135.6094523363,35.107643497,100
                135.6095212627,35.107796361,100
                135.6096249476,35.1079636455,100
                135.6096913974,35.108121523,100
                135.6096639865,35.108297679,100
                135.6094562952,35.1084846695,100
                135.6092094711,35.1086635347,100
                135.6082982881,35.1088406944,100
                135.6080589634,35.1089079158,100
                135.6076806995,35.1091070541,100
                135.6070410627,35.1093387452,100
                135.6066829032,35.109480702,100
                135.6066455231,35.1094809762,100
                135.6065760379,35.1095175232,100
                135.605997788,35.1097380811,100
                135.605468586,35.1100821816,100
                135.6050425691,35.1107509673,100
                135.6045506802,35.1112965556,100
                135.6041847505,35.1119304186,100
                135.6041730978,35.1119301709,100
                135.6040894471,35.1120784159,100
                135.6040244751,35.1120680129,100
                135.6038652044,35.1119929664,100
                135.6037529057,35.1118678759,100
                135.6037461538,35.1118637667,100
                135.603558428,35.1116610503,100
                135.6031511912,35.1113491078,100
                135.6027248268,35.1107371264,100
                135.6022228157,35.1101277509,100
                135.6018574012,35.1100575566,100
                135.6015925796,35.1100562783,100
                135.6015055474,35.1100444905,100
                135.6007984887,35.1099616974,100
                135.6005862474,35.1101117653,100
                135.6005836683,35.1101230248,100
                135.6005728384,35.1101230408,100
                135.600391151,35.1102169245,100
                135.6003186744,35.1102314061,100
                135.6000826625,35.1102186068,100
                135.5998940886,35.1101492595,100
                135.5998607005,35.110132448,100
                135.5997590486,35.110081263,100
                135.5996403751,35.1100215069,100
                135.5995262622,35.1099787941,100
                135.5990952169,35.1099089806,100
                135.5987293014,35.1099446799,100
                135.5984501841,35.1100439378,100
                135.5979443635,35.1101479272,100
                135.5978900667,35.1101541811,100
                135.5978379725,35.1101483143,100
                135.5976315115,35.1101237637,100
                135.5973925853,35.1100953985,100
                135.5970875775,35.110250252,100
                135.5966102117,35.1105858495,100
                135.5965430982,35.1106176786,100
                135.5965046441,35.1106535397,100
                135.5965026675,35.1106564146,100
                135.5962834914,35.110818036,100
                135.5961061346,35.1109987189,100
                135.5956583183,35.1114323648,100
                135.5955556345,35.1115560589,100
                135.5955294784,35.1116171039,100
                135.5955337191,35.1117116156,100
                135.5955775193,35.1118743008,100
                135.5955296627,35.1121603484,100
                135.5954414289,35.1123460457,100
                135.5954070524,35.1125511533,100
                135.5954056568,35.1126120132,100
                135.5953780332,35.1126732225,100
                135.5952948099,35.1127125949,100
                135.5951814637,35.1127662179,100
                135.5950433088,35.1128315776,100
                135.594989879,35.1128568548,100
                135.5948034977,35.1129450289,100
                135.5947209208,35.113015034,100
                135.5944724395,35.1132256856,100
                135.5941396148,35.1135600555,100
                135.5939591344,35.1137413729,100
                135.5939459794,35.113758939,100
                135.5939016565,35.113848036,100
                135.5938918715,35.1138700086,100
                135.5938858162,35.1138836039,100
                135.5938744337,35.1139091617,100
                135.593860277,35.113940949,100
                135.5938498037,35.1139644658,100
                135.5938438531,35.1139778273,100
                135.5938325695,35.1140031632,100
                135.5938229472,35.1140247691,100
                135.5938218214,35.114027297,100
                135.5938132721,35.1140464921,100
                135.5938046909,35.1140657601,100
                135.5937937519,35.114090323,100
                135.5937801101,35.1141209539,100
                135.593768796,35.1141463584,100
                135.5937585454,35.1141693744,100
                135.593752809,35.1141793838,100
                135.5937251617,35.1142276247,100
                135.5936600578,35.114341223,100
                135.5936217548,35.1143927523,100
                135.5935798966,35.1144490634,100
                135.5935680936,35.1144642973,100
                135.5935220239,35.1145237584,100
                135.5935025842,35.1145660714,100
                135.5934976285,35.1145768554,100
                135.593495203,35.1145814562,100
                135.5934943031,35.1145831618,100
                135.5934940347,35.1145837539,100
                135.5934935295,35.1145848913,100
                135.593492463,35.1145873057,100
                135.5934924219,35.1145873988,100
                135.5934888753,35.1145954918,100
                135.5934822494,35.1146133663,100
                135.5934759621,35.1146303445,100
                135.5934736694,35.1146365389,100
                135.59340647,35.1148181454,100
                135.593252679,35.1151623408,100
                135.5927095402,35.1161150043,100
                135.5925566898,35.116303213,100
                135.5925523124,35.1163086027,100
                135.5925496758,35.1163118491,100
                135.5925225731,35.1163452215,100
                135.5921162144,35.1168455778,100
                135.5919843139,35.1170519445,100
                135.5920516975,35.1174433194,100
                135.5921085956,35.1176717413,100
                135.5921077681,35.117677842,100
                135.5920601619,35.1180289603,100
                135.5920072662,35.1181696338,100
                135.5919934033,35.11820651,100
                135.5915978496,35.1187018408,100
                135.591500476,35.1189913763,100
                135.5912945015,35.119289579,100
                135.5913287956,35.1193970202,100
                135.5914470205,35.1200468683,100
                135.5915746975,35.1204134105,100
                135.5912165427,35.1209492582,100
                135.591215327,35.121192517,100
                135.5911097215,35.1214139648,100
                135.5910587517,35.1215925529,100
                135.5910901597,35.1218431884,100
                135.5912604601,35.1226164692,100
                135.5912708834,35.1230684383,100
                135.5910217031,35.1235674829,100
                135.5907754971,35.1238168641,100
                135.590634948,35.124557728,100
                135.5912806898,35.1246518089,100
                135.5914965836,35.1247002967,100
                135.5915284229,35.1247140671,100
                135.5916235956,35.1247552402,100
                135.5916285531,35.1247574847,100
                135.5916317917,35.124758951,100
                135.5916367249,35.1247611843,100
                135.5916428517,35.1247639581,100
                135.5916519944,35.1247680974,100
                135.5916618575,35.124772563,100
                135.5916740215,35.1247780701,100
                135.5917271924,35.1248021421,100
                135.5917301896,35.1248034994,100
                135.5918141549,35.1248415323,100
                135.5919939657,35.1249229784,100
                135.5921872202,35.1250105134,100
                135.5922781872,35.1250517169,100
                135.5923699439,35.1251009787,100
                135.5929187759,35.12539563,100
                135.5930510708,35.1254742281,100
                135.5933736353,35.1256658655,100
                135.5938799565,35.125947564,100
                135.5949967079,35.1263004193,100
                135.5951343389,35.126340799,100
                135.5953289109,35.1263414365,100
                135.5964977243,35.1263601176,100
                135.5972811064,35.1261196584,100
                135.5974239859,35.1260609081,100
                135.5974250239,35.1260504183,100
                135.59787401,35.1261029607,100
                135.5985874775,35.1262953858,100
                135.598906499,35.1264310111,100
                135.5995409587,35.1264709524,100
                135.6000993205,35.1268653031,100
                135.6003872589,35.1270686617,100
                135.6015922939,35.1276792666,100
                135.60285366,35.1273129271,100
                135.604112528,35.1272332108,100
                135.6049194715,35.1269014165,100
                135.6052883015,35.1273199721,100
                135.6062953502,35.1274265227,100
                135.6062972973,35.127407984,100
                135.6064322676,35.1274048166,100
                135.6070156777,35.12709213,100
                135.607329463,35.1267848409,100
                135.6081858496,35.1266641126,100
                135.608623287,35.1267349335,100
                135.609738255,35.1266889417,100
                135.6102867813,35.1262498846,100
                135.6107123928,35.1253478701,100
                135.6107061369,35.1248242475,100
                135.6111452543,35.1247760605,100
                135.6116625665,35.1249890383,100
                135.6116684495,35.1249872441,100
                135.612248274,35.1249713997,100
                135.6127275812,35.1247477096,100
                135.6136482823,35.1247190603,100
                135.6136407419,35.1251826308,100
                135.6136343666,35.125574476,100
                135.6138138604,35.1261086087,100
              </coordinates>
            </LinearRing>
          </outerBoundaryIs>
        </Polygon>
      </Placemark>
    </Document>
  </Document>
</kml>
