<?xml version="1.0" encoding="UTF-8"?>
<kml xmlns="http://www.opengis.net/kml/2.2">
  <Document id="root_doc">
    <Document id="_0_24______disv4326">
      <name>40_24山国disv4326</name>
      <Placemark id="_0_24______disv4326.1">
        <visibility>1</visibility>
        <Polygon>
          <extrude>0</extrude>
          <outerBoundaryIs>
            <LinearRing>
              <coordinates>
                135.6636915424,35.1550253513,100
                135.6630566363,35.1548427316,100
                135.6617258455,35.1546524613,100
                135.6602783847,35.1545483299,100
                135.659891361,35.1545204834,100
                135.6595182429,35.1545061241,100
                135.6583270458,35.1544234037,100
                135.6571980538,35.1543331631,100
                135.6569636208,35.154423456,100
                135.6565823149,35.1543062578,100
                135.6559068472,35.1540986424,100
                135.6556188941,35.1541888722,100
                135.6551687797,35.1542092277,100
                135.6550798159,35.154280684,100
                135.6546632748,35.1546152474,100
                135.6539577705,35.1545492331,100
                135.6535778609,35.154842925,100
                135.6519301366,35.155144703,100
                135.6506521966,35.1544270732,100
                135.6491619382,35.1543488509,100
                135.6488074849,35.1541836687,100
                135.6485471599,35.1539594442,100
                135.6484892304,35.1539235001,100
                135.648446241,35.1539195306,100
                135.6484400404,35.1539189586,100
                135.6483628301,35.1539398297,100
                135.6482523066,35.1539788633,100
                135.6482183389,35.1539756203,100
                135.6479807174,35.1540474904,100
                135.6472538574,35.1539223327,100
                135.6472212874,35.1538375008,100
                135.646912744,35.1538636531,100
                135.6467802217,35.1540543799,100
                135.6466552945,35.1542471817,100
                135.6466159216,35.1542520952,100
                135.6464437981,35.1547024595,100
                135.6460901427,35.15501244,100
                135.6456414203,35.1549633629,100
                135.6451977054,35.155026981,100
                135.6444058004,35.155147278,100
                135.6431619343,35.1552049525,100
                135.64300239,35.1552955334,100
                135.6416448857,35.1554379732,100
                135.641194076,35.1554137372,100
                135.6408423175,35.1555334983,100
                135.6406773002,35.1555504304,100
                135.6403682321,35.1557664816,100
                135.6399415611,35.1559491214,100
                135.6393959043,35.1557239523,100
                135.6388288022,35.1556366394,100
                135.6387989425,35.1555899865,100
                135.6387680995,35.155591536,100
                135.6385822661,35.1552825419,100
                135.6382789432,35.154861569,100
                135.6376236363,35.1546126307,100
                135.6370288473,35.1543305159,100
                135.6362484162,35.1545878131,100
                135.6357409266,35.1546764466,100
                135.6354368219,35.1546908647,100
                135.6353773289,35.1549935729,100
                135.6360993137,35.1551844663,100
                135.6362357906,35.1551805761,100
                135.6363363406,35.1552098198,100
                135.6364076132,35.1552659783,100
                135.6364393284,35.155290967,100
                135.6364416685,35.1552928133,100
                135.6366017073,35.1555247073,100
                135.6367186095,35.155845421,100
                135.6367066467,35.1566263349,100
                135.6366180389,35.1567899516,100
                135.6364228027,35.1573567891,100
                135.636407416,35.1574014784,100
                135.6363524556,35.1575610954,100
                135.6362720588,35.1577981195,100
                135.6362348812,35.1579076612,100
                135.6361990715,35.1579934643,100
                135.6361754273,35.158349057,100
                135.636257015,35.159373827,100
                135.6362577444,35.1593868298,100
                135.6362787654,35.1597615029,100
                135.6363813569,35.1602001885,100
                135.6350534031,35.1602585363,100
                135.6350514958,35.1602640628,100
                135.634907134,35.1606826444,100
                135.6350089245,35.1609492227,100
                135.6350716425,35.1613444407,100
                135.6350576986,35.1614083089,100
                135.6351565517,35.1615824794,100
                135.6353724248,35.1616687634,100
                135.6358089343,35.1617557069,100
                135.63584442,35.1626843065,100
                135.6356412513,35.1629577401,100
                135.6356206297,35.1631559974,100
                135.6357630089,35.1634836494,100
                135.6357013332,35.1642884595,100
                135.6357733401,35.1646429445,100
                135.6361613286,35.1650362345,100
                135.6363658322,35.1654677379,100
                135.6362439078,35.1662435223,100
                135.6361550243,35.1664116888,100
                135.6359872154,35.166529692,100
                135.6367552671,35.1678072597,100
                135.6374903181,35.1681646204,100
                135.6378506379,35.1686137119,100
                135.6384561451,35.1697369133,100
                135.6387639305,35.1706455827,100
                135.6391705489,35.1717970313,100
                135.639111239,35.1718378538,100
                135.6389371068,35.1719576989,100
                135.6379626718,35.1721107583,100
                135.6377599839,35.1725158067,100
                135.6378775419,35.172993021,100
                135.6375885402,35.173552861,100
                135.6375906803,35.1743118847,100
                135.6375417932,35.1751897477,100
                135.6371942539,35.1760739341,100
                135.6369160852,35.1766626516,100
                135.6367563479,35.1771019005,100
                135.63686546,35.1771862412,100
                135.6370899504,35.1778143149,100
                135.6370892761,35.1778508978,100
                135.6377924596,35.178414803,100
                135.6379722494,35.1785766594,100
                135.6382249641,35.1786118507,100
                135.6391995593,35.178442563,100
                135.6395855888,35.1787029889,100
                135.639870596,35.1788952595,100
                135.6411684278,35.1796283387,100
                135.6406542794,35.1798822763,100
                135.6402485653,35.1800826548,100
                135.6396419982,35.1802526011,100
                135.6396442741,35.1802556151,100
                135.6390201142,35.1804080373,100
                135.638576311,35.1806032472,100
                135.6381689004,35.1811176566,100
                135.6377604002,35.1818781518,100
                135.6376439867,35.182028319,100
                135.63752347,35.1823227541,100
                135.6375609986,35.1825265882,100
                135.6379353556,35.1830361054,100
                135.638452239,35.1833450249,100
                135.6386741831,35.1835602227,100
                135.6390826673,35.184301504,100
                135.6393217668,35.1848610966,100
                135.6396408743,35.1852045822,100
                135.6397596008,35.1852776219,100
                135.6397671321,35.1852777993,100
                135.6401697539,35.1852872715,100
                135.6410465002,35.1849139582,100
                135.6415428072,35.1849714539,100
                135.6415436534,35.1849695054,100
                135.6424566521,35.1850938769,100
                135.6426981801,35.1853532944,100
                135.6434089614,35.1857745379,100
                135.6450353421,35.1864352711,100
                135.6451298253,35.1864736547,100
                135.645225659,35.1868848325,100
                135.6452620449,35.1869070849,100
                135.6455100171,35.1878430365,100
                135.645727563,35.1881913314,100
                135.64585625,35.1883973675,100
                135.6458929867,35.1895027496,100
                135.6455810533,35.1902144157,100
                135.6455399531,35.190308183,100
                135.6454027642,35.1911435899,100
                135.6454450389,35.1921167996,100
                135.6459469682,35.1924074022,100
                135.6457510317,35.1923548148,100
                135.6457716629,35.1931790823,100
                135.6459424891,35.1940392552,100
                135.6459356665,35.1940743564,100
                135.6459362822,35.1943318224,100
                135.6459447301,35.1946079608,100
                135.6460691772,35.1948437944,100
                135.6462254812,35.194980195,100
                135.6462715171,35.1949886025,100
                135.6462744947,35.1949981271,100
                135.6463450386,35.1950221144,100
                135.6464214071,35.1950223517,100
                135.6473533614,35.1951895359,100
                135.6485541418,35.1956724129,100
                135.6488395552,35.1958703253,100
                135.6488600991,35.1958773105,100
                135.6488900494,35.1958875366,100
                135.6490094285,35.1959599341,100
                135.649342841,35.1961278508,100
                135.6495421305,35.1962357535,100
                135.6499192609,35.1963180123,100
                135.6500200274,35.1963454533,100
                135.6500542252,35.1963629159,100
                135.650537076,35.1964484489,100
                135.6511472245,35.1964502067,100
                135.6516417098,35.1963204524,100
                135.6517793662,35.1960326643,100
                135.651861244,35.1959394796,100
                135.6525140973,35.1960263347,100
                135.6530238499,35.195961415,100
                135.653559247,35.1958940317,100
                135.6540252428,35.1960768522,100
                135.6541961877,35.1963348571,100
                135.6543435193,35.1963743175,100
                135.6547140307,35.1961843867,100
                135.6552312658,35.1961813519,100
                135.655590684,35.1963644619,100
                135.6560234079,35.1966117801,100
                135.6561517512,35.1966445954,100
                135.6567559482,35.1965922224,100
                135.6572830112,35.1966027282,100
                135.6578510735,35.1973128553,100
                135.6579411201,35.1973618556,100
                135.6581458043,35.1974732393,100
                135.6591068811,35.1980279412,100
                135.6591942162,35.1980783463,100
                135.6594484835,35.1981998522,100
                135.6596724471,35.1980999473,100
                135.6602124889,35.1980108957,100
                135.6604939029,35.1979413741,100
                135.6608131501,35.1981745698,100
                135.6608989934,35.1982372764,100
                135.6613861832,35.1985974081,100
                135.6616906875,35.1987875592,100
                135.6618499049,35.1987916099,100
                135.6622118683,35.1986303636,100
                135.6627982117,35.1981807203,100
                135.662872967,35.198162423,100
                135.663047091,35.1981198028,100
                135.6633580412,35.1981720257,100
                135.6639537341,35.1983197121,100
                135.6643553158,35.1981360338,100
                135.6643592315,35.1981329399,100
                135.6647640159,35.1981748712,100
                135.6654427622,35.1984342892,100
                135.666556982,35.1994613711,100
                135.666607586,35.1995080166,100
                135.6672728825,35.2004364127,100
                135.6673218124,35.2005046861,100
                135.6674220973,35.2012003298,100
                135.6670912296,35.2020864225,100
                135.6676683275,35.2022250241,100
                135.6683301976,35.2031246576,100
                135.6694203883,35.203755029,100
                135.669427648,35.2049494361,100
                135.6695079596,35.2051317899,100
                135.670648324,35.2077209682,100
                135.6706638004,35.2078158652,100
                135.6706988673,35.2080308434,100
                135.670505588,35.2087039911,100
                135.6702617664,35.2091479823,100
                135.6702068961,35.2092589619,100
                135.6699723896,35.2097334706,100
                135.6699010144,35.2103506394,100
                135.6698430299,35.2108520097,100
                135.6698605064,35.2112469232,100
                135.6698447024,35.2118475292,100
                135.6699324127,35.2121044147,100
                135.6697531238,35.2129386593,100
                135.6697455055,35.2129741101,100
                135.6702896413,35.2131604373,100
                135.6705482997,35.2134022592,100
                135.671051795,35.2141061694,100
                135.6718709129,35.2147341015,100
                135.6738131259,35.2162229173,100
                135.6733017601,35.2174781393,100
                135.6736265806,35.2178332823,100
                135.6735262389,35.218482046,100
                135.6731365694,35.2186874217,100
                135.6727650148,35.2190325675,100
                135.6727905651,35.2192696381,100
                135.6727967923,35.2193274237,100
                135.6731338194,35.2202036352,100
                135.6729861905,35.2211362342,100
                135.6729337253,35.2213178981,100
                135.6728280164,35.2216838868,100
                135.6728895977,35.2222168087,100
                135.6729825686,35.2223387639,100
                135.6736857026,35.2221315212,100
                135.6737134069,35.2221614971,100
                135.6755978315,35.2240072776,100
                135.6768216283,35.2246449449,100
                135.6775048802,35.2249868304,100
                135.6788737051,35.2254338754,100
                135.6795487836,35.2252887298,100
                135.6800457863,35.2254523045,100
                135.6804130032,35.2259382505,100
                135.6806391815,35.2259703979,100
                135.6815106077,35.2259005789,100
                135.6816399608,35.225971232,100
                135.6819919293,35.2264273848,100
                135.6822166994,35.2265397534,100
                135.6829934338,35.2267203596,100
                135.68349698,35.2269920243,100
                135.6836922347,35.2273522091,100
                135.683687418,35.2286015918,100
                135.6841425967,35.2293635965,100
                135.6840349813,35.2299222091,100
                135.68385251,35.2302336309,100
                135.6837987523,35.2307842711,100
                135.6836783769,35.2309462158,100
                135.682950305,35.2314328907,100
                135.6826546872,35.2316907133,100
                135.6825285854,35.2319034773,100
                135.6818593166,35.233580578,100
                135.6817669735,35.233842667,100
                135.6817611013,35.23394777,100
                135.6817438889,35.2342559298,100
                135.6817632678,35.2344712697,100
                135.681762218,35.2347418393,100
                135.6817474358,35.2350786425,100
                135.6817528863,35.2354099354,100
                135.6817814082,35.2358738287,100
                135.6818606394,35.2362790679,100
                135.6817286114,35.2365327254,100
                135.6818833847,35.2374210415,100
                135.6822715241,35.2379133422,100
                135.6822964853,35.2385615358,100
                135.6826392191,35.2391483654,100
                135.6829749927,35.2398325297,100
                135.6836210528,35.2404048268,100
                135.6838064745,35.2410453259,100
                135.6841749749,35.2417962772,100
                135.6841368717,35.243133896,100
                135.6850872838,35.2442929044,100
                135.685764346,35.2439521206,100
                135.686320608,35.2439533298,100
                135.6864065872,35.2440348846,100
                135.6870635766,35.2441195441,100
                135.6871971095,35.244867335,100
                135.6873611907,35.2450433066,100
                135.6875760876,35.2452205567,100
                135.688033368,35.2454370229,100
                135.6882618715,35.2455812065,100
                135.6885176055,35.2456536262,100
                135.6888881087,35.2456656356,100
                135.6892922851,35.245677729,100
                135.6895886224,35.2457005315,100
                135.6903892099,35.2453918971,100
                135.6915584417,35.2453660346,100
                135.691960925,35.245573486,100
                135.6921871694,35.2460599816,100
                135.6922362031,35.2460331398,100
                135.6922137621,35.246127605,100
                135.6923024173,35.2462197753,100
                135.6950001309,35.2461932434,100
                135.6953125889,35.2460885629,100
                135.6954908861,35.2457715892,100
                135.6955985594,35.2454231302,100
                135.6957878582,35.2453415766,100
                135.6956656658,35.2442189898,100
                135.6957523044,35.243895903,100
                135.6961792301,35.2435808517,100
                135.6965906847,35.2433747647,100
                135.696614843,35.2433663489,100
                135.697643833,35.243534343,100
                135.6986850276,35.2433629541,100
                135.7004644549,35.243534122,100
                135.7010142614,35.2434227974,100
                135.7051376173,35.2426278974,100
                135.7064504277,35.243001568,100
                135.7080621521,35.2424420565,100
                135.7106594002,35.2406562196,100
                135.7123761857,35.2405124618,100
                135.7138575098,35.2407764741,100
                135.7151515182,35.2405595663,100
                135.7184620757,35.2421772293,100
                135.7191846737,35.2432624123,100
                135.7216239009,35.2446030234,100
                135.7216992702,35.2446071032,100
                135.7217858664,35.2446703769,100
                135.7221168495,35.2448046937,100
                135.7232275662,35.2446898232,100
                135.7232857652,35.2446929725,100
                135.723325509,35.2447242438,100
                135.7246126381,35.2472617986,100
                135.7255855691,35.2497645394,100
                135.7258605857,35.2496786211,100
                135.7282333892,35.2502689509,100
                135.7283263509,35.2502811551,100
                135.7283107068,35.2502517707,100
                135.7283117798,35.2499279653,100
                135.7297205953,35.2492023496,100
                135.7318453119,35.2483568829,100
                135.7334020202,35.245769622,100
                135.7337240867,35.2453654596,100
                135.7339247983,35.2452983387,100
                135.7334248944,35.2448078691,100
                135.732795332,35.2437635591,100
                135.7326461344,35.2430087506,100
                135.7318383098,35.2420514791,100
                135.7306866757,35.2397169821,100
                135.7303894263,35.2392205464,100
                135.7305919138,35.2377778314,100
                135.7307969081,35.2373263983,100
                135.7307363701,35.2371158943,100
                135.7302955767,35.2351167079,100
                135.7302524442,35.2346308257,100
                135.7301983838,35.2340624513,100
                135.7302119308,35.2333383789,100
                135.7302923407,35.2326877658,100
                135.7310982414,35.230741823,100
                135.7314307878,35.2299221829,100
                135.7315064323,35.2290103541,100
                135.7313460165,35.2284829431,100
                135.731023396,35.2279781306,100
                135.7303283494,35.2268078889,100
                135.7299275027,35.2262845168,100
                135.7294923355,35.2260086107,100
                135.729026663,35.2257975294,100
                135.7287392089,35.225813518,100
                135.7280176482,35.2256170331,100
                135.7271904834,35.225391786,100
                135.7259976011,35.2243425306,100
                135.7250105832,35.223970815,100
                135.7244516502,35.2237603116,100
                135.7227829626,35.2234211822,100
                135.7224884884,35.2231113154,100
                135.7213196539,35.2231086431,100
                135.7206463379,35.2221110041,100
                135.7201867146,35.2209470867,100
                135.7193836535,35.2206414519,100
                135.7182378982,35.2193650745,100
                135.7180434504,35.219155868,100
                135.7166258189,35.2176305844,100
                135.7162127624,35.2163685184,100
                135.7161270758,35.2157346117,100
                135.7147257602,35.2143872986,100
                135.7139231423,35.2135191363,100
                135.7130679224,35.2125940543,100
                135.712476426,35.2118949419,100
                135.7119141076,35.2112303077,100
                135.711401982,35.2106249929,100
                135.7108719084,35.2095627536,100
                135.7107974541,35.2094140825,100
                135.7107399329,35.2092992228,100
                135.7097890471,35.2089084425,100
                135.7082828009,35.2090328322,100
                135.7071620839,35.2088435356,100
                135.7065227808,35.2082488519,100
                135.7061351163,35.2073140354,100
                135.7056335408,35.2069089806,100
                135.7053228186,35.2056870339,100
                135.7051799685,35.2056032219,100
                135.7049168411,35.2050214664,100
                135.7050895316,35.2047695825,100
                135.7056109546,35.2040090374,100
                135.7058400005,35.2035964032,100
                135.7061892963,35.2029671364,100
                135.7061651623,35.2019695546,100
                135.7064040631,35.199956351,100
                135.7066301426,35.1984569268,100
                135.7064894304,35.1960308538,100
                135.706679794,35.1953065673,100
                135.7073946845,35.194751258,100
                135.708773958,35.193277589,100
                135.7091887207,35.1927874983,100
                135.7095090398,35.1934036085,100
                135.7092908496,35.1939432652,100
                135.7090911492,35.1947327405,100
                135.7091457037,35.1948531234,100
                135.7096833701,35.1948395315,100
                135.7099232027,35.1948043232,100
                135.7108975201,35.1945323447,100
                135.7111128371,35.1945049577,100
                135.7116578386,35.194333171,100
                135.7127718783,35.1924346306,100
                135.7134181407,35.1899391892,100
                135.7136112972,35.1890255832,100
                135.7155077388,35.1883828839,100
                135.7178546212,35.1876445171,100
                135.71896181,35.1872224864,100
                135.7201482401,35.1867438372,100
                135.7205279059,35.1864968096,100
                135.72067689,35.1862762984,100
                135.7210666408,35.1853198645,100
                135.721514007,35.1848557436,100
                135.7220514934,35.1846920023,100
                135.7223798072,35.1849081331,100
                135.7224752217,35.1848232691,100
                135.7229651073,35.184344332,100
                135.723380569,35.1842208814,100
                135.7237754846,35.1844273679,100
                135.7238691468,35.1842894712,100
                135.7245939124,35.1836649248,100
                135.7252306845,35.1826995608,100
                135.7252261596,35.1822914931,100
                135.7249025602,35.1818715934,100
                135.724955527,35.181361675,100
                135.7251292315,35.1804349539,100
                135.7255605584,35.1794216233,100
                135.7256369031,35.1786343947,100
                135.7261293294,35.1778165512,100
                135.7264668196,35.1764145118,100
                135.7265989595,35.1752525197,100
                135.7263673466,35.1739223579,100
                135.7260862506,35.1730159937,100
                135.7261177993,35.1723758067,100
                135.7265119954,35.1719441135,100
                135.7263466438,35.1711038038,100
                135.7261272031,35.171207082,100
                135.7254484318,35.1709918095,100
                135.725198673,35.1710441357,100
                135.7249848383,35.1712090837,100
                135.7247215266,35.1713583548,100
                135.7244031744,35.1714423561,100
                135.7241481745,35.1716254492,100
                135.7239751569,35.1716257612,100
                135.7238837999,35.1712854678,100
                135.7237843112,35.1709925514,100
                135.7236275489,35.1708778943,100
                135.7233665158,35.1708084247,100
                135.7231903045,35.1705923095,100
                135.7229426067,35.1703334243,100
                135.7225603535,35.1700771182,100
                135.7223213973,35.170055023,100
                135.721942648,35.1701458561,100
                135.7216817747,35.1701440658,100
                135.7213026414,35.1700567898,100
                135.7208766426,35.1698794724,100
                135.7204087787,35.1693774711,100
                135.7201911516,35.1690487231,100
                135.7202235451,35.1687780829,100
                135.7204315173,35.1684327715,100
                135.7202581531,35.1682662425,100
                135.7198846107,35.1682150337,100
                135.7196897568,35.1682649412,100
                135.7194458584,35.1684998834,100
                135.7191056096,35.1686131911,100
                135.7175324794,35.168755771,100
                135.7172035515,35.1688121263,100
                135.7163493879,35.1689584634,100
                135.7160553841,35.1688597494,100
                135.7156346822,35.1685696765,100
                135.7151842748,35.1685253169,100
                135.7145885204,35.1685849867,100
                135.713762336,35.1687555279,100
                135.7134099443,35.1682781346,100
                135.7132770376,35.1677056872,100
                135.7130101776,35.1674377975,100
                135.7130336802,35.1667929673,100
                135.7129424435,35.1664639376,100
                135.7126345199,35.166254755,100
                135.7123814745,35.1660297135,100
                135.7121203254,35.1658723317,100
                135.7114574038,35.1652173612,100
                135.7110615307,35.1649564859,100
                135.7106351397,35.1645107393,100
                135.7105884318,35.1644902053,100
                135.7096786524,35.1640902128,100
                135.7091270145,35.1642819367,100
                135.7087385319,35.1644858073,100
                135.7082077405,35.1647643407,100
                135.7074887833,35.1651768617,100
                135.7066875379,35.165713271,100
                135.70627585,35.1658373563,100
                135.7053974983,35.165984188,100
                135.7049280486,35.1659348124,100
                135.7045326397,35.1657525815,100
                135.7040960472,35.1655410924,100
                135.7037254096,35.1654646269,100
                135.7034070484,35.1655706183,100
                135.7029568987,35.1656812183,100
                135.7022843425,35.1656702826,100
                135.70154583,35.1655309383,100
                135.7007194156,35.1653037652,100
                135.7003651612,35.1650223933,100
                135.6999425692,35.1653356616,100
                135.6995117637,35.1656894734,100
                135.6989134741,35.1659645577,100
                135.6983726895,35.1659873073,100
                135.6978044149,35.1659357585,100
                135.6971537282,35.1657670264,100
                135.6968408164,35.1657896935,100
                135.6965252274,35.166026304,100
                135.6963797847,35.16610073,100
                135.6955096974,35.1663353098,100
                135.6948892436,35.1661869097,100
                135.6945818052,35.1662252889,100
                135.6939780275,35.1665544067,100
                135.693645881,35.1665770173,100
                135.6929842398,35.1664241356,100
                135.6923006644,35.166322958,100
                135.6909692733,35.1662310372,100
                135.6900331737,35.1662291332,100
                135.6896296952,35.1663148612,100
                135.6892646764,35.1665582971,100
                135.6891165094,35.1667498238,100
                135.6884440556,35.1670226787,100
                135.6878045826,35.1674396339,100
                135.6871035751,35.1678267862,100
                135.6870004009,35.1678837656,100
                135.6867725576,35.1678883163,100
                135.6866649307,35.1678137895,100
                135.6865611389,35.167741919,100
                135.6863413725,35.1672666147,100
                135.6861847877,35.1669783116,100
                135.6857839184,35.166672049,100
                135.6854076268,35.1660007668,100
                135.6852157383,35.1658908271,100
                135.6850067717,35.1657710541,100
                135.6846196972,35.1656720132,100
                135.6842735721,35.1656993479,100
                135.6839032372,35.1657285895,100
                135.6832224545,35.1657017325,100
                135.6828491511,35.1658054732,100
                135.6822452251,35.1658348705,100
                135.6816138844,35.1658688399,100
                135.6811554822,35.1660717205,100
                135.6803897007,35.1664864689,100
                135.6795443253,35.1670387528,100
                135.6792725765,35.1670590883,100
                135.6784379764,35.1667145298,100
                135.6777351514,35.1664037704,100
                135.6773892421,35.1661853025,100
                135.6771229337,35.1661042343,100
                135.6766809917,35.1661426295,100
                135.6761017793,35.1661945987,100
                135.6758958563,35.1660413637,100
                135.675895088,35.1660071818,100
                135.675879283,35.1653045305,100
                135.6757968901,35.1651423311,100
                135.6753933189,35.1648855314,100
                135.6751269948,35.1645024754,100
                135.6750280091,35.164400092,100
                135.6748002918,35.1641645393,100
                135.6746602692,35.1639549984,100
                135.6745531238,35.1634187028,100
                135.6742538823,35.1631641515,100
                135.6742099389,35.1629681095,100
                135.6743996451,35.162785532,100
                135.674465187,35.1627224514,100
                135.6745721992,35.1625038591,100
                135.6747313599,35.1621590633,100
                135.6747340891,35.1620006143,100
                135.674736792,35.1618435726,100
                135.6746351535,35.1613365875,100
                135.6745966741,35.1609692841,100
                135.6745005204,35.1603180791,100
                135.6740749358,35.1594392827,100
                135.6733365286,35.1590630372,100
                135.6731526202,35.1589752097,100
                135.6729110481,35.1586777087,100
                135.6725486504,35.1578732328,100
                135.6725646052,35.1577918638,100
                135.6718143539,35.1575613628,100
                135.6713725026,35.1574106496,100
                135.670541485,35.1569528756,100
                135.6704681349,35.1569249958,100
                135.669611346,35.1558973445,100
                135.6685228692,35.1560692499,100
                135.6681296567,35.1560285105,100
                135.6680208019,35.1559850249,100
                135.6677175513,35.15588454,100
                135.6674314342,35.155841076,100
                135.6669367892,35.155875281,100
                135.6666580602,35.155945574,100
                135.6659618888,35.1564503691,100
                135.6657301781,35.1565341707,100
                135.6654194419,35.1565035521,100
                135.6653485273,35.1564965644,100
                135.6646656793,35.1557226655,100
                135.6636915424,35.1550253513,100
              </coordinates>
            </LinearRing>
          </outerBoundaryIs>
        </Polygon>
      </Placemark>
    </Document>
  </Document>
</kml>
