<?xml version="1.0" encoding="UTF-8"?>
<kml xmlns="http://www.opengis.net/kml/2.2">
  <Document id="root_doc">
    <Document id="_0_23______disv4326">
      <name>40_23黒田disv4326</name>
      <Placemark id="_0_23______disv4326.1">
        <visibility>1</visibility>
        <Polygon>
          <extrude>0</extrude>
          <outerBoundaryIs>
            <LinearRing>
              <coordinates>
                135.7700303513,35.1831318589,100
                135.7705304736,35.1830603296,100
                135.7708254137,35.1827469963,100
                135.7714144672,35.1824100552,100
                135.7717976227,35.1820968838,100
                135.7722395762,35.1817838202,100
                135.7722989958,35.1815665989,100
                135.772152749,35.1812765962,100
                135.7725056982,35.1812530981,100
                135.7727924265,35.1806823413,100
                135.7731713342,35.1803947936,100
                135.7737935082,35.1800410734,100
                135.7740646401,35.1796645881,100
                135.7747134387,35.1794440868,100
                135.7750384608,35.1791119963,100
                135.7752014104,35.1787796779,100
                135.7750137877,35.1782471282,100
                135.7747452733,35.1776700646,100
                135.7744220848,35.1773368509,100
                135.774125957,35.1769815031,100
                135.7739919949,35.1765820868,100
                135.7735605831,35.1763151531,100
                135.7733990844,35.1761152691,100
                135.7730216516,35.175870617,100
                135.7727796077,35.1754931827,100
                135.7730241945,35.1749392516,100
                135.7730790552,35.1746289202,100
                135.7722702934,35.1740952163,100
                135.7718741931,35.1739131357,100
                135.7715846942,35.1734773001,100
                135.7712264664,35.1731536646,100
                135.7709874127,35.1730268764,100
                135.7707311916,35.1729280842,100
                135.7706463391,35.1726892555,100
                135.7709893845,35.1723107282,100
                135.7709898483,35.1721422726,100
                135.770616165,35.1712289384,100
                135.7704454777,35.171116291,100
                135.7701209587,35.1709752563,100
                135.7701558959,35.170708552,100
                135.7705698149,35.1694315339,100
                135.7704678213,35.1692207722,100
                135.7701436997,35.1689393092,100
                135.7700587764,35.1687285081,100
                135.770127795,35.1685039813,100
                135.7703137273,35.1682354451,100
                135.77031431,35.1680248041,100
                135.7700773308,35.1671538333,100
                135.770317806,35.1667610991,100
                135.7705092407,35.165553945,100
                135.7705104051,35.1651326629,100
                135.7706474579,35.1646178285,100
                135.7707535063,35.1637851768,100
                135.7709090458,35.163181711,100
                135.7712183032,35.162648746,100
                135.7715619036,35.1620455602,100
                135.7716311274,35.1617508881,100
                135.7715812682,35.1613350042,100
                135.7716333847,35.1610402306,100
                135.7718562447,35.1608300738,100
                135.771891306,35.1605071687,100
                135.7719267365,35.1600579212,100
                135.7720813185,35.1598054527,100
                135.7724067947,35.1595814008,100
                135.7727659411,35.1595399536,100
                135.7729567124,35.1585574529,100
                135.7732178997,35.1581951062,100
                135.7730990169,35.1579000146,100
                135.773116662,35.1577034908,100
                135.7731685938,35.1574648454,100
                135.7731181595,35.1571558665,100
                135.7726356441,35.156369165,100
                135.7723315743,35.1559926689,100
                135.7721498744,35.1554910429,100
                135.7718157834,35.1549390611,100
                135.7712071043,35.1543864965,100
                135.7696833571,35.1537570697,100
                135.7690745405,35.1532546375,100
                135.7684360283,35.1524764913,100
                135.7683762636,35.1520252278,100
                135.7680415172,35.1517238038,100
                135.7674929847,35.1514971901,100
                135.7673412899,35.1511961822,100
                135.7670672034,35.151020159,100
                135.7665182762,35.1509439701,100
                135.7660856608,35.1507483465,100
                135.7656574011,35.1511485359,100
                135.7646487518,35.1517982587,100
                135.7641309503,35.1514965434,100
                135.7639182583,35.1511953429,100
                135.7635835313,35.1508939073,100
                135.7630950194,35.1510183235,100
                135.7627892854,35.1512433071,100
                135.7623312962,35.1513677084,100
                135.7619960674,35.1512417696,100
                135.7614794403,35.1505389678,100
                135.7610525365,35.1504629217,100
                135.7604413516,35.1508126628,100
                135.7600753117,35.1507868746,100
                135.7597405993,35.1504854284,100
                135.7589172231,35.1503585271,100
                135.7586442542,35.1498065545,100
                135.7580672347,35.1494521629,100
                135.7571309069,35.1486956325,100
                135.75695251,35.148252371,100
                135.7565797833,35.1485109037,100
                135.7559654105,35.1481909253,100
                135.7547520304,35.1475908904,100
                135.7543025876,35.1478583173,100
                135.7540105586,35.1476921445,100
                135.7537218698,35.147655851,100
                135.7530487591,35.147029799,100
                135.7525004703,35.1472310952,100
                135.7516039774,35.1478942626,100
                135.7515920659,35.1479093044,100
                135.7512245719,35.1483733817,100
                135.7510479566,35.1490646134,100
                135.7501621599,35.1494136747,100
                135.749796221,35.1493627875,100
                135.7491549258,35.1495619814,100
                135.7486977587,35.1494106891,100
                135.7471097186,35.1499337862,100
                135.7462249264,35.1499570096,100
                135.745554215,35.1498051761,100
                135.7451576119,35.1498043431,100
                135.7446726767,35.1501081232,100
                135.7445471124,35.1503631501,100
                135.7444548928,35.1507736052,100
                135.744119421,35.1515701118,100
                135.7441079137,35.1516104407,100
                135.7438665151,35.1524566544,100
                135.743606236,35.1526420279,100
                135.7435211873,35.1536905487,100
                135.7434249813,35.154673687,100
                135.743286495,35.1552488359,100
                135.7430404615,35.1556280468,100
                135.7427421062,35.155948765,100
                135.7421119704,35.1564234317,100
                135.7420026407,35.1566017262,100
                135.7420333144,35.1567820789,100
                135.7421610976,35.1573567349,100
                135.741956805,35.1579725899,100
                135.7415979561,35.1582663449,100
                135.7403397653,35.1589902387,100
                135.7393639905,35.1596030327,100
                135.738895478,35.1599668992,100
                135.7382051348,35.1605543802,100
                135.7374128201,35.1609909981,100
                135.7367704423,35.1610170053,100
                135.7361222449,35.1608987672,100
                135.7355157896,35.1610216096,100
                135.7351188739,35.1614935799,100
                135.7349626409,35.1616021176,100
                135.7345787178,35.1617786821,100
                135.7343456861,35.1619211366,100
                135.733869238,35.162447299,100
                135.7334614894,35.1629959346,100
                135.7333613249,35.1635867939,100
                135.7332858439,35.1641686217,100
                135.733242722,35.1645418502,100
                135.7332105413,35.1648203819,100
                135.7330931464,35.1651023884,100
                135.7328795219,35.1653260121,100
                135.7326299258,35.1654414545,100
                135.7322652321,35.165638266,100
                135.7320856947,35.166344305,100
                135.7316444385,35.1666967967,100
                135.7314746198,35.1668707248,100
                135.7314010097,35.1670963446,100
                135.7314348205,35.1674592491,100
                135.7313527958,35.167608158,100
                135.7308070534,35.1679000616,100
                135.7306867766,35.1681279727,100
                135.7306000648,35.1686286437,100
                135.7307524517,35.1692123118,100
                135.7309074622,35.1697350668,100
                135.7308170491,35.1698186732,100
                135.7299117484,35.1702035871,100
                135.7293579879,35.1706104764,100
                135.7287682841,35.1709204461,100
                135.7286035922,35.1709455028,100
                135.7280890893,35.1705135594,100
                135.7276848617,35.170264052,100
                135.7273662704,35.1702420702,100
                135.7270345228,35.17048169,100
                135.7268678692,35.1708585176,100
                135.7265650454,35.1710010136,100
                135.7263466438,35.1711038038,100
                135.7265119954,35.1719441135,100
                135.7261177993,35.1723758067,100
                135.7260862506,35.1730159937,100
                135.7263673466,35.1739223579,100
                135.7265989595,35.1752525197,100
                135.7264668196,35.1764145118,100
                135.7261293294,35.1778165512,100
                135.7256369031,35.1786343947,100
                135.7255605584,35.1794216233,100
                135.7251292315,35.1804349539,100
                135.724955527,35.181361675,100
                135.7249025602,35.1818715934,100
                135.7252261596,35.1822914931,100
                135.7252306845,35.1826995608,100
                135.7245939124,35.1836649248,100
                135.7238691468,35.1842894712,100
                135.7237754846,35.1844273679,100
                135.723380569,35.1842208814,100
                135.7229651073,35.184344332,100
                135.7224752217,35.1848232691,100
                135.7223798072,35.1849081331,100
                135.7220514934,35.1846920023,100
                135.721514007,35.1848557436,100
                135.7210666408,35.1853198645,100
                135.72067689,35.1862762984,100
                135.7205279059,35.1864968096,100
                135.7201482401,35.1867438372,100
                135.71896181,35.1872224864,100
                135.7178546212,35.1876445171,100
                135.7155077388,35.1883828839,100
                135.7136112972,35.1890255832,100
                135.7134181407,35.1899391892,100
                135.7127718783,35.1924346306,100
                135.7116578386,35.194333171,100
                135.7111128371,35.1945049577,100
                135.7108975201,35.1945323447,100
                135.7099232027,35.1948043232,100
                135.7096833701,35.1948395315,100
                135.7091457037,35.1948531234,100
                135.7090911492,35.1947327405,100
                135.7092908496,35.1939432652,100
                135.7095090398,35.1934036085,100
                135.7091887207,35.1927874983,100
                135.708773958,35.193277589,100
                135.7073946845,35.194751258,100
                135.706679794,35.1953065673,100
                135.7064894304,35.1960308538,100
                135.7066301426,35.1984569268,100
                135.7064040631,35.199956351,100
                135.7061651623,35.2019695546,100
                135.7061892963,35.2029671364,100
                135.7058400005,35.2035964032,100
                135.7056109546,35.2040090374,100
                135.7050895316,35.2047695825,100
                135.7049168411,35.2050214664,100
                135.7051799685,35.2056032219,100
                135.7053228186,35.2056870339,100
                135.7056335408,35.2069089806,100
                135.7061351163,35.2073140354,100
                135.7065227808,35.2082488519,100
                135.7071620839,35.2088435356,100
                135.7082828009,35.2090328322,100
                135.7097890471,35.2089084425,100
                135.7107399329,35.2092992228,100
                135.7107974541,35.2094140825,100
                135.7108719084,35.2095627536,100
                135.711401982,35.2106249929,100
                135.7119141076,35.2112303077,100
                135.712476426,35.2118949419,100
                135.7130679224,35.2125940543,100
                135.7139231423,35.2135191363,100
                135.7147257602,35.2143872986,100
                135.7161270758,35.2157346117,100
                135.7162127624,35.2163685184,100
                135.7166258189,35.2176305844,100
                135.7180434504,35.219155868,100
                135.7182378982,35.2193650745,100
                135.7193836535,35.2206414519,100
                135.7201867146,35.2209470867,100
                135.7206463379,35.2221110041,100
                135.7213196539,35.2231086431,100
                135.7224884884,35.2231113154,100
                135.7227829626,35.2234211822,100
                135.7244516502,35.2237603116,100
                135.7250105832,35.223970815,100
                135.7259976011,35.2243425306,100
                135.7271904834,35.225391786,100
                135.7280176482,35.2256170331,100
                135.7287392089,35.225813518,100
                135.729026663,35.2257975294,100
                135.7294923355,35.2260086107,100
                135.7299275027,35.2262845168,100
                135.7303283494,35.2268078889,100
                135.731023396,35.2279781306,100
                135.7313460165,35.2284829431,100
                135.7315064323,35.2290103541,100
                135.7314307878,35.2299221829,100
                135.7310982414,35.230741823,100
                135.7302923407,35.2326877658,100
                135.7302119308,35.2333383789,100
                135.7301983838,35.2340624513,100
                135.7302524442,35.2346308257,100
                135.7302955767,35.2351167079,100
                135.7307363701,35.2371158943,100
                135.7307969081,35.2373263983,100
                135.7305919138,35.2377778314,100
                135.7303894263,35.2392205464,100
                135.7306866757,35.2397169821,100
                135.7318383098,35.2420514791,100
                135.7326461344,35.2430087506,100
                135.732795332,35.2437635591,100
                135.7334248944,35.2448078691,100
                135.7339247983,35.2452983387,100
                135.7351072559,35.2449029012,100
                135.7364395117,35.2449260694,100
                135.7372040945,35.2450086354,100
                135.7385554351,35.2446670302,100
                135.7389018677,35.2443438985,100
                135.7396208765,35.2432321234,100
                135.7402630642,35.2430108863,100
                135.7411265073,35.2430329322,100
                135.7424588623,35.2430155412,100
                135.7443810249,35.2437482467,100
                135.7459502792,35.2446054706,100
                135.7466868327,35.2447187624,100
                135.7473317349,35.2448296071,100
                135.7477541567,35.2449399909,100
                135.7480437206,35.2448310802,100
                135.7486010872,35.2444671592,100
                135.7493137891,35.2442313723,100
                135.7497815351,35.2440680373,100
                135.7502041609,35.2441053822,100
                135.7507153727,35.2442889638,100
                135.7511602563,35.2443264218,100
                135.7513823681,35.2444546215,100
                135.7516923652,35.244948073,100
                135.7520697202,35.2452409588,100
                135.7524921824,35.2453330862,100
                135.7532264853,35.2453162644,100
                135.7537603212,35.2453721325,100
                135.7540048172,35.2452677646,100
                135.7546623985,35.2447943627,100
                135.7549879138,35.2441914247,100
                135.7551666159,35.2434674164,100
                135.7556998319,35.2422853855,100
                135.7559374601,35.2415373396,100
                135.7563211785,35.2411518383,100
                135.7565575937,35.2408142819,100
                135.7569135549,35.239849146,100
                135.7572093215,35.2393426923,100
                135.7576232168,35.2386916128,100
                135.7578013134,35.2381607692,100
                135.7582159646,35.2372441254,100
                135.7583641629,35.2368822356,100
                135.7585905272,35.236709726,100
                135.758806546,35.2365450829,100
                135.7591906203,35.2360146411,100
                135.7594569375,35.2355081207,100
                135.7595220262,35.2351216968,100
                135.7597876137,35.2348566542,100
                135.7604355204,35.2346647508,100
                135.7606421898,35.2344236734,100
                135.7609973637,35.2337000644,100
                135.761175029,35.2333140682,100
                135.7611768308,35.2326863199,100
                135.7611189847,35.2315709848,100
                135.761208002,35.2313055221,100
                135.7611496504,35.2311363929,100
                135.7611511752,35.2306051935,100
                135.7612995324,35.2301708996,100
                135.7614482574,35.2296158313,100
                135.7614197853,35.2292777444,100
                135.7610975174,35.2287942261,100
                135.7608631069,35.2284557387,100
                135.7607467362,35.2279967714,100
                135.7607479856,35.2275621148,100
                135.7606028946,35.2268616719,100
                135.7606033507,35.226703302,100
                135.7606036586,35.226596033,100
                135.7609282034,35.2262827828,100
                135.7611058338,35.2258967806,100
                135.7611365873,35.2254380952,100
                135.761190344,35.2252401663,100
                135.7620736867,35.2250003962,100
                135.7625166664,35.224421803,100
                135.7624595358,35.2238180143,100
                135.7625803405,35.2227317417,100
                135.7629933852,35.2223220366,100
                135.7629651397,35.2219114791,100
                135.7630848813,35.2211873956,100
                135.7629093356,35.2208490192,100
                135.7625871577,35.2203413397,100
                135.762441076,35.2199788638,100
                135.7624423878,35.2195201202,100
                135.7622676802,35.2188919431,100
                135.7620038602,35.2185533912,100
                135.7618577408,35.2182150676,100
                135.7618309375,35.21729752,100
                135.7620087749,35.2168390486,100
                135.7623339729,35.2162843803,100
                135.7623645825,35.2155811071,100
                135.7624833609,35.2151950569,100
                135.7624549156,35.2148569622,100
                135.7626627753,35.2141812872,100
                135.7624568497,35.2141808871,100
                135.7616623433,35.2142517366,100
                135.7610152198,35.2142263173,100
                135.7604567011,35.2140803587,100
                135.759722509,35.2136443239,100
                135.7592546756,35.2126534372,100
                135.7586380366,35.2122658677,100
                135.7580513592,35.2116851789,100
                135.7575530839,35.2110564253,100
                135.7569038476,35.2101081369,100
                135.7563188965,35.2089479953,100
                135.7559961653,35.2086575536,100
                135.754880773,35.2078343799,100
                135.7545289065,35.2074473228,100
                135.7540027802,35.2063114424,100
                135.7537690372,35.2057797578,100
                135.7532417127,35.205054375,100
                135.7533013439,35.2047888547,100
                135.7535082533,35.2044512353,100
                135.7535973639,35.2041616888,100
                135.753395818,35.2037032695,100
                135.7533636069,35.2036300034,100
                135.7535704439,35.2033165394,100
                135.7535416089,35.2031233052,100
                135.7533661991,35.2027607508,100
                135.7534845757,35.2025195702,100
                135.7548228941,35.2013486215,100
                135.7551888187,35.2010284259,100
                135.7552350855,35.2006457532,100
                135.7552792852,35.2002800494,100
                135.7554277999,35.1997974367,100
                135.7558414474,35.1991704868,100
                135.7558423772,35.1988565994,100
                135.7558140932,35.1984701863,100
                135.7559912917,35.1982290487,100
                135.756169991,35.1974809175,100
                135.7563770952,35.1970708159,100
                135.7565556936,35.1963467684,100
                135.7571452991,35.1958891831,100
                135.7577934248,35.1955282643,100
                135.7583538973,35.1949222259,100
                135.7592977495,35.1940065115,100
                135.7604767731,35.1931154806,100
                135.7616265007,35.192176001,100
                135.762362633,35.1918635483,100
                135.7630394218,35.1917441522,100
                135.7637456601,35.1916006538,100
                135.7641581572,35.1913358059,100
                135.76436506,35.1909740067,100
                135.7645736329,35.1900324673,100
                135.7646339527,35.1895014345,100
                135.7647751438,35.1891890169,100
                135.7648411222,35.1890430114,100
                135.7651066151,35.188753791,100
                135.7654890753,35.1887062127,100
                135.7659301349,35.1887312133,100
                135.7664006673,35.1887321125,100
                135.7666950328,35.1886361202,100
                135.7669309117,35.188419237,100
                135.7672840339,35.1883474406,100
                135.7677546982,35.1883000932,100
                135.7679608997,35.1881797045,100
                135.7683449566,35.1875526589,100
                135.7684342013,35.1871906288,100
                135.768670092,35.1869738113,100
                135.7691995062,35.1869506546,100
                135.7693763444,35.1868061223,100
                135.7693770852,35.1865404787,100
                135.7695544139,35.1862269276,100
                135.7697023195,35.1859133203,100
                135.7694972689,35.1856232052,100
                135.7693215785,35.1853572311,100
                135.7694102533,35.1851883776,100
                135.7695873762,35.1849472929,100
                135.7694119337,35.1845847659,100
                135.7693833375,35.1842949123,100
                135.7695581071,35.1837587425,100
                135.7697097435,35.1833676148,100
                135.7697358313,35.1833003263,100
                135.7700303513,35.1831318589,100
              </coordinates>
            </LinearRing>
          </outerBoundaryIs>
        </Polygon>
      </Placemark>
    </Document>
  </Document>
</kml>
