<?xml version="1.0" encoding="UTF-8"?>
<kml xmlns="http://www.opengis.net/kml/2.2">
  <Document id="root_doc">
    <Document id="_0_27______disv4326">
      <name>40_27宇津disv4326</name>
      <Placemark id="_0_27______disv4326.1">
        <visibility>1</visibility>
        <Polygon>
          <extrude>0</extrude>
          <outerBoundaryIs>
            <LinearRing>
              <coordinates>
                135.613306152,35.1379959168,100
                135.6136853439,35.1369289401,100
                135.6138629835,35.1364878076,100
                135.6139511614,35.1359355159,100
                135.6142147659,35.1354162285,100
                135.6142532062,35.135174769,100
                135.6141806849,35.1349600033,100
                135.6138630469,35.1345984356,100
                135.6138616377,35.1345895551,100
                135.613807622,35.1342485109,100
                135.6138707806,35.1336492669,100
                135.6138332399,35.1329947193,100
                135.6139547169,35.1328301419,100
                135.6144934977,35.132705929,100
                135.6146336013,35.132673628,100
                135.615416418,35.1323479689,100
                135.6155832343,35.1321078134,100
                135.6157436806,35.1313502219,100
                135.6160865945,35.1309952348,100
                135.6161611341,35.130776423,100
                135.6159821701,35.1303269559,100
                135.6159613025,35.1300952255,100
                135.6155584161,35.1296621834,100
                135.6152869798,35.129042959,100
                135.6152724039,35.1281685355,100
                135.6152247956,35.1280950205,100
                135.6146155288,35.1271541662,100
                135.6138779593,35.1262136146,100
                135.6138472687,35.1261449923,100
                135.6138138604,35.1261086087,100
                135.6136343666,35.125574476,100
                135.6136407419,35.1251826308,100
                135.6136482823,35.1247190603,100
                135.6127275812,35.1247477096,100
                135.612248274,35.1249713997,100
                135.6116684495,35.1249872441,100
                135.6116625665,35.1249890383,100
                135.6111452543,35.1247760605,100
                135.6107061369,35.1248242475,100
                135.6107123928,35.1253478701,100
                135.6102867813,35.1262498846,100
                135.609738255,35.1266889417,100
                135.608623287,35.1267349335,100
                135.6081858496,35.1266641126,100
                135.607329463,35.1267848409,100
                135.6070156777,35.12709213,100
                135.6064322676,35.1274048166,100
                135.6062972973,35.127407984,100
                135.6062953502,35.1274265227,100
                135.6052883015,35.1273199721,100
                135.6049194715,35.1269014165,100
                135.604112528,35.1272332108,100
                135.60285366,35.1273129271,100
                135.6015922939,35.1276792666,100
                135.6003872589,35.1270686617,100
                135.6000993205,35.1268653031,100
                135.5995409587,35.1264709524,100
                135.598906499,35.1264310111,100
                135.5985874775,35.1262953858,100
                135.59787401,35.1261029607,100
                135.5974250239,35.1260504183,100
                135.5974239859,35.1260609081,100
                135.5972811064,35.1261196584,100
                135.5968883144,35.1266330754,100
                135.5966987218,35.1268918869,100
                135.5966622862,35.1269364141,100
                135.596538436,35.1272472696,100
                135.5965244359,35.1273315873,100
                135.5965286475,35.1273899098,100
                135.5965622883,35.1274600877,100
                135.5966229056,35.1275700009,100
                135.5966317957,35.1276097472,100
                135.5966301736,35.1276345299,100
                135.5966073549,35.1276642434,100
                135.595922813,35.1283602374,100
                135.5958255132,35.1284925991,100
                135.5956747941,35.1288371177,100
                135.5956208181,35.1288492648,100
                135.5948341089,35.128880983,100
                135.5946200284,35.128889577,100
                135.5934469559,35.1289183971,100
                135.5927482375,35.128967081,100
                135.5923997566,35.128991354,100
                135.5919821894,35.129006313,100
                135.5919360304,35.1289801036,100
                135.5911675974,35.1285437516,100
                135.58995911,35.1279681984,100
                135.5896908091,35.1278240709,100
                135.589302624,35.1276735596,100
                135.5889177991,35.1275708734,100
                135.5884962104,35.1275515828,100
                135.5880672,35.1275680399,100
                135.5877325275,35.1276086831,100
                135.587150511,35.1276843427,100
                135.58707051,35.1276899907,100
                135.5861721977,35.127054462,100
                135.5859748521,35.1272626696,100
                135.5857996824,35.1273993337,100
                135.5857122131,35.1274408,100
                135.5854758189,35.1274721894,100
                135.5848191785,35.1274985748,100
                135.5838564717,35.1273582664,100
                135.5835995468,35.1273808419,100
                135.5833343259,35.1275342321,100
                135.5831371687,35.1277036279,100
                135.5826966435,35.127833391,100
                135.5824160508,35.1279667266,100
                135.5820299476,35.1281145612,100
                135.5816660415,35.1281878931,100
                135.5814405884,35.1281990935,100
                135.5812261701,35.1281894166,100
                135.5807033818,35.1282713567,100
                135.5803555362,35.1283716151,100
                135.5791760533,35.1280492,100
                135.5777856148,35.1276690961,100
                135.576485934,35.1300566688,100
                135.576220089,35.1305756027,100
                135.5757882922,35.1312909997,100
                135.5753497775,35.1320774983,100
                135.5752184397,35.1322282379,100
                135.5750042713,35.132474111,100
                135.5749807303,35.1325011416,100
                135.57495659,35.1324858656,100
                135.5746123452,35.1322680325,100
                135.5745929954,35.1322557817,100
                135.5745727646,35.1322472607,100
                135.5741727198,35.1320779121,100
                135.5739785612,35.1320445601,100
                135.5733883539,35.1318240539,100
                135.5724805305,35.1317058141,100
                135.5719292311,35.1316108557,100
                135.5714471869,35.1313864875,100
                135.5710370392,35.1309299783,100
                135.5706529053,35.1300087742,100
                135.5703019982,35.1295040205,100
                135.5693879583,35.1284937602,100
                135.5687849241,35.1280135285,100
                135.5683573029,35.1278211673,100
                135.5674825026,35.1278124305,100
                135.5669118284,35.1280068833,100
                135.566640381,35.1280993692,100
                135.5659029071,35.1289219507,100
                135.5652974314,35.1297525315,100
                135.5646926178,35.1304475499,100
                135.5635446227,35.1313342118,100
                135.5622674161,35.1321332861,100
                135.5619128298,35.1323160252,100
                135.5615223014,35.1326147588,100
                135.5614119933,35.1326676009,100
                135.5614276745,35.132764699,100
                135.5615206048,35.1333396776,100
                135.5615974076,35.1342454409,100
                135.5615980117,35.1342526261,100
                135.5614172914,35.1347026771,100
                135.5610313733,35.1350505812,100
                135.5606041829,35.1354208704,100
                135.5601908258,35.1357686731,100
                135.5598328144,35.1360265341,100
                135.55958471,35.1362509893,100
                135.5591704257,35.1367678026,100
                135.5591270639,35.1369316598,100
                135.5591059292,35.1370116538,100
                135.5591519322,35.1372249185,100
                135.5593784144,35.1376262981,100
                135.559578371,35.1380345529,100
                135.5598533246,35.1388844172,100
                135.5599407787,35.1395843088,100
                135.5598782988,35.1398759839,100
                135.559853257,35.1404592012,100
                135.56005321,35.1416506955,100
                135.5603031559,35.1422506099,100
                135.5605531358,35.1425255959,100
                135.5612155224,35.1429005189,100
                135.5614280223,35.143267128,100
                135.561715446,35.1438920346,100
                135.5618154051,35.1445419703,100
                135.5621278408,35.1462250552,100
                135.5621903214,35.1463416881,100
                135.5622652981,35.1472415277,100
                135.562440264,35.1478414481,100
                135.5624402952,35.1481330662,100
                135.5623527748,35.1482497218,100
                135.5621902839,35.1483163909,100
                135.5620778188,35.1484080272,100
                135.5611779065,35.1487496416,100
                135.5606904571,35.1490162612,100
                135.5604905098,35.1492162416,100
                135.5602983635,35.1494006155,100
                135.5602881656,35.1494232551,100
                135.5602461225,35.1495168341,100
                135.5602193512,35.1496965948,100
                135.5602431156,35.1500776631,100
                135.560365496,35.1506326782,100
                135.5608029241,35.1522074123,100
                135.5611653636,35.1528323768,100
                135.561527776,35.1533989681,100
                135.5614403003,35.1536655607,100
                135.5606778577,35.1543821245,100
                135.5605903463,35.1545904762,100
                135.5605521033,35.1550769009,100
                135.5608188815,35.1554965376,100
                135.5614946166,35.1562316704,100
                135.5621856177,35.1567691003,100
                135.563921989,35.1577754958,100
                135.5643168182,35.1580909305,100
                135.5645272997,35.1583150678,100
                135.5645897849,35.1584650128,100
                135.5644772794,35.1589399738,100
                135.5644522666,35.1592732721,100
                135.5645397579,35.1596148593,100
                135.5646147371,35.159681537,100
                135.5655495187,35.1606189763,100
                135.5657189862,35.1607126101,100
                135.5658837354,35.1607659443,100
                135.5662872656,35.1607875221,100
                135.5666868283,35.1608049284,100
                135.5669592262,35.1609018837,100
                135.5673338866,35.1610232159,100
                135.5676546559,35.1611922438,100
                135.5678483934,35.1613958135,100
                135.5690422224,35.1610096311,100
                135.5704987849,35.1599673183,100
                135.5727353862,35.1600233464,100
                135.5727466719,35.1601383409,100
                135.5727296697,35.1602253248,100
                135.5725609522,35.1604954422,100
                135.572550566,35.1605797736,100
                135.5725632896,35.1606804526,100
                135.5726548659,35.160903874,100
                135.5726478565,35.1612942766,100
                135.5726767362,35.1614793802,100
                135.5727984094,35.1616539633,100
                135.5727976157,35.1618062867,100
                135.5728343515,35.1620635329,100
                135.5728767945,35.1621888244,100
                135.5729360239,35.1622679061,100
                135.5729997124,35.1622990562,100
                135.5751802917,35.1608021841,100
                135.5764508912,35.1602594329,100
                135.5774571932,35.1602516528,100
                135.5783261266,35.1602449276,100
                135.5797527551,35.1602338726,100
                135.5807138588,35.1598901278,100
                135.5822992846,35.1591169777,100
                135.58239523,35.1590701858,100
                135.5837000417,35.1599277206,100
                135.5841379599,35.1602155182,100
                135.5845520889,35.1603701671,100
                135.5885069489,35.1589034223,100
                135.5885117307,35.1589171176,100
                135.5885165248,35.1588998691,100
                135.5912971028,35.1581862749,100
                135.5925134065,35.1581605952,100
                135.5935497621,35.1586373866,100
                135.5936842517,35.1586597736,100
                135.5946918369,35.158827492,100
                135.5953347425,35.1589994174,100
                135.5956485795,35.1591786288,100
                135.5956392329,35.1594492357,100
                135.5956023975,35.1595261202,100
                135.595690057,35.1598189723,100
                135.5956487671,35.160091734,100
                135.5954099302,35.1604210814,100
                135.5950891344,35.160949862,100
                135.5950759668,35.1609592881,100
                135.5950860433,35.1610124187,100
                135.5949934897,35.1615004834,100
                135.5950291494,35.1616317783,100
                135.5951580012,35.1620078488,100
                135.5950110357,35.162365115,100
                135.5949836255,35.1626273089,100
                135.594980702,35.1629246024,100
                135.5950950969,35.1629914651,100
                135.5953999315,35.1630163264,100
                135.5959322534,35.1632027493,100
                135.5962092148,35.1637506364,100
                135.5962604119,35.1641207433,100
                135.5962281438,35.1644374717,100
                135.596210327,35.1646123474,100
                135.5962069354,35.1646216927,100
                135.5963199424,35.1649397203,100
                135.5962876935,35.1654078981,100
                135.5962251707,35.1656119845,100
                135.596162152,35.166026771,100
                135.5961554264,35.1661116943,100
                135.5961404337,35.1661042117,100
                135.5960045733,35.1663211025,100
                135.5960689508,35.166322417,100
                135.5964122257,35.1662112229,100
                135.5966625779,35.1660954174,100
                135.5970859203,35.1660406034,100
                135.597372506,35.1659699958,100
                135.5976805563,35.1658078058,100
                135.597762172,35.1657508605,100
                135.59801213,35.1657134979,100
                135.5980454302,35.1656127059,100
                135.5981814688,35.1655327931,100
                135.5983792267,35.1654809741,100
                135.5984720261,35.1653521189,100
                135.5985990556,35.1652039661,100
                135.5987158625,35.1651337324,100
                135.5987761371,35.1650240578,100
                135.5987859141,35.1645923045,100
                135.5994291438,35.1639210471,100
                135.5998812773,35.162811962,100
                135.6000119041,35.1625843265,100
                135.6004171661,35.1625423817,100
                135.6006225465,35.1611539452,100
                135.6008238582,35.1608382027,100
                135.603111487,35.1606013531,100
                135.6040378066,35.1606286904,100
                135.6036992124,35.1600488821,100
                135.6033102401,35.159446374,100
                135.6026939284,35.1595534482,100
                135.6028471676,35.1587327494,100
                135.602687274,35.157746075,100
                135.6029001085,35.1575412413,100
                135.6034342226,35.1574041531,100
                135.6035601461,35.157011541,100
                135.6042918013,35.1571094584,100
                135.6047990134,35.1568595996,100
                135.6059316432,35.1568875886,100
                135.6065404106,35.1569760832,100
                135.6074761387,35.1568628028,100
                135.6081543682,35.156655845,100
                135.6090253443,35.1557140872,100
                135.6100012572,35.1562858593,100
                135.61036365,35.1566524502,100
                135.6107539609,35.1570472783,100
                135.6107995655,35.1571503327,100
                135.6109277384,35.1574399561,100
                135.6122207698,35.1572169445,100
                135.6126930217,35.1577590532,100
                135.6128027065,35.1578849613,100
                135.613701198,35.1582321777,100
                135.613784499,35.1584938578,100
                135.6148182742,35.1585512387,100
                135.6155233131,35.1584849719,100
                135.6156544353,35.1581419431,100
                135.6157360585,35.1575842155,100
                135.6157516321,35.157575567,100
                135.6161685657,35.1573440035,100
                135.6164071127,35.1570319619,100
                135.6172896658,35.156553388,100
                135.6181765609,35.1567977713,100
                135.6187589157,35.1566707001,100
                135.619691451,35.1567781981,100
                135.6203096671,35.1568370178,100
                135.620463434,35.1567883969,100
                135.6214821183,35.1569424611,100
                135.6218742338,35.1568895993,100
                135.6224042573,35.156682114,100
                135.6228248088,35.1567004213,100
                135.622827874,35.156700554,100
                135.6225527197,35.1563787876,100
                135.6224399178,35.1560669133,100
                135.6223738473,35.155884242,100
                135.6222907864,35.1554167092,100
                135.6222903624,35.1554143305,100
                135.6227951751,35.1549534547,100
                135.6230422044,35.1546982099,100
                135.6230228182,35.1545714763,100
                135.6229249344,35.1539316194,100
                135.623295689,35.1527726161,100
                135.6236294233,35.1515477054,100
                135.6238120399,35.1509704532,100
                135.6250000048,35.1506441899,100
                135.6253212384,35.1502359276,100
                135.6254418197,35.1497543923,100
                135.6254246402,35.1497418574,100
                135.6254148582,35.1496764268,100
                135.6253377692,35.1494904956,100
                135.6251295618,35.1491734535,100
                135.6252024352,35.1478593913,100
                135.6250931765,35.1475056949,100
                135.6254622032,35.1454993392,100
                135.6254048062,35.1445977334,100
                135.6251301371,35.1441777284,100
                135.624740725,35.1438916835,100
                135.6242694952,35.1437396982,100
                135.623894277,35.1434717229,100
                135.6237229112,35.1427816048,100
                135.6235658413,35.1425692863,100
                135.6232914825,35.1425675398,100
                135.6228430129,35.1422721152,100
                135.6227678929,35.1423477812,100
                135.6226503727,35.1423681514,100
                135.6224663206,35.1422972722,100
                135.6222467612,35.1423119181,100
                135.6218613798,35.1423494874,100
                135.6214477662,35.142561843,100
                135.6212947899,35.142655117,100
                135.6212013954,35.1426791658,100
                135.6208780605,35.1425880198,100
                135.6209789311,35.1420200663,100
                135.6210921475,35.1408913031,100
                135.6217843189,35.1397143708,100
                135.6220290121,35.1395326149,100
                135.6222276962,35.1394139851,100
                135.6208438217,35.1388001307,100
                135.6207988965,35.1387616133,100
                135.6204337028,35.1381609612,100
                135.6202220784,35.1378635834,100
                135.6199183337,35.1369673712,100
                135.6195252534,35.1367750492,100
                135.6189680446,35.1369563056,100
                135.6187412669,35.1371115462,100
                135.6180951301,35.1370626591,100
                135.6178860343,35.1371909098,100
                135.617271941,35.1375693908,100
                135.6169362538,35.13801905,100
                135.616090322,35.1384562908,100
                135.6157531505,35.1387508969,100
                135.6153345808,35.1388487373,100
                135.6147013444,35.1388548575,100
                135.6143242711,35.1389601648,100
                135.6139659698,35.1390205859,100
                135.6138875456,35.1390275281,100
                135.6136420538,35.1390230299,100
                135.6136375736,35.1390247257,100
                135.6136158164,35.1390186375,100
                135.6133946658,35.1389944544,100
                135.6133861868,35.1389543894,100
                135.6133796031,35.138952547,100
                135.6133779853,35.1389566082,100
                135.6133721318,35.1389589087,100
                135.613306152,35.1379959168,100
              </coordinates>
            </LinearRing>
          </outerBoundaryIs>
        </Polygon>
      </Placemark>
    </Document>
  </Document>
</kml>
