<?xml version="1.0" encoding="UTF-8"?>
<kml xmlns="http://www.opengis.net/kml/2.2">
  <Document id="root_doc">
    <Document id="_0_25______disv4326">
      <name>40_25弓削disv4326</name>
      <Placemark id="_0_25______disv4326.1">
        <visibility>1</visibility>
        <Polygon>
          <extrude>0</extrude>
          <outerBoundaryIs>
            <LinearRing>
              <coordinates>
                135.6390826673,35.184301504,100
                135.6386741831,35.1835602227,100
                135.638452239,35.1833450249,100
                135.6379353556,35.1830361054,100
                135.6375609986,35.1825265882,100
                135.63752347,35.1823227541,100
                135.6376439867,35.182028319,100
                135.6377604002,35.1818781518,100
                135.6381689004,35.1811176566,100
                135.638576311,35.1806032472,100
                135.6390201142,35.1804080373,100
                135.6396442741,35.1802556151,100
                135.6396419982,35.1802526011,100
                135.6402485653,35.1800826548,100
                135.6406542794,35.1798822763,100
                135.6411684278,35.1796283387,100
                135.639870596,35.1788952595,100
                135.6395855888,35.1787029889,100
                135.6391995593,35.178442563,100
                135.6382249641,35.1786118507,100
                135.6379722494,35.1785766594,100
                135.6377924596,35.178414803,100
                135.6370892761,35.1778508978,100
                135.6370899504,35.1778143149,100
                135.63686546,35.1771862412,100
                135.6367563479,35.1771019005,100
                135.6367483868,35.1770957481,100
                135.6363207908,35.1769991958,100
                135.6361781312,35.1766649323,100
                135.6360144617,35.1762724558,100
                135.6359715388,35.1755938485,100
                135.6359959139,35.1752810917,100
                135.6359992928,35.1752668109,100
                135.635732932,35.1748481189,100
                135.6353456548,35.1745404695,100
                135.6348467112,35.1741639741,100
                135.6345822536,35.1738882414,100
                135.6342243008,35.1736482885,100
                135.6339083999,35.1735815383,100
                135.6335585458,35.1734957548,100
                135.6331953301,35.1734522988,100
                135.6329433441,35.1733325516,100
                135.632567112,35.1730078008,100
                135.6323867191,35.173082981,100
                135.6320735498,35.1728963399,100
                135.6317826281,35.1726457622,100
                135.6313169154,35.1724451371,100
                135.6312537952,35.1723205461,100
                135.6313304334,35.1721233584,100
                135.6307090699,35.1723567631,100
                135.6304950886,35.1725769733,100
                135.6303971148,35.1726343701,100
                135.629937165,35.1733514408,100
                135.630259607,35.1734281382,100
                135.6306053248,35.1734562261,100
                135.6309531034,35.1737592631,100
                135.6311233853,35.1742258287,100
                135.6312252167,35.1746064768,100
                135.6312486469,35.1746940607,100
                135.6308852706,35.1747812855,100
                135.6304067255,35.1748961536,100
                135.6300095106,35.174941619,100
                135.6297138365,35.1749174987,100
                135.6301214255,35.1753487251,100
                135.6301260635,35.1753511039,100
                135.6301251902,35.1753521819,100
                135.6302820042,35.175531304,100
                135.6305265983,35.1758304234,100
                135.6307172154,35.1759247493,100
                135.6308037858,35.1766966555,100
                135.6307004345,35.1771626214,100
                135.6305756876,35.1773693562,100
                135.6303056647,35.1775975132,100
                135.6296790561,35.1775253108,100
                135.6294337698,35.1776237309,100
                135.6287832858,35.1777335461,100
                135.6285281881,35.1773289205,100
                135.6282966359,35.177392362,100
                135.6280367942,35.1774635524,100
                135.6279648041,35.1773587649,100
                135.6278280458,35.1772510761,100
                135.6276054686,35.1771827912,100
                135.6272196165,35.1772778643,100
                135.6268665915,35.177486463,100
                135.6263321489,35.1778442012,100
                135.6254425893,35.1786176246,100
                135.6251645416,35.1791585199,100
                135.6247958214,35.1795981794,100
                135.6243735436,35.1797420123,100
                135.624005036,35.1797751272,100
                135.6239864444,35.1798056438,100
                135.6230461678,35.1797253195,100
                135.622384431,35.1794095971,100
                135.6217088331,35.178765688,100
                135.621287239,35.1794791664,100
                135.6204858452,35.1806452176,100
                135.6208305052,35.1811507203,100
                135.6214675122,35.1815926123,100
                135.6218135391,35.1817974178,100
                135.6221950218,35.1820165861,100
                135.6220705571,35.1821370779,100
                135.6222389495,35.1824117023,100
                135.6220078778,35.1829995913,100
                135.6218297793,35.1840076947,100
                135.6214467595,35.183965927,100
                135.6208833288,35.1839984054,100
                135.6203139673,35.1841264113,100
                135.6202091305,35.1841294821,100
                135.6198417548,35.1841402433,100
                135.6190637023,35.1842820062,100
                135.6190390662,35.1843864911,100
                135.618949296,35.1852821994,100
                135.6186734427,35.1859899494,100
                135.6186231939,35.1862224283,100
                135.6184627954,35.1869644763,100
                135.6181753558,35.1873854206,100
                135.6178791252,35.1875701696,100
                135.6174145287,35.1875957373,100
                135.6169606561,35.1876763232,100
                135.6165310645,35.1877308433,100
                135.6162298099,35.1874846716,100
                135.6149803149,35.1877766172,100
                135.6147069296,35.1886665114,100
                135.6145031351,35.1892106448,100
                135.6144549923,35.1893446514,100
                135.6144333182,35.1904184413,100
                135.6141589767,35.1910855028,100
                135.6138176413,35.191754153,100
                135.6136018167,35.1918970063,100
                135.6135411622,35.1919371535,100
                135.6130457744,35.1918824091,100
                135.6125660002,35.1922653341,100
                135.6123713111,35.1923873171,100
                135.6123614753,35.1923934799,100
                135.6123632069,35.1923965527,100
                135.6118550897,35.1929755667,100
                135.6115961022,35.1929244543,100
                135.6113350646,35.1928729363,100
                135.6111872479,35.193014882,100
                135.6105471191,35.1927658329,100
                135.610053545,35.1933429415,100
                135.6092679235,35.1941408476,100
                135.6092139275,35.19435239,100
                135.6091168867,35.1947325812,100
                135.6089682471,35.1948159297,100
                135.6084649307,35.1948954233,100
                135.6079910026,35.1948247702,100
                135.6074882922,35.1947498251,100
                135.6066869012,35.1949302,100
                135.606155431,35.1951202027,100
                135.6056439519,35.1951542367,100
                135.6050237565,35.1951655868,100
                135.6047927303,35.1951730821,100
                135.604715242,35.1951755967,100
                135.6038748826,35.1957791611,100
                135.6036158319,35.1957515492,100
                135.6033364761,35.1957217731,100
                135.6025778168,35.195194377,100
                135.6015813718,35.1949756635,100
                135.6006772485,35.1947451049,100
                135.6004248096,35.195052036,100
                135.6000378863,35.1951300805,100
                135.5992138425,35.1954446521,100
                135.5983794142,35.1949686175,100
                135.5980257677,35.1949791582,100
                135.5974923675,35.1953650007,100
                135.5966503795,35.195961678,100
                135.5960472709,35.1959957496,100
                135.5955417361,35.1962852486,100
                135.5948783789,35.1965084179,100
                135.5945237675,35.1971454654,100
                135.5935615466,35.197394679,100
                135.5929601421,35.1976116054,100
                135.5929884414,35.197668207,100
                135.5927383976,35.1981014748,100
                135.5922383827,35.1986347558,100
                135.592275902,35.1987930554,100
                135.5925133894,35.1992347054,100
                135.5928258701,35.199684634,100
                135.5933116406,35.2002108459,100
                135.5933258488,35.2002262458,100
                135.5940258053,35.200801199,100
                135.5942258206,35.2008345407,100
                135.5947508126,35.2008262118,100
                135.5951882768,35.2010345007,100
                135.5956382482,35.2013427638,100
                135.5961382213,35.2017510532,100
                135.596400694,35.2021927138,100
                135.5966381424,35.2032342442,100
                135.5967630889,35.2042175134,100
                135.5967439776,35.2044719674,100
                135.5967255551,35.2047174796,100
                135.5966530511,35.2050020404,100
                135.5966130583,35.2051590974,100
                135.5965130088,35.2058673148,100
                135.5962129177,35.2074172267,100
                135.5962504153,35.2078838479,100
                135.5963004202,35.2079921169,100
                135.5965753707,35.2083087436,100
                135.5968128397,35.2087087713,100
                135.5968308598,35.2087605231,100
                135.5969753245,35.2091753831,100
                135.5972252265,35.2101919544,100
                135.5972252191,35.211050157,100
                135.5971751921,35.2112835218,100
                135.5970126687,35.2117584247,100
                135.596787644,35.2121083964,100
                135.5964751775,35.2122334223,100
                135.5962828816,35.212247658,100
                135.5954627189,35.2123083733,100
                135.5952502374,35.2122666788,100
                135.5951752299,35.2122250199,100
                135.5946252729,35.2121000856,100
                135.594436081,35.2121561286,100
                135.5942334549,35.2121446366,100
                135.5939877629,35.2124674026,100
                135.593346137,35.2129004429,100
                135.5928000155,35.2129789529,100
                135.5921401567,35.2130383744,100
                135.5913341219,35.2132038859,100
                135.5912827947,35.2133632676,100
                135.5911778528,35.2134810033,100
                135.5911370829,35.2137089723,100
                135.5912566885,35.2137401342,100
                135.5920391905,35.2138370844,100
                135.5920707999,35.213900877,100
                135.5920002821,35.2139998237,100
                135.5915127612,35.2149413846,100
                135.5908752659,35.2158913107,100
                135.5904127602,35.2162912423,100
                135.5899981877,35.2165192869,100
                135.5897491702,35.2167955665,100
                135.5899127295,35.2180243923,100
                135.5898627405,35.2184076847,100
                135.5896752155,35.2190992534,100
                135.5900751522,35.2195992104,100
                135.5925374528,35.2210324711,100
                135.5926374397,35.221074146,100
                135.5930374156,35.221099151,100
                135.5936124059,35.2210074846,100
                135.5939410498,35.22096626,100
                135.5942322789,35.2210192781,100
                135.5947005883,35.2211352126,100
                135.5955747506,35.221199118,100
                135.5956497641,35.2212324669,100
                135.5957747435,35.2213574646,100
                135.5958747061,35.2221740148,100
                135.5959621865,35.2223240283,100
                135.5968870881,35.2231406468,100
                135.5971120554,35.2234739376,100
                135.5972370293,35.223757246,100
                135.597462021,35.2239822202,100
                135.5979619994,35.224207186,100
                135.5981119873,35.2242488782,100
                135.5989619105,35.2250071184,100
                135.5993743824,35.2251570695,100
                135.6000117994,35.2252820525,100
                135.600699279,35.2253237433,100
                135.6014992219,35.2253153736,100
                135.6020617175,35.225273759,100
                135.6023491794,35.2253904036,100
                135.6036740767,35.2261319863,100
                135.6040990356,35.2265318962,100
                135.6046240134,35.2267236037,100
                135.6052489354,35.2268985187,100
                135.6056489076,35.2270818585,100
                135.6058488855,35.2273568062,100
                135.6059738808,35.2274484794,100
                135.6064863452,35.227523445,100
                135.6069988455,35.2275734784,100
                135.6073613027,35.2277151407,100
                135.6081930682,35.2279742986,100
                135.6097180583,35.2285056128,100
                135.6104360502,35.2286317241,100
                135.6109360239,35.2285733939,100
                135.6110860301,35.2285150696,100
                135.6113860296,35.2281234099,100
                135.6115735269,35.2277984398,100
                135.6121735001,35.2276734523,100
                135.6123916641,35.2276211186,100
                135.6125142252,35.2275400994,100
                135.6125606831,35.2274086252,100
                135.6125011268,35.2262898217,100
                135.6124307242,35.2258807856,100
                135.6125735323,35.2257737035,100
                135.6128234957,35.2256570332,100
                135.612906091,35.2256559549,100
                135.6134609609,35.2256487089,100
                135.6141109192,35.2258653559,100
                135.6155732852,35.2265402858,100
                135.6161357059,35.2267403073,100
                135.616710667,35.2267652913,100
                135.6173481558,35.2265986346,100
                135.6177606229,35.2262820371,100
                135.6181606328,35.2258487768,100
                135.6185606109,35.225540448,100
                135.6185912726,35.2255265298,100
                135.6188730794,35.2253988189,100
                135.6190605838,35.2254404633,100
                135.6191456076,35.2255122733,100
                135.6192480551,35.2255988009,100
                135.6193605073,35.2260070505,100
                135.6194230022,35.2264986673,100
                135.619422996,35.2265642318,100
                135.6194229325,35.2272653052,100
                135.6195058749,35.2309244017,100
                135.6196226938,35.2319231062,100
                135.6199226641,35.2324397621,100
                135.6200476028,35.2331813007,100
                135.6204351123,35.2332063131,100
                135.620985042,35.2331980257,100
                135.6215100139,35.2332229695,100
                135.6218599783,35.2332646925,100
                135.6229473513,35.2332663775,100
                135.6238789527,35.2333194043,100
                135.6242298985,35.2334082373,100
                135.6245347743,35.2336229877,100
                135.6248722076,35.234222917,100
                135.6251471683,35.2345228566,100
                135.6254721311,35.2346728748,100
                135.6258661683,35.2346979618,100
                135.6268470616,35.2345728725,100
                135.6272470172,35.2346645944,100
                135.6276094939,35.2348895122,100
                135.628589277,35.2355521707,100
                135.628947277,35.2357351693,100
                135.6297465022,35.2359362001,100
                135.6297592561,35.2359394075,100
                135.6298467653,35.2361560871,100
                135.6298222462,35.2363848205,100
                135.6297592272,35.2369726776,100
                135.6297716944,35.2373642802,100
                135.6299216677,35.2376726359,100
                135.629946676,35.2380808969,100
                135.6299091504,35.2382725508,100
                135.6296556887,35.2387209524,100
                135.6295841651,35.2388475001,100
                135.6293466415,35.2389807953,100
                135.6286967178,35.2392141038,100
                135.6286217153,35.2393974035,100
                135.6287341783,35.2400807303,100
                135.6289466312,35.2403639957,100
                135.6289841321,35.2406389798,100
                135.628821627,35.2410639227,100
                135.6288091083,35.2413055838,100
                135.6291965519,35.2414472637,100
                135.6292785023,35.2416050653,100
                135.6293090467,35.2416638826,100
                135.6293090099,35.2421805219,100
                135.6294214952,35.2429554724,100
                135.6292589602,35.2442053054,100
                135.6290089445,35.2449468953,100
                135.6289964266,35.2453385627,100
                135.6292463605,35.2459051936,100
                135.6295999659,35.2462907952,100
                135.6301212927,35.2465134481,100
                135.6301536142,35.2465613471,100
                135.6302337669,35.2466801353,100
                135.6301462698,35.2470050942,100
                135.6301337445,35.2473050678,100
                135.630233715,35.2475883415,100
                135.630321222,35.247705021,100
                135.6306336624,35.2486132622,100
                135.6308461149,35.2490632223,100
                135.6313328929,35.2495161983,100
                135.6333708954,35.2507077696,100
                135.633783343,35.2509047976,100
                135.6346332298,35.2516797147,100
                135.6348457292,35.2518297283,100
                135.6353081853,35.2520380326,100
                135.6357956415,35.2523296538,100
                135.6361705858,35.2526796695,100
                135.6363955449,35.252962963,100
                135.6364830534,35.2531879541,100
                135.6364830019,35.2541712171,100
                135.6364204753,35.2546961125,100
                135.6364454779,35.2550960571,100
                135.6367271589,35.2556286767,100
                135.6373586276,35.2563681944,100
                135.637907824,35.2567625957,100
                135.6380802623,35.2568315647,100
                135.6385952495,35.2570376166,100
                135.6388702286,35.2572125972,100
                135.6393076755,35.2578041985,100
                135.6396326506,35.2579791857,100
                135.6400451103,35.2580292181,100
                135.6406825689,35.2579375901,100
                135.6410450411,35.2578459176,100
                135.6426074201,35.257396026,100
                135.6430698957,35.2572543597,100
                135.6436448498,35.2571460515,100
                135.6440073234,35.257146063,100
                135.6443322932,35.2573877299,100
                135.6444697839,35.2577293401,100
                135.6447697231,35.2585376385,100
                135.6449072097,35.2587875556,100
                135.6458196142,35.2592625691,100
                135.6463195573,35.2596874944,100
                135.6466445164,35.259870844,100
                135.6472444633,35.2598875268,100
                135.6479069152,35.2598708687,100
                135.6484818788,35.2598875442,100
                135.6489193478,35.2600459345,100
                135.6493943079,35.2603209149,100
                135.6498067659,35.2604709187,100
                135.6499192456,35.2604708929,100
                135.6503317293,35.2602958867,100
                135.6505692254,35.2600709336,100
                135.650819197,35.2599793303,100
                135.6509476917,35.2600485067,100
                135.6511441828,35.2601542891,100
                135.6512316769,35.2601542607,100
                135.6519191327,35.2599126458,100
                135.6519441013,35.2606292881,100
                135.6521065661,35.2610125851,100
                135.6521940558,35.2610792471,100
                135.6526565306,35.261195864,100
                135.6531314973,35.2612625839,100
                135.653568938,35.2617792027,100
                135.6543938513,35.2622291758,100
                135.6547975071,35.2625154032,100
                135.6549188027,35.2627957519,100
                135.6549687882,35.2630207555,100
                135.6550562772,35.2631791051,100
                135.6553562407,35.2633124274,100
                135.6555687288,35.2633290908,100
                135.6557437329,35.2632457161,100
                135.6560475843,35.2629672841,100
                135.6563687227,35.2622958711,100
                135.6566187013,35.2620959474,100
                135.6568936769,35.2620459539,100
                135.6573561404,35.2620459295,100
                135.6578311202,35.2621626301,100
                135.6581810815,35.2621626352,100
                135.6588685498,35.2620042981,100
                135.6592310178,35.2618627151,100
                135.6597185034,35.2615044395,100
                135.6598809882,35.2611627724,100
                135.6599185222,35.2606461715,100
                135.6601934897,35.2604212305,100
                135.6605184742,35.2602879117,100
                135.6607803995,35.2603125885,100
                135.6609336344,35.260370906,100
                135.6612093793,35.2604949202,100
                135.6614975903,35.260578755,100
                135.6617156312,35.2605541513,100
                135.6619705475,35.2605196497,100
                135.6622102855,35.2604498931,100
                135.6624070895,35.2603649457,100
                135.6625299117,35.2603552169,100
                135.6627921168,35.2604162999,100
                135.663472261,35.2607300987,100
                135.6635432324,35.2607545216,100
                135.6642306699,35.2605295896,100
                135.6646931359,35.2604379089,100
                135.6651556069,35.2603962981,100
                135.665293101,35.2602796331,100
                135.6654930933,35.259971374,100
                135.6658431041,35.2591297837,100
                135.6660238692,35.258782668,100
                135.6663632077,35.2585580345,100
                135.6667656722,35.2584116737,100
                135.6671466397,35.2583520146,100
                135.6672979284,35.2583769382,100
                135.6675179902,35.2584131768,100
                135.6684054014,35.2586798392,100
                135.6690928487,35.2585715745,100
                135.6693053439,35.2587215237,100
                135.6695303065,35.2589465084,100
                135.6699177785,35.2590882001,100
                135.6704677381,35.2590132167,100
                135.6709802079,35.2588132666,100
                135.6728300803,35.2582050284,100
                135.6734800154,35.2581134017,100
                135.6740549839,35.2581800235,100
                135.6746049184,35.258296717,100
                135.6751298772,35.2582717187,100
                135.675492361,35.258113393,100
                135.6757423503,35.257680112,100
                135.6762048351,35.2570302124,100
                135.6765548302,35.2568969207,100
                135.6771922584,35.2569136237,100
                135.6775797238,35.2570302221,100
                135.6780283521,35.2571231085,100
                135.6784026834,35.2571094558,100
                135.6786971713,35.2570079117,100
                135.6790546138,35.256780335,100
                135.6792296187,35.2567136851,100
                135.6795045874,35.2567386395,100
                135.679917043,35.256980299,100
                135.6800545413,35.2570303115,100
                135.6803025652,35.2570299816,100
                135.680542009,35.2569136394,100
                135.680841982,35.256780344,100
                135.6811169632,35.2567803652,100
                135.6813169291,35.2569387119,100
                135.6813669238,35.2570470146,100
                135.6816169097,35.2572969726,100
                135.6820293666,35.2574803146,100
                135.6830417717,35.2576552981,100
                135.6840916808,35.2578803011,100
                135.6845791448,35.2578803052,100
                135.6849666079,35.2578137042,100
                135.6853540916,35.2576303387,100
                135.6856540847,35.2573804057,100
                135.6864165783,35.2561888997,100
                135.6869165338,35.2559639166,100
                135.6890289116,35.2552889707,100
                135.6893555409,35.2551626902,100
                135.6895038751,35.255147365,100
                135.6898788559,35.2551973371,100
                135.6901320201,35.2553508727,100
                135.6902663152,35.2555556565,100
                135.6903537732,35.2561222292,100
                135.690403768,35.2562055983,100
                135.6907037385,35.2562722788,100
                135.6909391502,35.2562640035,100
                135.6911942618,35.2561773258,100
                135.6913695471,35.2560058657,100
                135.6916584556,35.2558132146,100
                135.6919661808,35.2557306829,100
                135.6922161615,35.255688991,100
                135.6932035803,35.2558723357,100
                135.6937035204,35.2561139533,100
                135.6949659258,35.2567222821,100
                135.6953533864,35.2570138944,100
                135.695790849,35.257263869,100
                135.6962283001,35.2572638361,100
                135.696753268,35.2572221885,100
                135.6973032246,35.2572139109,100
                135.6976531945,35.2572638672,100
                135.6982031461,35.2574889005,100
                135.698403131,35.2575305243,100
                135.6987906018,35.257713883,100
                135.6991155738,35.2579138461,100
                135.6994780521,35.2579138267,100
                135.6999155196,35.2576888456,100
                135.7001905176,35.2574638858,100
                135.7005396584,35.2572961504,100
                135.7011537254,35.257137517,100
                135.701915401,35.2570139621,100
                135.7024715957,35.2570664514,100
                135.7031123544,35.2572395704,100
                135.7036527739,35.2575056113,100
                135.7043159643,35.257911527,100
                135.7052335432,35.2586570752,100
                135.7064688155,35.2602382503,100
                135.7070090781,35.2612230851,100
                135.7071480693,35.2613492653,100
                135.7073024321,35.2613551996,100
                135.7075274154,35.2613134857,100
                135.7079148949,35.2610135666,100
                135.7083523719,35.2608802469,100
                135.7087898474,35.2607052352,100
                135.7092273235,35.2606802945,100
                135.7103522377,35.2607219231,100
                135.711127193,35.2608552494,100
                135.7121646123,35.2611052514,100
                135.7125270854,35.2613552673,100
                135.7129052834,35.2617860974,100
                135.7133770004,35.2619135518,100
                135.713676986,35.2620301768,100
                135.7138519498,35.2624301019,100
                135.7138519462,35.2625717946,100
                135.7139519442,35.2628634422,100
                135.7141269201,35.2629050521,100
                135.7147768812,35.262946722,100
                135.7149738446,35.263085356,100
                135.7152387954,35.2634997855,100
                135.7154012646,35.2636441126,100
                135.7156514892,35.2637886438,100
                135.7159758957,35.2642315222,100
                135.7162257657,35.2644788702,100
                135.7164385281,35.2645821849,100
                135.7169147484,35.2646244232,100
                135.7170273626,35.2646863772,100
                135.7174262868,35.2653350609,100
                135.717588813,35.2654588209,100
                135.7177892561,35.2655004141,100
                135.7182140747,35.2653798496,100
                135.7189640227,35.2651298934,100
                135.7194328728,35.2651135124,100
                135.7198589021,35.2651761873,100
                135.7210733794,35.2656313825,100
                135.7215990738,35.2658793521,100
                135.7218512833,35.2659381695,100
                135.7222508904,35.2659014067,100
                135.7235557287,35.2655959178,100
                135.72432057,35.2655668037,100
                135.7250916724,35.2655325575,100
                135.7257429208,35.2657293786,100
                135.7261682482,35.2659976606,100
                135.7265056017,35.266337717,100
                135.726954721,35.266996688,100
                135.7272559632,35.2677242006,100
                135.7283921478,35.2674433523,100
                135.7294316598,35.2665348086,100
                135.730543669,35.2660919834,100
                135.7317773253,35.2661756185,100
                135.7321973896,35.266014639,100
                135.7322574691,35.2646587015,100
                135.7320391509,35.2635044783,100
                135.7317645339,35.2629949253,100
                135.731381732,35.2622180189,100
                135.7311872025,35.2613471567,100
                135.7312655125,35.2600518797,100
                135.7314898638,35.2593641906,100
                135.7311962206,35.2586145852,100
                135.7313472037,35.2577242653,100
                135.7319926349,35.2565516456,100
                135.7327357684,35.2556829037,100
                135.7329590556,35.2553190886,100
                135.7327631092,35.2548732984,100
                135.7322945528,35.2547912836,100
                135.7312840988,35.2539625669,100
                135.7308668315,35.2532936757,100
                135.7305217249,35.2531917158,100
                135.7302025461,35.2527052292,100
                135.7300558871,35.2522798279,100
                135.7296868584,35.2519551333,100
                135.7288502064,35.2512650991,100
                135.7283263509,35.2502811551,100
                135.7282333892,35.2502689509,100
                135.7258605857,35.2496786211,100
                135.7255855691,35.2497645394,100
                135.7246126381,35.2472617986,100
                135.723325509,35.2447242438,100
                135.7232857652,35.2446929725,100
                135.7232275662,35.2446898232,100
                135.7221168495,35.2448046937,100
                135.7217858664,35.2446703769,100
                135.7216992702,35.2446071032,100
                135.7216239009,35.2446030234,100
                135.7191846737,35.2432624123,100
                135.7184620757,35.2421772293,100
                135.7151515182,35.2405595663,100
                135.7138575098,35.2407764741,100
                135.7123761857,35.2405124618,100
                135.7106594002,35.2406562196,100
                135.7080621521,35.2424420565,100
                135.7064504277,35.243001568,100
                135.7051376173,35.2426278974,100
                135.7010142614,35.2434227974,100
                135.7004644549,35.243534122,100
                135.6986850276,35.2433629541,100
                135.697643833,35.243534343,100
                135.696614843,35.2433663489,100
                135.6965906847,35.2433747647,100
                135.6961792301,35.2435808517,100
                135.6957523044,35.243895903,100
                135.6956656658,35.2442189898,100
                135.6957878582,35.2453415766,100
                135.6955985594,35.2454231302,100
                135.6954908861,35.2457715892,100
                135.6953125889,35.2460885629,100
                135.6950001309,35.2461932434,100
                135.6923024173,35.2462197753,100
                135.6922137621,35.246127605,100
                135.6922362031,35.2460331398,100
                135.6921871694,35.2460599816,100
                135.691960925,35.245573486,100
                135.6915584417,35.2453660346,100
                135.6903892099,35.2453918971,100
                135.6895886224,35.2457005315,100
                135.6892922851,35.245677729,100
                135.6888881087,35.2456656356,100
                135.6885176055,35.2456536262,100
                135.6882618715,35.2455812065,100
                135.688033368,35.2454370229,100
                135.6875760876,35.2452205567,100
                135.6873611907,35.2450433066,100
                135.6871971095,35.244867335,100
                135.6870635766,35.2441195441,100
                135.6864065872,35.2440348846,100
                135.686320608,35.2439533298,100
                135.685764346,35.2439521206,100
                135.6850872838,35.2442929044,100
                135.6841368717,35.243133896,100
                135.6841749749,35.2417962772,100
                135.6838064745,35.2410453259,100
                135.6836210528,35.2404048268,100
                135.6829749927,35.2398325297,100
                135.6826392191,35.2391483654,100
                135.6822964853,35.2385615358,100
                135.6822715241,35.2379133422,100
                135.6818833847,35.2374210415,100
                135.6817286114,35.2365327254,100
                135.6818606394,35.2362790679,100
                135.6817814082,35.2358738287,100
                135.6817528863,35.2354099354,100
                135.6817474358,35.2350786425,100
                135.681762218,35.2347418393,100
                135.6817632678,35.2344712697,100
                135.6817438889,35.2342559298,100
                135.6817611013,35.23394777,100
                135.6817669735,35.233842667,100
                135.6818593166,35.233580578,100
                135.6825285854,35.2319034773,100
                135.6826546872,35.2316907133,100
                135.682950305,35.2314328907,100
                135.6836783769,35.2309462158,100
                135.6837987523,35.2307842711,100
                135.68385251,35.2302336309,100
                135.6840349813,35.2299222091,100
                135.6841425967,35.2293635965,100
                135.683687418,35.2286015918,100
                135.6836922347,35.2273522091,100
                135.68349698,35.2269920243,100
                135.6829934338,35.2267203596,100
                135.6822166994,35.2265397534,100
                135.6819919293,35.2264273848,100
                135.6816399608,35.225971232,100
                135.6815106077,35.2259005789,100
                135.6806391815,35.2259703979,100
                135.6804130032,35.2259382505,100
                135.6800457863,35.2254523045,100
                135.6795487836,35.2252887298,100
                135.6788737051,35.2254338754,100
                135.6775048802,35.2249868304,100
                135.6768216283,35.2246449449,100
                135.6755978315,35.2240072776,100
                135.6737134069,35.2221614971,100
                135.6736857026,35.2221315212,100
                135.6729825686,35.2223387639,100
                135.6728895977,35.2222168087,100
                135.6728280164,35.2216838868,100
                135.6729337253,35.2213178981,100
                135.6729861905,35.2211362342,100
                135.6731338194,35.2202036352,100
                135.6727967923,35.2193274237,100
                135.6727905651,35.2192696381,100
                135.6727650148,35.2190325675,100
                135.6731365694,35.2186874217,100
                135.6735262389,35.218482046,100
                135.6736265806,35.2178332823,100
                135.6733017601,35.2174781393,100
                135.6738131259,35.2162229173,100
                135.6718709129,35.2147341015,100
                135.671051795,35.2141061694,100
                135.6705482997,35.2134022592,100
                135.6702896413,35.2131604373,100
                135.6697455055,35.2129741101,100
                135.6697531238,35.2129386593,100
                135.6699324127,35.2121044147,100
                135.6698447024,35.2118475292,100
                135.6698605064,35.2112469232,100
                135.6698430299,35.2108520097,100
                135.6699010144,35.2103506394,100
                135.6699723896,35.2097334706,100
                135.6702068961,35.2092589619,100
                135.6702617664,35.2091479823,100
                135.670505588,35.2087039911,100
                135.6706988673,35.2080308434,100
                135.6706638004,35.2078158652,100
                135.670648324,35.2077209682,100
                135.6695079596,35.2051317899,100
                135.669427648,35.2049494361,100
                135.6694203883,35.203755029,100
                135.6683301976,35.2031246576,100
                135.6676683275,35.2022250241,100
                135.6670912296,35.2020864225,100
                135.6674220973,35.2012003298,100
                135.6673218124,35.2005046861,100
                135.6672728825,35.2004364127,100
                135.666607586,35.1995080166,100
                135.666556982,35.1994613711,100
                135.6654427622,35.1984342892,100
                135.6647640159,35.1981748712,100
                135.6643592315,35.1981329399,100
                135.6643553158,35.1981360338,100
                135.6639537341,35.1983197121,100
                135.6633580412,35.1981720257,100
                135.663047091,35.1981198028,100
                135.662872967,35.198162423,100
                135.6627982117,35.1981807203,100
                135.6622118683,35.1986303636,100
                135.6618499049,35.1987916099,100
                135.6616906875,35.1987875592,100
                135.6613861832,35.1985974081,100
                135.6608989934,35.1982372764,100
                135.6608131501,35.1981745698,100
                135.6604939029,35.1979413741,100
                135.6602124889,35.1980108957,100
                135.6596724471,35.1980999473,100
                135.6594484835,35.1981998522,100
                135.6591942162,35.1980783463,100
                135.6591068811,35.1980279412,100
                135.6581458043,35.1974732393,100
                135.6579411201,35.1973618556,100
                135.6578510735,35.1973128553,100
                135.6572830112,35.1966027282,100
                135.6567559482,35.1965922224,100
                135.6561517512,35.1966445954,100
                135.6560234079,35.1966117801,100
                135.655590684,35.1963644619,100
                135.6552312658,35.1961813519,100
                135.6547140307,35.1961843867,100
                135.6543435193,35.1963743175,100
                135.6541961877,35.1963348571,100
                135.6540252428,35.1960768522,100
                135.653559247,35.1958940317,100
                135.6530238499,35.195961415,100
                135.6525140973,35.1960263347,100
                135.651861244,35.1959394796,100
                135.6517793662,35.1960326643,100
                135.6516417098,35.1963204524,100
                135.6511472245,35.1964502067,100
                135.650537076,35.1964484489,100
                135.6500542252,35.1963629159,100
                135.6500200274,35.1963454533,100
                135.6499192609,35.1963180123,100
                135.6495421305,35.1962357535,100
                135.649342841,35.1961278508,100
                135.6490094285,35.1959599341,100
                135.6488900494,35.1958875366,100
                135.6488600991,35.1958773105,100
                135.6488395552,35.1958703253,100
                135.6485541418,35.1956724129,100
                135.6473533614,35.1951895359,100
                135.6464214071,35.1950223517,100
                135.6463450386,35.1950221144,100
                135.6462744947,35.1949981271,100
                135.6462715171,35.1949886025,100
                135.6462254812,35.194980195,100
                135.6460691772,35.1948437944,100
                135.6459447301,35.1946079608,100
                135.6459362822,35.1943318224,100
                135.6459356665,35.1940743564,100
                135.6459424891,35.1940392552,100
                135.6457716629,35.1931790823,100
                135.6457510317,35.1923548148,100
                135.6459469682,35.1924074022,100
                135.6454450389,35.1921167996,100
                135.6454027642,35.1911435899,100
                135.6455399531,35.190308183,100
                135.6455810533,35.1902144157,100
                135.6458929867,35.1895027496,100
                135.64585625,35.1883973675,100
                135.645727563,35.1881913314,100
                135.6455100171,35.1878430365,100
                135.6452620449,35.1869070849,100
                135.645225659,35.1868848325,100
                135.6451298253,35.1864736547,100
                135.6450353421,35.1864352711,100
                135.6434089614,35.1857745379,100
                135.6426981801,35.1853532944,100
                135.6424566521,35.1850938769,100
                135.6415436534,35.1849695054,100
                135.6415428072,35.1849714539,100
                135.6410465002,35.1849139582,100
                135.6401697539,35.1852872715,100
                135.6397671321,35.1852777993,100
                135.6397596008,35.1852776219,100
                135.6396408743,35.1852045822,100
                135.6393217668,35.1848610966,100
                135.6390826673,35.184301504,100
              </coordinates>
            </LinearRing>
          </outerBoundaryIs>
        </Polygon>
      </Placemark>
    </Document>
  </Document>
</kml>
